Name,Full Address,Street,City,Postcode,State,Country,Amenity,Healthcare,Phone,Website,Opening Hours,Latitude,Longitude
Salmanyia Medical Complex,Unknown,Unknown,Unknown,Unknown,Unknown,Unknown,hospital,hospital,Unknown,Unknown,Unknown,26.2171501,50.5717556
Ministry of Health Phsyciatric Hospital,Unknown,Unknown,Unknown,Unknown,Unknown,Unknown,hospital,hospital,Unknown,Unknown,Unknown,26.2175185,50.5672168
Bahrain Down's Syndrome Care Centre,Unknown,Unknown,Unknown,Unknown,Unknown,Unknown,Unknown,yes,Unknown,Unknown,Unknown,26.2108596,50.5908358
Kims Bahrain Medical Centre,Unknown,Unknown,Unknown,Unknown,Unknown,Unknown,hospital,hospital,Unknown,Unknown,Unknown,26.2028806,50.5959675
Kingdom Ayurvedic Centre,Unknown,Unknown,Unknown,Unknown,Unknown,Unknown,Unknown,centre,Unknown,Unknown,Unknown,26.2041128,50.5973363
Al Reaya Medical Complex,Unknown,Unknown,Unknown,Unknown,Unknown,Unknown,hospital,hospital,Unknown,Unknown,Unknown,26.2190001,50.5746636
Unknown,Unknown,Unknown,Unknown,Unknown,Unknown,Unknown,pharmacy,pharmacy,Unknown,Unknown,Unknown,26.1464015,50.5778206
Unknown,Unknown,Unknown,مدينة عيسى,Unknown,Unknown,Unknown,pharmacy,pharmacy,Unknown,Unknown,Unknown,26.1672532,50.5633268
Nutriton Center,Unknown,2825,Unknown,Unknown,Unknown,Unknown,clinic,clinic,17564870,https://www.drnutrition.com/,Sa-Th 10:00-22:00; Fr 15:30-22:00,26.2324649,50.534926
New cardiac hospital,Unknown,Awali,Unknown,Unknown,Unknown,Unknown,hospital,Unknown,Unknown,Unknown,Unknown,26.0909223,50.5516222
al hayia pharmacy,Unknown,Al-Doha Avenue,Unknown,Unknown,Unknown,Unknown,pharmacy,Unknown,Unknown,Unknown,24/7,26.1692443,50.5571851
مستشفى ابن النفيس,Unknown,Unknown,Unknown,Unknown,Unknown,Unknown,hospital,hospital,Unknown,Unknown,Unknown,26.2052,50.5793
Unknown,Unknown,3709,Unknown,Unknown,Unknown,Unknown,pharmacy,pharmacy,Unknown,Unknown,Unknown,26.2027264,50.5961238
Al Maraya Pharmacy - صيدلية المرايا,Unknown,Unknown,Kawara Village / Tubli Village,Unknown,Unknown,Unknown,pharmacy,Unknown,Unknown,Unknown,24/7,26.1805381,50.5474595
مركز الهلال متعدد التخصصات الطبية,Unknown,Unknown,Unknown,Unknown,Unknown,Unknown,hospital,hospital,17495555,Unknown,Unknown,26.11949,50.5659431
Seef Dental,Unknown,3621,Unknown,Unknown,Unknown,Unknown,dentist,dentist,Unknown,Unknown,Unknown,26.2354657,50.5327144
Al Turki Medical Est.,Unknown,Unknown,Unknown,Unknown,Unknown,Unknown,doctors,doctor,Unknown,Unknown,Unknown,26.2366458,50.5958939
Snow White,Unknown,Unknown,Unknown,Unknown,Unknown,Unknown,dentist,dentist,Unknown,Unknown,Unknown,26.2367818,50.5961422
Rula Pharmacy,Unknown,Palace Avenue,Unknown,Unknown,Unknown,Unknown,pharmacy,pharmacy,Unknown,Unknown,Unknown,26.2275851,50.5882383
Al Danah Pharmacy,Unknown,1805,Unknown,Unknown,Unknown,Unknown,pharmacy,Unknown,Unknown,Unknown,Unknown,26.2363167,50.5903316
Al Jishi Specialist Dental Centre,Unknown,1805,Unknown,Unknown,Unknown,Unknown,dentist,dentist,Unknown,Unknown,Unknown,26.2337378,50.5940459
Al Jazeera Medical Center,Unknown,Unknown,Unknown,Unknown,Unknown,Unknown,clinic,Unknown,Unknown,Unknown,Unknown,26.1779846,50.551363
Awal Pharmacy,Unknown,Unknown,Unknown,Unknown,Unknown,Unknown,pharmacy,Unknown,Unknown,Unknown,Unknown,26.1243586,50.5651388
Manama Pharmacy,Unknown,Government Avenue,Unknown,Unknown,Unknown,Unknown,pharmacy,pharmacy,Unknown,Unknown,Unknown,26.2320189,50.5718345
Al Hayat Dental Clinic,Unknown,Unknown,Unknown,Unknown,Unknown,Unknown,dentist,dentist,Unknown,Unknown,Unknown,26.2318523,50.5716145
Al Hamad Dental Clinic,Unknown,Government Avenue,Unknown,Unknown,Unknown,Unknown,dentist,dentist,Unknown,Unknown,Unknown,26.2307346,50.5704315
Al Alawi Dental Technologies,Unknown,1224 Road,Unknown,Unknown,Unknown,Unknown,dentist,dentist,Unknown,Unknown,Unknown,26.2211389,50.5648816
Dr. Sahera Clinic,Unknown,Shela Avenue,Unknown,Unknown,Unknown,Unknown,doctors,doctor,Unknown,Unknown,Unknown,26.2179597,50.5317049
Al-Hekma Pharmacy,Unknown,Budaiya Highway,Unknown,Unknown,Unknown,Unknown,pharmacy,pharmacy,Unknown,Unknown,Unknown,26.2200864,50.5341968
AlRazi Pharmacy,Unknown,Avenue 14,Unknown,Unknown,Unknown,Unknown,pharmacy,pharmacy,Unknown,Unknown,Unknown,26.2209664,50.5361044
Doctor Aljamea Dental Centre,Unknown,Unknown,Unknown,Unknown,Unknown,Unknown,dentist,dentist,Unknown,Unknown,Unknown,26.2104328,50.5339289
Doctor Yusuf Alhusta Clinic,Unknown,Unknown,Unknown,Unknown,Unknown,Unknown,clinic,clinic,Unknown,Unknown,Unknown,26.2105073,50.5339576
Unknown,Unknown,Unknown,Unknown,Unknown,Unknown,Unknown,dentist,dentist,Unknown,Unknown,Unknown,26.2006938,50.5580957
Dr. Harraz Pediatric Clinic,Unknown,Highway 35,Unknown,Unknown,Unknown,Unknown,clinic,clinic,Unknown,Unknown,Unknown,26.2076805,50.5676421
Atlas Pharmacy,Unknown,Budaiya Highway,Unknown,Unknown,Unknown,Unknown,pharmacy,pharmacy,Unknown,Unknown,Unknown,26.2146421,50.4655398
Happy Pharmacy,Unknown,2103,Unknown,Unknown,Unknown,Unknown,pharmacy,pharmacy,Unknown,Unknown,Unknown,26.2291558,50.5895938
Gulf Pharmacy,Unknown,Unknown,Unknown,Unknown,Unknown,Unknown,pharmacy,pharmacy,Unknown,Unknown,Unknown,26.2006787,50.5604041
Dr. Ali Mattar,Unknown,Sheikh Duaij Avenue,Unknown,Unknown,Unknown,Unknown,dentist,dentist,Unknown,Unknown,Unknown,26.2244271,50.595616
صيدلية سار,Unknown,شارع سار,سار,Unknown,Unknown,Unknown,pharmacy,pharmacy,Unknown,Unknown,Unknown,26.1961649,50.4864575
Unknown,Unknown,Avenue 59,Unknown,Unknown,Unknown,Unknown,pharmacy,pharmacy,Unknown,Unknown,Unknown,26.2165202,50.4468093
Behzad Pharmacy,Unknown,2153,Unknown,Unknown,Unknown,Unknown,pharmacy,Unknown,Unknown,Unknown,Unknown,26.2243812,50.5894156
Kims Bahrain Medical Center,Unknown,Unknown,Unknown,Unknown,Unknown,Unknown,clinic,clinic,Unknown,Unknown,Unknown,26.2025985,50.5960004
Salma Pharmacy,Unknown,Unknown,Unknown,Unknown,Unknown,Unknown,pharmacy,pharmacy,Unknown,Unknown,Unknown,26.2026832,50.5960319
Support Medical,Unknown,Budaiya Highway,Unknown,Unknown,Unknown,Unknown,clinic,Unknown,Unknown,Unknown,Unknown,26.2202645,50.5015297
Dejlah Pharmacy,Unknown,2901,Unknown,Unknown,Unknown,Unknown,pharmacy,Unknown,Unknown,Unknown,Unknown,26.1204604,50.579987
Yuissf Engineer,Unknown,Unknown,Unknown,Unknown,Unknown,Unknown,hospital,Unknown,Unknown,Unknown,Unknown,26.1727368,50.5498538
The Specialist Medical Centre,Unknown,3221,Unknown,Unknown,Unknown,Unknown,clinic,clinic,Unknown,Unknown,Unknown,26.211753,50.5760916
Al Bader Pharmacy,Unknown,Unknown,Unknown,Unknown,Unknown,Unknown,pharmacy,pharmacy,Unknown,Unknown,Unknown,26.2165304,50.5681184
Al Hakeem Medical Complex,Unknown,2901,Unknown,Unknown,Unknown,Unknown,clinic,clinic,Unknown,Unknown,Unknown,26.2163831,50.5681509
Alwatan Pharmacy,Unknown,Avenue 55,Unknown,Unknown,Unknown,Unknown,pharmacy,Unknown,Unknown,Unknown,Unknown,26.0478567,50.4882737
CIC Specialist Medical,Unknown,3953,Unknown,Unknown,Unknown,Unknown,clinic,Unknown,Unknown,Unknown,Unknown,26.1387914,50.5774703
Jaffar Pharmacy,Unknown,5043,Unknown,Unknown,Unknown,Unknown,pharmacy,pharmacy,Unknown,Unknown,Unknown,26.2189804,50.5136884
Delmon Dental Center,Unknown,5043,Unknown,Unknown,Unknown,Unknown,dentist,dentist,Unknown,Unknown,Unknown,26.2190949,50.5134785
Haffadh Specialised Dental Hospital,Unknown,5122,Unknown,Unknown,Unknown,Unknown,dentist,dentist,Unknown,Unknown,Unknown,26.2266108,50.5554013
Al Razi Pharmacy,Unknown,Avenue 48,Unknown,Unknown,Unknown,Unknown,pharmacy,Unknown,Unknown,Unknown,Unknown,26.0925975,50.4886587
Al-Andalos Pharmacy,Unknown,Shaikh Mohammed Ahmed Salman Avenue,Unknown,Unknown,Unknown,Unknown,pharmacy,Unknown,Unknown,Unknown,Unknown,26.1337995,50.5537556
Makkah Pharmacy,Unknown,Sheikh Hamad Avenue,Unknown,Unknown,Unknown,Unknown,pharmacy,Unknown,Unknown,Unknown,Unknown,26.1276285,50.5435455
Al Ghareeb Medical Center,Unknown,Unknown,Unknown,Unknown,Unknown,Unknown,clinic,Unknown,Unknown,Unknown,Unknown,26.1380122,50.5663871
Nasser,Unknown,Unknown,Unknown,Unknown,Unknown,Unknown,pharmacy,pharmacy,Unknown,Unknown,Unknown,26.1632483,50.4726141
Unknown,Unknown,Unknown,Unknown,Unknown,Unknown,Unknown,dentist,dentist,Unknown,Unknown,Unknown,26.1312057,50.4975146
Dar Al Shifa Pharmacy,Unknown,371,Unknown,Unknown,Unknown,Unknown,pharmacy,Unknown,Unknown,Unknown,Unknown,26.1402043,50.498548
Al RabeehDental Center,Unknown,305,Unknown,Unknown,Unknown,Unknown,dentist,dentist,Unknown,Unknown,Unknown,26.1434483,50.4956888
Hamad Town Pharmacy,Unknown,305,Unknown,Unknown,Unknown,Unknown,pharmacy,pharmacy,Unknown,Unknown,Unknown,26.1436981,50.4934601
Riffa Pharmacy,Unknown,Shaikh Mohammed Ahmed Salman Avenue,Unknown,Unknown,Unknown,Unknown,pharmacy,Unknown,Unknown,Unknown,Unknown,26.1303738,50.5540258
Unknown,Unknown,Unknown,Unknown,Unknown,Unknown,Unknown,pharmacy,Unknown,Unknown,Unknown,Unknown,26.1272643,50.576018
AL Etihad Pharmacy,Unknown,Mashtan Avenue,Unknown,Unknown,Unknown,Unknown,pharmacy,Unknown,Unknown,Unknown,Unknown,26.1353549,50.5559061
Dr. A. Saheb Ahmed,Unknown,Shaikh Isa Avenue,Unknown,Unknown,Unknown,Unknown,doctors,doctor,Unknown,Unknown,Unknown,26.2286634,50.581884
Marina Pharmacy,Unknown,Baineh Avenue,Unknown,Unknown,Unknown,Unknown,pharmacy,Unknown,Unknown,Unknown,Unknown,26.1262239,50.5728966
Tariq Pharmacy,Unknown,Shaikh Isa Avenue,Unknown,Unknown,Unknown,Unknown,pharmacy,pharmacy,Unknown,Unknown,Unknown,26.2285327,50.5821589
Unknown,Unknown,Unknown,Unknown,Unknown,Unknown,Unknown,pharmacy,pharmacy,Unknown,Unknown,Unknown,26.1244994,50.5681735
Unknown,Unknown,طريق 1315,Unknown,Unknown,Unknown,Unknown,pharmacy,pharmacy,Unknown,Unknown,Unknown,26.1311745,50.5585675
Cigalah Pharmacy,Unknown,1315,Unknown,Unknown,Unknown,Unknown,pharmacy,Unknown,Unknown,Unknown,Unknown,26.1320976,50.5586851
Unknown,Unknown,Unknown,Unknown,Unknown,Unknown,Unknown,pharmacy,Unknown,Unknown,Unknown,Unknown,26.1862788,50.3182385
Emergency Stand,Unknown,شارع قلعة البحرين,Unknown,Unknown,Unknown,Unknown,hospital,hospital,Unknown,Unknown,Unknown,26.2206272,50.5242161
Unknown,Unknown,Unknown,Unknown,Unknown,Unknown,Unknown,pharmacy,pharmacy,Unknown,Unknown,Unknown,26.2090976,50.5758126
Tulip medical centre,Unknown,Unknown,Unknown,Unknown,Unknown,Unknown,hospital,hospital,Unknown,Unknown,Unknown,26.2310093,50.5495542
aster clinic,Unknown,Unknown,Unknown,Unknown,Unknown,Unknown,hospital,Unknown,Unknown,Unknown,Unknown,26.1553023,50.5677716
عيادة نبيل تمام البحرين,Unknown,Unknown,Unknown,Unknown,Unknown,Unknown,hospital,hospital,Unknown,Unknown,Unknown,26.2260268,50.5535577
Boots,Unknown,Unknown,Unknown,Unknown,Unknown,Unknown,pharmacy,pharmacy,Unknown,Unknown,Unknown,26.2478566,50.5860558
Middle East Hospital,Unknown,Unknown,Unknown,Unknown,Unknown,Unknown,hospital,hospital,Unknown,Unknown,Unknown,26.2163662,50.5770939
Dragon Alternative Medicine SPC,Unknown,Unknown,Unknown,Unknown,Unknown,Unknown,Unknown,alternative,Unknown,Unknown,Unknown,26.2172988,50.5870341
American Mission Hospital,Unknown,Unknown,Unknown,Unknown,Unknown,Unknown,hospital,hospital,Unknown,Unknown,Unknown,26.2313424,50.5825579
Shifa Al Jazeera Hospital,Unknown,Unknown,Unknown,Unknown,Unknown,Unknown,hospital,hospital,Unknown,Unknown,Unknown,26.2338828,50.5830788
Unknown,Unknown,Unknown,Unknown,Unknown,Unknown,Unknown,hospital,hospital,Unknown,Unknown,Unknown,26.2183121,50.5859059
Covid Test Centre,Unknown,Unknown,Unknown,Unknown,Unknown,Unknown,Unknown,laboratory,Unknown,Unknown,Unknown,26.1826752,50.3293373
AlSalam Specialist Hospital,Unknown,Road 39,Riffa,941,Unknown,Unknown,hospital,hospital,+97313101010,https://www.alsalam.care/,Unknown,26.1543126,50.5686026
Evexia Hospital,Unknown,طريق 5803,Zinj 358,Unknown,Unknown,Unknown,hospital,hospital,13666444,https://www.evexiadaysurgery.com/,Unknown,26.2147643,50.5626468
