Name,Full Address,Street,City,Postcode,State,Country,Amenity,Healthcare,Phone,Website,Opening Hours,Latitude,Longitude
Nikos Nouris,Unknown,Unknown,Unknown,Unknown,Unknown,Unknown,pharmacy,pharmacy,Unknown,Unknown,Unknown,35.1679325,33.3716706
Ferekkidis,Unknown,Unknown,Unknown,Unknown,Unknown,Unknown,pharmacy,Unknown,Unknown,Unknown,Unknown,35.1758664,33.3763099
Unknown,Unknown,Unknown,Unknown,Unknown,Unknown,Unknown,pharmacy,Unknown,Unknown,Unknown,"Mo-Tu,Th-Fr 08:00-13:00,16:00-18:30; We 08:00-13:00; Sa 09:00-13:00",34.7479508,32.4261611
Unknown,Unknown,Unknown,Unknown,Unknown,Unknown,Unknown,pharmacy,pharmacy,Unknown,Unknown,Unknown,35.1689129,33.3561703
Karaolidou Pitsa,Unknown,Unknown,Unknown,Unknown,Unknown,Unknown,pharmacy,Unknown,Unknown,Unknown,Unknown,34.7772912,32.4201515
Unknown,Unknown,Unknown,Unknown,Unknown,Unknown,Unknown,pharmacy,Unknown,Unknown,Unknown,Unknown,34.7729467,32.4254824
Unknown,Unknown,Unknown,Unknown,Unknown,Unknown,Unknown,pharmacy,Unknown,Unknown,Unknown,Unknown,34.7733759,32.429312
Takis Nikolaou,Unknown,Unknown,Unknown,Unknown,Unknown,Unknown,pharmacy,pharmacy,Unknown,Unknown,Unknown,35.1691848,33.3689247
Χριστοφίδου Γαλάτεια,Unknown,Unknown,Unknown,Unknown,Unknown,Unknown,pharmacy,Unknown,Unknown,Unknown,Unknown,34.7603441,32.4528298
Unknown,Unknown,Unknown,Unknown,Unknown,Unknown,Unknown,pharmacy,Unknown,Unknown,Unknown,Unknown,34.7803737,32.4337583
Ktenas,Unknown,Unknown,Unknown,Unknown,Unknown,Unknown,pharmacy,pharmacy,Unknown,Unknown,Unknown,35.1632214,33.3608301
Unknown,Unknown,Unknown,Unknown,Unknown,Unknown,Unknown,pharmacy,pharmacy,Unknown,Unknown,Unknown,35.1664133,33.3698345
Marina Kitsa,Unknown,Kyriakou Matsi Avenue,Unknown,Unknown,Unknown,Unknown,pharmacy,pharmacy,Unknown,Unknown,Unknown,35.1601174,33.3561229
Unknown,Unknown,Unknown,Unknown,Unknown,Unknown,Unknown,pharmacy,pharmacy,Unknown,Unknown,Unknown,35.1763835,33.3780056
Φαρμακείο Αριέττα Ζάννη,Unknown,Unknown,Unknown,Unknown,Unknown,Unknown,pharmacy,pharmacy,Unknown,Unknown,Unknown,35.1549622,33.3984189
Ntina Hliadou,Unknown,Unknown,Unknown,Unknown,Unknown,Unknown,pharmacy,pharmacy,Unknown,Unknown,Unknown,35.1726008,33.3781171
Anastasia Papageorgiou,Unknown,Λεωφόρος Σταυρού,Strovolos,Unknown,Unknown,Unknown,pharmacy,pharmacy,Unknown,Unknown,Unknown,35.1354804,33.3536713
Unknown,Unknown,Unknown,Unknown,Unknown,Unknown,Unknown,pharmacy,pharmacy,Unknown,Unknown,Unknown,35.1668183,33.3610584
Ktoridis Christos,Unknown,Leoforos Arch. Makariou III,Unknown,Unknown,Unknown,Unknown,pharmacy,pharmacy,Unknown,Unknown,Unknown,35.1686133,33.3591981
Unknown,Unknown,Unknown,Unknown,Unknown,Unknown,Unknown,pharmacy,pharmacy,Unknown,Unknown,Unknown,35.1663903,33.3621313
Pambos Tsaggaridis,Unknown,Unknown,Unknown,Unknown,Unknown,Unknown,pharmacy,Unknown,Unknown,Unknown,Unknown,35.1468854,33.3289018
Sivia Kitalianou,Unknown,Kyriakou Matsi Avenue,Engomi,Unknown,Unknown,Unknown,pharmacy,pharmacy,Unknown,Unknown,Unknown,35.1682242,33.3323685
Unknown,Unknown,Unknown,Unknown,Unknown,Unknown,Unknown,pharmacy,pharmacy,Unknown,Unknown,Unknown,35.0095727,33.8935033
Tsaggaris Loukas,Unknown,Unknown,Unknown,Unknown,Unknown,Unknown,pharmacy,pharmacy,Unknown,Unknown,Unknown,35.1641618,33.3514678
Unknown,Unknown,Unknown,Unknown,Unknown,Unknown,Unknown,pharmacy,pharmacy,Unknown,Unknown,Unknown,35.1518207,33.3735262
Unknown,Unknown,Unknown,Unknown,Unknown,Unknown,Unknown,pharmacy,pharmacy,Unknown,Unknown,Unknown,35.1649958,33.3665654
Unknown,Unknown,Unknown,Unknown,Unknown,Unknown,Unknown,pharmacy,pharmacy,Unknown,Unknown,Unknown,35.1642427,33.3675292
Iakobidis,Unknown,Unknown,Unknown,Unknown,Unknown,Unknown,pharmacy,pharmacy,Unknown,Unknown,Unknown,35.1675087,33.365229
SEK,Unknown,Unknown,Unknown,Unknown,Unknown,Unknown,pharmacy,pharmacy,Unknown,Unknown,Unknown,35.1669633,33.3655288
Unknown,Unknown,Unknown,Unknown,Unknown,Unknown,Unknown,pharmacy,pharmacy,Unknown,Unknown,Unknown,35.1663404,33.3665045
Xarilaos Pavlou,Unknown,Unknown,Unknown,Unknown,Unknown,Unknown,pharmacy,pharmacy,Unknown,Unknown,Unknown,35.1661194,33.3580708
Unknown,Unknown,Unknown,Unknown,Unknown,Unknown,Unknown,pharmacy,pharmacy,Unknown,Unknown,Unknown,35.1659799,33.359518
Meri Papadopoullou,Unknown,Unknown,Unknown,Unknown,Unknown,Unknown,pharmacy,pharmacy,Unknown,Unknown,Unknown,35.1643652,33.3582767
Unknown,Unknown,Unknown,Unknown,Unknown,Unknown,Unknown,pharmacy,pharmacy,Unknown,Unknown,Unknown,35.1638445,33.3589284
Unknown,Unknown,Unknown,Unknown,Unknown,Unknown,Unknown,pharmacy,pharmacy,Unknown,Unknown,Unknown,35.1675693,33.367843
Unknown,Unknown,Unknown,Unknown,Unknown,Unknown,Unknown,pharmacy,pharmacy,Unknown,Unknown,Unknown,35.1663111,33.3689008
Papanikolaou,Unknown,Unknown,Unknown,Unknown,Unknown,Unknown,pharmacy,pharmacy,Unknown,Unknown,Unknown,35.1621087,33.3581289
Karpasia Pharmacy,Unknown,John Kennedy Avenue,Unknown,Unknown,Unknown,Unknown,pharmacy,pharmacy,Unknown,Unknown,Unknown,35.1596051,33.3613945
Kyproulla Christodoulou,Unknown,Unknown,Unknown,Unknown,Unknown,Unknown,pharmacy,pharmacy,Unknown,Unknown,Unknown,35.1590857,33.368528
Soula Georgiou,Unknown,Unknown,Unknown,Unknown,Unknown,Unknown,pharmacy,pharmacy,Unknown,Unknown,Unknown,35.169204,33.3564011
Unknown,Unknown,Unknown,Unknown,Unknown,Unknown,Unknown,pharmacy,pharmacy,Unknown,Unknown,Unknown,35.1724433,33.3762399
Peter,Unknown,Unknown,Unknown,Unknown,Unknown,Unknown,pharmacy,pharmacy,Unknown,Unknown,Unknown,35.1702466,33.373838
Papariou E.,Unknown,Unknown,Unknown,Unknown,Unknown,Unknown,pharmacy,Unknown,Unknown,Unknown,Unknown,35.1794303,33.3829274
Unknown,Unknown,Unknown,Unknown,Unknown,Unknown,Unknown,pharmacy,pharmacy,Unknown,Unknown,Unknown,35.1656228,33.3731771
Eleni Christou,Unknown,Kantaras,Unknown,Unknown,Unknown,Unknown,pharmacy,pharmacy,Unknown,Unknown,Unknown,35.1827011,33.3865071
Unknown,Unknown,Keryneias Av.,Unknown,Unknown,Unknown,Unknown,pharmacy,pharmacy,Unknown,Unknown,Unknown,35.1485848,33.3851813
Chara Nicolaou Pharmacy,Unknown,Keryneias Av.,Unknown,Unknown,Unknown,Unknown,pharmacy,pharmacy,Unknown,Unknown,Unknown,35.1489019,33.386499
Φαρμακείο Γεωργίου-Τίφα Κατερίνα,Unknown,Unknown,Unknown,Unknown,Unknown,Unknown,pharmacy,pharmacy,Unknown,Unknown,Unknown,35.1490787,33.390495
Despoina,Unknown,Unknown,Unknown,Unknown,Unknown,Unknown,pharmacy,pharmacy,Unknown,Unknown,Unknown,35.142962,33.3665681
Mattheos Pharmacy,Unknown,Armenias,Unknown,Unknown,Unknown,Unknown,pharmacy,pharmacy,Unknown,Unknown,Unknown,35.1530386,33.3671737
Maria Efthimiou,Unknown,Unknown,Unknown,Unknown,Unknown,Unknown,pharmacy,pharmacy,Unknown,Unknown,Unknown,35.1611125,33.3748105
Τάνια Τσιτόγλου,Unknown,Unknown,Unknown,Unknown,Unknown,Unknown,pharmacy,pharmacy,Unknown,Unknown,Unknown,35.1444184,33.3633169
Unknown,Unknown,Unknown,Unknown,Unknown,Unknown,Unknown,pharmacy,pharmacy,Unknown,Unknown,Unknown,35.145641,33.3589697
Royal Artemis Clinic,Unknown,Pavlou Krinaiou,Unknown,8035,Unknown,Unknown,hospital,hospital,+35726961600,Unknown,Unknown,34.7670182,32.4428588
Katia,Unknown,Unknown,Unknown,Unknown,Unknown,Unknown,pharmacy,Unknown,Unknown,Unknown,Unknown,34.7765007,32.4273216
Ikaros,Unknown,Unknown,Unknown,Unknown,Unknown,Unknown,pharmacy,Unknown,Unknown,https://www.facebook.com/pharmacyikaros,Unknown,34.780675,32.4303898
Chrystalla Chajzigiagkou-Patsalou Pharmacy,Unknown,Νεοφύτου Νικολαΐδη,Unknown,8011,Unknown,Unknown,pharmacy,Unknown,Unknown,Unknown,Unknown,34.774703,32.4278881
Makariou,Unknown,Unknown,Unknown,Unknown,Unknown,Unknown,pharmacy,Unknown,Unknown,Unknown,Unknown,34.7845093,32.4242121
Papageorgiou,Unknown,Unknown,Unknown,Unknown,Unknown,Unknown,pharmacy,Unknown,Unknown,Unknown,"Mo-Fr 09:00-13:30,15:00-18:30; Sa 09:00-13:30",34.7774877,32.4296562
Maria Taliotou,Unknown,Unknown,Unknown,Unknown,Unknown,Unknown,pharmacy,Unknown,Unknown,Unknown,Unknown,34.775831,32.4373895
Unknown,Unknown,Unknown,Unknown,Unknown,Unknown,Unknown,pharmacy,Unknown,Unknown,Unknown,Unknown,34.7743928,32.4383165
Socratous,Unknown,Unknown,Unknown,Unknown,Unknown,Unknown,pharmacy,Unknown,Unknown,Unknown,Unknown,34.7635559,32.4180175
Panagiotou,Unknown,Unknown,Unknown,Unknown,Unknown,Unknown,pharmacy,pharmacy,Unknown,Unknown,Unknown,34.788489,32.4334553
Tselepou,Unknown,Unknown,Unknown,Unknown,Unknown,Unknown,pharmacy,Unknown,Unknown,Unknown,Unknown,34.7835998,32.4412605
Eleni Mavrikou Pharmacy,Unknown,Voriou Ipirou,Πάφος,8036,Unknown,Unknown,pharmacy,Unknown,Unknown,Unknown,Unknown,34.7627123,32.438634
Dora Hadjicharalambous,Unknown,Unknown,Unknown,Unknown,Unknown,Unknown,pharmacy,Unknown,+35726822627,https://www.facebook.com/kdthechemists,"Mo,Tu,Th,Fr 08:00-13:30,15:00-18:30;We 08:00-13:30;Sa 08:30-13:30",34.7896972,32.4345268
Eva,Unknown,Unknown,Unknown,Unknown,Unknown,Unknown,pharmacy,pharmacy,Unknown,Unknown,Unknown,35.1381883,33.3472663
Vera Miou,Unknown,Strovolou Avenue,Unknown,Unknown,Unknown,Unknown,pharmacy,pharmacy,Unknown,Unknown,Unknown,35.1406047,33.338664
Unknown,Unknown,Unknown,Unknown,Unknown,Unknown,Unknown,hospital,Unknown,Unknown,Unknown,Unknown,34.6832942,32.6070789
Unknown,Unknown,Unknown,Unknown,Unknown,Unknown,Unknown,hospital,Unknown,Unknown,Unknown,Unknown,35.0389172,32.424585
C. Constandinou,Unknown,Unknown,Unknown,Unknown,Unknown,Unknown,pharmacy,Unknown,Unknown,Unknown,Unknown,34.7024725,33.1063404
Christos Christides,Unknown,Unknown,Unknown,Unknown,Unknown,Unknown,pharmacy,pharmacy,Unknown,Unknown,"Mo,Tu,Th-Sa 08:30-13:00,15:00-18:30",34.69226,33.0353603
Paediatrician Toumpas,Unknown,Unknown,Unknown,Unknown,Unknown,Unknown,doctors,doctor,Unknown,Unknown,Unknown,34.684667,33.0307797
Andri Kinni,Unknown,Ayia Paraskevi,Germasogeia,4044,Unknown,Unknown,pharmacy,pharmacy,Unknown,Unknown,Unknown,34.7154696,33.0859662
Pavlos,Unknown,Unknown,Unknown,Unknown,Unknown,Unknown,pharmacy,Unknown,Unknown,Unknown,Unknown,34.6717508,32.9362897
Violetta Papadopoulou,Unknown,Unknown,Unknown,Unknown,Unknown,Unknown,dentist,dentist,+357-25348191,Unknown,Unknown,34.6804989,33.0519513
Maro Constantinou,Unknown,Unknown,Unknown,Unknown,Unknown,Unknown,pharmacy,Unknown,Unknown,Unknown,Unknown,34.6755446,32.9168146
Unknown,Unknown,Unknown,Unknown,Unknown,Unknown,Unknown,pharmacy,Unknown,Unknown,Unknown,Unknown,34.709276,33.0564631
Laiko Pharmakio No 4,Unknown,Unknown,Unknown,Unknown,Unknown,Unknown,pharmacy,Unknown,Unknown,Unknown,Unknown,34.708871,33.0539638
Elena Dimou,Unknown,Unknown,Unknown,Unknown,Unknown,Unknown,pharmacy,Unknown,Unknown,Unknown,Unknown,34.6735134,32.92252
Dr Christofi,Unknown,Unknown,Unknown,Unknown,Unknown,Unknown,doctors,doctor,+357-25385858,Unknown,Unknown,34.6923051,33.0307165
Antonis Papamiltiadous,Unknown,Ayias Filaxeos,Limassol,Unknown,Unknown,Unknown,pharmacy,pharmacy,+357-25388938,Unknown,Unknown,34.6849975,33.0378201
Unknown,Unknown,Pekinou,Limassol,Unknown,Unknown,Unknown,doctors,doctor,+357-99629942,Unknown,Unknown,34.6815878,33.0344751
Marios Demetriou,Unknown,Unknown,Unknown,Unknown,Unknown,Unknown,pharmacy,pharmacy,+357-25339191,Unknown,Unknown,34.6918311,33.030999
Kyriakos Kyriakou,Unknown,Unknown,Unknown,Unknown,Unknown,Unknown,pharmacy,Unknown,Unknown,Unknown,Unknown,34.7468994,33.1584972
Christos Panage,Unknown,Unknown,Unknown,Unknown,Unknown,Unknown,pharmacy,Unknown,Unknown,Unknown,Mo-Sa 08:00-20:00,34.7450883,33.1560103
Unknown,Unknown,Unknown,Unknown,Unknown,Unknown,Unknown,pharmacy,Unknown,Unknown,Unknown,Unknown,34.766886,32.4107409
Ιωάννα Τσικκίνη,Unknown,Unknown,Unknown,Unknown,Unknown,Unknown,pharmacy,pharmacy,Unknown,Unknown,Unknown,34.6904701,33.0738781
Mediterranean Hospital of Cyprus,Unknown,Unknown,Unknown,Unknown,Unknown,Unknown,hospital,hospital,Unknown,https://www.medihospital.com.cy/,Unknown,34.7051803,33.0282632
Dr M Karaiskakis,Unknown,Unknown,Unknown,Unknown,Unknown,Unknown,doctors,doctor,Unknown,Unknown,Unknown,34.7051833,33.0298052
George Midas Fertility House,Unknown,Unknown,Unknown,Unknown,Unknown,Unknown,doctors,doctor,+357-25-740355,Unknown,Unknown,34.6808377,33.0355136
Κοτζιαμάνης Βιοδιαγνωστική,Unknown,Unknown,Unknown,Unknown,Unknown,Unknown,doctors,doctor,Unknown,https://kotziamanis.com.cy/,Mo-Fr 08:00-19:00,34.6822446,33.0333895
Dr Charis Mavros,Unknown,Unknown,Unknown,Unknown,Unknown,Unknown,doctors,doctor,Unknown,Unknown,Unknown,34.6877884,33.0349285
Unknown,Unknown,Unknown,Unknown,Unknown,Unknown,Unknown,pharmacy,Unknown,Unknown,Unknown,Unknown,34.7593036,32.412373
Unknown,Unknown,Unknown,Unknown,Unknown,Unknown,Unknown,pharmacy,pharmacy,Unknown,Unknown,Unknown,34.9154812,33.6342541
Unknown,Unknown,Unknown,Unknown,Unknown,Unknown,Unknown,pharmacy,pharmacy,Unknown,Unknown,"Mo,Tu,Th,Fr 09:00-13:30,15:00-18:00;We,Sa 09:00-13:30",34.9155225,33.6353046
Unknown,Unknown,Unknown,Unknown,Unknown,Unknown,Unknown,pharmacy,pharmacy,Unknown,Unknown,Unknown,34.9177659,33.6362913
Unknown,Unknown,Unknown,Unknown,Unknown,Unknown,Unknown,pharmacy,pharmacy,Unknown,Unknown,Unknown,34.9925764,33.7785572
Dr. Andreas Liveris,Unknown,Orpheus,Unknown,Unknown,Unknown,Unknown,doctors,doctor,+35722375573,Unknown,"""by appointment""",35.1625888,33.3671768
Unknown,Unknown,Unknown,Unknown,Unknown,Unknown,Unknown,pharmacy,Unknown,Unknown,Unknown,Unknown,34.6759792,32.6979589
Dr. Kleopatra Savva,Unknown,Unknown,Unknown,Unknown,Unknown,Unknown,hospital,Unknown,Unknown,Unknown,Unknown,34.698362,33.0791844
Marios Loizou Pharmacy,Unknown,Unknown,Unknown,Unknown,Unknown,Unknown,pharmacy,pharmacy,Unknown,Unknown,Unknown,35.0161663,34.0512153
Unknown,Unknown,Unknown,Unknown,Unknown,Unknown,Unknown,pharmacy,Unknown,Unknown,Unknown,Unknown,35.01103,34.0570326
Alexandrou K.,Unknown,Unknown,Unknown,Unknown,Unknown,Unknown,pharmacy,Unknown,Unknown,Unknown,Unknown,35.017589,34.0480353
Dr. Krayem Ahmad,Unknown,Unknown,Unknown,Unknown,Unknown,Unknown,doctors,doctor,Unknown,Unknown,Unknown,35.0174444,34.0486937
Doctor 24/7,Unknown,Cavo Greco,Unknown,5296,Unknown,Unknown,doctors,doctor,+357 99 053476; +357 99 053825; +357 24 030584,Unknown,Unknown,35.017199,34.0463315
Unknown,Unknown,Unknown,Unknown,Unknown,Unknown,Unknown,pharmacy,Unknown,Unknown,Unknown,Unknown,34.9888674,33.9836713
Unknown,Unknown,Unknown,Unknown,Unknown,Unknown,Unknown,pharmacy,pharmacy,Unknown,Unknown,Unknown,34.6582782,33.0020233
Gabriel,Unknown,Unknown,Unknown,Unknown,Unknown,Unknown,pharmacy,Unknown,Unknown,Unknown,Unknown,35.0352877,32.4247273
Pharmacy Sofia Roedes,Unknown,Unknown,Unknown,Unknown,Unknown,Unknown,pharmacy,Unknown,Unknown,Unknown,Mo-Sa 08:00-01:30,34.7627709,32.4170501
Unknown,Unknown,Unknown,Unknown,Unknown,Unknown,Unknown,pharmacy,Unknown,Unknown,Unknown,Unknown,34.7765893,32.4430501
Dr. Sotiris Attipas,Unknown,Unknown,Unknown,Unknown,Unknown,Unknown,doctors,doctor,Unknown,Unknown,Unknown,34.7052479,33.0305554
Yianna,Unknown,Unknown,Unknown,Unknown,Unknown,Unknown,pharmacy,Unknown,Unknown,Unknown,Unknown,34.7088631,33.1258597
Grigoris Grigoriou,Unknown,Kosti Palama,Unknown,4001,Unknown,Unknown,pharmacy,pharmacy,+357 25 754111; +357 99 518413,Unknown,"Mo-Sa 08:00-13:30, Mo-Tu Th-Fr 15:00-18:30",34.6950754,33.0405986
Unknown,Unknown,Unknown,Unknown,Unknown,Unknown,Unknown,pharmacy,Unknown,Unknown,Unknown,Unknown,35.064738,33.3883622
Dr. Antonis Glykeriou,Unknown,Unknown,Unknown,Unknown,Unknown,Unknown,doctors,doctor,Unknown,Unknown,Unknown,35.1664389,33.3584837
Dora Theophilou,Unknown,Unknown,Unknown,Unknown,Unknown,Unknown,pharmacy,pharmacy,Unknown,Unknown,"Mo,Tu,Th,Fr 08:15-13:30,15:00-18:30; We,Sa 08:15-13:30",34.6949524,33.0869902
Stelios Xouvartas,Unknown,Unknown,Unknown,Unknown,Unknown,Unknown,pharmacy,pharmacy,Unknown,Unknown,Unknown,34.6946201,33.0809256
Gianna Agilopolou,Unknown,Griva Digeni,Unknown,3106,Unknown,Unknown,pharmacy,pharmacy,Unknown,Unknown,Unknown,34.6889336,33.0573463
Λούης Παρί Ιωάννου,Unknown,Δωδεκανήσου,Unknown,3021,Unknown,Unknown,pharmacy,pharmacy,Unknown,Unknown,Unknown,34.6810349,33.0352637
Christoforou Nearchos,Unknown,Ammochostou,Unknown,3075,Unknown,Unknown,pharmacy,pharmacy,Unknown,Unknown,Unknown,34.685698,33.0312541
Damianou Pavlos,Unknown,Omonias Ave,Unknown,3052,Unknown,Unknown,pharmacy,pharmacy,Unknown,Unknown,Unknown,34.6666046,33.0141995
Charalambous Elena,Unknown,Panagias Evangelistrias,Unknown,4156,Unknown,Unknown,pharmacy,Unknown,Unknown,Unknown,Unknown,34.6937082,33.0014536
Athinodorou Athinodoros,Unknown,Georgiou Neofytou,Unknown,4006,Unknown,Unknown,pharmacy,pharmacy,Unknown,Unknown,Unknown,34.6968317,33.0600343
Aspros Dimetris,Unknown,Archiepiskopou Leontiou I,Unknown,3022,Unknown,Unknown,pharmacy,pharmacy,Unknown,Unknown,Unknown,34.6798928,33.0355928
Costantopoulos Costas,Unknown,Thessalonikis,Unknown,3026,Unknown,Unknown,pharmacy,pharmacy,Unknown,Unknown,Unknown,34.6812868,33.04247
Efstathinou Charalambos,Unknown,Ellados,Unknown,3041,Unknown,Unknown,pharmacy,pharmacy,Unknown,Unknown,Unknown,34.6772724,33.0415688
Ieridis Michalakis,Unknown,Nikou kai Despoinas Pattichi,Unknown,3071,Unknown,Unknown,pharmacy,pharmacy,Unknown,Unknown,Unknown,34.6844045,33.0288175
Michaelidou Kiki,Unknown,Αγίας Ζώνης,Unknown,3026,Unknown,Unknown,pharmacy,pharmacy,Unknown,Unknown,Unknown,34.6808369,33.0431995
Constantinou Louiza,Unknown,Georgiou Neofytou,Unknown,4006,Unknown,Unknown,pharmacy,pharmacy,Unknown,Unknown,Unknown,34.6954897,33.0632158
Mamiliou Eleni C,Unknown,Unknown,Unknown,Unknown,Unknown,Unknown,pharmacy,pharmacy,Unknown,Unknown,Unknown,34.6857644,33.0530528
Unknown,Unknown,Unknown,Unknown,Unknown,Unknown,Unknown,pharmacy,pharmacy,Unknown,Unknown,Unknown,34.7016643,33.0769269
Νικολας Ταντελες,Unknown,Unknown,Unknown,Unknown,Unknown,Unknown,pharmacy,Unknown,Unknown,Unknown,Mo-Fr 08:30-19:30,34.8488933,33.5754522
Κόστος Ευγγελου,Unknown,Alexandroupoleos,Unknown,Unknown,Unknown,Unknown,pharmacy,pharmacy,Unknown,Unknown,Unknown,35.1442923,33.3402183
Dr. Chrystalla Demetriou Eleftheriade,Unknown,Unknown,Unknown,Unknown,Unknown,Unknown,doctors,doctor,Unknown,Unknown,Unknown,34.8825953,32.3806056
Unknown,Unknown,Unknown,Unknown,Unknown,Unknown,Unknown,pharmacy,Unknown,Unknown,Unknown,Unknown,34.8462645,33.5727544
Unknown,Unknown,Unknown,Unknown,Unknown,Unknown,Unknown,pharmacy,Unknown,Unknown,Unknown,Unknown,34.6553637,32.9743388
Unknown,Unknown,Leoforos Omonoias,Unknown,Unknown,Unknown,Unknown,pharmacy,pharmacy,Unknown,Unknown,Unknown,34.6713968,33.0120604
Unknown,Unknown,Unknown,Unknown,Unknown,Unknown,Unknown,pharmacy,pharmacy,Unknown,Unknown,Unknown,34.673923,33.0110676
Unknown,Unknown,Unknown,Unknown,Unknown,Unknown,Unknown,pharmacy,Unknown,Unknown,Unknown,Unknown,34.9864391,34.0075547
Unknown,Unknown,Unknown,Unknown,Unknown,Unknown,Unknown,pharmacy,pharmacy,Unknown,Unknown,Unknown,34.9188184,33.6364721
Akçiçek Hastanesi,Unknown,Unknown,Unknown,Unknown,Unknown,Unknown,hospital,hospital,+90 392 8152266,Unknown,Unknown,35.3375774,33.3254814
Unknown,Unknown,Unknown,Unknown,Unknown,Unknown,Unknown,pharmacy,Unknown,Unknown,Unknown,Unknown,34.9503086,33.3004869
Βιοραμα,Unknown,Unknown,Unknown,Unknown,Unknown,Unknown,pharmacy,Unknown,Unknown,Unknown,Unknown,34.972271,33.2484968
Fotini Vasilopoulou,Unknown,Unknown,Unknown,Unknown,Unknown,Unknown,pharmacy,pharmacy,Unknown,Unknown,Unknown,34.6865556,33.0595218
Λιλης,Unknown,Unknown,Unknown,Unknown,Unknown,Unknown,pharmacy,pharmacy,Unknown,Unknown,Unknown,35.062381,33.9621743
Δοξούλα Γεωργίου,Unknown,Unknown,Unknown,Unknown,Unknown,Unknown,pharmacy,Unknown,Unknown,Unknown,Unknown,35.0343818,32.4278194
Viktoria Kosmina,Unknown,Unknown,Unknown,Unknown,Unknown,Unknown,dentist,dentist,99490515,Unknown,Unknown,34.6862351,33.058754
Dr.Sonia Heracleous,Unknown,Unknown,Unknown,Unknown,Unknown,Unknown,dentist,dentist,Unknown,Unknown,Unknown,34.6815566,33.0406524
VW's Osteopathy,Unknown,Unknown,Unknown,Unknown,Unknown,Unknown,hospital,Unknown,Unknown,Unknown,Unknown,34.990746,33.6581588
Unknown,Unknown,Unknown,Unknown,Unknown,Unknown,Unknown,pharmacy,Unknown,Unknown,Unknown,Unknown,34.974963,33.6776016
Unknown,Unknown,Unknown,Unknown,Unknown,Unknown,Unknown,pharmacy,Unknown,Unknown,Unknown,Unknown,34.9868503,34.0002436
Petinos Pharmacy,Unknown,Oktovriou 1,Unknown,Unknown,Unknown,Unknown,pharmacy,Unknown,23723192,Unknown,Unknown,34.9871547,34.0029479
Enver Eczanesi,Unknown,Unknown,Unknown,Unknown,Unknown,Unknown,pharmacy,pharmacy,Unknown,Unknown,Unknown,35.2050563,33.3294019
Unknown,Unknown,Unknown,Unknown,Unknown,Unknown,Unknown,pharmacy,Unknown,Unknown,Unknown,Unknown,35.2852981,33.2788857
Yanki Eczanesi,Unknown,Unknown,Unknown,Unknown,Unknown,Unknown,pharmacy,Unknown,Unknown,Unknown,Unknown,35.3309098,33.334144
Medicalport Tunççevik Hastanesi,Unknown,Kurtuluş Caddesi,Unknown,Unknown,Unknown,Unknown,hospital,hospital,+90 392 815 08 00,https://www.medicalporttunccevik.com/,24/7,35.3288047,33.3363362
Aşar Eczanesi,Unknown,Unknown,Unknown,Unknown,Unknown,Unknown,pharmacy,Unknown,Unknown,Unknown,Unknown,35.3385429,33.3231056
Tören Eczanesi,Unknown,Unknown,Unknown,Unknown,Unknown,Unknown,pharmacy,Unknown,Unknown,Unknown,Unknown,35.3395947,33.320293
Türkan Şentip Eczanesi,Unknown,Öğretmenler Caddesi,Unknown,Unknown,Unknown,Unknown,pharmacy,pharmacy,Unknown,Unknown,Unknown,35.1990373,33.32797
Unknown,Unknown,Dr. Burhan Nalbantoğlu Caddesi,Unknown,Unknown,Unknown,Unknown,pharmacy,pharmacy,Unknown,Unknown,Unknown,35.2048448,33.3316249
Özyol Eczanesi,Unknown,Yavuz Konnolu Sokak,Unknown,Unknown,Unknown,Unknown,pharmacy,pharmacy,Unknown,Unknown,Unknown,35.2011562,33.3289198
Güven Eczanesi,Unknown,Unknown,Unknown,Unknown,Unknown,Unknown,pharmacy,Unknown,Unknown,Unknown,Unknown,35.3321883,33.3124401
Χειρούργος Οδοντίατρος,Unknown,Unknown,Unknown,Unknown,Unknown,Unknown,dentist,dentist,Unknown,Unknown,Unknown,34.882712,32.3814138
Peyia Medical Centre,Unknown,Michalaki Kyprianou Avenue,Unknown,8560,Unknown,Unknown,hospital,Unknown,+357 26 600 805,www.peyiamedical.com,"Mo-Fr 08:30-18:30, Sa 9:00-14:00",34.8749967,32.3791597
Χριστιάνα Χριοστοφή,Unknown,Unknown,Unknown,Unknown,Unknown,Unknown,pharmacy,pharmacy,Unknown,Unknown,"Mo,Tu,Th,Fr 09:00-18:00; We,Sa 09:00-14:00",34.8750301,32.3792626
Unknown,Unknown,Unknown,Unknown,Unknown,Unknown,Unknown,hospital,Unknown,Unknown,Unknown,Unknown,34.9880621,33.9938154
Antoniou Pharmacy,Unknown,Unknown,Unknown,Unknown,Unknown,Unknown,pharmacy,Unknown,Unknown,Unknown,Unknown,35.1059291,33.4161039
Andri Pastelidou,Unknown,Unknown,Unknown,Unknown,Unknown,Unknown,pharmacy,pharmacy,Unknown,Unknown,Unknown,35.153806,33.3666921
Κυριάκος Δημητριάδης MD Msc,Unknown,Psaron,Έγκωμη Λευκωσίας,2402,Unknown,Unknown,hospital,hospital,00357 22 353000,https://www.dkorthosurgery.com,24/7,35.1651975,33.330411
Petrovich Medical Center,Unknown,Αγίας Ζώνης,Limassol,3509,Unknown,Unknown,doctors,doctor,+357 25343833,https://petrovichmc.com/,Unknown,34.682574,33.0440735
Dr Michael Tsapparilas,Unknown,Unknown,Unknown,Unknown,Unknown,Unknown,doctors,doctor,+357 23 820 020,Unknown,"PH,Mo-Su 08:45-22:45",35.0301012,34.0396191
Unknown,Unknown,Unknown,Unknown,Unknown,Unknown,Unknown,pharmacy,pharmacy,Unknown,Unknown,Unknown,35.0302681,34.0375975
Solomou Ourania,Unknown,Pythonos,Unknown,Unknown,Unknown,Unknown,pharmacy,pharmacy,22313123,Unknown,Unknown,35.1415192,33.3409575
Ιάσονας Χατζηγεωργίου,Unknown,Unknown,Unknown,Unknown,Unknown,Unknown,clinic,clinic,Unknown,Unknown,Unknown,35.1409664,33.3382017
Health Advisor Cyprus Medical Office,Unknown,Souliou,Λευκωσία - Lefkoşa,2363,Unknown,Unknown,hospital,hospital,+35722103605,Unknown,Unknown,35.1738967,33.3385283
Unknown,Unknown,Unknown,Unknown,Unknown,Unknown,Unknown,pharmacy,pharmacy,Unknown,Unknown,Unknown,34.6805456,33.034946
Aphinu p. Leonidu,Unknown,16 Iouniou 1943,Unknown,Unknown,Unknown,Unknown,pharmacy,pharmacy,Unknown,Unknown,Unknown,34.6779265,33.037955
Nikolas Nikolaou,Unknown,Gladstonos,Unknown,3032,Unknown,Unknown,pharmacy,pharmacy,357 25 364359,Unknown,"Mo,Tu,Th,Fr 08:00-18:30; We,Sa 08:00-13:30",34.6827582,33.0476894
Kostas Pastellas,Unknown,Gladstonos,Limassol,3040,Unknown,Unknown,pharmacy,pharmacy,+357 25 344040,Unknown,Unknown,34.68111,33.0453118
Haralambous Karagiannis,Unknown,Unknown,Unknown,Unknown,Unknown,Unknown,pharmacy,pharmacy,Unknown,Unknown,Unknown,34.6881078,33.0312713
Polis Antoniades,Unknown,Αγίας Ζώνης,Limassol,3031,Unknown,Unknown,pharmacy,pharmacy,+35725358034,Unknown,"Mo-Sa 08:00-13:30, Mo-Tu 13:30-15:00, Th-Fr 13:30-15:00",34.6847945,33.0442777
Unknown,Unknown,Unknown,Unknown,Unknown,Unknown,Unknown,pharmacy,pharmacy,Unknown,Unknown,Unknown,34.6859531,33.0321516
Petros Petridis,Unknown,Αγίας Φυλάξεως,Unknown,Unknown,Unknown,Unknown,pharmacy,pharmacy,Unknown,Unknown,Unknown,34.6827522,33.0382761
Mihalis Pahumis,Unknown,Αγίας Φυλάξεως,Unknown,Unknown,Unknown,Unknown,pharmacy,pharmacy,Unknown,Unknown,Unknown,34.6821304,33.0386436
Smile House,Unknown,Unknown,Unknown,Unknown,Unknown,Unknown,dentist,dentist,Unknown,Unknown,Unknown,34.6873975,33.0331254
Iatrico Kentro Lemesou,Unknown,Unknown,Unknown,Unknown,Unknown,Unknown,clinic,clinic,Unknown,Unknown,Unknown,34.6853263,33.0395993
Onoufrios Drousiotis,Unknown,Gladstonos,Limassol,3032,Unknown,Unknown,pharmacy,pharmacy,25379777,Unknown,24/7,34.6837694,33.0506284
Elpida Pettou,Unknown,Unknown,Unknown,Unknown,Unknown,Unknown,pharmacy,pharmacy,Unknown,Unknown,Unknown,34.6872076,33.0543948
Eleni Michail,Unknown,Unknown,Unknown,Unknown,Unknown,Unknown,pharmacy,pharmacy,Unknown,Unknown,Unknown,34.6878006,33.0552523
Aristos Vasileou,Unknown,Unknown,Unknown,Unknown,Unknown,Unknown,pharmacy,pharmacy,Unknown,Unknown,Unknown,34.690171,33.0593292
Unknown,Unknown,Unknown,Unknown,Unknown,Unknown,Unknown,pharmacy,pharmacy,Unknown,Unknown,Unknown,34.6939581,33.0648653
Unknown,Unknown,Unknown,Unknown,Unknown,Unknown,Unknown,pharmacy,pharmacy,Unknown,Unknown,Unknown,34.6901971,33.0600965
Maria,Unknown,Unknown,Unknown,Unknown,Unknown,Unknown,pharmacy,pharmacy,Unknown,Unknown,"PH,Mo-Su 09:00-13:00,15:30-18:30",34.6911914,33.0618373
Andreas Polikarpou,Unknown,Unknown,Unknown,Unknown,Unknown,Unknown,pharmacy,pharmacy,Unknown,Unknown,Unknown,34.6861979,33.0574528
Μαρία Λώρη Λυσιώτη,Unknown,Unknown,Unknown,Unknown,Unknown,Unknown,pharmacy,Unknown,Unknown,Unknown,Unknown,34.6834935,33.0405009
Kostas Konstantinos,Unknown,Unknown,Unknown,Unknown,Unknown,Unknown,pharmacy,Unknown,Unknown,Unknown,Unknown,34.6815037,33.0420922
Kiki Michalilidou,Unknown,Unknown,Unknown,Unknown,Unknown,Unknown,pharmacy,Unknown,Unknown,Unknown,Unknown,34.6809679,33.0432493
Katia Lamari,Unknown,Unknown,Unknown,Unknown,Unknown,Unknown,pharmacy,pharmacy,Unknown,Unknown,Unknown,34.6876472,33.0471802
Sophia Giannarou,Unknown,Unknown,Unknown,Unknown,Unknown,Unknown,pharmacy,pharmacy,Unknown,Unknown,Unknown,34.6901302,33.0359304
Suay Sevinc,Unknown,Unknown,Unknown,Unknown,Unknown,Unknown,pharmacy,pharmacy,Unknown,Unknown,Unknown,35.1370249,33.9205931
Dr. Artemis Christou,Unknown,Θεσσαλονίκης,Limassol,Unknown,Unknown,Unknown,doctors,doctor,Unknown,Unknown,Unknown,34.6813831,33.0418684
Κοινοτικο Νοσοκομειο,Unknown,Unknown,Unknown,Unknown,Unknown,Unknown,hospital,Unknown,Unknown,Unknown,Unknown,35.1275422,33.1909189
Ιατρος Αντρεας Ροκοπος,Unknown,Unknown,Unknown,Unknown,Unknown,Unknown,doctors,doctor,Unknown,Unknown,Unknown,35.1250263,33.1902241
Unknown,Unknown,Unknown,Unknown,Unknown,Unknown,Unknown,pharmacy,Unknown,Unknown,Unknown,Unknown,35.3418633,33.3179155
"Dr. Despo Eleftheriou, M.D.",Unknown,Unknown,Unknown,Unknown,Unknown,Unknown,doctors,doctor,Unknown,Unknown,Unknown,34.6861606,33.0370553
Unknown,Unknown,Unknown,Unknown,Unknown,Unknown,Unknown,pharmacy,Unknown,Unknown,Unknown,Unknown,34.8153656,32.4513572
Unknown,Unknown,Unknown,Unknown,Unknown,Unknown,Unknown,pharmacy,pharmacy,Unknown,Unknown,Unknown,34.9114484,33.6358871
Μ. Ταμπουλλη,Unknown,Ayiou Lazarou,Unknown,Unknown,Unknown,Unknown,pharmacy,pharmacy,Unknown,Unknown,Unknown,34.9121141,33.6344983
Unknown,Unknown,Unknown,Unknown,Unknown,Unknown,Unknown,pharmacy,pharmacy,Unknown,Unknown,Unknown,34.8544748,33.5828398
Unknown,Unknown,Unknown,Unknown,Unknown,Unknown,Unknown,pharmacy,Unknown,Unknown,Unknown,Unknown,34.8490325,33.5756293
Ιακωβίνα Παπαθεοδούλου,Unknown,Griva Digeni,Agios Athanasios,3101,Unknown,Unknown,pharmacy,pharmacy,25250026,Unknown,Unknown,34.6922716,33.0679914
Eleni Costidou,Unknown,Unknown,Unknown,Unknown,Unknown,Unknown,pharmacy,pharmacy,Unknown,Unknown,Unknown,34.8230837,32.4019407
Unknown,Unknown,Unknown,Unknown,Unknown,Unknown,Unknown,pharmacy,Unknown,Unknown,Unknown,Unknown,34.7937316,32.413793
Unknown,Unknown,Unknown,Unknown,Unknown,Unknown,Unknown,pharmacy,Unknown,Unknown,Unknown,Unknown,34.7937889,32.4193077
Sağlık Merkezi,Unknown,Unknown,Unknown,Unknown,Unknown,Unknown,hospital,hospital,Unknown,Unknown,Unknown,35.1465207,33.9094208
Anna Charalambous Georgious,Unknown,Unknown,Unknown,Unknown,Unknown,Unknown,pharmacy,Unknown,Unknown,Unknown,Unknown,34.7558103,32.4146647
Ακουστικά Κέντρα Ευθυμιαδης,Unknown,Leoforos Dimostheni Severi avenue,Unknown,Unknown,Unknown,Unknown,Unknown,audiologist,Unknown,Unknown,Unknown,35.1607052,33.3536097
Νιοκλικος,Unknown,Leoforos Dimostheni Severi avenue,Unknown,Unknown,Unknown,Unknown,pharmacy,pharmacy,Unknown,Unknown,"Mo,Tu,Th,Fr 08:00-13:30,16:00-19:30; We 08:00-13:30; Sa 09:00-13:30",35.1607944,33.353242
Πανικός Γιαλλουρος,Unknown,Unknown,Unknown,Unknown,Unknown,Unknown,pharmacy,Unknown,Unknown,Unknown,Unknown,35.0316001,33.9805355
Andri Mavroyiannou Pharmacy,Unknown,Unknown,Unknown,Unknown,Unknown,Unknown,pharmacy,pharmacy,Unknown,https://www.24evexia.com/,Unknown,35.0541229,33.972907
Unknown,Unknown,Unknown,Unknown,Unknown,Unknown,Unknown,pharmacy,Unknown,Unknown,Unknown,Unknown,35.3480849,33.1914486
Archangel Michael Hospice,Unknown,Ayias Marina,Mesa Chorio,8290,Unknown,Unknown,hospital,Unknown,Unknown,Unknown,Unknown,34.8062898,32.4620206
Charalambidis Giorgos,Unknown,Agiou Eleftheriou,Strovolos,2055,Unknown,Unknown,pharmacy,pharmacy,"+357 22371177, +357 22353584",Unknown,"Mo-Sa 08:00-13:30, Mo,Tu,Th,Fr 15:00-18:30",35.134809,33.3136168
G. Nicolaou Pharmacy Ltd,Unknown,Unknown,Unknown,Unknown,Unknown,Unknown,pharmacy,pharmacy,Unknown,Unknown,"Mo-Fr 08:00-13:30, Mo,Tu,Th,Fr 15:00-18:30, Sa 08:00-13:30; Su off",35.167339,33.360763
Dental Euroclinic,Unknown,Unknown,Unknown,Unknown,Unknown,Unknown,dentist,dentist,Unknown,Unknown,Unknown,34.6812987,33.0325548
Dr Georgios Kaponides,Unknown,Αγίας Φυλάξεως,Unknown,Unknown,Unknown,Unknown,doctors,doctor,25339977,Unknown,Unknown,34.6855254,33.0373823
Santa Marina Polyclinic Paralimni,Unknown,Unknown,Unknown,Unknown,Unknown,Unknown,hospital,hospital,Unknown,Unknown,Unknown,35.0543759,33.9731851
Komodromos Pantelis,Unknown,Αγίας Φυλάξεως,Limasol - Λεμεσός,3083,Unknown,Unknown,dentist,dentist,Unknown,Unknown,"09:00-13:00, 15:00-19:00",34.6942343,33.0342807
Haklıgil İç Hastalıkları Kliniği,Unknown,Haklıgil Sk.,Unknown,Unknown,Unknown,Unknown,doctors,doctor,Unknown,Unknown,Unknown,35.130279,33.925864
Dr.Zenonos The Dental Clinic,Unknown,Vasileos Georgiou II,Unknown,Unknown,Unknown,Unknown,dentist,dentist,Unknown,https://drzenonos.com/,"Mo, Tu 09:00-13:00, 15:00-19:00; We-Fr 09:00-13:30, 14:00-17:30",34.6973388,33.0272288
Christos Ioannou Pharmacy,Unknown,Chlorakas Avenue,Unknown,8220,Unknown,Unknown,pharmacy,Unknown,26220022,Unknown,"Mo-Tu, Th-Fr 09:00-13:29, 15:30-19:30; We, Sa 09:00-13:30",34.803985,32.3980034
Napa Olympic Private Hospital,Unknown,Chavares,Unknown,Unknown,Unknown,Unknown,hospital,Unknown,23723222,Unknown,24/7,34.9905894,33.9787695
Karakol Eczanesi,Unknown,CAHİT SITKI TARANCI,Unknown,Unknown,Unknown,Unknown,pharmacy,pharmacy,05428516164,Unknown,Unknown,35.1359137,33.925342
Αναπαυτηριο Αναρρωτηριο Μα-Ρέα-Κυβέλη,Unknown,Shakespeare,Larnaka,6027,Unknown,Unknown,hospital,hospital,Unknown,Unknown,Unknown,34.9002068,33.6359279
Eczan,Unknown,Unknown,Unknown,Unknown,Unknown,Unknown,pharmacy,pharmacy,Unknown,Unknown,Unknown,35.1184595,33.9350232
Ledra Clinic,Unknown,Pindarou,Unknown,Unknown,Unknown,Unknown,clinic,clinic,Unknown,Unknown,Unknown,35.16731,33.3680102
Zeynep Eczanesi,Unknown,İSMET İNÖNÜ BULVARI,Unknown,Unknown,Unknown,Unknown,pharmacy,pharmacy,+903923651847,Unknown,Mo-Fr 08:00-19:00; Sa 08:00-13:30,35.1296202,33.9291387
Gökcen İlktaç Eczanesi,Unknown,İSMET İNÖNÜ BULVARI,Unknown,Unknown,Unknown,Unknown,pharmacy,pharmacy,+903923656820,Unknown,Mo-Fr 08:00-19:00; Sa 08:00-13:30,35.1378531,33.9191727
Unknown,Unknown,Unknown,Unknown,Unknown,Unknown,Unknown,pharmacy,Unknown,Unknown,Unknown,Mo-Su 10:00-01:30,34.7873664,32.4227555
Unknown,Unknown,Unknown,Unknown,Unknown,Unknown,Unknown,pharmacy,Unknown,Unknown,https://www.cpa.org.cy/,Mo-Fr 08:00-18:30,34.7841964,32.4219366
Ioanna Gklara Constantinou,Unknown,Unknown,Unknown,Unknown,Unknown,Unknown,pharmacy,Unknown,Unknown,Unknown,Unknown,34.7820517,32.4267845
Seda Serger Uzuner Diş Kliniği,Unknown,Mustafa Çagatay Caddesi,Unknown,Unknown,Unknown,Unknown,dentist,dentist,00905338158899,Unknown,Mo-Sa 09:00-18:00,35.3385489,33.3230917
Kypros Kaimis,Unknown,Unknown,Unknown,Unknown,Unknown,Unknown,pharmacy,pharmacy,Unknown,Unknown,Unknown,34.9286325,33.6372149
Petros Ioannou,Unknown,Θαλή Μιλήσιου,Strovolos,2020,Unknown,Unknown,doctors,doctor,Unknown,Unknown,Unknown,35.141163,33.3464573
Dentis,Unknown,Unknown,Unknown,Unknown,Unknown,Unknown,hospital,hospital,Unknown,Unknown,Unknown,35.1609025,33.3318442
Lito Private Hospital,Unknown,Soteras avenue,Unknown,Unknown,Unknown,Unknown,hospital,hospital,+357 23 811111,https://www.litohospital.org.cy/,24/7,35.0338661,33.9771418
Αντώνη Σιάλου,Unknown,Archiepiskopou Makariou III,Unknown,7510,Unknown,Unknown,pharmacy,Unknown,24 723677,Unknown,Unknown,35.0150055,33.740338
Smalto Dental Clinic,Unknown,Souliou,Unknown,2018,Unknown,Unknown,dentist,dentist,22492988,https://www.smaltoclinic.com/,Unknown,35.1494486,33.349182
Unknown,Unknown,Unknown,Unknown,Unknown,Unknown,Unknown,pharmacy,pharmacy,Unknown,Unknown,Unknown,35.0409597,33.923414
Unknown,Unknown,Unknown,Unknown,Unknown,Unknown,Unknown,pharmacy,pharmacy,Unknown,Unknown,Unknown,35.0407939,33.9223062
Κέντρο Υγείας,Unknown,Archiepiskopou Makariou,Unknown,2720,Unknown,Unknown,clinic,clinic,Unknown,Unknown,Unknown,35.1366075,33.1383944
Unknown,Unknown,Unknown,Unknown,Unknown,Unknown,Unknown,pharmacy,Unknown,Unknown,Unknown,Unknown,34.6920494,32.9662755
Deniz Çorba Eczanesi,Unknown,Unknown,Unknown,Unknown,Unknown,Unknown,pharmacy,pharmacy,Unknown,Unknown,Unknown,35.2007981,33.3246662
Androniki Petrou,Unknown,Unknown,Unknown,Unknown,Unknown,Unknown,pharmacy,pharmacy,24726909,Unknown,Unknown,34.9765859,33.8460672
Antreas Kamilaris,Unknown,Unknown,Unknown,Unknown,Unknown,Unknown,pharmacy,Unknown,23744160,Unknown,Mo-Su 08:00-18:00,35.0521762,33.9809125
Ζήνων Κόκκινος,Unknown,Archiepiskopou Makariou III,Unknown,7510,Unknown,Unknown,pharmacy,Unknown,24723958,Unknown,Unknown,35.0154643,33.7411022
Tuğcan Eczanesi,Unknown,Unknown,Unknown,Unknown,Unknown,Unknown,pharmacy,Unknown,Unknown,Unknown,Unknown,35.2020946,33.376115
Φapmakeio,Unknown,Adgias Paraskevis,Engomi,Unknown,Unknown,Unknown,pharmacy,Unknown,22352933,Unknown,Unknown,35.1483362,33.3186281
Markou Ioannis,Unknown,Unknown,Unknown,Unknown,Unknown,Unknown,doctors,doctor,99664503,Unknown,Unknown,35.1508287,33.3642199
Nikos Georgiou,Unknown,Unknown,Unknown,Unknown,Unknown,Unknown,pharmacy,Unknown,22488425,Unknown,Unknown,35.1157201,33.3793222
Kypros Savvidis,Unknown,Unknown,Unknown,Unknown,Unknown,Unknown,pharmacy,pharmacy,Unknown,Unknown,Unknown,35.1519982,33.3625112
Güney Eczanesi,Unknown,Yüzbaşı Tekin Yurdabak Caddesi,Unknown,Unknown,Unknown,Unknown,pharmacy,pharmacy,Unknown,Unknown,Unknown,35.1988683,33.3443398
Dentix,Unknown,Unknown,Unknown,Unknown,Unknown,Unknown,dentist,dentist,Unknown,Unknown,Unknown,35.2035135,33.3686551
Unknown,Unknown,Unknown,Unknown,Unknown,Unknown,Unknown,pharmacy,Unknown,Unknown,Unknown,Unknown,35.3372563,33.3061464
Maria Stefanidou,Unknown,Unknown,Unknown,Unknown,Unknown,Unknown,pharmacy,Unknown,Unknown,Unknown,Unknown,35.0604648,33.5444202
Girokomio Athienou,Unknown,Unknown,Unknown,Unknown,Unknown,Unknown,hospital,hospital,Unknown,Unknown,Unknown,35.0646975,33.5350538
Georgia Konstantinou,Unknown,Unknown,Unknown,Unknown,Unknown,Unknown,pharmacy,pharmacy,Unknown,Unknown,Unknown,34.6791868,32.9964116
Μαρία Ιωάννα Αναστασιάδου,Unknown,Griva Digeni,Limassol,3101,Unknown,Unknown,doctors,doctor,+35725875587,Unknown,Mo-Fr 10:30-19:00,34.6930364,33.0669825
Panagiotis Loizou,Unknown,Griva Digeni,Unknown,Unknown,Unknown,Unknown,pharmacy,pharmacy,+357 23 821368,Unknown,Mo-Sa 08:00-20:00,35.0487776,33.9776462
Roula Kefala,Unknown,Unknown,Unknown,Unknown,Unknown,Unknown,pharmacy,pharmacy,Unknown,Unknown,Unknown,35.0360444,33.9783784
Xenios Xenofontos,Unknown,Unknown,Unknown,Unknown,Unknown,Unknown,pharmacy,Unknown,Unknown,Unknown,Unknown,35.0769662,33.3233651
Makridi,Unknown,Unknown,Unknown,Unknown,Unknown,Unknown,pharmacy,Unknown,Unknown,Unknown,Unknown,35.0147418,33.3959668
Michalis Kikas,Unknown,Unknown,Unknown,Unknown,Unknown,Unknown,pharmacy,Unknown,Unknown,Unknown,Unknown,35.017541,33.4106387
Froso Giagkou,Unknown,Unknown,Unknown,Unknown,Unknown,Unknown,pharmacy,Unknown,22383330,Unknown,Unknown,35.0826082,33.3284494
Chrysanthi Rousou,Unknown,Unknown,Unknown,Unknown,Unknown,Unknown,pharmacy,Unknown,Unknown,Unknown,Unknown,35.0144315,33.3951211
Giorgos Georgiou,Unknown,Unknown,Unknown,Unknown,Unknown,Unknown,pharmacy,Unknown,Unknown,Unknown,Unknown,35.0857804,33.2774807
Kiagias Giorgos,Unknown,Unknown,Unknown,Unknown,Unknown,Unknown,pharmacy,pharmacy,+357 23 827020,Unknown,Mo-Fr 08:00-19:00; Sa 08:00-14:00,35.0339236,33.9776372
Stelios,Unknown,Soteras avenue,Unknown,Unknown,Unknown,Unknown,pharmacy,pharmacy,+357 23 812040,https://facebook.com/s.stylianou.pharmacy,Unknown,35.0334529,33.9777014
Constandinos Hadjiathanasiou,Unknown,Unknown,Unknown,Unknown,Unknown,Unknown,pharmacy,Unknown,Unknown,Unknown,Unknown,35.1224612,33.3199485
Tasoulla Malloupa,Unknown,Unknown,Unknown,Unknown,Unknown,Unknown,pharmacy,pharmacy,Unknown,Unknown,Unknown,35.1720381,33.3284883
Giorgos Paphitis,Unknown,Unknown,Unknown,Unknown,Unknown,Unknown,pharmacy,pharmacy,Unknown,Unknown,Unknown,35.1713461,33.3262774
Sophia Papanastasiou,Unknown,Unknown,Unknown,Unknown,Unknown,Unknown,pharmacy,pharmacy,Unknown,Unknown,Unknown,35.1002593,33.2990888
Rena Tsaggari,Unknown,Unknown,Unknown,Unknown,Unknown,Unknown,pharmacy,Unknown,Unknown,Unknown,Unknown,35.0515617,33.200823
Maria Spiritou,Unknown,Τσερίου Λεωφόρος,Strovolos,2045,Unknown,Unknown,pharmacy,pharmacy,Unknown,Unknown,Unknown,35.131098,33.3390274
Despoina Petrou,Unknown,Unknown,Unknown,Unknown,Unknown,Unknown,pharmacy,pharmacy,Unknown,Unknown,Unknown,35.1343756,33.3396425
Dimou Mouskidi,Unknown,Unknown,Unknown,Unknown,Unknown,Unknown,pharmacy,pharmacy,Unknown,Unknown,Unknown,35.1608781,33.3583403
ALGI Psikoterapi ve Evlilik Danışma Merkezi,Unknown,Şehit Kemal Ünal Caddesi,Unknown,Unknown,Unknown,Unknown,clinic,clinic,05338344483;03922257567,Unknown,Mo-Sa 09:00-18:00,35.2068334,33.3422803
Maria Parani,Unknown,Unknown,Unknown,Unknown,Unknown,Unknown,pharmacy,pharmacy,Unknown,Unknown,Unknown,35.1568103,33.3445619
Apmakeio,Unknown,Eleftherias Avenue,Unknown,Unknown,Unknown,Unknown,pharmacy,pharmacy,Unknown,Unknown,Unknown,35.1090247,33.2909126
Michalis Paranis,Unknown,Λεωφόρος Λυκαβηττού,Engomi,2401,Unknown,Unknown,pharmacy,pharmacy,Unknown,Unknown,"Mo-Sa 08:00-13:30, Mo-Tu 15:00-18:30, Th-Fr 15:00-18:30",35.140957,33.3112241
Anna Koliou,Unknown,Unknown,Unknown,Unknown,Unknown,Unknown,pharmacy,Unknown,Unknown,Unknown,Unknown,35.1481543,33.3194089
Nikos Xaralampous,Unknown,Unknown,Unknown,Unknown,Unknown,Unknown,pharmacy,pharmacy,Unknown,Unknown,Unknown,35.162532,33.3476028
Stelios Stilianou,Unknown,Unknown,Unknown,Unknown,Unknown,Unknown,pharmacy,pharmacy,Unknown,Unknown,Unknown,35.0587936,33.9672321
Stamatis,Unknown,Unknown,Unknown,Unknown,Unknown,Unknown,pharmacy,pharmacy,Unknown,Unknown,Unknown,34.9776456,33.8476967
Pharmacy Tania Argyrou,Unknown,Unknown,Unknown,Unknown,Unknown,Unknown,pharmacy,Unknown,Unknown,Unknown,"Mo-Sa 09:00-13:30, Mo-Fr 18:00-19:30; Sa 09:00-13:30",35.154348,33.3171495
Maria Ioannidou,Unknown,Unknown,Unknown,Unknown,Unknown,Unknown,pharmacy,Unknown,Unknown,Unknown,Unknown,35.1403946,33.3165111
Pampos Theodorou,Unknown,Unknown,Unknown,Unknown,Unknown,Unknown,pharmacy,pharmacy,Unknown,Unknown,Unknown,34.6867388,33.0368296
Nearxos,Unknown,Unknown,Unknown,Unknown,Unknown,Unknown,pharmacy,pharmacy,Unknown,Unknown,Unknown,34.6843547,33.031532
Kanari Maria,Unknown,Unknown,Unknown,Unknown,Unknown,Unknown,pharmacy,pharmacy,Unknown,Unknown,Unknown,35.1121608,33.3064973
Xaralampous Kekkos,Unknown,Unknown,Unknown,Unknown,Unknown,Unknown,pharmacy,pharmacy,Unknown,Unknown,Unknown,34.6988204,33.0321428
Xristos Savva,Unknown,Unknown,Unknown,Unknown,Unknown,Unknown,pharmacy,pharmacy,Unknown,Unknown,Unknown,35.1423864,33.3679811
Kapridimou Niki,Unknown,Unknown,Unknown,Unknown,Unknown,Unknown,pharmacy,pharmacy,Unknown,Unknown,Unknown,34.989741,32.9058014
Lazarou Liza,Unknown,Unknown,Unknown,Unknown,Unknown,Unknown,pharmacy,pharmacy,Unknown,Unknown,Unknown,35.1115949,33.2928605
A. Çağer,Unknown,Ankara Street,Alsancak,99350,Unknown,Unknown,pharmacy,Unknown,+905488378800,Unknown,Unknown,35.3450401,33.2011575
Maria kakouli ntiskou,Unknown,Unknown,Unknown,Unknown,Unknown,Unknown,pharmacy,pharmacy,Unknown,Unknown,Unknown,35.1475761,33.3536108
Kleio,Unknown,Unknown,Unknown,Unknown,Unknown,Unknown,pharmacy,pharmacy,Unknown,Unknown,Unknown,35.1592997,33.3899711
Antonis Xatziapostolou,Unknown,Unknown,Unknown,Unknown,Unknown,Unknown,pharmacy,pharmacy,Unknown,Unknown,Unknown,35.1583413,33.3546023
Xaris Xristodoulidis,Unknown,Unknown,Unknown,Unknown,Unknown,Unknown,pharmacy,pharmacy,Unknown,Unknown,Unknown,35.1392858,33.3651719
Anna Mourouzi,Unknown,Unknown,Unknown,Unknown,Unknown,Unknown,pharmacy,pharmacy,Unknown,Unknown,Unknown,35.1395525,33.3680192
Dr. Maria Zaoura,Unknown,Grigori Afxentiou,Limassol,Unknown,Unknown,CY,doctors,doctor,+35725723120,Unknown,"09:00-13:00, 16:00-19:00",34.6967148,33.0501529
Petroula Gerolemou,Unknown,Unknown,Unknown,Unknown,Unknown,Unknown,pharmacy,pharmacy,Unknown,Unknown,Unknown,35.0380336,33.8404774
Xristina Alapai,Unknown,Unknown,Unknown,Unknown,Unknown,Unknown,pharmacy,pharmacy,Unknown,Unknown,Unknown,35.0397486,33.9813729
isaak,Unknown,Unknown,Unknown,Unknown,Unknown,Unknown,pharmacy,pharmacy,Unknown,Unknown,Unknown,35.0395441,33.9822462
Maria Pantelidou,Unknown,Unknown,Unknown,Unknown,Unknown,Unknown,pharmacy,pharmacy,Unknown,Unknown,Unknown,35.0376647,33.9812548
"Ινστιτούτο Υγείας, Πρόληψης & Αποκατάστασης του Τραύματος",Unknown,Megalou Alexandrou,Unknown,1036,Unknown,Unknown,clinic,clinic,+35799220347,https://www.facebook.com/helthandbeautycenter/,24/7,35.1793581,33.3811289
Anna Thrasivoulou,Unknown,Unknown,Unknown,Unknown,Unknown,Unknown,pharmacy,pharmacy,Unknown,Unknown,Unknown,34.6749105,33.0128353
Mios Pharmacy,Unknown,Unknown,Unknown,Unknown,Unknown,Unknown,pharmacy,Unknown,Unknown,Unknown,Unknown,35.1219617,33.3193666
Papadouri Annita,Unknown,Unknown,Unknown,Unknown,Unknown,Unknown,pharmacy,pharmacy,Unknown,Unknown,Unknown,35.1586291,33.3624163
farmakio sek ammoxostou,Unknown,Unknown,Unknown,Unknown,Unknown,Unknown,pharmacy,pharmacy,Unknown,Unknown,"Mo-Tu,Th-Fr 08:00-13:00,16:00-19:00; We,Sa 08:00-13:00",35.0393581,33.9842749
Giorgos Konstantinou,Unknown,Unknown,Unknown,Unknown,Unknown,Unknown,pharmacy,pharmacy,Unknown,Unknown,Unknown,35.1375928,33.3523164
Niki Kypridimou,Unknown,Unknown,Unknown,Unknown,Unknown,Unknown,pharmacy,pharmacy,Unknown,Unknown,Unknown,34.7411588,33.0072766
Malioti Xrisanthi,Unknown,Unknown,Unknown,Unknown,Unknown,Unknown,pharmacy,Unknown,Unknown,Unknown,Unknown,34.6794311,33.0163058
Eva Kiriakou,Unknown,Unknown,Unknown,Unknown,Unknown,Unknown,pharmacy,pharmacy,Unknown,Unknown,Unknown,35.1621421,33.3292392
Eleni Agapiou Pharmacy,Unknown,Unknown,Unknown,Unknown,Unknown,Unknown,pharmacy,pharmacy,Unknown,Unknown,Unknown,35.1587397,33.3971501
Annita,Unknown,25 March Street,Έγκωμη Λευκωσίας,Unknown,Unknown,Unknown,pharmacy,pharmacy,Unknown,Unknown,Unknown,35.1653133,33.3308038
Grigoria,Unknown,Unknown,Unknown,Unknown,Unknown,Unknown,pharmacy,pharmacy,Unknown,Unknown,Unknown,35.0097715,33.891168
Dr. Suat Günsel Girne Üniversitesi Diş Hastanesi,Unknown,Beylerbeyi Yolu,Unknown,Unknown,Unknown,Unknown,hospital,hospital,0 (392) 444 05 35,https://hospital.kyrenia.edu.tr/,24/7,35.3301114,33.325833
Unknown,Unknown,Unknown,Unknown,Unknown,Unknown,Unknown,pharmacy,pharmacy,24651035,Unknown,Unknown,34.9194743,33.6339339
Κυριάκος Χαραλάμπους Κασκαντής - Μ.Π.,Unknown,Λεωφόρος Γρίβα Διγενή,Unknown,Unknown,Unknown,Unknown,doctors,doctor,+35799220347,https://www.facebook.com/helthandbeautycenter/,24/7,35.1872837,33.3770362
Fetal Medicine Centre,Unknown,Unknown,Unknown,Unknown,Unknown,Unknown,doctors,doctor,Unknown,Unknown,Unknown,34.7052651,33.027783
Panikkos Savidis,Unknown,Unknown,Unknown,Unknown,Unknown,Unknown,pharmacy,Unknown,Unknown,Unknown,Unknown,34.7841972,32.4304779
Katerina Skourou,Unknown,Unknown,Unknown,Unknown,Unknown,Unknown,pharmacy,pharmacy,Unknown,Unknown,Unknown,34.6804326,33.001974
Dr Stelios Krassas,Unknown,Unknown,Unknown,Unknown,Unknown,Unknown,doctors,doctor,Unknown,Unknown,Unknown,34.6903798,33.0240805
Unknown,Unknown,Unknown,Unknown,Unknown,Unknown,Unknown,clinic,clinic,Unknown,Unknown,Unknown,34.6786604,33.0353099
MHRC hair clinic,Unknown,Unknown,Unknown,Unknown,Unknown,Unknown,clinic,clinic,Unknown,Unknown,Unknown,35.1578159,33.3663938
Hlias Daskalakis,Unknown,Unknown,Unknown,Unknown,Unknown,Unknown,pharmacy,pharmacy,Unknown,Unknown,Unknown,35.1571713,33.3133853
Xristalleni Pavlou,Unknown,Unknown,Unknown,Unknown,Unknown,Unknown,pharmacy,pharmacy,Unknown,Unknown,Unknown,35.1465805,33.3405338
Elena,Unknown,Unknown,Unknown,Unknown,Unknown,Unknown,dentist,dentist,99870563,Unknown,Unknown,34.7694982,32.4156816
Unknown,Unknown,Unknown,Unknown,Unknown,Unknown,Unknown,pharmacy,Unknown,Unknown,Unknown,Unknown,34.7434228,32.4312071
MedInstitute,Unknown,Digeni Akrita,Unknown,1055,Unknown,Unknown,clinic,clinic,+35722755940,https://www.medinstitute.net/,"Mo-We, Fr 08:30-13:00, 03:30-08:00; Th, Sa 08:30-01:00",35.1682124,33.3723224
Γηροκομειο Η Γαληνη,Unknown,Unknown,Unknown,Unknown,Unknown,Unknown,doctors,doctor,Unknown,Unknown,Unknown,34.6853406,33.0034407
Alexis Xenopoulos,Unknown,Omirou,Limassol,3095,Unknown,Unknown,dentist,dentist,Unknown,Unknown,"9:00-12:45, 15:00-18:30",34.6898008,33.0541226
Elena Pitsiakou Pharmacy,Unknown,Unknown,Unknown,Unknown,Unknown,Unknown,pharmacy,Unknown,Unknown,Unknown,Unknown,34.6823174,33.0207762
Elena Pitsiakou,Unknown,Unknown,Unknown,Unknown,Unknown,Unknown,pharmacy,Unknown,Unknown,Unknown,Unknown,34.6822788,33.0146999
Βασος Τακη,Unknown,Unknown,Unknown,Unknown,Unknown,Unknown,pharmacy,pharmacy,Unknown,Unknown,Unknown,34.7013887,33.0460302
Κλινικό Εργαστήριο Νόνης Μηνά,Unknown,Grigori Afxentiou,Unknown,4003,Unknown,Unknown,doctors,doctor,25755100,https://www.nonisclinicallaboratory.com/,"Mo-Fr 07:30-13:00, 15:00-18:00; Sa 08:00-13:00",34.6967294,33.0500611
Κυριάκος Χαραλαμπους Κασκαντης - Μ.Π.,Unknown,Photi Pitta,Unknown,Unknown,Unknown,Unknown,doctors,doctor,+35799220347,Unknown,24/7,35.1649844,33.3606317
Ιατρικό Κέντρο Συνέσιο,Unknown,Raphael Santi,Unknown,Unknown,Unknown,Unknown,clinic,clinic,Unknown,Unknown,Unknown,34.9311959,33.6161724
Stella's pharmacy,Unknown,Unknown,Unknown,Unknown,Unknown,Unknown,pharmacy,pharmacy,25 636320,Unknown,Unknown,34.7149828,33.1619296
Eczane Erin,Unknown,Unknown,Unknown,Unknown,Unknown,Unknown,pharmacy,pharmacy,Unknown,Unknown,Unknown,35.1905077,32.9921615
Stanislava Georgiou,Unknown,Unknown,Unknown,Unknown,Unknown,Unknown,pharmacy,Unknown,Unknown,Unknown,Unknown,34.7005999,33.0757165
P+P (Paraskevas Paraskeva),Unknown,Unknown,Unknown,Unknown,Unknown,Unknown,dentist,dentist,Unknown,Unknown,Unknown,34.6859593,33.029199
Giorgos Sakkas,Unknown,Αγίας Ζώνης,Limassol,3027,Unknown,Unknown,pharmacy,pharmacy,+357 25 366299,Unknown,Unknown,34.6834278,33.0439222
Dr. Andreas Skarparis,Unknown,Gladstonos,Larnaca,6023;6024,Unknown,Unknown,clinic,clinic,0035724623975,https://www.cyplasticsurgery.com/,Mo-Fr 08:00-19:00; 24/7,34.9174566,33.6330933
Demet Eczanesi,Unknown,Çukurova Sk.,Unknown,Unknown,Unknown,Unknown,pharmacy,pharmacy,03923663350,Unknown,Mo-Fr 09:00-18:30; Sa 09:00-13:30,35.1208607,33.9301774
Saint Anastasios Clinic - Centre for Laparoscopic Operations and General Surgery - Centre for Paediatrics,Unknown,Unknown,Unknown,Unknown,Unknown,Unknown,hospital,hospital,Unknown,Unknown,Unknown,35.1675933,33.3653239
Center for preventive paediatrics,Unknown,Unknown,Unknown,Unknown,Unknown,Unknown,clinic,clinic,Unknown,Unknown,Unknown,34.6794633,33.0348888
Sami Apt. Voroklini,Unknown,Fillipou,Unknown,Unknown,Unknown,Unknown,dentist,dentist,Unknown,Unknown,Unknown,34.9816291,33.6544277
Unknown,Unknown,Unknown,Unknown,Unknown,Unknown,Unknown,pharmacy,Unknown,Unknown,Unknown,Unknown,34.9514718,33.4192391
Unknown,Unknown,Prevezis,Unknown,Unknown,Unknown,Unknown,pharmacy,pharmacy,Unknown,Unknown,Unknown,35.1658357,33.3585795
Elena,Unknown,Unknown,Unknown,Unknown,Unknown,Unknown,pharmacy,pharmacy,Unknown,Unknown,Unknown,35.1599333,33.3731266
Blue Pharmacies,Unknown,Unknown,Unknown,Unknown,Unknown,Unknown,pharmacy,pharmacy,Unknown,Unknown,Unknown,34.663076,32.9945028
Pavlina Menelaou,Unknown,Unknown,Unknown,Unknown,Unknown,Unknown,pharmacy,pharmacy,Unknown,Unknown,Unknown,34.6877107,33.0293159
Laservision,Unknown,Unknown,Unknown,Unknown,Unknown,Unknown,clinic,clinic,Unknown,Unknown,Unknown,35.1637706,33.3722382
Saint James,Unknown,Unknown,Unknown,Unknown,Unknown,Unknown,hospital,hospital,Unknown,Unknown,Unknown,34.7652407,32.4117254
Kings Medical Centre,Unknown,Unknown,Unknown,Unknown,Unknown,Unknown,hospital,hospital,Unknown,Unknown,24/7,34.7722983,32.4095265
Παγλος Χριστοδούλου,Unknown,Unknown,Unknown,Unknown,Unknown,Unknown,pharmacy,pharmacy,Unknown,Unknown,"Mo, Tu, Th, Fr 08:00-13:50, 14:50-18:50; We, Sa 08:00-14:00",34.9152417,33.6342783
Nikos kai dena karakosta,Unknown,Unknown,Unknown,Unknown,Unknown,Unknown,pharmacy,pharmacy,Unknown,Unknown,Unknown,35.1673077,33.3436651
Dora Giagkou,Unknown,Delfon,Engomi,Unknown,Unknown,Unknown,pharmacy,pharmacy,Unknown,Unknown,Unknown,35.1679719,33.3421616
Xatziapostolou Pharmacy,Unknown,Unknown,Unknown,Unknown,Unknown,Unknown,pharmacy,pharmacy,Unknown,Unknown,Unknown,35.1694986,33.3776236
Eliza Kantopoulou,Unknown,Grigori Afxentiou,Engomi,Unknown,Unknown,Unknown,pharmacy,pharmacy,Unknown,Unknown,Unknown,35.1712836,33.336278
Yiannos Ioannoy,Unknown,Tomb of the Kings 58,Unknown,8046,Unknown,Unknown,pharmacy,Unknown,26818397,http://yiannospharmacy.weebly.com,Unknown,34.772224,32.4104223
Zühtü baysen,Unknown,Unknown,Unknown,Unknown,Unknown,Unknown,dentist,dentist,Unknown,Unknown,Unknown,35.1994005,33.3351932
Santa Marina Polyclinic,Unknown,Unknown,Unknown,Unknown,Unknown,Unknown,hospital,Unknown,23811999,Unknown,Unknown,34.9871601,33.9928024
Giannis Xristodoulou,Unknown,Unknown,Unknown,Unknown,Unknown,Unknown,pharmacy,pharmacy,Unknown,Unknown,Unknown,34.6805257,33.0350461
Zoe Stavrinidou,Unknown,Unknown,Unknown,Unknown,Unknown,Unknown,pharmacy,pharmacy,Unknown,Unknown,Unknown,34.6896391,33.0318954
Unknown,Unknown,Unknown,Unknown,Unknown,Unknown,Unknown,pharmacy,pharmacy,Unknown,Unknown,"Su-Tu, Th-Fr 08:00-13:30, 16:00-19:30; We, Sa 08:00-13:30",34.6969514,33.0883204
Filippos Papadopoulos,Unknown,Unknown,Unknown,Unknown,Unknown,Unknown,pharmacy,pharmacy,Unknown,Unknown,"Mo-Tu, Th-Fr 08:00-13:30, 16:00-19:30; We, Sa 08:00-13:30",34.696421,33.0890705
Ίρμα Καλαιτζίδη,Unknown,Vasileos Georgiou I,Unknown,Unknown,Unknown,Unknown,pharmacy,pharmacy,+357 25 312012,Unknown,"Mo-Tu,Th-Fr 08:30-13:30,16:00-19:30; We,Sa 08:30-13:30",34.6939951,33.0836421
Kalos Pharmacy,Unknown,Leoforos Nissi,Unknown,Unknown,Unknown,Unknown,pharmacy,Unknown,23721599,Unknown,Mo-Su 08:30-23:00,34.9889859,33.9813905
Gurhan sarı,Unknown,Unknown,Unknown,Unknown,Unknown,Unknown,clinic,clinic,Unknown,Unknown,Unknown,35.3294044,33.305089
Unknown,Unknown,Unknown,Unknown,Unknown,Unknown,Unknown,hospital,hospital,Unknown,Unknown,Unknown,34.6596826,33.0048385
Dr. Andreas Skarparis Plastic Surgery and Hand Surgery Clinic,Unknown,Gladstonos,Unknown,6023,Unknown,Unknown,clinic,clinic,+35724623975,https://www.cyplasticsurgery.com/,24/7,34.9173792,33.6340402
Ferin Eczanesi,Unknown,Unknown,Unknown,Unknown,Unknown,Unknown,pharmacy,pharmacy,Unknown,Unknown,Unknown,35.207889,33.3080144
KAMİLOĞLU HASTANESİ,Unknown,Işıl Sokak,Unknown,Unknown,Unknown,Unknown,hospital,hospital,+903928151498,https://www.kamilogluhastanesi.com/,24/7,35.3365867,33.3103393
Ypiresia Asthenoforon Kyprou,Unknown,Unknown,Unknown,Unknown,Unknown,Unknown,hospital,hospital,Unknown,Unknown,Unknown,35.1206163,33.2997379
Bahar Eczanesi,Unknown,Unknown,Unknown,Unknown,Unknown,Unknown,pharmacy,pharmacy,Unknown,Unknown,Unknown,35.130411,33.926954
Nicolas Artemov Osteopathy Clinic,Unknown,Mystra,Unknown,6042,Unknown,Unknown,clinic,clinic,24656504,Unknown,Mo-Fr 15:00-20:00; Sa 10:00-16:00,34.9204777,33.6070296
Argyroulla,Unknown,Thermopilon,Unknown,8010,Unknown,Unknown,pharmacy,Unknown,26934184,Unknown,Unknown,34.7798769,32.4213836
Jinomer Kadın Doğum,Unknown,Unknown,Unknown,Unknown,Unknown,Unknown,doctors,doctor,Unknown,Unknown,Unknown,35.3388196,33.3233286
Torensel,Unknown,Unknown,Unknown,Unknown,Unknown,Unknown,pharmacy,Unknown,Unknown,Unknown,Unknown,35.3270923,33.3853617
Evdokia Patsalidou,Unknown,Unknown,Unknown,Unknown,Unknown,Unknown,pharmacy,pharmacy,Unknown,Unknown,Unknown,35.1590472,33.3430795
Orthopaedic Consultant,Unknown,Unknown,Unknown,Unknown,Unknown,Unknown,Unknown,yes,Unknown,Unknown,Unknown,35.3327887,33.3351232
Dr. med. D. Polydorou,Unknown,Unknown,Unknown,Unknown,Unknown,Unknown,doctors,doctor,26322922,Unknown,Unknown,34.8562902,32.3677018
Coral Bay Walk-in Clinic,Unknown,Unknown,Unknown,Unknown,Unknown,Unknown,clinic,clinic,Unknown,http://www.peyiamedical.com,Unknown,34.8538292,32.3790973
Dr.Suat Günsel Girne Üniversitesi Hastanesi,Unknown,Şehit Yahya Bakır Sokak,Unknown,Unknown,Unknown,Unknown,hospital,hospital,+903924449939,https://hospital.kyrenia.edu.tr/,24/7,35.3355326,33.3402939
Unknown,Unknown,Unknown,Unknown,Unknown,Unknown,Unknown,doctors,doctor,Unknown,Unknown,Unknown,35.1623274,33.3611411
Perfect Smile,Unknown,Unknown,Unknown,Unknown,Unknown,Unknown,dentist,dentist,Unknown,Unknown,Unknown,34.8847555,32.3817415
Kinyras,Unknown,Unknown,Unknown,Unknown,Unknown,Unknown,clinic,clinic,99632424,Unknown,Unknown,34.7755826,32.4313182
Sümer Eczanesi,Unknown,Atatürk Caddesi,Unknown,Unknown,Unknown,Unknown,pharmacy,Unknown,Unknown,Unknown,Unknown,35.2599283,33.7333028
Orthopaedic Consultant,Unknown,Unknown,Unknown,Unknown,Unknown,Unknown,doctors,doctor,Unknown,Unknown,Unknown,35.3327199,33.3353126
Elena petsa,Unknown,Sofokleous Taki,Unknown,Unknown,Unknown,Unknown,doctors,doctor,Unknown,Unknown,Unknown,35.1783749,33.3416242
Unknown,Unknown,Diagorou,Unknown,Unknown,Unknown,Unknown,pharmacy,pharmacy,Unknown,Unknown,Unknown,35.1706454,33.3566236
Αντωνης Γρηγορας,Unknown,Kyriakou Matsi,Unknown,Unknown,Unknown,Unknown,pharmacy,pharmacy,24626332,Unknown,Unknown,34.9193856,33.6309103
Eczane Hayat,Unknown,Girne Caddesi,Lefkoşa,Unknown,Unknown,Unknown,pharmacy,pharmacy,Unknown,Unknown,Unknown,35.1811611,33.3620096
Unknown,Unknown,Girne Caddesi,Unknown,Unknown,Unknown,Unknown,pharmacy,pharmacy,Unknown,Unknown,Unknown,35.1781202,33.3611965
Eczanesi,Unknown,Girne Caddesi,Unknown,Unknown,Unknown,Unknown,pharmacy,pharmacy,Unknown,Unknown,Unknown,35.1777647,33.3611851
Dr Thomaides,Unknown,Unknown,Unknown,Unknown,Unknown,Unknown,doctors,doctor,Unknown,Unknown,Unknown,34.9207328,33.6297798
Unknown,Unknown,Unknown,Unknown,Unknown,Unknown,Unknown,dentist,dentist,Unknown,Unknown,Unknown,34.9146102,33.6338636
Maria Paphiti,Unknown,Unknown,Unknown,Unknown,Unknown,Unknown,pharmacy,pharmacy,Unknown,Unknown,Unknown,35.1274147,33.3156692
Dr. Louis Georgeou Dental Surgeon,Unknown,Makariou III Ave.,Unknown,Unknown,Unknown,Unknown,dentist,dentist,Unknown,Unknown,Unknown,34.9276075,33.6366245
LaserClinics Nicosia,Unknown,Belediye Bulvarı,Unknown,Unknown,Unknown,Unknown,clinic,clinic,Unknown,Unknown,Unknown,35.2028499,33.3212139
Unknown,Unknown,Belediye Bulvarı,Unknown,Unknown,Unknown,Unknown,dentist,dentist,Unknown,Unknown,Unknown,35.2056175,33.3171861
Unknown,Unknown,Belediye Bulvarı,Unknown,Unknown,Unknown,Unknown,pharmacy,pharmacy,Unknown,Unknown,Unknown,35.2060063,33.3168798
Φαρακειο,Unknown,Steliou Hadjepetri,Unknown,Unknown,Unknown,Unknown,pharmacy,pharmacy,Unknown,Unknown,Unknown,35.1553259,33.3387304
Κατερίνα Ευλαβι,Unknown,Nigritas,Unknown,Unknown,Unknown,Unknown,pharmacy,pharmacy,Unknown,Unknown,Unknown,34.9267137,33.6364799
Unknown,Unknown,Lordou Vyronos,Unknown,Unknown,Unknown,Unknown,pharmacy,pharmacy,Unknown,Unknown,Unknown,34.9172665,33.6341945
Procopiou Medi Shop Ltd,Unknown,Griva Digeni Avenue,Unknown,Unknown,Unknown,Unknown,pharmacy,pharmacy,Unknown,Unknown,Unknown,34.9212786,33.6149947
Unknown,Unknown,Belediye Bulvarı,Unknown,Unknown,Unknown,Unknown,pharmacy,pharmacy,Unknown,Unknown,Unknown,35.2024153,33.3213524
Vlera Flouri,Unknown,Ayiou Lazarou,Unknown,Unknown,Unknown,Unknown,pharmacy,pharmacy,Unknown,Unknown,Unknown,34.9115366,33.6357286
Eczane Harika,Unknown,Cebeci Sokak,Unknown,Unknown,Unknown,Unknown,pharmacy,pharmacy,Unknown,Unknown,Unknown,35.2080019,33.3095045
Unknown,Unknown,Stylianou Lena,Unknown,Unknown,Unknown,Unknown,Unknown,laboratory,Unknown,Unknown,Unknown,34.9164885,33.6285587
Unknown,Unknown,Andrea Avraamidi,Unknown,Unknown,Unknown,Unknown,pharmacy,pharmacy,Unknown,Unknown,Unknown,35.1392244,33.3648417
Unknown,Unknown,Ανδρέα Αβρααμίδη,Unknown,Unknown,Unknown,Unknown,pharmacy,pharmacy,Unknown,Unknown,Unknown,35.1396103,33.364592
Apetaieio Neurosurgery,Unknown,Ανδρέα Αβρααμίδη,Unknown,Unknown,Unknown,Unknown,clinic,clinic,Unknown,Unknown,Unknown,35.1395596,33.364716
TUC Change Pharmacy,Unknown,Dimokratias,Unknown,Unknown,Unknown,Unknown,pharmacy,pharmacy,Unknown,Unknown,Unknown,35.1324036,33.3598131
Anoikto,Unknown,Dimokratias,Unknown,Unknown,Unknown,Unknown,pharmacy,pharmacy,Unknown,Unknown,Unknown,35.1320355,33.360251
Pharmfetch Cy,Unknown,Λεωφόρος Σταυρού,Unknown,Unknown,Unknown,Unknown,pharmacy,pharmacy,Unknown,https://pharmfetch.cy/,"Mo,Tu,Th,Fr 08:00-18:30; We,Sa 07:00-13:00",35.1350193,33.3566719
Marpo Line Health,Unknown,Stavrou,Unknown,Unknown,Unknown,Unknown,clinic,clinic,Unknown,Unknown,Unknown,35.1333597,33.3503572
Unknown,Unknown,Arsakeiou,Unknown,Unknown,Unknown,Unknown,dentist,dentist,Unknown,Unknown,Unknown,35.1264787,33.3435966
Παιδιατρος Μακης Σολωμου,Unknown,Trikoupi,Unknown,Unknown,Unknown,Unknown,doctors,doctor,Unknown,Unknown,Unknown,35.1357366,33.3473964
Unknown,Unknown,Artemidos Avenue,Unknown,Unknown,Unknown,Unknown,pharmacy,pharmacy,Unknown,Unknown,Unknown,34.9085742,33.6292809
Unknown,Unknown,Constantinoupoleos,Unknown,Unknown,Unknown,Unknown,pharmacy,pharmacy,Unknown,Unknown,Unknown,35.1290226,33.3432696
Unknown,Unknown,Faneromenis Avenue,Unknown,Unknown,Unknown,Unknown,pharmacy,pharmacy,Unknown,Unknown,Unknown,34.9109389,33.6214377
Apmakeio,Unknown,28th October Avenue,Engomi,Unknown,Unknown,Unknown,pharmacy,pharmacy,Unknown,Unknown,Unknown,35.161784,33.3176606
Unknown,Unknown,Tseriou Avenue,Unknown,Unknown,Unknown,Unknown,pharmacy,pharmacy,Unknown,Unknown,Unknown,35.1237304,33.3363455
Άντρη Κουζουπη,Unknown,Tseriou Avenue,Unknown,Unknown,Unknown,Unknown,pharmacy,pharmacy,Unknown,Unknown,Unknown,35.1229165,33.3355152
Unknown,Unknown,Thessalonikis Avenue,Unknown,Unknown,Unknown,Unknown,pharmacy,pharmacy,Unknown,Unknown,Unknown,34.9175333,33.6208326
Fatma Tahsin Eczanesi,Unknown,Atatürk Caddesi,Unknown,Unknown,Unknown,Unknown,pharmacy,pharmacy,Unknown,Unknown,Unknown,35.2147716,33.3076969
Unknown,Unknown,1 Apriliou Avenue,Unknown,Unknown,Unknown,Unknown,pharmacy,pharmacy,Unknown,Unknown,Unknown,34.9170883,33.6185996
Unknown,Unknown,Kantaras,Unknown,Unknown,Unknown,Unknown,pharmacy,pharmacy,Unknown,Unknown,Unknown,35.1320349,33.3345765
Med Lab Solutions,Unknown,Symis,Unknown,Unknown,Unknown,Unknown,clinic,clinic,Unknown,Unknown,Unknown,35.1285638,33.3346362
Unknown,Unknown,Piliou,Unknown,Unknown,Unknown,Unknown,pharmacy,pharmacy,Unknown,Unknown,Unknown,34.9163558,33.6050475
Unknown,Unknown,Tseriou Avenue,Unknown,Unknown,Unknown,Unknown,pharmacy,pharmacy,Unknown,Unknown,Unknown,35.1391173,33.3415296
Radiological Health Care,Unknown,Strovolou Avenue,Unknown,Unknown,Unknown,Unknown,clinic,clinic,Unknown,Unknown,Unknown,35.14077,33.3390584
MRI Diagnostic Center,Unknown,Strovolou Avenue,Unknown,Unknown,Unknown,Unknown,clinic,clinic,Unknown,Unknown,Unknown,35.1407499,33.3389889
Medpoint Medikal Dental,Unknown,Şht. Özel Ali Sokak,Unknown,Unknown,Unknown,Unknown,dentist,dentist,Unknown,Unknown,Unknown,35.211735,33.3354317
Χάρνς Γ. Χπιοτοψίδνς,Unknown,Περικλέους,Strovolos,Unknown,Unknown,Unknown,pharmacy,pharmacy,Unknown,Unknown,Unknown,35.1433094,33.3498538
OrthoHouse,Unknown,25 March Street,Engomi,Unknown,Unknown,Unknown,clinic,clinic,Unknown,Unknown,Unknown,35.1649595,33.3311087
Μαρία Τρακκούδη Κυπριανού,Unknown,Ανδρέα Αβρααμίδη,Strovolos,2024,Unknown,Unknown,pharmacy,pharmacy,Unknown,Unknown,"Mo,Tu,Th,Fr 08:00-18:30; We,Sa 08:00-13:30",35.1417983,33.3610734
Smile Dentist Center,Unknown,Panayioti Kapsi,Unknown,Unknown,Unknown,Unknown,dentist,dentist,Unknown,Unknown,Unknown,35.1474725,33.3615639
House of Care,Unknown,John Kennedy Avenue,Unknown,Unknown,Unknown,Unknown,clinic,clinic,Unknown,Unknown,Unknown,35.1575965,33.3665244
Οδοντιαρειο,Unknown,Lykavitou,Unknown,Unknown,Unknown,Unknown,dentist,dentist,Unknown,Unknown,Unknown,34.9379142,33.6016045
Smile Dent,Unknown,Şht. Gzt. Hasan Tahsin Caddesi,Unknown,Unknown,Unknown,Unknown,dentist,dentist,Unknown,Unknown,Unknown,35.1992062,33.3369975
Sezer Eczane,Unknown,Şht. Gzt. Hasan Tahsin Caddesi,Unknown,Unknown,Unknown,Unknown,pharmacy,pharmacy,Unknown,Unknown,Unknown,35.1974703,33.3327985
Unknown,Unknown,Şht. Gzt. Hasan Tahsin Caddesi,Unknown,Unknown,Unknown,Unknown,pharmacy,pharmacy,Unknown,Unknown,Unknown,35.1972533,33.3326409
Unknown,Unknown,Şht. Gzt. Hasan Tahsin Caddesi,Unknown,Unknown,Unknown,Unknown,pharmacy,pharmacy,Unknown,Unknown,Unknown,35.1995547,33.3369063
Unknown,Unknown,Şht. Gzt. Hasan Tahsin Caddesi,Unknown,Unknown,Unknown,Unknown,pharmacy,pharmacy,Unknown,Unknown,Unknown,35.1993404,33.3356966
Ποδολογος,Unknown,Grigori Afxentiou,Engomi,Unknown,Unknown,Unknown,clinic,clinic,Unknown,Unknown,Unknown,35.1720372,33.3304922
DC Dermatologicum,Unknown,25 Martiou,Unknown,Unknown,Unknown,Unknown,clinic,clinic,Unknown,Unknown,Unknown,35.1596019,33.3588897
Unknown,Unknown,Νίκης,Unknown,Unknown,Unknown,Unknown,pharmacy,pharmacy,Unknown,Unknown,Unknown,35.1581339,33.3580731
Unknown,Unknown,Kyriakou Matsi Avenue,Aradippou,Unknown,Unknown,Unknown,pharmacy,pharmacy,Unknown,Unknown,Unknown,34.9455363,33.5953754
Dental Surgeon,Unknown,Kyriakou Matsi Avenue,Aradippou,Unknown,Unknown,Unknown,dentist,dentist,Unknown,Unknown,Unknown,34.9441423,33.597237
Sağlıklı Beslenme ve Kilo Kontrol Merkezi,Unknown,Marmara 20 Sokak,Unknown,Unknown,Unknown,Unknown,clinic,clinic,Unknown,Unknown,Unknown,35.2036822,33.3465119
Παραδοσιακα Χαπιδη,Unknown,Thoukydidou,Unknown,Unknown,Unknown,Unknown,pharmacy,pharmacy,Unknown,Unknown,Unknown,35.1682117,33.3677528
Τασος Κοντοπουλος,Unknown,Digeni Akrita Avenue,Unknown,Unknown,Unknown,Unknown,pharmacy,pharmacy,Unknown,Unknown,Unknown,35.1671126,33.370524
Unknown,Unknown,Agiou Pavlou,Nicosia,Unknown,Unknown,Unknown,pharmacy,pharmacy,Unknown,Unknown,Unknown,35.17735,33.3373729
Ψαρμακειο,Unknown,Damaskinos Str,Unknown,Unknown,Unknown,Unknown,pharmacy,pharmacy,Unknown,Unknown,Unknown,35.1653975,33.3712411
+Pharmacy,Unknown,Grigori Afxentiou,Livadia,Unknown,Unknown,Unknown,pharmacy,Unknown,Unknown,Unknown,Unknown,34.9488137,33.6252182
Unknown,Unknown,Agiou Pavlou,Nicosia,Unknown,Unknown,Unknown,pharmacy,pharmacy,Unknown,Unknown,Unknown,35.1755231,33.3436148
Unknown,Unknown,Archiepiskopou Makariou G Avenue,Unknown,Unknown,Unknown,Unknown,pharmacy,pharmacy ΒΙΚΤΩΡΙΑ,Unknown,Unknown,Unknown,34.8617611,33.595001
House of Supplements,Unknown,Yüzbaşı Tekin Yurdabak Caddesi,Unknown,Unknown,Unknown,Unknown,pharmacy,pharmacy,Unknown,Unknown,Unknown,35.2005738,33.3437781
Ecegül Eczanesi,Unknown,Şehit Kemal Ünal Caddesi,Unknown,Unknown,Unknown,Unknown,pharmacy,pharmacy,Unknown,Unknown,Unknown,35.2069998,33.3417879
Caneş Eczanesi,Unknown,Şht. Mustafa Mehmet Sokak,Unknown,Unknown,Unknown,Unknown,pharmacy,pharmacy,Unknown,Unknown,Unknown,35.2096745,33.3396851
Özyol Eczanesi,Unknown,Dr. Fazıl Küçük Boulevard,Unknown,Unknown,Unknown,Unknown,pharmacy,pharmacy,Unknown,Unknown,Unknown,35.2098833,33.3483177
Neodent,Unknown,Agiou Georgiou Avenue,Unknown,Unknown,Unknown,Unknown,dentist,dentist,Unknown,Unknown,Unknown,35.1110271,33.2931759
Eczane,Unknown,Atatürk Caddesi,Unknown,Unknown,Unknown,Unknown,pharmacy,Unknown,Unknown,Unknown,Unknown,35.2182625,33.3780769
Physiomedical Center,Unknown,Georgiou Ioannidi,Unknown,Unknown,Unknown,Unknown,Unknown,physiotherapist,Unknown,Unknown,Unknown,35.1782902,33.382985
Handegül günay eczanesi,Unknown,Yüzbaşı Tekin Yurdabak Caddesi,Unknown,Unknown,Unknown,Unknown,pharmacy,pharmacy,Unknown,Unknown,Unknown,35.1996984,33.3442296
Met Life,Unknown,Lysou Santama,Larnaca,Unknown,Unknown,Unknown,clinic,clinic,Unknown,Unknown,Unknown,34.9330372,33.6153822
Physio Life,Unknown,Archiepiskopou Makariou III Avenue,Unknown,Unknown,Unknown,Unknown,Unknown,physiotherapist,Unknown,Unknown,Unknown,34.9464794,33.5916948
Unknown,Unknown,Electras,Unknown,Unknown,Unknown,Unknown,Unknown,physiotherapist,Unknown,Unknown,Unknown,34.9307231,33.6286926
Unknown,Unknown,Pindarou,Nicosia,Unknown,Unknown,Unknown,pharmacy,pharmacy,Unknown,Unknown,Unknown,35.1683057,33.3689145
Unknown,Unknown,Ellinospontou,Aglantzia,Unknown,Unknown,Unknown,pharmacy,pharmacy,Unknown,Unknown,Unknown,35.1434794,33.3737768
Dr. Elina Nikolenco,Unknown,Digeni Akrita,Unknown,Unknown,Unknown,Unknown,doctors,doctor,0035722348333,Unknown,Unknown,35.1683526,33.372481
Skinlab dermatology,Unknown,Archagelou Michail,Unknown,2057,Unknown,Unknown,clinic,clinic,0035722356160,Unknown,Unknown,35.1551789,33.3330075
Dentium,Unknown,Vehbi Bey Sokak,Unknown,Unknown,Unknown,Unknown,dentist,dentist,Unknown,Unknown,Unknown,35.1969406,33.3684077
Eczane Şirin,Unknown,Atatürk Caddesi,Unknown,Unknown,Unknown,Unknown,pharmacy,Unknown,Unknown,Unknown,Unknown,35.2132367,33.3784685
Unknown,Unknown,Atatürk Caddesi,Unknown,Unknown,Unknown,Unknown,pharmacy,pharmacy,Unknown,Unknown,Unknown,35.2098217,33.3164503
Unknown,Unknown,Giannou Kranidioti Ave.,Unknown,Unknown,Unknown,Unknown,pharmacy,Unknown,Unknown,Unknown,Unknown,35.1036398,33.3791084
Οδοντιατρειο,Unknown,Tryf. Christoforou,Unknown,Unknown,Unknown,Unknown,dentist,dentist,Unknown,Unknown,Unknown,35.1017425,33.3790679
MG Medicom Services,Unknown,Makariou III Avenue,Unknown,Unknown,Unknown,Unknown,clinic,clinic,Unknown,Unknown,Unknown,35.1160605,33.3788708
Eczane Adahan Pharmacy,Unknown,Gzt. Kemal Aşık Caddesi,Unknown,Unknown,Unknown,Unknown,pharmacy,pharmacy,Unknown,Unknown,Unknown,35.187585,33.3656376
Unknown,Unknown,Şht. Hüseyin Amca Caddesi,Unknown,Unknown,Unknown,Unknown,pharmacy,pharmacy,Unknown,Unknown,Unknown,35.2148052,33.2961172
Tuna Eczanesi Pharmacy,Unknown,Şehit Ecvet Yusuf Caddesi,Unknown,Unknown,Unknown,Unknown,pharmacy,pharmacy,Unknown,Unknown,Unknown,35.1881533,33.3585666
Eczane Pharmacy,Unknown,Şehit Ecvet Yusuf Caddesi,Unknown,Unknown,Unknown,Unknown,pharmacy,pharmacy,Unknown,Unknown,Unknown,35.189171,33.3579981
Πητερ,Unknown,Makariou III Avenue,Unknown,Unknown,Unknown,Unknown,pharmacy,pharmacy,Unknown,Unknown,Unknown,35.106243,33.3850991
Unknown,Unknown,Makariou III Avenue,Unknown,Unknown,Unknown,Unknown,pharmacy,pharmacy,Unknown,Unknown,Unknown,35.1110849,33.3831813
Unknown,Unknown,Makariou III Avenue,Unknown,Unknown,Unknown,Unknown,pharmacy,Unknown,Unknown,Unknown,Unknown,35.1156008,33.3793217
Unknown,Unknown,Makariou III Avenue,Unknown,Unknown,Unknown,Unknown,pharmacy,Unknown,Unknown,Unknown,Unknown,35.1150344,33.3801918
Syntexniako Peo,Unknown,Simonidou,Unknown,Unknown,Unknown,Unknown,pharmacy,pharmacy,Unknown,Unknown,Unknown,35.1700882,33.3727872
HDC Hair Transplant Clinic,Unknown,Protagorou,Unknown,Unknown,Unknown,Unknown,doctors,doctor,Unknown,https://www.hairtransplants-hdc.com/,Mo-Fr 09:00-17:00; Sa-Su off,35.1694172,33.372502
Λένα Μαυρομματη,Unknown,Νίκης,Unknown,Unknown,Unknown,Unknown,pharmacy,pharmacy,Unknown,Unknown,Unknown,35.1491482,33.3598714
Cevher Eczane,Unknown,Mehmet Akif Caddesi,Λευκωσία - Lefkoşa,Unknown,Unknown,Unknown,pharmacy,pharmacy,Unknown,Unknown,Unknown,35.1909286,33.3484563
Hairlif Clinics,Unknown,Kyriakou Matsi Avenue,Unknown,Unknown,Unknown,Unknown,clinic,clinic,Unknown,Unknown,Unknown,35.1575698,33.3531367
Illumidental,Unknown,Kyriakou Matsi Avenue,Unknown,Unknown,Unknown,Unknown,dentist,dentist,Unknown,Unknown,Unknown,35.1614567,33.3575904
Unknown,Unknown,Şht. İbrahim Ramadan Sokak,Unknown,Unknown,Unknown,Unknown,dentist,dentist,Unknown,Unknown,Unknown,35.18703,33.3642018
Vavilova Medical Center,Unknown,Unknown,Unknown,Unknown,Unknown,Unknown,clinic,clinic,+35725344454,https://vavilovaclinics.com/,Mo-Fr 08:30-19:00,34.6866122,33.0452704
Unknown,Unknown,Makareiou III Avenue,Unknown,Unknown,Unknown,Unknown,pharmacy,Unknown,Unknown,Unknown,Unknown,35.1795365,33.3760645
Unknown,Unknown,Yavuz Konnolu Sokak,Unknown,Unknown,Unknown,Unknown,pharmacy,pharmacy,Unknown,Unknown,Unknown,35.2001893,33.3278423
Gökçe Medical,Unknown,Dr. Burhan Nalbantoğlu Caddesi,Unknown,Unknown,Unknown,Unknown,pharmacy,pharmacy,Unknown,Unknown,Unknown,35.2048847,33.3315703
Dorhan Medical,Unknown,Saziag Hacı Maltı Zlar Sokak,Unknown,Unknown,Unknown,Unknown,doctors,doctor,Unknown,Unknown,Unknown,35.200867,33.32949
Medistar Clinic,Unknown,Eczaci Münür Bey Sokak,Unknown,Unknown,Unknown,Unknown,clinic,clinic,Unknown,Unknown,Unknown,35.2005024,33.3353404
Eczane Suzan,Unknown,Şht. İbrahim Yusuf Sokak,Unknown,Unknown,Unknown,Unknown,pharmacy,pharmacy,Unknown,Unknown,Unknown,35.1851782,33.3571889
Yonca hatipoğlu eczanesi,Unknown,Şehit Ecvet Yusuf Caddesi,Unknown,Unknown,Unknown,Unknown,pharmacy,pharmacy,Unknown,Unknown,Unknown,35.1994259,33.3533529
Dis Klinigi,Unknown,Cengiz Han Sokak,Unknown,Unknown,Unknown,Unknown,dentist,dentist,Unknown,Unknown,Unknown,35.1840798,33.3569441
Diş Hekimi,Unknown,Bozkır Sokak,Unknown,Unknown,Unknown,Unknown,dentist,dentist,Unknown,Unknown,Unknown,35.1956663,33.3609659
Dr. Candan Yorganciuğlu,Unknown,Yusuf Kaptan Sokak,Unknown,Unknown,Unknown,Unknown,doctors,doctor,Unknown,Unknown,Unknown,35.1960302,33.3618527
Sesil Eczanesi,Unknown,Bolu Sokak,Unknown,Unknown,Unknown,Unknown,pharmacy,pharmacy,Unknown,Unknown,Unknown,35.193002,33.3665043
Uyum Medical,Unknown,Şht. Altay Havanik Sokak,Unknown,Unknown,Unknown,Unknown,clinic,clinic,Unknown,Unknown,Unknown,35.2047547,33.3299301
Diş Hekimi Dt. Birce Atamtürk,Unknown,Yusuf Kaptan Sokak,Unknown,Unknown,Unknown,Unknown,dentist,dentist,Unknown,Unknown,Unknown,35.1955993,33.3638305
Unknown,Unknown,Yamem Bey Sokak,Unknown,Unknown,Unknown,Unknown,pharmacy,pharmacy,Unknown,Unknown,Unknown,35.2066944,33.337749
Unknown,Unknown,Raif Denktas Caddesi,Unknown,Unknown,Unknown,Unknown,pharmacy,pharmacy,Unknown,Unknown,Unknown,35.2076706,33.3380515
Üstay Dental Clinic,Unknown,Yesilyurt Sokak,Unknown,Unknown,Unknown,Unknown,dentist,dentist,03922238650,Unknown,Unknown,35.2030625,33.3208975
Eczani Pharmacy,Unknown,Atatürk Caddesi,Unknown,Unknown,Unknown,Unknown,pharmacy,pharmacy,Unknown,Unknown,Unknown,35.1904404,33.3663849
ICMR,Unknown,Unknown,Unknown,Unknown,Unknown,Unknown,clinic,rehabilitation,Unknown,www.icmr.cy,Unknown,34.7087998,33.1257338
Mikrolab Tıbbi Tahlil Laboratuvarı,Unknown,Ali Mehmet Küçuk Sokak,Unknown,Unknown,Unknown,Unknown,clinic,clinic,03922238812,http://kibrismikrolab.com,Unknown,35.2022261,33.3345151
Giorgos Pafitis,Unknown,Λεωφόρος Λυκαβηττού,Engomi,2401,Unknown,Unknown,pharmacy,pharmacy,Unknown,Unknown,"Mo-Sa 08:00-13:30, Mo-Tu 15:00-18:30, Th-Fr 15:00-18:30",35.1426622,33.3111868
Timios Stavros Hospital,Unknown,Raphael Santi,Unknown,Unknown,Unknown,Unknown,hospital,hospital,Unknown,Unknown,Unknown,34.9316654,33.6158663
Unknown,Unknown,Unknown,Unknown,Unknown,Unknown,Unknown,pharmacy,Unknown,Unknown,Unknown,Unknown,34.9936445,33.4595396
İsmet Eczanesi,Unknown,Bedreddin Demirel Caddesi,Unknown,Unknown,Unknown,Unknown,pharmacy,pharmacy,Unknown,Unknown,Unknown,35.1883735,33.3548248
Danai,Unknown,Unknown,Unknown,Unknown,Unknown,Unknown,pharmacy,pharmacy,Unknown,Unknown,Unknown,34.6803365,33.0397896
Zoodouchou Pigis Polyclinic,Unknown,Unknown,Unknown,Unknown,Unknown,Unknown,clinic,clinic,Unknown,Unknown,Unknown,34.6905289,33.034945
Unknown,Unknown,Unknown,Unknown,Unknown,Unknown,Unknown,pharmacy,pharmacy,Unknown,Unknown,Unknown,35.2813841,33.9220951
Unknown,Unknown,Unknown,Unknown,Unknown,Unknown,Unknown,pharmacy,pharmacy,Unknown,Unknown,Unknown,35.2875373,33.9286476
Unknown,Unknown,Unknown,Unknown,Unknown,Unknown,Unknown,pharmacy,Unknown,Unknown,Unknown,Unknown,35.365286,34.021094
Ömrüm Aki,Unknown,Unknown,Unknown,Unknown,Unknown,Unknown,pharmacy,Unknown,Unknown,Unknown,Unknown,35.3416842,33.5401999
Bedeoğlu Eczanesi̇,Unknown,Unknown,Unknown,Unknown,Unknown,Unknown,pharmacy,Unknown,Unknown,Unknown,Unknown,35.3276513,33.381535
Unknown,Unknown,Unknown,Unknown,Unknown,Unknown,Unknown,pharmacy,pharmacy,Unknown,Unknown,Unknown,35.3298067,33.3714806
Arkan Adışanlı,Unknown,Unknown,Unknown,Unknown,Unknown,Unknown,pharmacy,pharmacy,Unknown,Unknown,Unknown,35.3306587,33.3461032
Arda,Unknown,Unknown,Unknown,Unknown,Unknown,Unknown,pharmacy,pharmacy,Unknown,Unknown,Unknown,35.3234058,33.3441002
Unknown,Unknown,Unknown,Unknown,Unknown,Unknown,Unknown,pharmacy,Unknown,Unknown,Unknown,Unknown,35.3316395,33.3412214
Unknown,Unknown,Unknown,Unknown,Unknown,Unknown,Unknown,pharmacy,pharmacy,Unknown,Unknown,Unknown,34.9908023,32.902816
Suphi hüdaoğlu,Unknown,Unknown,Unknown,Unknown,Unknown,Unknown,doctors,doctor,Unknown,Unknown,Unknown,35.1871408,33.3545863
Ha,Unknown,Dılek Sokak,Unknown,Unknown,Unknown,Unknown,doctors,doctor,Unknown,Unknown,Unknown,35.2008868,33.3463538
Unknown,Unknown,Georgiou Drosini,Unknown,3085,Unknown,Unknown,doctors,doctor,+35796407299,Unknown,Mo-Su 11:00-18:00,34.6870359,33.0352723
Sakiner Eczanesi,Unknown,Unknown,Unknown,Unknown,Unknown,Unknown,pharmacy,Unknown,Unknown,Unknown,Unknown,35.5357169,34.1891581
Dr Vasiliou Dimitrios,Unknown,Unknown,Unknown,Unknown,Unknown,Unknown,doctors,doctor,Unknown,Unknown,Unknown,35.168405,33.3689653
Dr Myria Kyriakidou,Unknown,Unknown,Unknown,Unknown,Unknown,Unknown,doctors,doctor,Unknown,Unknown,Unknown,34.7786574,32.4293126
Dr Vili Papaxaralambous,Unknown,Unknown,Unknown,Unknown,Unknown,Unknown,doctors,doctor,Unknown,Unknown,Unknown,35.1651548,33.3714515
Φαρμακείο Ευφροσύνη Λεβέντη,Unknown,Unknown,Unknown,Unknown,Unknown,Unknown,pharmacy,pharmacy,Unknown,Unknown,Unknown,35.157777,33.3932688
Dr Iosif Iosifides,Unknown,Unknown,Unknown,Unknown,Unknown,Unknown,doctors,doctor,Unknown,Unknown,Unknown,35.148545,33.3851829
Dr Georgios Ketonis,Unknown,Unknown,Unknown,Unknown,Unknown,Unknown,doctors,doctor,Unknown,Unknown,Unknown,35.167073,33.3650373
Dr Svetla Charalambous,Unknown,Unknown,Unknown,Unknown,Unknown,Unknown,doctors,doctor,Unknown,Unknown,Unknown,35.1684605,33.372909
Dr Andreas TANOS Orthopaedic Surgeon - Traumatologist,Unknown,"Larnakos Avenue, Aglantzia",Nicosia,2102,Unknown,Unknown,doctors,doctor,Unknown,Unknown,"Mo,We,Fr 10:00-13:00,16:00-20:00",35.1567541,33.3960433
Dr. Elina Nikolenco,Unknown,Unknown,Unknown,Unknown,Unknown,Unknown,doctors,doctor,Unknown,Unknown,Unknown,35.1695038,33.3735681
Dr Loris Kuriakou,Unknown,Unknown,Unknown,Unknown,Unknown,Unknown,doctors,doctor,Unknown,Unknown,Unknown,35.1678037,33.3715481
Andreas Fellas,Unknown,Unknown,Unknown,Unknown,Unknown,Unknown,doctors,doctor,Unknown,Unknown,Unknown,35.1669752,33.3676214
Dr Theofania Tsaggari,Unknown,Unknown,Unknown,Unknown,Unknown,Unknown,doctors,doctor,Unknown,Unknown,Unknown,35.1356132,33.3403256
Dr Costas Dimitriou Dermatologists,Unknown,Unknown,Unknown,Unknown,Unknown,Unknown,clinic,clinic,Unknown,Unknown,Unknown,35.1658249,33.357617
Dr. Eleni Xristofi,Unknown,Unknown,Unknown,Unknown,Unknown,Unknown,doctors,doctor,Unknown,Unknown,Unknown,35.1662917,33.3649216
Dr Xristakis Xristodoulou,Unknown,Unknown,Unknown,Unknown,Unknown,Unknown,doctors,doctor,Unknown,Unknown,Unknown,35.1644557,33.3183558
Dr Georgios Papaetis,Unknown,Unknown,Unknown,Unknown,Unknown,Unknown,doctors,doctor,Unknown,Unknown,Unknown,34.7813248,32.4363689
Dr Mery Savva,Unknown,Unknown,Unknown,Unknown,Unknown,Unknown,doctors,doctor,Unknown,Unknown,Unknown,35.1664514,33.366633
Dr ioannis neofytou,Unknown,Unknown,Unknown,Unknown,Unknown,Unknown,doctors,doctor,Unknown,Unknown,Unknown,34.7814239,32.4274243
Dr. Nikkol Sakka dermatologists,Unknown,Unknown,Unknown,Unknown,Unknown,Unknown,doctors,doctor,Unknown,Unknown,Unknown,34.6858983,33.0469456
Dr Neofytou Dimos,Unknown,Unknown,Unknown,Unknown,Unknown,Unknown,doctors,doctor,Unknown,Unknown,Unknown,34.6821031,33.0386492
Dr Pavlidou Despoina,Unknown,Unknown,Unknown,Unknown,Unknown,Unknown,doctors,doctor,Unknown,Unknown,Unknown,35.1655343,33.3384472
Dr Tsappas Xristoforos,Unknown,Unknown,Unknown,Unknown,Unknown,Unknown,doctors,doctor,Unknown,Unknown,Unknown,34.7002541,33.0246556
Dr Koulountis Giannis,Unknown,Unknown,Unknown,Unknown,Unknown,Unknown,doctors,doctor,Unknown,Unknown,Unknown,34.6806972,33.0391103
Dr Hapeshi Elena,Unknown,Unknown,Unknown,Unknown,Unknown,Unknown,doctors,doctor,Unknown,Unknown,Unknown,34.8302199,33.3936292
Dr Constantinou Paschalis,Unknown,Unknown,Unknown,Unknown,Unknown,Unknown,doctors,doctor,Unknown,Unknown,Unknown,34.6963578,33.0502857
Panagiotis Tsaggaridis,Unknown,Unknown,Unknown,Unknown,Unknown,Unknown,pharmacy,Unknown,Unknown,Unknown,Unknown,35.0842443,33.2729558
Orthomed,Unknown,Unknown,Unknown,Unknown,Unknown,Unknown,pharmacy,Unknown,Unknown,Unknown,Unknown,35.1190846,33.3769763
Marilena Lefkaditi,Unknown,Unknown,Unknown,Unknown,Unknown,Unknown,pharmacy,pharmacy,Unknown,Unknown,Unknown,34.6982717,33.0435577
Pastelidou,Unknown,Unknown,Unknown,Unknown,Unknown,Unknown,pharmacy,pharmacy,Unknown,Unknown,Unknown,35.1542197,33.368458
Giorgos Stavrinidis,Unknown,Unknown,Unknown,Unknown,Unknown,Unknown,pharmacy,Unknown,Unknown,Unknown,Unknown,35.1111229,33.3831206
Antreas Antoniou,Unknown,Unknown,Unknown,Unknown,Unknown,Unknown,pharmacy,Unknown,Unknown,Unknown,Unknown,35.1008262,33.3797504
Eleni Georgiou,Unknown,Unknown,Unknown,Unknown,Unknown,Unknown,pharmacy,Unknown,Unknown,Unknown,Unknown,34.6774422,32.8912203
Pampos Theodorou,Unknown,Unknown,Unknown,Unknown,Unknown,Unknown,pharmacy,Unknown,Unknown,Unknown,Unknown,34.6785318,33.024202
Apostolos Loukas,Unknown,Unknown,Unknown,Unknown,Unknown,Unknown,clinic,clinic,Unknown,Unknown,Unknown,35.157104,33.3134839
Elena Solomonidou,Unknown,Unknown,Unknown,Unknown,Unknown,Unknown,pharmacy,pharmacy,Unknown,Unknown,Unknown,34.7029047,33.0281532
Iatriko Kentro Agia Olga,Unknown,Unknown,Unknown,Unknown,Unknown,Unknown,doctors,doctor,Unknown,Unknown,Unknown,35.1693637,33.328929
Eleni Lada,Unknown,Unknown,Unknown,Unknown,Unknown,Unknown,pharmacy,pharmacy,Unknown,Unknown,Unknown,34.9501053,33.5933091
Περιφερειακό Νοσοκομείο Κυπερούντας,Unknown,Unknown,Unknown,Unknown,Unknown,Unknown,hospital,hospital,Unknown,https://www.moh.gov.cy/moh/kph.nsf/index_gr/,Unknown,34.9509919,32.9524009
Huriye ilhan fizik tedavi ve rehabilitasyon merkezi,Unknown,Unknown,Unknown,Unknown,Unknown,Unknown,clinic,clinic,Unknown,Unknown,Unknown,35.1326441,33.9160858
Εμιλυ Παντελα,Unknown,Spyrou Kyprianou,Limassol,4042,Unknown,Unknown,pharmacy,Unknown,Unknown,Unknown,"Mo-Sa 08:00-13:30, Mo-Tu 13:30-15:00, Th-Fr 13:30-15:00",34.7046753,33.0835763
Φαρμακείο Κυριάκος Μένοικος,Unknown,Unknown,Unknown,Unknown,Unknown,Unknown,pharmacy,pharmacy,Unknown,Unknown,Unknown,35.1503451,33.3982526
Marina Neophytou,Unknown,Unknown,Unknown,Unknown,Unknown,Unknown,pharmacy,pharmacy,Unknown,Unknown,Unknown,35.1626548,33.3156016
Antonis Arnaoutou,Unknown,Unknown,Unknown,Unknown,Unknown,Unknown,pharmacy,pharmacy,Unknown,Unknown,Unknown,35.0449873,33.9793637
Χαρης Κουντουρος Φαρμακειο,Unknown,Unknown,Unknown,Unknown,Unknown,Unknown,pharmacy,pharmacy,Unknown,Unknown,Unknown,35.1603797,33.3171086
Elena Michael,Unknown,Unknown,Unknown,Unknown,Unknown,Unknown,pharmacy,Unknown,Unknown,Unknown,Unknown,35.0436277,33.9970571
Kalitsioni,Unknown,Unknown,Unknown,Unknown,Unknown,Unknown,pharmacy,pharmacy,Unknown,Unknown,Unknown,35.1573453,33.3869239
Michalis Michailides,Unknown,Unknown,Unknown,Unknown,Unknown,Unknown,pharmacy,pharmacy,Unknown,Unknown,Unknown,34.7505587,33.3159677
Loukas tsangaris - bridgehouse,Unknown,Unknown,Unknown,Unknown,Unknown,Unknown,pharmacy,pharmacy,Unknown,Unknown,Unknown,35.1652355,33.3509092
Unknown,Unknown,Unknown,Unknown,Unknown,Unknown,Unknown,pharmacy,Unknown,Unknown,Unknown,Unknown,34.7755909,32.4314401
Dr Mayrogeni Margarita Dermatologos,Unknown,Unknown,Unknown,Unknown,Unknown,Unknown,doctors,doctor,Unknown,Unknown,Unknown,34.6814429,33.0366291
Dr X Kyriakou Maro Genikos Iatros,Unknown,Unknown,Unknown,Unknown,Unknown,Unknown,doctors,doctor,Unknown,Unknown,Unknown,34.6905802,33.0532862
Dr Zenios Michalis Orthopedikos,Unknown,Unknown,Unknown,Unknown,Unknown,Unknown,doctors,doctor,Unknown,Unknown,Unknown,34.6805125,33.0399156
Avdimou Health Centre,Unknown,Unknown,Unknown,Unknown,Unknown,Unknown,hospital,Unknown,Unknown,Unknown,Unknown,34.6950336,32.7630268
Dr Mixalis Pneymologo,Unknown,Unknown,Unknown,Unknown,Unknown,Unknown,clinic,clinic,Unknown,Unknown,Unknown,35.1658346,33.3298246
Unknown,Unknown,Unknown,Unknown,Unknown,Unknown,Unknown,pharmacy,pharmacy,Unknown,Unknown,Unknown,35.2059034,33.8936657
Unknown,Unknown,Unknown,Unknown,Unknown,Unknown,Unknown,pharmacy,Unknown,Unknown,Unknown,Unknown,34.987461,33.995292
Skevi Marinou Pharmacy,Unknown,Democratias,Unknown,5390,Unknown,Unknown,pharmacy,Unknown,+35723743636,Unknown,Mo-Sa 08:30-19:30,35.0282668,33.9495562
Dr. Maria Papagianni Kryfti,Unknown,Dorieon,Nicosia,2023,Unknown,Unknown,dentist,dentist,Unknown,Unknown,Mo-Fr 09:00-18:00,35.1454994,33.3588813
Unknown,Unknown,Unknown,Unknown,Unknown,Unknown,Unknown,clinic,Unknown,Unknown,Unknown,Unknown,34.7708366,33.2965203
Unknown,Unknown,Unknown,Unknown,Unknown,Unknown,Unknown,doctors,doctor,Unknown,https://psychiatry-cy.com/,Unknown,34.6870197,33.0407015
Unknown,Unknown,Unknown,Unknown,Unknown,Unknown,Unknown,pharmacy,pharmacy,Unknown,Unknown,Unknown,35.207376,33.3443094
Unknown,Unknown,Unknown,Unknown,Unknown,Unknown,Unknown,pharmacy,Unknown,Unknown,Unknown,Unknown,35.2832543,33.2792546
Diş Hekimliği Fakültesi,Unknown,Unknown,Lefkoşa,Unknown,Unknown,Unknown,hospital,hospital,Unknown,Unknown,Unknown,35.2291936,33.321852
Unknown,Unknown,Unknown,Unknown,Unknown,Unknown,Unknown,pharmacy,pharmacy,Unknown,Unknown,Unknown,34.6960176,33.0452994
Helens Farmacy,Unknown,Unknown,Unknown,Unknown,Unknown,Unknown,pharmacy,Unknown,Unknown,Unknown,Unknown,34.7564351,32.4164523
Unknown,Unknown,Unknown,Unknown,Unknown,Unknown,Unknown,pharmacy,pharmacy,Unknown,Unknown,Unknown,35.1703253,33.3578343
Şifa DentalCare,Unknown,"Lefkoşa Akdoğan Yolu, Akdoğan",famagusta,Unknown,Unknown,Unknown,hospital,hospital,+90 5338556655,Unknown,Unknown,35.1083827,33.6883859
Aczante Pharmacy,Unknown,Unknown,Unknown,Unknown,Unknown,Unknown,pharmacy,pharmacy,Unknown,Unknown,Unknown,35.253537,33.9001063
Unknown,Unknown,Unknown,Unknown,Unknown,Unknown,Unknown,pharmacy,Unknown,Unknown,Unknown,Unknown,35.2190129,33.4660768
Unknown,Unknown,Unknown,Unknown,Unknown,Unknown,Unknown,doctors,doctor,Unknown,Unknown,Unknown,35.2610861,33.8995129
Dr Xrystodoulou Xristakis,Unknown,Unknown,Unknown,Unknown,Unknown,Unknown,doctors,doctor,Unknown,Unknown,Unknown,34.6860152,33.022051
Dr Prokopiou Panagiotis,Unknown,Unknown,Unknown,Unknown,Unknown,Unknown,doctors,doctor,Unknown,Unknown,Unknown,34.6777234,33.0229809
Dr Demosthenous Panagiotis,Unknown,Unknown,Unknown,Unknown,Unknown,Unknown,doctors,doctor,Unknown,Unknown,Unknown,34.682356,33.0175732
Dr Konstantinou Vasos,Unknown,Unknown,Unknown,Unknown,Unknown,Unknown,doctors,doctor,Unknown,Unknown,Unknown,34.6913071,33.0315329
Dr Fiotaki Kyriaki,Unknown,Unknown,Unknown,Unknown,Unknown,Unknown,doctors,doctor,Unknown,Unknown,Unknown,34.6823558,33.0175916
Costas Chari Clinical Dietitian-Nutritionist,Unknown,Μανώλη Καλομοίρη,Limassol,3030,Unknown,Unknown,doctors,doctor,+357 25 378080,https://limassolnutrition.com,Unknown,34.6865822,33.0483016
Pharmacy Despoina Maurogianni,Unknown,Unknown,Unknown,Unknown,Unknown,Unknown,pharmacy,pharmacy,Unknown,Unknown,"Mo,Tu,Th,Fr 08:00-13:00,15:00-18:30; We,Sa 08:00-13:30",34.6868048,33.0517755
Crown IVF,Unknown,Unknown,Unknown,Unknown,Unknown,Unknown,clinic,clinic,Unknown,Unknown,Unknown,35.1274859,33.9260692
Πανίκος Σαββίδης,Unknown,Unknown,Unknown,Unknown,Unknown,Unknown,pharmacy,Unknown,Unknown,Unknown,Unknown,34.77722,32.4232058
Unknown,Unknown,Unknown,Unknown,Unknown,Unknown,Unknown,pharmacy,Unknown,Unknown,Unknown,Unknown,34.706008,33.0864011
Unknown,Unknown,Unknown,Unknown,Unknown,Unknown,Unknown,pharmacy,Unknown,Unknown,Unknown,Unknown,34.9904133,33.9723337
Δρ. Αντώνης Γλυκερίου,Unknown,Armenias,Unknown,2006,Unknown,Unknown,doctors,doctor,70000171,Unknown,"Mo-Fr 09:00-13:00,16:00-20:00",35.1537647,33.3651474
Dr. Leonidou Clinic Orthodontics & Pediatric Dentistry,Unknown,Unknown,Unknown,Unknown,Unknown,Unknown,dentist,dentist,+35725558899,Unknown,Unknown,34.6838791,33.0439906
Dr Evgenios Metaxas Pulmonologist MD;Δρ Ευγένιος Μεταξάς,Unknown,Marias Rousou Michaelide;Marias Rousou Michaelidi,Limassol;Lemesos,3117,Unknown,Unknown,doctors,hospital;doctor,+357 25 104154;,https://pneumoncy.com/,Mo-Fr 09:00-17:00,34.7053568,33.030549
Unknown,Unknown,Unknown,Unknown,Unknown,Unknown,Unknown,pharmacy,Unknown,Unknown,Unknown,Unknown,34.7044598,33.106555
Κέντρο Αιμοδοσίας Έγκωμης,Unknown,Nikou Granidioti,Engomi,2411,Unknown,Unknown,Unknown,blood_donation,Unknown,Unknown,Unknown,35.158481,33.3325714
Unknown,Unknown,Unknown,Unknown,Unknown,Unknown,Unknown,doctors,doctor,Unknown,Unknown,Unknown,34.9967469,33.7930844
Dr Bugra Sadikoglu Cosmetic Surgery Clinic,Unknown,Terazi Sokak,Unknown,Unknown,Unknown,Unknown,clinic,clinic,00905338673347,http://www.aestheticsurgerycyprus.com,Unknown,35.3293357,33.3339522
Παιδί - Καρδιολογική κλινική,Unknown,Unknown,Unknown,Unknown,Unknown,Unknown,clinic,clinic,Unknown,Unknown,Unknown,35.1408661,33.372028
Unknown,Unknown,Unknown,Unknown,Unknown,Unknown,Unknown,Unknown,yes,Unknown,Unknown,Unknown,35.4193128,34.0694714
"Angeliki Ntre, Rheumatologist",Unknown,Alexandrou Pappagou,Paphos,Unknown,Unknown,Unknown,clinic,clinic,Unknown,Unknown,Unknown,34.7806598,32.4426894
Cyprus Happy Smile Dental Clinic,Unknown,Omirou,Aglantzia,2121,Unknown,Unknown,dentist,dentist,+357 22 499272,https://www.cyprushappysmile.com/,Unknown,35.1432951,33.3789644
Udent Clinic,Unknown,Cebeci Sokak,Gönyeli,99150,Unknown,Unknown,hospital,hospital,Unknown,Unknown,Unknown,35.2079799,33.3098478
Kunter Güven Hastanesi,Unknown,Unknown,Unknown,Unknown,Unknown,Unknown,hospital,hospital,Unknown,Unknown,Unknown,35.1168594,33.9359325
Balanced body φυσιοθαραπευτικό κέντρο,Unknown,Unknown,Unknown,Unknown,Unknown,Unknown,Unknown,physiotherapist,Unknown,Unknown,Unknown,35.1625235,33.3366489
Δικταίον Ιατρικό κέντρο,Unknown,Λεωφ. Στροβόλου,Unknown,Unknown,Unknown,Unknown,clinic,yes;clinic,22020050,Unknown,Unknown,35.1272381,33.323864
Φυσιοθεραπευτής Κτωρής,Unknown,Unknown,Unknown,Unknown,Unknown,Unknown,Unknown,physiotherapist,Unknown,Unknown,Unknown,35.1481229,33.3406712
Διαγνωστικό κέντρο Αγ. Θέρισσος,Unknown,Λεωφόρος Σπύρου Κυπριανού,Unknown,Unknown,Unknown,Unknown,Unknown,yes,22442630,Unknown,Unknown,35.1292036,33.361785
Unknown,Unknown,Unknown,Unknown,Unknown,Unknown,Unknown,doctors,doctor,Unknown,Unknown,Unknown,34.6886735,33.0330048
Livingstone Medical,Unknown,Leoforos Igoumenou Leontiou,Tala,Unknown,Unknown,Unknown,hospital,hospital,Unknown,Unknown,Unknown,34.8386327,32.4367546
Pavlides Lab,Unknown,Unknown,Unknown,Unknown,Unknown,Unknown,Unknown,laboratory,Unknown,https://www.pavlideslabs.com/,Unknown,34.6792195,33.042069
Ph. Emilia Pharmacy,Unknown,Apostolou Varnava,Unknown,3065,Unknown,Unknown,pharmacy,Unknown,25660088,Unknown,Unknown,34.6815873,33.0232147
Δρ. Ανδρέας Κατσουνωτος,Unknown,Unknown,Unknown,3065,Unknown,Unknown,dentist,dentist,25662287,Unknown,Unknown,34.6815655,33.0188349
Ygia Polyclinic clinical laboratory,Unknown,Unknown,Unknown,Unknown,Unknown,Unknown,Unknown,laboratory,Unknown,Unknown,Unknown,34.6824237,33.0401044
Mediwell,Unknown,Unknown,Paphos,Unknown,Unknown,Unknown,clinic,Unknown,+35726100377,http://www.mediwell.com.cy,Unknown,34.7751844,32.4262028
Unknown,Unknown,Unknown,Unknown,Unknown,Unknown,Unknown,Unknown,sample_collection,Unknown,Unknown,Unknown,34.7698538,32.4394696
Covid-19 Treatment Hospital,Unknown,Unknown,Unknown,Unknown,Unknown,Unknown,Unknown,yes,Unknown,Unknown,Unknown,35.2066307,33.3341095
Dr. Makridis Konstantinos,Unknown,Unknown,Unknown,Unknown,Unknown,Unknown,doctors,doctor,+357 25 101102,Unknown,Unknown,34.6808504,33.0131331
Michalis Varnava X-Ray Clinic,Unknown,Unknown,Unknown,Unknown,Unknown,Unknown,clinic,clinic,Unknown,Unknown,Unknown,34.6816927,33.0348682
Unknown,Unknown,Unknown,Unknown,Unknown,Unknown,Unknown,pharmacy,pharmacy,Unknown,Unknown,Unknown,34.6872307,33.0654523
Unknown,Unknown,Unknown,Unknown,Unknown,Unknown,Unknown,dentist,dentist,25 588866,Unknown,Unknown,34.6960433,33.0623226
Nicosia Dental clinic,Unknown,Γεωργίου Δάβαρη,Strovolos,Unknown,Unknown,Unknown,dentist,dentist,Unknown,Unknown,Unknown,35.1424071,33.360274
Unknown,Unknown,Unknown,Unknown,Unknown,Unknown,Unknown,pharmacy,pharmacy,Unknown,Unknown,Unknown,35.1439537,33.3463849
Unknown,Unknown,Unknown,Unknown,Unknown,Unknown,Unknown,pharmacy,pharmacy,Unknown,Unknown,Unknown,34.7623093,32.4293428
Unknown,Unknown,Unknown,Unknown,Unknown,Unknown,Unknown,pharmacy,Unknown,Unknown,Unknown,Unknown,34.7154751,33.0858925
E.M. Pharmacy Ltd,Unknown,Leoforos Kappari,Unknown,5291,Unknown,Unknown,pharmacy,pharmacy,Unknown,Unknown,Unknown,35.0487966,34.0163327
Αρχονταρίκι Και Γραφείο Ιερού Ναού Παναγίας Χρυσελεούσης Αωνικάριον,Unknown,Unknown,Unknown,Unknown,Unknown,Unknown,Unknown,hospice,Unknown,Unknown,Unknown,34.7529112,33.0985978
Unknown,Unknown,Unknown,Unknown,Unknown,Unknown,Unknown,pharmacy,pharmacy,253822442,Unknown,Unknown,34.6887465,33.0368255
Laspos orthodontics center,Unknown,Unknown,Unknown,Unknown,Unknown,Unknown,dentist,dentist,Unknown,Unknown,Unknown,34.6923332,33.0349937
Μιχάλης Ν. Καλογηρου,Unknown,Unknown,Πάνω Λεύκαρα,7700,Unknown,Unknown,dentist,dentist,Unknown,Unknown,Unknown,34.8667927,33.3064857
Ασπρος Ανδρεας,Unknown,Unknown,Unknown,Unknown,Unknown,Unknown,pharmacy,pharmacy,Unknown,Unknown,Unknown,34.6862914,33.0383302
Unknown,Unknown,Unknown,Unknown,Unknown,Unknown,Unknown,dentist,dentist,Unknown,Unknown,Unknown,34.6886443,33.0326646
QQC laboratory,Unknown,Unknown,Unknown,Unknown,Unknown,Unknown,Unknown,laboratory,+35799126634,www.qqclab.com,Unknown,34.6880572,33.0312888
Unknown,Unknown,Unknown,Unknown,Unknown,Unknown,Unknown,pharmacy,pharmacy,Unknown,Unknown,Unknown,34.6862694,33.0341891
Μαρίνα Φιλιππίδου Φουρλά,Unknown,Unknown,Unknown,Unknown,Unknown,Unknown,pharmacy,pharmacy,Unknown,Unknown,Unknown,34.6853172,33.0257555
Unknown,Unknown,Unknown,Unknown,Unknown,Unknown,Unknown,pharmacy,pharmacy,Unknown,Unknown,Unknown,34.6809773,33.0272654
UNIC Primary Care Centre,Unknown,M. Drakou,Engomi,2408,Unknown,Unknown,Unknown,doctor,+357 22 368900,https://www.unic.ac.cy/medicalcentre/,Unknown,35.1648,33.3226743
Medifos Center of Laboratory Medicine and Molecular Diagnosis,Unknown,Unknown,Unknown,Unknown,Unknown,Unknown,Unknown,laboratory,Unknown,Unknown,Unknown,35.1643804,33.318333
Unknown,Unknown,Unknown,Unknown,Unknown,Unknown,Unknown,pharmacy,Unknown,Unknown,Unknown,Unknown,34.7058886,33.0865794
Unknown,Unknown,Unknown,Unknown,Unknown,Unknown,Unknown,pharmacy,pharmacy,Unknown,Unknown,Unknown,34.6991247,33.0971657
COVID-19 Quick Testing point,Unknown,Unknown,Unknown,Unknown,Unknown,Unknown,Unknown,sample_collection,Unknown,Unknown,Unknown,34.700955,33.0983379
Unknown,Unknown,Unknown,Unknown,Unknown,Unknown,Unknown,pharmacy,pharmacy,Unknown,Unknown,Unknown,34.6958112,33.0337172
Smile Design,Unknown,Achaion,Limassol,3022,Unknown,Unknown,dentist,dentist,+357 25 376147,https://www.smiledesign.com.cy/,Mo-Fr 09:00-18:00,34.6802728,33.0372146
Dr. Mary Sampson,Unknown,Unknown,Unknown,Unknown,Unknown,Unknown,dentist,dentist,Unknown,Unknown,Unknown,34.9175773,33.6311245
Παβλος Χαρτοσιας,Unknown,Unknown,Unknown,Unknown,Unknown,Unknown,doctors,doctor,Unknown,Unknown,Unknown,34.691675,33.0333465
Αρτεμις Πουσου,Unknown,Unknown,Unknown,Unknown,Unknown,Unknown,doctors,doctor,99132773,Unknown,Unknown,34.6932586,33.0384265
Salvia Michelides,Unknown,Unknown,Unknown,Unknown,Unknown,Unknown,doctors,doctor,25585869,Unknown,Unknown,34.6923109,33.0392335
Unknown,Unknown,Unknown,Unknown,Unknown,Unknown,Unknown,dentist,dentist,Unknown,Unknown,Unknown,34.6849967,33.0602539
Unknown,Unknown,Unknown,Unknown,Unknown,Unknown,Unknown,pharmacy,pharmacy,Unknown,Unknown,Unknown,34.6927985,33.0804364
Dental & Implant Surgery Clinic,Unknown,Unknown,Unknown,Unknown,Unknown,Unknown,dentist,dentist,22 232477 ext: 67522,Unknown,"Mo-Fr 08:30-13:00,15:30-18:30",34.6914397,33.0318734
American Institute,Unknown,Unknown,Unknown,Unknown,Unknown,Unknown,clinic,clinic,Unknown,Unknown,Unknown,34.6884686,33.0104753
Unknown,Unknown,Unknown,Unknown,Unknown,Unknown,Unknown,pharmacy,pharmacy,Unknown,Unknown,Unknown,34.6885666,33.010304
Dr. Hadjiloucas,Unknown,Unknown,Unknown,Unknown,Unknown,Unknown,doctors,doctor,Unknown,Unknown,Unknown,34.6824315,33.0393908
Clinical Exercise Physiology,Unknown,Unknown,Unknown,Unknown,Unknown,Unknown,doctors,doctor,Unknown,Unknown,Unknown,34.6909722,33.0500217
Παντελης Παναγιοτου,Unknown,Unknown,Unknown,Unknown,Unknown,Unknown,doctors,doctor,99577441,Unknown,Unknown,34.691846,33.0532601
Community Clinic Moutagiakkas,Unknown,Unknown,Unknown,Unknown,Unknown,Unknown,clinic,clinic,Unknown,Unknown,Unknown,34.7210008,33.1011953
Unknown,Unknown,Unknown,Unknown,Unknown,Unknown,Unknown,pharmacy,Unknown,Unknown,Unknown,Unknown,34.7754011,32.420859
Unknown,Unknown,Unknown,Unknown,Unknown,Unknown,Unknown,pharmacy,Unknown,Unknown,Unknown,Unknown,34.7775122,32.4201908
Σε. Α. Βασιλειαδου,Unknown,Unknown,Unknown,Unknown,Unknown,Unknown,doctors,doctor,Unknown,Unknown,Unknown,34.7775674,32.4221133
Panagiotis Phillipou,Unknown,Unknown,Unknown,Unknown,Unknown,Unknown,dentist,dentist,26220392,Unknown,Unknown,34.7650749,32.4110702
Apostolides Pavlos Pharmacy,Unknown,Kosma Lysioti,Unknown,Unknown,Unknown,Unknown,pharmacy,pharmacy,Unknown,Unknown,Unknown,34.9126964,33.6368082
Nicosia Medical Center,Unknown,Πειραιώς,Strovolos,2023,Unknown,Unknown,clinic,clinic,+357 22 444 444,https://nicosiamedicalcenter.com/,Unknown,35.146599,33.3531931
Bright Smile,Unknown,Unknown,Unknown,Unknown,Unknown,Unknown,dentist,dentist,Unknown,https://brightsmiledentalcenter.com,Unknown,35.1625844,33.3534633
Unknown,Unknown,Unknown,Unknown,Unknown,Unknown,Unknown,pharmacy,pharmacy,Unknown,Unknown,Unknown,34.6810051,33.0272927
Unknown,Unknown,Unknown,Unknown,Unknown,Unknown,Unknown,doctors,doctor,Unknown,Unknown,Unknown,34.6885129,33.0371265
Medi Chem Labs,Unknown,Unknown,Unknown,Unknown,Unknown,Unknown,Unknown,laboratory,25212644,Unknown,Unknown,34.6916919,33.0392015
Unknown,Unknown,Unknown,Unknown,Unknown,Unknown,Unknown,pharmacy,pharmacy,Unknown,Unknown,Unknown,34.6881583,33.0677956
Unknown,Unknown,Unknown,Unknown,Unknown,Unknown,Unknown,pharmacy,pharmacy,Unknown,Unknown,Unknown,34.7024124,33.1062032
Unknown,Unknown,Unknown,Unknown,Unknown,Unknown,Unknown,pharmacy,pharmacy,Unknown,Unknown,Unknown,34.7102055,33.1301836
Dr Panayiotis Trimikliniotis,Unknown,Leoforos Archiepiskopou Makariou III,Unknown,4003,Unknown,Unknown,doctors,doctor,25752233,Unknown,"Mo-Fr 09:00-13:00, 16:00-19:00",34.6978114,33.0459401
Unknown,Unknown,Unknown,Unknown,Unknown,Unknown,Unknown,pharmacy,pharmacy,Unknown,Unknown,Unknown,34.7941969,32.444824
Syn Lab,Unknown,Unknown,Unknown,Unknown,Unknown,Unknown,Unknown,blood_donation,Unknown,Unknown,Unknown,34.7942583,32.4448472
Unknown,Unknown,Unknown,Unknown,Unknown,Unknown,Unknown,pharmacy,pharmacy,Unknown,Unknown,Unknown,35.0328386,32.4252917
Dr. Elena Georgiou,Unknown,Unknown,Unknown,Unknown,Unknown,Unknown,dentist,dentist,Unknown,Unknown,26322266,35.0340204,32.4274292
Evangelismos,Unknown,Unknown,Unknown,Unknown,Unknown,Unknown,clinic,clinic,Unknown,Unknown,26323434,35.0337876,32.4274035
Pavlides Labs,Unknown,Unknown,Unknown,Unknown,Unknown,Unknown,Unknown,laboratory,77770507,Unknown,Unknown,35.0355941,32.4285217
Δρ. Γιώργιος Νεοφύτου ΜΔ,Unknown,Unknown,Unknown,Unknown,Unknown,Unknown,doctors,doctor,Unknown,Unknown,Unknown,35.0355737,32.4276194
Δρ. Α. Καραμάνη,Unknown,Unknown,Unknown,Unknown,Unknown,Unknown,doctors,doctor,26323322,Unknown,Unknown,35.0355785,32.4274902
Unknown,Unknown,Unknown,Unknown,Unknown,Unknown,Unknown,Unknown,sample_collection,Unknown,Unknown,Unknown,35.0362514,32.4277452
Unknown,Unknown,Unknown,Unknown,Unknown,Unknown,Unknown,clinic,clinic,Unknown,Unknown,Unknown,35.0362027,32.4293356
Unknown,Unknown,Unknown,Unknown,Unknown,Unknown,Unknown,Unknown,laboratory,26911990,Unknown,Unknown,35.035669,32.4263382
Unknown,Unknown,Unknown,Unknown,Unknown,Unknown,Unknown,dentist,dentist,Unknown,Unknown,Unknown,34.9926018,33.7783526
Unknown,Unknown,Unknown,Unknown,Unknown,Unknown,Unknown,pharmacy,pharmacy,Unknown,Unknown,Unknown,34.9918629,33.7791887
Unknown,Unknown,Unknown,Unknown,Unknown,Unknown,Unknown,doctors,doctor,Unknown,Unknown,Unknown,34.691904,33.0622471
Analysis Strovolos,Unknown,Λεωφόρος Σταυρού,Strovolos,Unknown,Unknown,Unknown,Unknown,laboratory,Unknown,Unknown,Mo-Fr 07:00-17:30; Sa 07:00-13:00,35.1349988,33.3573028
Βιοανάλυσις,Unknown,Unknown,Unknown,Unknown,Unknown,Unknown,Unknown,laboratory,Unknown,Unknown,Unknown,35.1582432,33.3546449
Synlab,Unknown,Πειραιώς,Strovolos,2023,Unknown,Unknown,Unknown,laboratory,Unknown,Unknown,Unknown,35.1467024,33.3532207
Unknown,Unknown,Unknown,Unknown,Unknown,Unknown,Unknown,Unknown,laboratory,+357 22751411,Unknown,Unknown,35.1673486,33.3632171
Dr. Tatyana Protopapa,Unknown,Unknown,Unknown,Unknown,Unknown,Unknown,doctors,doctor,Unknown,Unknown,Unknown,35.1674327,33.3632825
Alpha Physio Care,Unknown,Iosif Hadjiiosif,Strovolos,2021,Unknown,Unknown,Unknown,physiotherapist,+357 22322408,https://alphaphysiocare.com,"Mo,Th 08:00-20:00; Tu,We,Fr 08:00-17:00",35.1454582,33.3595809
Κοινοτικο Ιατρειο Κουκλιον,Unknown,Unknown,Unknown,Unknown,Unknown,Unknown,clinic,clinic,Unknown,Unknown,Unknown,34.7088105,32.5752747
Dr. Antigoni Pafiou,Unknown,Unknown,Unknown,Unknown,Unknown,Unknown,dentist,dentist,96422848,Unknown,Unknown,34.6877966,33.0655353
Unknown,Unknown,Unknown,Unknown,Unknown,Unknown,Unknown,clinic,clinic,Unknown,Unknown,Unknown,35.1229984,33.330077
Unknown,Unknown,Unknown,Unknown,Unknown,Unknown,Unknown,Unknown,laboratory,25211772,Unknown,Unknown,34.6570171,32.9981387
Unknown,Unknown,Unknown,Unknown,Unknown,Unknown,Unknown,pharmacy,pharmacy,Unknown,Unknown,Unknown,34.6579818,33.0005532
Unknown,Unknown,Unknown,Unknown,Unknown,Unknown,Unknown,Unknown,sample_collection,Unknown,Unknown,Unknown,34.6579956,33.0005804
Unknown,Unknown,Unknown,Unknown,Unknown,Unknown,Unknown,pharmacy,pharmacy,Unknown,Unknown,Unknown,34.6842251,33.0317011
Unknown,Unknown,Unknown,Unknown,Unknown,Unknown,Unknown,Unknown,laboratory,Unknown,Unknown,Unknown,34.6898542,33.0181211
Unknown,Unknown,Unknown,Unknown,Unknown,Unknown,Unknown,pharmacy,pharmacy,Unknown,Unknown,Unknown,34.8608455,32.9137126
Unknown,Unknown,Unknown,Unknown,Unknown,Unknown,Unknown,Unknown,sample_collection,Unknown,Unknown,Unknown,34.8607549,32.9136773
Pediatrician,Unknown,Unknown,Unknown,Unknown,Unknown,Unknown,doctors,doctor,+357 99627058,Unknown,Unknown,35.0472626,33.97716
Therapylab,Unknown,Unknown,Unknown,Unknown,Unknown,Unknown,Unknown,physiotherapist,+357 23730738,Unknown,"Mo-Fr 09:00-13:00, 15:00-19:00",35.0441478,33.9779427
Unknown,Unknown,Unknown,Unknown,Unknown,Unknown,Unknown,pharmacy,pharmacy,Unknown,Unknown,Unknown,35.1135427,32.8495103
Unknown,Unknown,Unknown,Unknown,Unknown,Unknown,Unknown,doctors,doctor,25335982,Unknown,Unknown,34.6824492,33.0290199
"Y. Konnaris, MSc",Unknown,Unknown,Unknown,Unknown,Unknown,Unknown,doctors,doctor,Unknown,Unknown,Unknown,34.6895024,33.0383156
Unknown,Unknown,Unknown,Unknown,Unknown,Unknown,Unknown,pharmacy,pharmacy,Unknown,Unknown,Unknown,35.1718059,33.3738564
Unknown,Unknown,Unknown,Unknown,Unknown,Unknown,Unknown,pharmacy,pharmacy,Unknown,Unknown,Unknown,35.169047,33.3483964
Xenia Yiallorou,Unknown,Unknown,Unknown,Unknown,Unknown,Unknown,pharmacy,pharmacy,Unknown,Unknown,Unknown,35.1611582,33.3689081
Unknown,Unknown,Unknown,Unknown,Unknown,Unknown,Unknown,pharmacy,pharmacy,Unknown,Unknown,Unknown,34.6786234,33.0414395
Medical Centre,Unknown,Unknown,Unknown,Unknown,Unknown,Unknown,clinic,clinic,Unknown,Unknown,Unknown,35.1602468,33.355718
Έλλη Κωνσταντινίδου,Unknown,Unknown,Unknown,Unknown,Unknown,Unknown,pharmacy,pharmacy,Unknown,Unknown,Unknown,34.6827272,33.0128231
Ελένη & Χαρις Πραστιτη,Unknown,Unknown,Unknown,Unknown,Unknown,Unknown,pharmacy,pharmacy,Unknown,Unknown,Unknown,34.6937656,33.0346873
Aycan Eczanesi,Unknown,Unknown,Unknown,Unknown,Unknown,Unknown,pharmacy,pharmacy,Unknown,Unknown,Unknown,35.2006622,32.9912284
Παρασκευή Βασιλείου & Κωνσταντίνα Κυριάκου,Unknown,Unknown,Unknown,Unknown,Unknown,Unknown,pharmacy,pharmacy,Unknown,Unknown,"Mo-Fr 08:00-20:00, Sa 08:00-17:00",34.8666614,33.4955471
Unknown,Unknown,Unknown,Unknown,Unknown,Unknown,Unknown,pharmacy,pharmacy,Unknown,Unknown,Unknown,34.9839791,33.6548556
Ραφαέλα Θρασυβουλιδου,Unknown,Unknown,Unknown,Unknown,Unknown,Unknown,pharmacy,pharmacy,Unknown,Unknown,Unknown,34.766899,32.4159266
Uyumsal Eczanesi,Unknown,Unknown,Unknown,Unknown,Unknown,Unknown,pharmacy,pharmacy,Unknown,Unknown,Unknown,35.1921951,32.994556
Unknown,Unknown,Unknown,Unknown,Unknown,Unknown,Unknown,dentist,dentist,Unknown,Unknown,Unknown,34.6874661,33.0314074
Omicron plus,Unknown,Unknown,Unknown,Unknown,Unknown,Unknown,Unknown,laboratory,25323299,Unknown,Unknown,34.6910277,33.0685952
Unknown,Unknown,Unknown,Unknown,Unknown,Unknown,Unknown,pharmacy,pharmacy,Unknown,Unknown,Unknown,34.696485,33.0686425
Analysis,Unknown,Unknown,Unknown,Unknown,Unknown,Unknown,Unknown,laboratory,+35725353331,Unknown,Unknown,34.6967967,33.0700713
Unknown,Unknown,Unknown,Unknown,Unknown,Unknown,Unknown,pharmacy,pharmacy,Unknown,Unknown,Unknown,34.6987045,33.0736099
Unknown,Unknown,Unknown,Unknown,Unknown,Unknown,Unknown,pharmacy,pharmacy,Unknown,Unknown,Unknown,34.6997658,33.074762
Kolonakiou Medical Centre,Unknown,Unknown,Unknown,Unknown,Unknown,Unknown,clinic,clinic,Unknown,Unknown,Unknown,34.7003608,33.0763168
Zantis Physio Rehab Centre,Unknown,Unknown,Unknown,Unknown,Unknown,Unknown,doctors,doctor,25586858,Unknown,Unknown,34.7023228,33.0793489
Unknown,Unknown,Unknown,Unknown,Unknown,Unknown,Unknown,pharmacy,pharmacy,Unknown,Unknown,Unknown,34.7029834,33.0811767
Unknown,Unknown,Unknown,Unknown,Unknown,Unknown,Unknown,pharmacy,pharmacy,Unknown,Unknown,Unknown,34.7040908,33.0821045
Med Analysis,Unknown,Unknown,Unknown,Unknown,Unknown,Unknown,Unknown,laboratory,+35725355523,https://www.medanalysislab.com/,Unknown,34.695917,33.0625572
Vitadent,Unknown,Unknown,Unknown,Unknown,Unknown,Unknown,dentist,dentist,Unknown,Unknown,Unknown,34.694209,33.0853191
Fertility Center Akeso Limassol,Unknown,Andrea Vlami,Unknown,Unknown,Unknown,Unknown,clinic,clinic,+ 357 25 82 44 88,https://akeso.com.cy/,Unknown,34.6794737,33.043093
Χρήστος Αθανασίου,Unknown,Unknown,Unknown,Unknown,Unknown,Unknown,doctors,doctor,24647637,Unknown,Unknown,34.9802321,33.6568298
Γιώργος Παπαϊωάννου,Unknown,Unknown,Unknown,Unknown,Unknown,Unknown,pharmacy,pharmacy,Unknown,Unknown,Unknown,34.9843177,33.6540735
Unknown,Unknown,Unknown,Unknown,Unknown,Unknown,Unknown,hospital,hospital,‭,Unknown,Unknown,35.2622844,33.9029534
Selin Eczanesi,Unknown,Unknown,Unknown,Unknown,Unknown,Unknown,pharmacy,pharmacy,Unknown,Unknown,Unknown,35.2834747,33.8926971
Unknown,Unknown,Unknown,Unknown,Unknown,Unknown,Unknown,pharmacy,pharmacy,Unknown,Unknown,Unknown,35.2791751,33.8971952
Unknown,Unknown,Unknown,Unknown,Unknown,Unknown,Unknown,pharmacy,Unknown,Unknown,Unknown,Unknown,34.778808,32.4243598
Pharmacy Pernera-Protaras,Unknown,Unknown,Unknown,Unknown,Unknown,Unknown,pharmacy,pharmacy,+357 23 828800;+357 99 688181,https://pharmacy-charis-pieri.business.site/,Mo-Su 09:00-22:00,35.0288012,34.0435483
Unknown,Unknown,Unknown,Unknown,Unknown,Unknown,Unknown,doctors,doctor,Unknown,Unknown,Unknown,34.6922719,33.0579358
Drousiotis,Unknown,Unknown,Unknown,Unknown,Unknown,Unknown,clinic,clinic,Unknown,Unknown,Unknown,34.7061501,33.0405229
Hoca eczanesi,Unknown,Unknown,Unknown,Unknown,Unknown,Unknown,pharmacy,Unknown,Unknown,Unknown,Unknown,35.1336698,33.6559177
vadili eczanesi,Unknown,Unknown,Unknown,Unknown,Unknown,Unknown,pharmacy,Unknown,Unknown,Unknown,Unknown,35.1296117,33.6576736
Opt. Dr.Halil uzuner kulak burun bogaz,Unknown,Unknown,Unknown,Unknown,Unknown,Unknown,doctors,doctor,Unknown,Unknown,Unknown,35.1986874,33.3631663
Ιπποκράτειο Νοσηλευτικό Ίδρυμα,Unknown,Unknown,Unknown,Unknown,Unknown,Unknown,clinic,Unknown,+35726935130,Unknown,Unknown,34.7813497,32.4263278
Metaxa Radiology Center,Unknown,Unknown,Unknown,Unknown,Unknown,Unknown,doctors,doctor,Unknown,Unknown,Unknown,34.6811679,33.0329413
Eczane Doğa,Unknown,Unknown,Unknown,Unknown,Unknown,Unknown,pharmacy,pharmacy,Unknown,Unknown,Unknown,35.1910954,32.996131
Nomikos Patellis,Unknown,Unknown,Unknown,Unknown,Unknown,Unknown,pharmacy,pharmacy,+357 25 362373,Unknown,"We 09:30-14:30,Mo-Tu,Th-Fr 09:30-19:30,Sa 10:00-15:00",34.6757626,33.0437331
Elsi Kalotychou,Unknown,Anexartisias,Limassol,3036,Unknown,Unknown,pharmacy,pharmacy,Unknown,Unknown,"Mo-Sa 08:00-13:30,Mo,Tu,Th,Fr 15:00-18:30",34.6758311,33.0459654
Agamemnonos Charoula,Unknown,Vasileos Konstantinou,Unknown,Unknown,Unknown,Unknown,pharmacy,pharmacy,+357 25 870748,Unknown,Unknown,34.6983583,33.0211651
Medskin,Unknown,Unknown,Unknown,Unknown,Unknown,Unknown,clinic,Unknown,Unknown,https://www.medicalskin.com,Unknown,34.7688369,32.4340546
Unknown,Unknown,Unknown,Unknown,Unknown,Unknown,Unknown,pharmacy,pharmacy,Unknown,Unknown,Unknown,34.7374853,32.8824765
Κλινικό Χημείο Δέσπω Γ. Ξενοφώντος,Unknown,Grigori Afxentiou,Kokkinotrimithias,2660,Unknown,Unknown,Unknown,laboratory,+357 22 872929,Unknown,Unknown,35.1493103,33.212981
Unknown,Unknown,Unknown,Unknown,Unknown,Unknown,Unknown,pharmacy,Unknown,Unknown,Unknown,Unknown,34.7805599,32.4293889
Unknown,Unknown,Unknown,Unknown,Unknown,Unknown,Unknown,doctors,doctor,Unknown,Unknown,Unknown,34.6847947,33.043966
Χ. Κουριεος,Unknown,Unknown,Unknown,Unknown,Unknown,Unknown,doctors,doctor,25371177,Unknown,Unknown,34.6852789,33.0448947
Mucizem Eczanesi,Unknown,Unknown,Unknown,Unknown,Unknown,Unknown,pharmacy,pharmacy,Unknown,Unknown,Mo-Fr 08:30-17:00,35.3402107,33.2942289
Αλθαια,Unknown,Unknown,Unknown,Unknown,Unknown,Unknown,clinic,clinic,Unknown,Unknown,Unknown,34.6864073,33.0452571
Etika Lab,Unknown,Unknown,Unknown,Unknown,Unknown,Unknown,Unknown,laboratory,Unknown,Unknown,Unknown,34.6864286,33.045384
Vavilova Clinic,Unknown,Λουκή Ακρίτα,Unknown,3030,Unknown,Unknown,clinic,clinic,+35725344454,https://vavilovaclinics.com/,Unknown,34.6863202,33.0451445
Stefanos Diomedous,Unknown,Unknown,Unknown,Unknown,Unknown,Unknown,pharmacy,Unknown,Unknown,Unknown,Unknown,34.7662733,32.4446359
Blood donation station Church hall of Agios georgios havouzas,Unknown,Unknown,Unknown,Unknown,Unknown,Unknown,Unknown,blood_donation,96-651547,Unknown,Mo-Fr 07:30-20:00,34.6943926,33.0149351
Ελένη Παπαπολυβίου,Unknown,Unknown,Unknown,Unknown,Unknown,Unknown,pharmacy,Unknown,Unknown,Unknown,24/7,34.6880047,33.0531031
Elpis Medical Centre,Unknown,Unknown,Unknown,Unknown,Unknown,Unknown,clinic,clinic,Unknown,https://elpis.cy/,Unknown,34.7626231,32.417799
VieKlinik,Unknown,Unknown,Unknown,Unknown,Unknown,Unknown,hospital,clinic,Unknown,Unknown,Unknown,35.192876,33.3278881
My Wellness,Unknown,Unknown,Unknown,Unknown,Unknown,Unknown,Unknown,physiotherapist,Unknown,Unknown,Unknown,34.6812991,33.0301998
Unknown,Unknown,Unknown,Unknown,Unknown,Unknown,Unknown,dentist,dentist,Unknown,Unknown,Unknown,34.6806529,33.031617
Dr Stathis Vryonides,Unknown,Unknown,Unknown,Unknown,Unknown,Unknown,doctors,doctor,Unknown,Unknown,Unknown,34.682748,33.0400836
Dr Savvas Hadjiraftis-Surgeon Ophtalmologist,Unknown,Unknown,Unknown,Unknown,Unknown,Unknown,clinic,Unknown,Unknown,Unknown,Unknown,34.787107,32.4387458
Pampina Antoniou,Unknown,Unknown,Unknown,Unknown,Unknown,Unknown,pharmacy,Unknown,Unknown,Unknown,Unknown,34.7870437,32.4388819
Logokosmos,Unknown,Unknown,Unknown,Unknown,Unknown,Unknown,clinic,Unknown,Unknown,Unknown,Unknown,34.7820222,32.4281531
Tymvios Labs,Unknown,Unknown,Unknown,Unknown,Unknown,Unknown,Unknown,laboratory,Unknown,Unknown,Unknown,34.6923284,33.062809
Dr. Marina Syrimi,Unknown,Unknown,Unknown,Unknown,Unknown,Unknown,doctors,doctor,Unknown,Unknown,Unknown,34.6860488,33.0503402
Unknown,Unknown,Unknown,Unknown,Unknown,Unknown,Unknown,doctors,doctor,Unknown,Unknown,Unknown,34.6787568,32.9946015
Unknown,Unknown,Unknown,Unknown,Unknown,Unknown,Unknown,Unknown,laboratory,Unknown,Unknown,Unknown,34.6792087,32.9934874
Eczane Faika Coşkun,Unknown,Unknown,Unknown,Unknown,Unknown,Unknown,pharmacy,pharmacy,Unknown,Unknown,Unknown,35.2370622,33.0220698
Physiomove Physiotherapy and Rehabilitation Center,Unknown,Unknown,Unknown,Unknown,Unknown,Unknown,Unknown,physiotherapist,+905488801855,https://physiomovecy.com,"Mo-Fr 07:00-20:00, Sat 07:00-14:00",35.3320051,33.3039463
Anna M. Sygkellidou,Unknown,Καραϊσκάκη,Limassol,3032,Unknown,Unknown,pharmacy,pharmacy,Unknown,Unknown,Unknown,34.6823661,33.0478536
Sertaç Eczanesi,Unknown,Unknown,Unknown,Unknown,Unknown,Unknown,pharmacy,pharmacy,+90 392 815 90 67,Unknown,Mo-Fr 08:00-18:00,35.3341176,33.3279407
Neocleous Lab,Unknown,Unknown,Unknown,Unknown,Unknown,Unknown,Unknown,laboratory,25343943,Unknown,Unknown,34.6901786,33.050413
Sylvana Ereifej,Unknown,Unknown,Unknown,Unknown,Unknown,Unknown,pharmacy,Unknown,Unknown,Unknown,Unknown,34.69048,33.053432
Doktor Fatma Ekenoğlu,Unknown,Unknown,Unknown,Unknown,Unknown,Unknown,doctors,doctor,Unknown,Unknown,Unknown,35.1921784,32.9945293
Op. Dr. Ersin Süha Vural,Unknown,Unknown,Unknown,Unknown,Unknown,Unknown,dentist,dentist,Unknown,Unknown,Unknown,35.1924006,32.9949148
Eczane İnci,Unknown,Unknown,Unknown,Unknown,Unknown,Unknown,pharmacy,pharmacy,Unknown,Unknown,Unknown,35.1925779,32.9951613
Dyt. Pembe Büyükhoca,Unknown,Unknown,Unknown,Unknown,Unknown,Unknown,Unknown,nutrition_counselling,Unknown,Unknown,Unknown,35.1937885,32.9991924
Emine Şentürk Eczanesi,Unknown,Unknown,Unknown,Unknown,Unknown,Unknown,pharmacy,pharmacy,Unknown,Unknown,Unknown,35.1962341,32.9929439
Eczane Resmiye Ese,Unknown,Unknown,Unknown,Unknown,Unknown,Unknown,pharmacy,pharmacy,Unknown,Unknown,Unknown,35.1973356,32.9941379
American Clinic,Unknown,Unknown,Unknown,Unknown,Unknown,Unknown,clinic,Unknown,Unknown,Unknown,Unknown,34.7769414,32.4257572
Unknown,Unknown,Unknown,Unknown,Unknown,Unknown,Unknown,pharmacy,Unknown,Unknown,Unknown,Unknown,34.7820998,32.4390033
Αργυρώ Καρόζου,Unknown,Unknown,Unknown,Unknown,Unknown,Unknown,pharmacy,Unknown,Unknown,Unknown,Unknown,34.6706956,33.0410967
Biomedical Lab,Unknown,Unknown,Unknown,Unknown,Unknown,Unknown,Unknown,laboratory,Unknown,Unknown,Unknown,34.7807097,32.442686
Unknown,Unknown,Unknown,Unknown,Unknown,Unknown,Unknown,pharmacy,pharmacy,Unknown,Unknown,Unknown,34.7009104,33.0338556
Eczane Kıvanç Ufuk,Unknown,Unknown,Unknown,Unknown,Unknown,Unknown,pharmacy,pharmacy,Unknown,Unknown,Unknown,35.1991453,32.993502
Eczane Camcıoğlu,Unknown,Unknown,Unknown,Unknown,Unknown,Unknown,pharmacy,pharmacy,Unknown,Unknown,Unknown,35.1987439,32.9943113
Eczane Gilanlı,Unknown,Unknown,Unknown,Unknown,Unknown,Unknown,pharmacy,pharmacy,Unknown,Unknown,Unknown,35.1940606,32.9944364
Accident and Emergency department,Unknown,Unknown,Unknown,Unknown,Unknown,Unknown,Unknown,hospital,Unknown,Unknown,Unknown,35.1280774,33.3772695
Ελενα Τζιαπουρα,Unknown,Unknown,Unknown,Unknown,Unknown,Unknown,pharmacy,Unknown,Unknown,Unknown,Unknown,34.7865486,32.437752
Physiotime,Unknown,Sinergasias,Unknown,Unknown,Unknown,Unknown,Unknown,rehabilitation,Unknown,Unknown,Unknown,34.8433078,33.5741608
Akçay Sağlık Ocağı,Unknown,Unknown,Unknown,Unknown,Unknown,Unknown,Unknown,yes,Unknown,Unknown,Unknown,35.1787339,33.0330847
Ecnomou Clinic,Unknown,Ναυπλίου,Limassol,3025,Unknown,Unknown,clinic,clinic,Unknown,Unknown,Unknown,34.6808862,33.0417304
Eczane Arkan Adışanlı,Unknown,Unknown,Unknown,Unknown,Unknown,Unknown,pharmacy,pharmacy,Unknown,Unknown,Unknown,35.3922085,33.7429122
Αδαμάντιο Οδοντιατρικό Κέντρο,Unknown,Ιφιγενείας,Strovolos,2007,Unknown,Unknown,dentist,dentist,Unknown,Unknown,Unknown,35.1527755,33.3641985
Irene Michali,Unknown,Unknown,Unknown,Unknown,Unknown,Unknown,pharmacy,pharmacy,Unknown,Unknown,Unknown,34.8603641,33.4949584
Unknown,Unknown,Unknown,Unknown,Unknown,Unknown,Unknown,pharmacy,pharmacy,Unknown,Unknown,Unknown,34.8323643,33.5780938
European Institute of Plastic Surgery,Unknown,Αγίας Φυλάξεως,Unknown,Unknown,Unknown,Unknown,doctors,doctor,Unknown,Unknown,Unknown,34.683558,33.0380052
Σοφοκλής Π'ρπας,Unknown,Unknown,Unknown,Unknown,Unknown,Unknown,pharmacy,Unknown,Unknown,Unknown,Unknown,34.7294935,32.5135623
Unknown,Unknown,Unknown,Unknown,Unknown,Unknown,Unknown,pharmacy,pharmacy,Unknown,Unknown,Unknown,34.7864141,32.4511376
Mary Stefanidou Pharmacy,Unknown,Episkopou Lavrentiou,Unknown,Unknown,Unknown,Unknown,pharmacy,pharmacy,Unknown,Unknown,Unknown,34.6856279,33.0368232
Eczane İlayda Gülkan,Unknown,Unknown,Unknown,Unknown,Unknown,Unknown,pharmacy,pharmacy,Unknown,Unknown,Unknown,35.1674681,33.0072582
Unknown,Unknown,Unknown,Unknown,Unknown,Unknown,Unknown,doctors,doctor,Unknown,Unknown,Unknown,34.6710483,32.9366455
Unknown,Unknown,Unknown,Unknown,Unknown,Unknown,Unknown,doctors,doctor,Unknown,Unknown,Unknown,34.6707925,32.9354845
Unknown,Unknown,Unknown,Unknown,Unknown,Unknown,Unknown,clinic,clinic,Unknown,Unknown,Unknown,34.6671792,32.9339766
PhysioCure Physiotherapy Center,Unknown,Unknown,Unknown,Unknown,Unknown,Unknown,Unknown,physiotherapist,Unknown,Unknown,Unknown,34.9550586,33.6256701
Eczane Merve Gümüşok,Unknown,Unknown,Unknown,Unknown,Unknown,Unknown,pharmacy,pharmacy,Unknown,Unknown,Unknown,35.1624157,33.0145165
_,Unknown,Unknown,Unknown,Unknown,Unknown,Unknown,pharmacy,Unknown,Unknown,Unknown,Unknown,34.7104612,33.0492152
Theo Royal Medical Centre,Unknown,Unknown,Unknown,Unknown,Unknown,Unknown,clinic,clinic,Unknown,Unknown,Unknown,34.8252539,32.392759
Νικόλας Πέτρου,Unknown,Unknown,Unknown,Unknown,Unknown,Unknown,pharmacy,pharmacy,Unknown,Unknown,Unknown,35.1370107,33.351041
Unknown,Unknown,Stavrou,Strovolos,2035,Unknown,Unknown,pharmacy,pharmacy,Unknown,Unknown,Unknown,35.1363176,33.3525625
Çiftçioğlu,Unknown,Unknown,Unknown,Unknown,Unknown,Unknown,dentist,dentist,Unknown,Unknown,Unknown,35.1984032,32.9937065
Eczane Süreyya Özcoşkun,Unknown,Unknown,Unknown,Unknown,Unknown,Unknown,pharmacy,pharmacy,Unknown,Unknown,Unknown,35.2016594,32.9949175
Unknown,Unknown,Unknown,Unknown,Unknown,Unknown,Unknown,doctors,doctor,Unknown,Unknown,Unknown,34.6647157,33.0037269
Unknown,Unknown,Unknown,Unknown,Unknown,Unknown,Unknown,doctors,doctor,Unknown,Unknown,Unknown,34.6645692,33.0037141
Eczane Sıdıka Umar,Unknown,Unknown,Unknown,Unknown,Unknown,Unknown,pharmacy,pharmacy,Unknown,Unknown,Unknown,35.1718702,32.9226664
Unknown,Unknown,Unknown,Unknown,Unknown,Unknown,Unknown,Unknown,physiotherapist,Unknown,Unknown,Unknown,34.6864112,32.9593042
Akçay Eczanesi,Unknown,Unknown,Unknown,Unknown,Unknown,Unknown,pharmacy,pharmacy,Unknown,Unknown,Unknown,35.1783536,33.0317586
Aşar Eczanesi,Unknown,Unknown,Unknown,Unknown,Unknown,Unknown,pharmacy,pharmacy,Unknown,Unknown,Unknown,35.2000467,32.9920978
Doğuş Türkbayoğlu Eczanesi,Unknown,Unknown,Unknown,Unknown,Unknown,Unknown,pharmacy,pharmacy,Unknown,Unknown,Unknown,35.1993487,32.9929489
Gülsen Eczanesi,Unknown,Unknown,Unknown,Unknown,Unknown,Unknown,pharmacy,pharmacy,Unknown,Unknown,Unknown,35.1916442,32.994337
Eczane Nilgün,Unknown,Unknown,Unknown,Unknown,Unknown,Unknown,pharmacy,pharmacy,Unknown,Unknown,Unknown,35.199222,32.9929645
Avcı Eczanesi,Unknown,Unknown,Unknown,Unknown,Unknown,Unknown,pharmacy,pharmacy,Unknown,Unknown,Unknown,35.198164,32.9939423
Sevil Eczanesi,Unknown,Unknown,Unknown,Unknown,Unknown,Unknown,pharmacy,pharmacy,Unknown,Unknown,Unknown,35.1982019,32.993668
Lefke Sağlık Merkezi,Unknown,Unknown,Unknown,Unknown,Unknown,Unknown,hospital,hospital,Unknown,Unknown,Unknown,35.1121769,32.849423
Dörtyol Sağlık Merkezi,Unknown,Unknown,Unknown,Unknown,Unknown,Unknown,hospital,hospital,Unknown,Unknown,Unknown,35.174584,33.7570378
Lanitis,Unknown,Unknown,Unknown,Unknown,Unknown,Unknown,Unknown,laboratory,Unknown,Unknown,Unknown,34.7754774,32.4190396
Cesim Duran Dipkarpaz Sağlık Merkezi,Unknown,Unknown,Unknown,Unknown,Unknown,Unknown,Unknown,yes,Unknown,Unknown,Unknown,35.598409,34.3808503
Ελενα Παναγιωτου,Unknown,Unknown,Unknown,Unknown,Unknown,Unknown,pharmacy,Unknown,Unknown,Unknown,Unknown,34.7794937,32.4209433
Unknown,Unknown,Unknown,Unknown,Unknown,Unknown,Unknown,pharmacy,pharmacy,Unknown,Unknown,Unknown,34.6886979,33.0446236
Unknown,Unknown,Unknown,Unknown,Unknown,Unknown,Unknown,pharmacy,pharmacy,Unknown,Unknown,Unknown,34.9197243,33.6159133
Dental Home,Unknown,Andrea Patsalidi,Strovolos,2024,Unknown,Unknown,dentist,dentist,Unknown,Unknown,Unknown,35.1423614,33.3654735
Diplaros,Unknown,Archagelou Michail,Unknown,Unknown,Unknown,Unknown,pharmacy,pharmacy,Unknown,Unknown,Unknown,35.1543641,33.3310918
Elena Hadjioannou,Unknown,Bellapais,Strovolos,2057,Unknown,Unknown,doctors,doctor,22327702,Unknown,Unknown,35.1532555,33.3298413
Costas Pouyilouros,Unknown,Bellapais,Strovolos,2057,Unknown,Unknown,doctors,doctor,Unknown,Unknown,Unknown,35.1532103,33.3298145
Paramythia Medical Center,Unknown,Belapais,Strovolos,2057,Unknown,Unknown,clinic,clinic,Unknown,Unknown,Unknown,35.1531555,33.3297927
Swiss Medical Center,Unknown,Belapais,Strovolos,2057,Unknown,Unknown,clinic,clinic,Unknown,Unknown,Unknown,35.1531692,33.3297089
Κτενα,Unknown,Unknown,Unknown,Unknown,Unknown,Unknown,pharmacy,pharmacy,Unknown,Unknown,Unknown,35.1471093,33.3452966
Γιώργος Κουρατος,Unknown,Unknown,Unknown,Unknown,Unknown,Unknown,pharmacy,pharmacy,Unknown,Unknown,Unknown,35.1477583,33.3541557
"Physiomat, Physiotherapy & Rehabilitation Center",Unknown,Athalassis Avenue,Strovolos,Unknown,Unknown,Unknown,Unknown,physiotherapist,Unknown,Unknown,Unknown,35.1477408,33.3542554
Unknown,Unknown,Unknown,Unknown,Unknown,Unknown,Unknown,pharmacy,pharmacy,Unknown,Unknown,Unknown,35.1470832,33.3551616
Healthland,Unknown,Unknown,Unknown,Unknown,Unknown,Unknown,pharmacy,pharmacy,Unknown,Unknown,Unknown,35.1467282,33.3570025
Unknown,Unknown,Unknown,Unknown,Unknown,Unknown,Unknown,dentist,dentist,Unknown,Unknown,Unknown,35.1388656,33.3660366
Advanced Aesthetic Dermathology,Unknown,Unknown,Unknown,Unknown,Unknown,Unknown,doctors,doctor,Unknown,Unknown,Unknown,35.1388846,33.3660985
Dr Maria Krasia,Unknown,Unknown,Unknown,Unknown,Unknown,Unknown,doctors,doctor,Unknown,Unknown,Unknown,35.1388782,33.3661915
Ελένη Χ Επαμεινώνδα,Unknown,Unknown,Unknown,Unknown,Unknown,Unknown,pharmacy,Unknown,Unknown,Unknown,Unknown,34.775305,32.4338407
Acropolis Medical Center,Unknown,Athalassis Avenue,Strovolos,2085,Unknown,Unknown,clinic,clinic,Unknown,Unknown,Unknown,35.1454026,33.3606227
Unknown,Unknown,Unknown,Unknown,Unknown,Unknown,Unknown,pharmacy,pharmacy,Unknown,Unknown,Unknown,35.1817198,32.6848973
Miltiadis Grigoriou,Unknown,Leoforos Archiepiskopou Makariou III,Limassol,4000,Unknown,Unknown,pharmacy,pharmacy,+357 25 717107,Unknown,Unknown,34.6937631,33.0449253
Dr. Constantinos Ierodiakonou,Unknown,Unknown,Unknown,Unknown,Unknown,Unknown,dentist,dentist,+357 23 002150,Unknown,Unknown,35.0521095,33.9759454
Speech Lab,Unknown,Unknown,Unknown,Unknown,Unknown,Unknown,Unknown,speech_therapist,Unknown,Unknown,Unknown,35.1615437,33.3864882
Nicosia Lung Center,Unknown,Akropoleos Avenue,Strovolos,2012,Unknown,Unknown,clinic,clinic,+357 22-355188,https://www.nlc.cy/,Unknown,35.1458322,33.3602995
Opsis Medical Imaging,Unknown,Akropoleos Avenue,Strovolos,2012,Unknown,Unknown,clinic,clinic,+357 22365999,https://opsisimaging.cy/,Mo-Fr 08:30-19:30,35.1458441,33.360243
Easy Slim,Unknown,Akropoleos Avenue,Strovolos,2012,Unknown,Unknown,clinic,clinic,Unknown,Unknown,Unknown,35.1458372,33.3603463
La Pharm,Unknown,Unknown,Unknown,Unknown,Unknown,Unknown,pharmacy,Unknown,Unknown,Unknown,Unknown,34.6857974,33.0473323
Unknown,Unknown,Unknown,Unknown,Unknown,Unknown,Unknown,pharmacy,Unknown,Unknown,Unknown,Unknown,34.7857247,32.4491622
Embio Diagnostics,Unknown,Unknown,Unknown,Unknown,Unknown,Unknown,Unknown,laboratory,Unknown,Unknown,Unknown,35.1498752,33.3478577
Agapiou Clinical Labs,Unknown,Unknown,Unknown,Unknown,Unknown,Unknown,Unknown,laboratory,Unknown,Unknown,Unknown,35.1454521,33.3595089
Ευγενία Μανουσαριδου,Unknown,Unknown,Unknown,Unknown,Unknown,Unknown,pharmacy,pharmacy,Unknown,Unknown,Unknown,35.1558416,33.3571987
Χημείο Διογενους,Unknown,Unknown,Unknown,Unknown,Unknown,Unknown,Unknown,laboratory,Unknown,Unknown,Unknown,35.1538425,33.3392066
El Greco,Unknown,Unknown,Unknown,Unknown,Unknown,Unknown,hospital,hospital,Unknown,Unknown,Unknown,35.146502,33.3468009
Zen Zone Fizyoterapi ve Wellness Merkezi,Unknown,Unknown,Unknown,Unknown,Unknown,Unknown,Unknown,physiotherapist,+905338433189,https://www.facebook.com/profile.php?id=61567722502546,Unknown,35.2076371,33.3417754
Medipalas,Unknown,Unknown,Unknown,Unknown,Unknown,Unknown,Unknown,laboratory,Unknown,Unknown,Unknown,34.7313961,32.5164387
Christos Tsiaoukka Physiotherapy,Unknown,Unknown,Unknown,Unknown,Unknown,Unknown,Unknown,physiotherapist,Unknown,Unknown,Unknown,35.1600282,33.3542316
Biocheck,Unknown,Unknown,Unknown,Unknown,Unknown,Unknown,Unknown,laboratory,Unknown,Unknown,Unknown,34.6824428,33.0428007
Μαρία Γρηγορίου Παναγι,Unknown,Unknown,Unknown,Unknown,Unknown,Unknown,pharmacy,pharmacy,Unknown,Unknown,Unknown,35.1570203,33.3447039
Unknown,Unknown,Unknown,Unknown,Unknown,Unknown,Unknown,pharmacy,pharmacy,Unknown,Unknown,Unknown,35.1602376,33.3439578
The Surgery Center,Unknown,Unknown,Unknown,Unknown,Unknown,Unknown,clinic,clinic,Unknown,Unknown,Unknown,35.1225042,33.3352143
Unknown,Unknown,Unknown,Unknown,Unknown,Unknown,Unknown,pharmacy,pharmacy,Unknown,Unknown,Unknown,35.1220571,33.3397382
Kyriakoudes,Unknown,Unknown,Unknown,Unknown,Unknown,Unknown,pharmacy,pharmacy,Unknown,Unknown,Unknown,35.1628998,33.3474496
Aliki Marina Pontiki,Unknown,Unknown,Unknown,Unknown,Unknown,Unknown,pharmacy,pharmacy,Unknown,Unknown,Unknown,34.6957844,33.0885574
Kountouriotis Physio Center,Unknown,Unknown,Unknown,Unknown,Unknown,Unknown,Unknown,physiotherapist,Unknown,Unknown,Unknown,35.1221396,33.3565696
Unknown,Unknown,Unknown,Unknown,Unknown,Unknown,Unknown,hospital,hospital,Unknown,Unknown,Unknown,35.1516601,33.3114259
Varnavas Papavarnavas,Unknown,Unknown,Unknown,Unknown,Unknown,Unknown,pharmacy,pharmacy,Unknown,Unknown,Unknown,35.1537633,33.3652205
Vyrides,Unknown,Unknown,Unknown,Unknown,Unknown,Unknown,clinic,clinic,Unknown,Unknown,Unknown,35.1623096,33.362624
IRIS,Unknown,Unknown,Unknown,Unknown,Unknown,Unknown,doctors,doctor,Unknown,Unknown,Unknown,35.1567031,33.3639634
Georgios,Unknown,Unknown,Unknown,Unknown,Unknown,Unknown,doctors,doctor,Unknown,Unknown,Unknown,35.1218016,33.3388878
Physiorecovery,Unknown,Unknown,Unknown,Unknown,Unknown,Unknown,Unknown,physiotherapist,Unknown,Unknown,Unknown,35.137555,33.0536706
Σάββας & Στέλιος Κοσκινάς,Unknown,Leoforos Archiepiskopou Makariou III,Unknown,Unknown,Unknown,Unknown,pharmacy,pharmacy,+357 25 728205,Unknown,Unknown,34.6926462,33.0447819
ΧΗΜΕΙΟ ΔΗΜΗΤΡΗΣ ΤΣΑΓΓΑΡΗ,Unknown,Kyriakou Matsi Avenue,Unknown,7060,Unknown,Unknown,Unknown,laboratory,24644477,https://deltalabscy.com/,Unknown,34.9430738,33.61816
Asclepius Physiotherapy Centre,Unknown,Unknown,Unknown,Unknown,Unknown,Unknown,Unknown,physiotherapist,Unknown,Unknown,Unknown,34.7331003,33.1754438
Unknown,Unknown,Unknown,Unknown,Unknown,Unknown,Unknown,Unknown,physiotherapist,Unknown,Unknown,Unknown,35.1252723,33.3366608
Unknown,Unknown,Unknown,Unknown,Unknown,Unknown,Unknown,dentist,dentist,Unknown,Unknown,Unknown,35.1405501,33.3417448
Unknown,Unknown,Unknown,Unknown,Unknown,Unknown,Unknown,pharmacy,pharmacy,Unknown,Unknown,Unknown,35.161502,33.3316679
Unknown,Unknown,Unknown,Unknown,Unknown,Unknown,Unknown,pharmacy,Unknown,Unknown,Unknown,Unknown,34.7558946,32.4182779
Παιδιατρική@Προδρόμου,Unknown,Unknown,Unknown,Unknown,Unknown,Unknown,clinic,clinic,Unknown,Unknown,Unknown,35.1598187,33.3457677
