Name,Full Address,Street,City,Postcode,State,Country,Amenity,Healthcare,Phone,Website,Opening Hours,Latitude,Longitude
Policlínica El Flumen,Unknown,Unknown,Unknown,Unknown,Unknown,Unknown,hospital,Unknown,Unknown,Unknown,Unknown,19.4609532,-70.7661727
Farmacia,Unknown,Unknown,Unknown,Unknown,Unknown,Unknown,pharmacy,Unknown,Unknown,Unknown,Unknown,19.4609149,-70.6843802
Clínica Dr. Bonilla,Unknown,Independencia,Santiago,Unknown,Unknown,DO,hospital,Unknown,Unknown,Unknown,Unknown,19.4532772,-70.7030259
Farmacia Jorge,Unknown,España,Santiago,Unknown,Unknown,DO,pharmacy,pharmacy,Unknown,Unknown,Unknown,19.451591,-70.7042984
Unknown,Unknown,Unknown,Unknown,Unknown,Unknown,Unknown,pharmacy,Unknown,Unknown,Unknown,Unknown,19.447991,-70.6778764
Farmacia Restauracion,Unknown,Calle Restauración,Santiago,Unknown,Unknown,DO,pharmacy,Unknown,809-247-6424,Unknown,Unknown,19.4522592,-70.6997945
Farmacia Carol,Unknown,Avenida Independencia,Unknown,Unknown,Unknown,Unknown,pharmacy,pharmacy,Unknown,Unknown,Unknown,18.4687682,-69.8942102
Unknown,Unknown,Unknown,Unknown,Unknown,Unknown,Unknown,pharmacy,pharmacy,Unknown,Unknown,Unknown,18.4740936,-69.8880523
DISPENSAIRE ROY - SEC,Unknown,Unknown,Unknown,Unknown,Unknown,HT,hospital,Unknown,Unknown,Unknown,Unknown,18.8945227,-71.8367562
DISPENSAIRE D'ACUL DES PINS,Unknown,Unknown,Unknown,Unknown,Unknown,HT,hospital,Unknown,Unknown,Unknown,Unknown,19.497521,-71.8106291
CENTRE MEDICOSOCIAL DE MONT-ORGANISE,Unknown,Unknown,Unknown,Unknown,Unknown,Unknown,hospital,Unknown,Unknown,Unknown,Unknown,19.409217,-71.7809727
Centre de Sante Saint Pierre,Unknown,Unknown,Unknown,Unknown,Unknown,HT,hospital,Unknown,Unknown,Unknown,Unknown,18.67478,-71.952891
Centre de Sante de Cornillon,Unknown,Unknown,Unknown,Unknown,Unknown,HT,hospital,Unknown,Unknown,Unknown,Unknown,18.6755232,-71.9515504
L'Eau de Vie de F.P,Unknown,Unknown,Unknown,Unknown,Unknown,Unknown,hospital,Unknown,Unknown,Unknown,Unknown,18.4918429,-71.9522131
Centre de Santé de Fonds-Verettes,Unknown,Unknown,Unknown,Unknown,Unknown,Unknown,hospital,Unknown,Unknown,Unknown,Unknown,18.3937867,-71.8543066
DP DE FORET DES PINS,Unknown,Unknown,Unknown,Unknown,Unknown,Unknown,hospital,Unknown,Unknown,Unknown,Unknown,18.3226047,-71.7752287
NOTRE DAME DES PINS D'ORIANIE,Unknown,Unknown,Unknown,Unknown,Unknown,Unknown,hospital,Unknown,Unknown,Unknown,Unknown,18.3059513,-71.832702
COMPLEXE MEDICO SOCIAL EDUCATIF DE CANGE,Unknown,Unknown,Unknown,Unknown,Unknown,HT,hospital,Unknown,Unknown,Unknown,Unknown,18.9252568,-71.9962451
CENTRE DE SANTE DE BANANE,Unknown,Unknown,Unknown,Unknown,Unknown,Unknown,hospital,hospital,Unknown,Unknown,Unknown,18.144125,-71.760693
DISPENSAIRE DE THOMASSIQUE,Unknown,Unknown,Unknown,Unknown,Unknown,HT,hospital,Unknown,Unknown,Unknown,Unknown,19.0827017,-71.8392639
DISPENSAIRE DE BAPTISTE,Unknown,Unknown,Unknown,Unknown,Unknown,Unknown,hospital,Unknown,Unknown,Unknown,Unknown,18.8006833,-71.7826412
DISPENSAIRE HOYE,Unknown,Unknown,Unknown,Unknown,Unknown,HT,hospital,Unknown,Unknown,Unknown,Unknown,18.9569869,-71.9261953
Hopital de Las Cahobas (Freinds of the Children),Unknown,Unknown,Unknown,Unknown,Unknown,HT,hospital,Unknown,Unknown,Unknown,Unknown,18.830854,-71.9337796
CDS de Las Cahobas (Unité de Maladie Infectueuse),Unknown,Unknown,Unknown,Unknown,Unknown,HT,hospital,Unknown,Unknown,Unknown,Unknown,18.8317877,-71.9356588
DISPENSAIRE DE MARMONT,Unknown,Unknown,Unknown,Unknown,Unknown,HT,hospital,Unknown,Unknown,Unknown,Unknown,19.0662891,-71.9834955
CENTRE DE SANTE GENS DE NANTES,Unknown,Unknown,Unknown,Unknown,Unknown,Unknown,hospital,Unknown,Unknown,Unknown,Unknown,19.4445422,-71.7691436
Dispensaire Saint Michel Belladere,Unknown,Unknown,Unknown,Unknown,Unknown,Unknown,hospital,Unknown,Unknown,Unknown,Unknown,18.8682016,-71.7602952
DISPENSAIRE DE BOIS DE LAURENCE,Unknown,Unknown,Unknown,Unknown,Unknown,HT,hospital,Unknown,Unknown,Unknown,Unknown,19.3287537,-71.8629866
CENTRE DE SANTE DE MOMBIN CROCHU,Unknown,Unknown,Unknown,Unknown,Unknown,HT,hospital,Unknown,Unknown,Unknown,Unknown,19.369569,-71.982289
DISPENSAIRE DE GROSSE ROCHE,Unknown,Unknown,Unknown,Unknown,Unknown,HT,hospital,Unknown,Unknown,Unknown,Unknown,19.4779699,-71.9958012
Dispensaire de Vallières,Unknown,Unknown,Unknown,Unknown,Unknown,HT,hospital,Unknown,Unknown,Unknown,Unknown,19.4348846,-71.9206313
CARICE STE - HELENE,Unknown,Unknown,Unknown,Unknown,Unknown,HT,hospital,Unknown,Unknown,Unknown,Unknown,19.377746,-71.8356353
DISPENSAIRE DE CARICE,Unknown,Unknown,Unknown,Unknown,Unknown,HT,hospital,Unknown,Unknown,Unknown,Unknown,19.3778042,-71.8306882
CENTRE DE SANTE D'ANSE A PITRES,Unknown,Unknown,Unknown,Unknown,Unknown,Unknown,hospital,Unknown,Unknown,Unknown,Unknown,18.042243,-71.757139
DISPENSAIRE DE COLOMBIER,Unknown,Unknown,Unknown,Unknown,Unknown,HT,hospital,Unknown,Unknown,Unknown,Unknown,18.7644266,-71.9526181
DISPENSAIRE DE OUANGOUMAN,Unknown,Unknown,Unknown,Unknown,Unknown,HT,hospital,Unknown,Unknown,Unknown,Unknown,19.159679,-71.89257
CENTRE DE SANTE PERE LOUIS FANESE LOUIS CHARLES,Unknown,Unknown,Unknown,Unknown,Unknown,HT,hospital,Unknown,Unknown,Unknown,Unknown,19.1302773,-71.9867988
Centre de santé de Thomonde,Unknown,Unknown,Unknown,Unknown,Unknown,HT,hospital,Unknown,Unknown,Unknown,Unknown,19.0176122,-71.964794
DISPENSAIRE DE BOCBANIC,Unknown,Unknown,Unknown,Unknown,Unknown,Unknown,hospital,Unknown,Unknown,Unknown,Unknown,19.0499988,-71.750002
DISPENSAIRE DE MAPOU,Unknown,Unknown,Unknown,Unknown,Unknown,Unknown,hospital,Unknown,Unknown,Unknown,Unknown,18.264678,-71.97165
THIOTE HOSPITAL BON BERGER,Unknown,Unknown,Unknown,Unknown,Unknown,Unknown,hospital,Unknown,Unknown,Unknown,Unknown,18.25,-71.85
MOMBIN CROCHU HOSPITAL MOMBIN CROCHU,Unknown,Unknown,Unknown,Unknown,Unknown,HT,hospital,Unknown,Unknown,Unknown,Unknown,19.366666,-71.983333
DISPENSAIRE GRAND GOSIER,Unknown,Unknown,Unknown,Unknown,Unknown,Unknown,hospital,Unknown,Unknown,Unknown,Unknown,18.1865188,-71.9181921
CENTRE DE SANTE DE THIOTTE,Unknown,Unknown,Unknown,Unknown,Unknown,Unknown,hospital,Unknown,Unknown,Unknown,Unknown,18.2365372,-71.8601155
CENTRE DE SANTE STE-ELISABETH,Unknown,Unknown,Unknown,Unknown,Unknown,Unknown,hospital,Unknown,Unknown,Unknown,Unknown,18.467,-71.983
DISPENSAIRE DE CAPOTILLE,Unknown,Unknown,Unknown,Unknown,Unknown,Unknown,hospital,Unknown,Unknown,Unknown,Unknown,19.447666,-71.693153
HAS PLASSAC UF 8,Unknown,Unknown,Unknown,Unknown,Unknown,HT,hospital,Unknown,Unknown,Unknown,Unknown,18.7,-71.9167
HOPITAL NOTRE DAME DE LA PAIX JN RABEL,Unknown,Unknown,Unknown,Unknown,Unknown,HT,hospital,Unknown,Unknown,Unknown,Unknown,19.45,-71.8
CSL Sacré Coeur,Unknown,Unknown,Unknown,Unknown,Unknown,Unknown,hospital,Unknown,Unknown,Unknown,Unknown,18.215464,-71.853079
Dispensaire Mare Blanche,Unknown,Unknown,Unknown,Unknown,Unknown,Unknown,hospital,Unknown,Unknown,Unknown,Unknown,18.2154793,-71.8530233
Dispensaire Bleck,Unknown,Unknown,Unknown,Unknown,Unknown,Unknown,hospital,Unknown,Unknown,Unknown,Unknown,18.215464,-71.853079
Dispensaire de Vallières,Unknown,Unknown,Unknown,Unknown,Unknown,HT,hospital,Unknown,Unknown,Unknown,Unknown,19.443536,-71.954483
CAL de Mont Organise,Unknown,Unknown,Unknown,Unknown,Unknown,Unknown,hospital,Unknown,Unknown,Unknown,Unknown,19.3874036,-71.784737
Dispensaire de Carice,Unknown,Unknown,Unknown,Unknown,Unknown,HT,hospital,Unknown,Unknown,Unknown,Unknown,19.352602,-71.821034
Dispensaire Sainte Hélène de Carice,Unknown,Unknown,Unknown,Unknown,Unknown,HT,hospital,Unknown,Unknown,Unknown,Unknown,19.3526026,-71.8210348
Dispensaire de Grosse Roche,Unknown,Unknown,Unknown,Unknown,Unknown,HT,hospital,Unknown,Unknown,Unknown,Unknown,19.443536,-71.9544835
Centre de Santé de Savanette,Unknown,Unknown,Unknown,Unknown,Unknown,HT,hospital,Unknown,Unknown,Unknown,Unknown,18.7449602,-71.8218969
Dispensaire de Colombier,Unknown,Unknown,Unknown,Unknown,Unknown,HT,hospital,Unknown,Unknown,Unknown,Unknown,18.7447576,-71.8213226
Dispensaire Pareidon (NF),Unknown,Unknown,Unknown,Unknown,Unknown,HT,hospital,Unknown,Unknown,Unknown,Unknown,18.866679,-71.950696
Dispensaire Caste,Unknown,Unknown,Unknown,Unknown,Unknown,HT,hospital,Unknown,Unknown,Unknown,Unknown,18.866679,-71.950696
Dispensaire la Hoye,Unknown,Unknown,Unknown,Unknown,Unknown,HT,hospital,Unknown,Unknown,Unknown,Unknown,18.8666797,-71.9506963
Dispensaire de Croix de fer,Unknown,Unknown,Unknown,Unknown,Unknown,HT,hospital,Unknown,Unknown,Unknown,Unknown,18.863227,-71.81155
Centre de Santé de Thomonde,Unknown,Unknown,Unknown,Unknown,Unknown,HT,hospital,Unknown,Unknown,Unknown,Unknown,18.9995944,-71.9929378
Dispensaire de Pacasse (NF),Unknown,Unknown,Unknown,Unknown,Unknown,Unknown,hospital,Unknown,Unknown,Unknown,Unknown,19.187309,-71.748498
Dispensaire de Baltazar (NF),Unknown,Unknown,Unknown,Unknown,Unknown,Unknown,hospital,Unknown,Unknown,Unknown,Unknown,19.187309,-71.748498
Centre de Santé Nan Cajou,Unknown,Unknown,Unknown,Unknown,Unknown,Unknown,hospital,Unknown,Unknown,Unknown,Unknown,19.187309,-71.748498
Dispensaire de Saltadère,Unknown,Unknown,Unknown,Unknown,Unknown,Unknown,hospital,Unknown,Unknown,Unknown,Unknown,19.187309,-71.748498
Dispensaire Ti Lory,Unknown,Unknown,Unknown,Unknown,Unknown,Unknown,hospital,Unknown,Unknown,Unknown,Unknown,19.1873091,-71.7484985
CENTRE DE SANTE DE BOUDARIN,Unknown,Unknown,Unknown,Unknown,Unknown,Unknown,hospital,Unknown,Unknown,Unknown,Unknown,18.2591111,-71.8947172
MONT ORGANISE CLINIC SOCIAL MEDICAL CENTER,Unknown,Unknown,Unknown,Unknown,Unknown,Unknown,hospital,Unknown,Unknown,Unknown,Unknown,19.4,-71.783333
Farmacia Rozon,Unknown,Calle Principal,Batey Uno,Unknown,Unknown,DO,pharmacy,Unknown,809-336-0254,Unknown,Unknown,19.4803081,-70.7851837
Farmacia Carol,Unknown,Unknown,Unknown,Unknown,Unknown,Unknown,pharmacy,pharmacy,Unknown,Unknown,Unknown,18.4713324,-69.9374243
Farmacia Brasil,Unknown,Unknown,Unknown,Unknown,Unknown,Unknown,pharmacy,Unknown,Unknown,Unknown,Unknown,18.4669418,-69.9432474
Farmacia Lincoln,Unknown,Unknown,Unknown,Unknown,Unknown,Unknown,pharmacy,pharmacy,Unknown,Unknown,Unknown,18.4739892,-69.9346066
Centro Médico Vista del Jardín,Unknown,Unknown,Unknown,Unknown,Unknown,Unknown,hospital,Unknown,Unknown,Unknown,Unknown,18.4992097,-69.9590658
Farmacia Carol,Unknown,Unknown,Unknown,Unknown,Unknown,Unknown,pharmacy,pharmacy,Unknown,Unknown,Unknown,18.4756112,-69.9233055
Sub Centro Medico de Mata Hambre,Unknown,Unknown,Unknown,Unknown,Unknown,Unknown,hospital,Unknown,Unknown,Unknown,Unknown,18.4539805,-69.9285039
Farmacia Rafelito,Unknown,Unknown,Unknown,Unknown,Unknown,Unknown,pharmacy,Unknown,Unknown,Unknown,Unknown,19.4674619,-70.7000023
love a child health center de fond parisien,Unknown,Unknown,ganthier,Unknown,Unknown,HT,hospital,Unknown,Unknown,Unknown,Unknown,18.5185953,-71.9816944
pharmacie express,Unknown,Unknown,Unknown,Unknown,Unknown,Unknown,pharmacy,Unknown,Unknown,Unknown,Unknown,18.6625277,-71.8738847
CENTRE DE SANTE DE THOMAN,Unknown,Route National # 4 Thoman,Unknown,Unknown,Unknown,HT,hospital,Unknown,Unknown,Unknown,Unknown,18.4524545,-71.9430065
centre de sante st vincent de Paul,Unknown,cornillon grand bois,Unknown,Unknown,Unknown,Unknown,hospital,Unknown,38899809- 34802403- 34979245,Unknown,Unknown,18.6540839,-71.8705737
Pharmacia del Pueblo,Unknown,Unknown,Unknown,Unknown,Unknown,Unknown,pharmacy,pharmacy,Unknown,Unknown,Unknown,18.4734076,-69.8919761
PSDental,Unknown,Lope de Vega,Unknown,Unknown,Unknown,Unknown,dentist,dentist,Unknown,Unknown,Unknown,18.4698352,-69.9312515
Hospital Batey 8,Unknown,Unknown,Unknown,Unknown,Unknown,Unknown,hospital,Unknown,Unknown,Unknown,Unknown,18.353053,-71.2668181
Unknown,Unknown,Unknown,Unknown,Unknown,Unknown,Unknown,hospital,Unknown,Unknown,Unknown,Unknown,18.4510448,-70.7393482
Clinica Dr Baez,Unknown,Unknown,Unknown,Unknown,Unknown,Unknown,hospital,Unknown,Unknown,Unknown,Unknown,18.5438802,-70.5082902
Unknown,Unknown,Unknown,Unknown,Unknown,Unknown,Unknown,pharmacy,Unknown,Unknown,Unknown,Unknown,19.3128223,-69.5455859
Unknown,Unknown,Unknown,Unknown,Unknown,Unknown,Unknown,hospital,Unknown,Unknown,Unknown,Unknown,19.3129159,-69.5460226
jeantte,Unknown,Unknown,Unknown,Unknown,Unknown,Unknown,pharmacy,pharmacy,Unknown,Unknown,Unknown,18.5001004,-69.847565
Farmacia Romaplex,Unknown,Unknown,Unknown,Unknown,Unknown,Unknown,pharmacy,Unknown,Unknown,Unknown,Unknown,18.4629457,-69.9638461
Centro de Especialidades Medica Vegano,Unknown,Unknown,Unknown,Unknown,Unknown,Unknown,hospital,hospital,Unknown,Unknown,Unknown,19.2251906,-70.5203534
Farmacia Ferreira,Unknown,Unknown,Unknown,Unknown,Unknown,Unknown,pharmacy,Unknown,Unknown,Unknown,Unknown,19.2235292,-70.5135084
Farmacia Del Valle,Unknown,Unknown,Unknown,Unknown,Unknown,Unknown,pharmacy,pharmacy,Unknown,Unknown,Unknown,19.2248056,-70.5206108
Farmacia Olimpica 1,Unknown,Unknown,Unknown,Unknown,Unknown,Unknown,pharmacy,Unknown,Unknown,Unknown,Unknown,19.2248664,-70.5227244
Farmacia San Pancracio,Unknown,Calle Gral. Juan Rodriguez,La Vega,Unknown,Unknown,Unknown,pharmacy,pharmacy,Unknown,Unknown,Unknown,19.2245533,-70.5271194
Censaide,Unknown,Unknown,Unknown,Unknown,Unknown,Unknown,hospital,Unknown,Unknown,Unknown,Unknown,19.218707,-70.5344832
Hospital  Dra. Amadita,Unknown,Unknown,Unknown,Unknown,Unknown,Unknown,hospital,Unknown,(809) 242-1293,Unknown,Unknown,19.2217103,-70.5400354
Farma Xtra,Unknown,Unknown,Unknown,Unknown,Unknown,Unknown,pharmacy,Unknown,Unknown,Unknown,Unknown,18.4309345,-69.9727876
Farmacia O&D,Unknown,Unknown,Unknown,Unknown,Unknown,Unknown,pharmacy,Unknown,Unknown,Unknown,Unknown,18.4324431,-69.9656824
Unknown,Unknown,Unknown,Unknown,Unknown,Unknown,Unknown,pharmacy,pharmacy,Unknown,Unknown,Unknown,19.4583791,-70.6983898
Farmacia La Fuente II,Unknown,Avenida Bartolomé Colón,Santiago de los Caballeros,Unknown,Unknown,Unknown,pharmacy,pharmacy,Unknown,Unknown,Unknown,19.4586089,-70.700897
Hospital Sagrado Corazon de Jesus,Unknown,Unknown,Unknown,Unknown,Unknown,Unknown,hospital,hospital,Unknown,Unknown,Unknown,18.4465403,-69.3082296
Centro Medico Uce,Unknown,Unknown,Unknown,Unknown,Unknown,Unknown,hospital,Unknown,Unknown,Unknown,Unknown,18.4473495,-69.308198
Unknown,Unknown,Unknown,Unknown,Unknown,Unknown,Unknown,hospital,Unknown,Unknown,Unknown,Unknown,18.8926295,-71.8385265
Unknown,Unknown,Unknown,Unknown,Unknown,Unknown,Unknown,hospital,hospital,Unknown,Unknown,Unknown,19.3183839,-69.5397881
Farmacia Villa Fundacion,Unknown,Unknown,Unknown,Unknown,Unknown,Unknown,pharmacy,Unknown,Unknown,Unknown,Unknown,18.2806929,-70.497339
Hospital Municipal Villa fundacion,Unknown,Unknown,Unknown,Unknown,Unknown,Unknown,hospital,Unknown,Unknown,Unknown,Unknown,18.2761138,-70.495845
Farmacia San José,Unknown,Unknown,Unknown,Unknown,Unknown,Unknown,pharmacy,Unknown,Unknown,Unknown,Unknown,18.9076465,-70.74475
Centro de Especiales Médicas Titi,Unknown,Rufino Espinosa,Constanza,Unknown,Unknown,Unknown,hospital,Unknown,Unknown,Unknown,Unknown,18.9068833,-70.7461007
Carol,Unknown,Unknown,Unknown,Unknown,Unknown,Unknown,pharmacy,Unknown,Unknown,Unknown,Unknown,18.4712515,-69.9141538
Farmax,Unknown,Avenida Independencia,Unknown,Unknown,Unknown,Unknown,pharmacy,pharmacy,Unknown,Unknown,Unknown,18.4669715,-69.8955471
Centro de Diagnostico y Medicina Avanzada Telemedicina CEDIMAT,Unknown,Calle Plaza de la Salud,Unknown,Unknown,Unknown,Unknown,hospital,hospital,Unknown,Unknown,Unknown,18.4888229,-69.9231724
Farmacia Europa,Unknown,Avenida Tiradentes,Santo Domingo,Unknown,Unknown,Unknown,pharmacy,pharmacy,Unknown,Unknown,Unknown,18.4805505,-69.9286994
Patologia Forense,Unknown,Unknown,Unknown,Unknown,Unknown,Unknown,hospital,Unknown,Unknown,Unknown,Unknown,18.4615266,-69.9118664
Farmacia Los Hidalgos,Unknown,Unknown,Unknown,Unknown,Unknown,Unknown,pharmacy,Unknown,Unknown,Unknown,Unknown,18.4847091,-69.8404105
Farmax,Unknown,Unknown,Unknown,Unknown,Unknown,Unknown,pharmacy,pharmacy,Unknown,Unknown,Unknown,18.4651933,-69.928971
Farmacia Dary's,Unknown,Unknown,Unknown,Unknown,Unknown,Unknown,pharmacy,Unknown,8095823161,Unknown,Unknown,19.4551883,-70.6849719
Centro Medico Dominico Cubano,Unknown,Unknown,Unknown,Unknown,Unknown,Unknown,hospital,Unknown,Unknown,Unknown,Unknown,18.4593791,-69.9113814
Hôpital de la Nativité,Unknown,Unknown,Unknown,Unknown,Unknown,Unknown,hospital,hospital,Unknown,Unknown,Unknown,18.8674716,-71.7619116
Centro Antirrabico,Unknown,Unknown,Unknown,Unknown,Unknown,Unknown,hospital,Unknown,Unknown,Unknown,Unknown,18.4939875,-69.8995985
Farmacia Rosina,Unknown,Unknown,Unknown,Unknown,Unknown,Unknown,pharmacy,Unknown,Unknown,Unknown,Unknown,18.4910419,-69.904287
Farmacia Rita,Unknown,Unknown,Unknown,Unknown,Unknown,Unknown,pharmacy,Unknown,Unknown,Unknown,Unknown,18.4864578,-69.9065505
Farma Express,Unknown,Unknown,Unknown,Unknown,Unknown,Unknown,pharmacy,Unknown,Unknown,Unknown,Unknown,18.5082462,-69.9483115
Dr. Jorge Abraham Hazoury Bahles,Unknown,Unknown,Unknown,Unknown,Unknown,Unknown,hospital,Unknown,Unknown,Unknown,Unknown,18.4923593,-69.9650156
Dispensaire Notre Dame de la Présentation,Unknown,Unknown,Unknown,Unknown,Unknown,Unknown,hospital,Unknown,Unknown,Unknown,Unknown,19.1415621,-71.9399952
Centro de Salud Nelda Valpiana,Unknown,Unknown,Unknown,Unknown,Unknown,Unknown,hospital,Unknown,Unknown,Unknown,Unknown,18.455214,-69.9856095
Farmacia Doña Rosa,Unknown,Avenida Los Beisbolistas,Santo Domingo Oeste,10901,Unknown,Unknown,pharmacy,Unknown,809-379-1228,Unknown,Unknown,18.4852176,-69.9978415
Farmacia Romy,Unknown,Unknown,Unknown,Unknown,Unknown,Unknown,pharmacy,Unknown,Unknown,Unknown,Unknown,18.4704923,-69.9727572
Instituto de Especialidades Médica,Unknown,Unknown,Unknown,Unknown,Unknown,Unknown,hospital,Unknown,Unknown,Unknown,Unknown,19.3879253,-70.5255631
Centro Médico Baez Soto,Unknown,Unknown,Unknown,Unknown,Unknown,Unknown,hospital,hospital,Unknown,Unknown,Unknown,19.2246214,-70.5225817
Hospital Juan Antonio Castillo,Unknown,Unknown,Unknown,Unknown,Unknown,Unknown,hospital,Unknown,Unknown,Unknown,Unknown,19.3196372,-70.5436789
Farmacia ALLAN,Unknown,Prof. Juan Bosch,Unknown,Unknown,Unknown,Unknown,pharmacy,Unknown,Unknown,Unknown,Unknown,19.3148053,-70.540369
Centro Médico Guadalupe,Unknown,José Dolores Alfonseca,Unknown,Unknown,Unknown,Unknown,hospital,Unknown,Unknown,Unknown,Unknown,19.3925858,-70.5260364
Hospital José Contreras,Unknown,Unknown,Unknown,Unknown,Unknown,Unknown,hospital,Unknown,Unknown,Unknown,Unknown,19.4704156,-70.4513851
Policlínica Los Lopez,Unknown,Unknown,Unknown,Unknown,Unknown,Unknown,hospital,Unknown,Unknown,Unknown,Unknown,19.3970582,-70.5346509
Farmacia Las Mercedes,Unknown,Calle Profesor Juan Bosch,Unknown,Unknown,Unknown,Unknown,pharmacy,Unknown,Unknown,Unknown,Unknown,19.2242871,-70.5295326
Clínica Dr. Paredes,Unknown,Unknown,Unknown,Unknown,Unknown,Unknown,hospital,Unknown,Unknown,Unknown,Unknown,18.8441142,-70.3180411
Hospital Municipal,Unknown,Unknown,Unknown,Unknown,Unknown,Unknown,hospital,Unknown,Unknown,Unknown,Unknown,18.8445101,-70.3189746
Hospital Pedro E. De Marcheta,Unknown,Unknown,Unknown,Unknown,Unknown,Unknown,hospital,Unknown,Unknown,Unknown,Unknown,18.9369537,-70.4117612
Hospital de Maimón,Unknown,Unknown,Unknown,Unknown,Unknown,Unknown,hospital,Unknown,Unknown,Unknown,Unknown,18.9029941,-70.2674503
Farmacia Miguelito,Unknown,Unknown,Unknown,Unknown,Unknown,Unknown,pharmacy,Unknown,Unknown,Unknown,Unknown,19.1221522,-70.6419007
SESPA,Unknown,Unknown,Unknown,Unknown,Unknown,Unknown,hospital,Unknown,Unknown,Unknown,Unknown,18.9361144,-70.6894519
Unknown,Unknown,Unknown,Unknown,Unknown,Unknown,Unknown,hospital,Unknown,Unknown,Unknown,Unknown,18.4296702,-70.0013371
Centro de Especialidades Médica Costa Norte,Unknown,132,Nagua,Unknown,Unknown,Unknown,hospital,Unknown,Unknown,Unknown,Unknown,19.3676871,-69.8512408
Farmacia San Luís,Unknown,Unknown,Unknown,Unknown,Unknown,Unknown,pharmacy,Unknown,Unknown,Unknown,Unknown,19.3659806,-69.8511614
Hospital Antonio Yapor Heded,Unknown,Unknown,Unknown,Unknown,Unknown,Unknown,hospital,Unknown,Unknown,Unknown,Unknown,19.3653387,-69.850481
Botica Divino Niño,Unknown,Unknown,Unknown,Unknown,Unknown,Unknown,pharmacy,Unknown,Unknown,Unknown,Unknown,19.3764334,-69.8530241
Farmacia Nina,Unknown,Unknown,Unknown,Unknown,Unknown,Unknown,pharmacy,Unknown,Unknown,Unknown,Unknown,18.4865193,-69.9015652
Dentour,Unknown,Unknown,Unknown,Unknown,Unknown,Unknown,hospital,Unknown,Unknown,Unknown,Unknown,18.4580738,-69.9092146
Dispensario Medico Gringo,Unknown,Unknown,Unknown,Unknown,Unknown,Unknown,hospital,Unknown,Unknown,Unknown,Unknown,18.408967,-70.0278494
Farmacia ALLAN,Unknown,Prof. Juan Bosch,Unknown,Unknown,Unknown,Unknown,pharmacy,Unknown,Unknown,Unknown,Unknown,19.2920916,-70.5427186
Unknown,Unknown,Unknown,Unknown,Unknown,Unknown,Unknown,pharmacy,pharmacy,Unknown,Unknown,Unknown,18.3499078,-68.8290642
Centre de Santé pour la Famille,Unknown,Unknown,Unknown,Unknown,Unknown,Unknown,clinic,Unknown,Unknown,Unknown,Unknown,18.5161736,-71.9838511
Bicar Farmacia,Unknown,Unknown,Unknown,Unknown,Unknown,Unknown,pharmacy,Unknown,Unknown,Unknown,Unknown,18.5459368,-70.5076345
Farmacia Milagros,Unknown,Unknown,Unknown,Unknown,Unknown,Unknown,pharmacy,Unknown,Unknown,Unknown,Unknown,18.5448005,-70.507588
Clínica Arias,Unknown,Unknown,Unknown,Unknown,Unknown,Unknown,clinic,Unknown,Unknown,Unknown,Unknown,18.5475381,-70.504932
Hospital Alejandro Cabral,Unknown,Calle Gastón Fernando Deligne,San Juan de la Maguana,Unknown,Unknown,Unknown,hospital,hospital,Unknown,Unknown,Unknown,18.8026347,-71.2246227
Centro Medico Siglo XXI,Unknown,Juan Pablo Duarte,SAN FRANCISCO DE MACORIS,Unknown,Unknown,Unknown,clinic,clinic,Unknown,Unknown,Unknown,19.3014456,-70.258682
Farmacia Nacional,Unknown,Unknown,Unknown,Unknown,Unknown,Unknown,pharmacy,pharmacy,Unknown,Unknown,Unknown,19.2979038,-70.2557218
Farmacia Dsalud,Unknown,Unknown,Unknown,Unknown,Unknown,Unknown,pharmacy,pharmacy,Unknown,Unknown,Unknown,19.3016973,-70.2581647
Laboratorio Dr Herrera Khoury,Unknown,Unknown,Unknown,Unknown,Unknown,Unknown,hospital,Unknown,Unknown,Unknown,Unknown,19.2956169,-70.256731
Farmacia Inmaculada,Unknown,Unknown,Unknown,Unknown,Unknown,Unknown,pharmacy,pharmacy,Unknown,Unknown,Unknown,19.2945994,-70.2545396
Centro Medico Nacional,Unknown,Unknown,Unknown,Unknown,Unknown,Unknown,hospital,Unknown,Unknown,Unknown,Unknown,19.2954001,-70.2551979
Farmacia Santa Maria,Unknown,Unknown,Unknown,Unknown,Unknown,Unknown,pharmacy,pharmacy,Unknown,Unknown,Unknown,19.2969684,-70.255732
Farmacia San Pedro,Unknown,27 de febrero,SAN FRANCISCO DE MACORIS,Unknown,Unknown,Unknown,pharmacy,pharmacy,Unknown,Unknown,Unknown,19.2988656,-70.2592046
INEMED,Unknown,Unknown,Unknown,Unknown,Unknown,Unknown,hospital,Unknown,Unknown,Unknown,Unknown,19.2949898,-70.2570593
Farmacia San Rafael,Unknown,Unknown,Unknown,Unknown,Unknown,Unknown,pharmacy,pharmacy,Unknown,Unknown,Unknown,19.2948064,-70.2547054
Farmacia Jerusalen,Unknown,Unknown,Unknown,Unknown,Unknown,Unknown,pharmacy,Unknown,Unknown,Unknown,Unknown,19.2927222,-70.2586067
Farmacia San Isidro,Unknown,Unknown,Unknown,Unknown,Unknown,Unknown,pharmacy,Unknown,Unknown,Unknown,Unknown,19.3048128,-70.2561106
Farmacia Bijao,Unknown,Unknown,Unknown,Unknown,Unknown,Unknown,pharmacy,Unknown,Unknown,Unknown,Unknown,19.3271996,-70.2807332
Farmacia Santa Ana,Unknown,Unknown,Unknown,Unknown,Unknown,Unknown,pharmacy,Unknown,Unknown,Unknown,Unknown,19.3741477,-70.3517678
Centro Medico Dr Guzman,Unknown,Unknown,Unknown,Unknown,Unknown,Unknown,hospital,Unknown,Unknown,Unknown,Unknown,19.3726323,-70.3520435
Farmacia Lourdes,Unknown,G.Hernandez-Tenares,Unknown,Unknown,Unknown,Unknown,pharmacy,Unknown,Unknown,Unknown,Unknown,19.3755047,-70.3517438
Centro Medico San Rafael,Unknown,Unknown,Unknown,Unknown,Unknown,Unknown,hospital,Unknown,Unknown,Unknown,Unknown,19.3757591,-70.3514471
Farmacia Mildeys,Unknown,Unknown,Unknown,Unknown,Unknown,Unknown,pharmacy,Unknown,Unknown,Unknown,Unknown,19.3726173,-70.3503688
Centro Medico Villa Tapia,Unknown,Unknown,Unknown,Unknown,Unknown,Unknown,hospital,Unknown,Unknown,Unknown,Unknown,19.3016028,-70.4216122
Hospital Villa Tapia,Unknown,Unknown,Unknown,Unknown,Unknown,Unknown,hospital,Unknown,Unknown,Unknown,Unknown,19.3077297,-70.4221732
Farmacia Amyn,Unknown,Unknown,Unknown,Unknown,Unknown,Unknown,pharmacy,Unknown,Unknown,Unknown,Unknown,19.1320443,-70.3761386
Cruz Roja,Unknown,Unknown,Unknown,Unknown,Unknown,Unknown,hospital,Unknown,Unknown,Unknown,Unknown,19.116242,-69.8342706
Cruz Roja,Unknown,Unknown,Unknown,Unknown,Unknown,Unknown,hospital,Unknown,8095882275,Unknown,Unknown,19.295874,-70.257462
Hospital Oncologico,Unknown,Unknown,Unknown,Unknown,Unknown,Unknown,hospital,Unknown,Unknown,Unknown,Unknown,19.2772368,-70.2596183
Hospital Municipal de Castillo,Unknown,Calle Hostos,Castillo,31000,Unknown,Unknown,hospital,Unknown,Unknown,Unknown,Unknown,19.2058464,-70.0247237
Farmacia Estrella,Unknown,Unknown,Unknown,Unknown,Unknown,Unknown,pharmacy,Unknown,Unknown,Unknown,Unknown,19.3788943,-70.4173703
Laboratorio Dr Herrea Khoury,Unknown,Unknown,Unknown,Unknown,Unknown,Unknown,hospital,Unknown,Unknown,Unknown,Unknown,19.3789296,-70.4174859
Instituto Dominicano de Cardiologia,Unknown,Unknown,Unknown,Unknown,Unknown,Unknown,hospital,Unknown,Unknown,Unknown,Unknown,18.4936639,-69.9634108
Farmacia Santa Rosa,Unknown,Unknown,Unknown,Unknown,Unknown,Unknown,pharmacy,pharmacy,Unknown,Unknown,Unknown,19.3012497,-70.2584659
Amerident,Unknown,Unknown,Unknown,Unknown,Unknown,Unknown,hospital,hospital,Unknown,Unknown,Unknown,18.4691708,-69.9245473
Farmacia San Miguel,Unknown,Unknown,Unknown,Unknown,Unknown,Unknown,pharmacy,Unknown,Unknown,Unknown,Unknown,19.1249711,-70.6402515
Centro Medico Jarabacoa,Unknown,Unknown,Unknown,Unknown,Unknown,Unknown,hospital,Unknown,Unknown,Unknown,Unknown,19.1204124,-70.6406324
Institute Espaillat Cabral,Unknown,Unknown,Unknown,Unknown,Unknown,Unknown,hospital,Unknown,Unknown,Unknown,Unknown,18.4599285,-69.9097132
Farma Xtra,Unknown,Unknown,Unknown,Unknown,Unknown,Unknown,pharmacy,pharmacy,Unknown,Unknown,Unknown,18.4747902,-69.9578193
Laboratorio Referencia,Unknown,Unknown,Unknown,Unknown,Unknown,Unknown,pharmacy,Unknown,Unknown,Unknown,Unknown,18.4623961,-69.957703
Farmacia Inés II,Unknown,San Vincente de Paul,Unknown,Unknown,Unknown,Unknown,pharmacy,Unknown,Unknown,Unknown,Unknown,18.4977334,-69.8523125
Farmacia San Rafael,Unknown,Unknown,Unknown,Unknown,Unknown,Unknown,pharmacy,pharmacy,Unknown,Unknown,Unknown,18.4942334,-69.8542266
Farmacia Patrizo,Unknown,Unknown,Unknown,Unknown,Unknown,Unknown,pharmacy,Unknown,Unknown,Unknown,Unknown,18.492873,-69.8694227
Farmacia Cesar,Unknown,Unknown,Unknown,Unknown,Unknown,Unknown,pharmacy,pharmacy,Unknown,Unknown,Unknown,18.4944441,-69.8670379
Centro Oriental de Ginecologia y Obstetra,Unknown,Unknown,Unknown,Unknown,Unknown,Unknown,hospital,hospital,Unknown,Unknown,Unknown,18.4975291,-69.8649702
Clinica Dr. Reynoso,Unknown,Unknown,San Francisco De Macoris,31000,Unknown,Unknown,clinic,Unknown,Unknown,Unknown,24/7,19.2948859,-70.2492633
Farmacia Lovera,Unknown,Unknown,Unknown,Unknown,Unknown,Unknown,pharmacy,Unknown,Unknown,Unknown,Unknown,19.4856756,-70.7113783
Centro De Rehabilitacion Fisica,Unknown,Unknown,Unknown,Unknown,Unknown,Unknown,hospital,Unknown,Unknown,Unknown,Unknown,19.3046642,-70.2556454
Farmacia Ciby,Unknown,Unknown,Unknown,Unknown,Unknown,Unknown,pharmacy,Unknown,Unknown,Unknown,Unknown,18.486498,-69.9022804
Farmacia Santa Ana S.R.L.,Unknown,Avenida Presidente Francisco Gregorio Billini,Baní,94000,Unknown,Unknown,pharmacy,pharmacy,+18093802525,Unknown,Unknown,18.278711,-70.3327525
Centro Medico Regional Aguasviva,Unknown,Avenida Presidente Francisco Gregorio Billini,Unknown,94000,Unknown,Unknown,clinic,Unknown,8093464400,Unknown,24/7,18.2787983,-70.3288377
Clinica El Maniel,Unknown,Unknown,Unknown,Unknown,Unknown,Unknown,clinic,Unknown,Unknown,Unknown,Unknown,18.5430911,-70.5083458
Farmacia 1,Unknown,Unknown,Unknown,Unknown,Unknown,Unknown,pharmacy,Unknown,Unknown,Unknown,Unknown,18.9058937,-70.2785989
Hospital,Unknown,Unknown,Unknown,Unknown,Unknown,Unknown,clinic,Unknown,Unknown,Unknown,Unknown,18.3886036,-71.5498474
Medical Net,Unknown,Calle Rafael Augusto Sanchez,"Santo Domingo , Rep Dominicana",Unknown,Unknown,Unknown,hospital,hospital,+1 809 540 9775,http://www.medicalnet.net.do/es/home/,Unknown,18.471685,-69.9349479
Unknown,Unknown,Unknown,Unknown,Unknown,Unknown,Unknown,pharmacy,pharmacy,Unknown,Unknown,Unknown,18.428324,-68.96417
Los Hidalgos,Unknown,Unknown,Unknown,Unknown,Unknown,Unknown,pharmacy,pharmacy,Unknown,Unknown,Unknown,18.424271,-68.9645097
Centro Médico Coral,Unknown,Unknown,Unknown,Unknown,Unknown,Unknown,hospital,hospital,Unknown,Unknown,Unknown,18.4310031,-68.9852134
Centro de Especialidades Médicas,Unknown,Unknown,Unknown,Unknown,Unknown,Unknown,hospital,hospital,Unknown,Unknown,Unknown,18.4254247,-68.9670671
Farmacia Walmaría,Unknown,Unknown,Unknown,Unknown,Unknown,Unknown,pharmacy,pharmacy,Unknown,Unknown,Unknown,18.4214559,-68.963156
Farmacón,Unknown,Unknown,Unknown,Unknown,Unknown,Unknown,pharmacy,pharmacy,Unknown,Unknown,Unknown,18.4276402,-68.9687219
Unknown,Unknown,Unknown,Unknown,Unknown,Unknown,Unknown,pharmacy,pharmacy,Unknown,Unknown,Unknown,18.4316828,-68.9728439
Farmacia Villa Juana,Unknown,Unknown,Unknown,Unknown,Unknown,Unknown,pharmacy,Unknown,Unknown,Unknown,Unknown,18.4898553,-69.906791
Clínica,Unknown,Unknown,Unknown,Unknown,Unknown,Unknown,hospital,Unknown,Unknown,Unknown,Unknown,18.7556317,-68.9204493
Cooperativa Medica de Santiago,Unknown,Unknown,Unknown,Unknown,Unknown,Unknown,hospital,Unknown,Unknown,Unknown,Unknown,19.396984,-70.6484207
Farmacia Rosaura,Unknown,Unknown,Unknown,Unknown,Unknown,Unknown,pharmacy,pharmacy,Unknown,Unknown,Unknown,18.4232567,-68.9675569
Farmacia Dinorah,Unknown,Unknown,Unknown,Unknown,Unknown,Unknown,pharmacy,pharmacy,Unknown,Unknown,Unknown,18.4221165,-68.9667146
Odontología Dra. Michelle,Unknown,Unknown,Unknown,Unknown,Unknown,Unknown,dentist,dentist,Unknown,Unknown,Unknown,18.4198896,-68.9664153
Dental Social Henskey,Unknown,Unknown,Unknown,Unknown,Unknown,Unknown,dentist,dentist,Unknown,Unknown,Unknown,18.4248193,-68.9707734
Farmacia Villa España,Unknown,Unknown,Unknown,Unknown,Unknown,Unknown,pharmacy,pharmacy,Unknown,Unknown,Unknown,18.4294401,-68.982798
Farmacia Bancola,Unknown,Unknown,Unknown,Unknown,Unknown,Unknown,pharmacy,pharmacy,Unknown,Unknown,Unknown,18.4308633,-68.9662006
Farmax,Unknown,Avenida Tiradentes,Santo Domingo,Unknown,Unknown,Unknown,pharmacy,pharmacy,Unknown,Unknown,Unknown,18.4779162,-69.9271778
Ciplaci,Unknown,Antonio Guzman Fernandez,San francisco De Macoris,31000,Unknown,Unknown,clinic,clinic,Unknown,https://www.ciplaci.com/index.html,Unknown,19.284806,-70.2801784
CPNA Vietnam,Unknown,Fray Bartolomé de las Casas,Santo Domingo Este,Unknown,Unknown,Unknown,hospital,hospital,+849 289 8044,Unknown,Lu-Do 08:00-17:00,18.5177381,-69.8588991
Hopital St. Gabriel,Unknown,Unknown,Unknown,Unknown,Unknown,Unknown,hospital,Unknown,Unknown,Unknown,Unknown,18.8339514,-71.9316027
La Deliverance Pharmacie,Unknown,Unknown,Unknown,Unknown,Unknown,Unknown,pharmacy,Unknown,Unknown,Unknown,Unknown,18.831291,-71.9360256
FarmaXtra Naco,Unknown,Unknown,Unknown,Unknown,Unknown,Unknown,pharmacy,pharmacy,Unknown,Unknown,Unknown,18.4736785,-69.9209223
Laboratorio Referencia,Unknown,Unknown,Unknown,Unknown,Unknown,Unknown,Unknown,laboratory,Unknown,Unknown,Unknown,18.4184924,-68.9677305
Hospital Juan XXIII,Unknown,Av. Domingo Rosario,Unknown,Unknown,Unknown,Unknown,hospital,Unknown,Unknown,Unknown,Unknown,19.4268748,-70.6929461
Laboratorio Referencia Don Bosco,Unknown,Avenida Francia,Unknown,Unknown,Unknown,Unknown,pharmacy,pharmacy,8092215545 ext 2446/2447,https://www.labreferencia.com/,Unknown,18.4756183,-69.9044479
Laboratorio Amadita,Unknown,Unknown,Unknown,Unknown,Unknown,Unknown,pharmacy,Unknown,Unknown,Unknown,Unknown,18.4709616,-69.9137383
Laboratorio Referencia,Unknown,Avenida Independencia,Unknown,Unknown,Unknown,Unknown,pharmacy,pharmacy,8092215545,Unknown,"Mo-Su,PH 00:00-00:00",18.4666754,-69.8953786
Farmacia Los Hidalgos,Unknown,Avenida 27 de Febrero,Unknown,Unknown,Unknown,Unknown,pharmacy,Unknown,8095414848,Unknown,Unknown,18.4664223,-69.9292422
Oraldent,Unknown,Avenida 27 de Febrero,Santo Domingo,10149,Unknown,Unknown,dentist,dentist,809412130,Unknown,Unknown,18.4654164,-69.9316507
Laboratorio Amadita,Unknown,Unknown,Unknown,Unknown,Unknown,Unknown,pharmacy,Unknown,Unknown,Unknown,Unknown,18.474684,-69.9360744
Farmacia Barbara Maria,Unknown,Unknown,Unknown,Unknown,Unknown,Unknown,pharmacy,Unknown,Unknown,Unknown,Unknown,18.4505206,-69.6059018
Emergencia 24h,Unknown,Unknown,Unknown,Unknown,Unknown,Unknown,hospital,Unknown,Unknown,Unknown,Unknown,18.4535441,-69.6084633
Farmacia Otis,Unknown,Unknown,Unknown,Unknown,Unknown,Unknown,pharmacy,pharmacy,Unknown,Unknown,Unknown,18.4831138,-69.9031402
Laboratorios Laaned,Unknown,Calle Cub Scout,Unknown,Unknown,Unknown,Unknown,pharmacy,pharmacy,+18095628196,Unknown,Unknown,18.4686379,-69.9274177
Luis E. Betances,Unknown,Unknown,Unknown,Unknown,Unknown,Unknown,pharmacy,Unknown,+18095635831,http://luisbetances.com/,Unknown,18.4685552,-69.9265649
FarmaXtra,Unknown,Unknown,Unknown,Unknown,Unknown,Unknown,pharmacy,pharmacy,Unknown,Unknown,Unknown,18.4742424,-69.9260499
Clínica Nuestra Sra. De Las Mercedes,Unknown,Unknown,Unknown,Unknown,Unknown,Unknown,hospital,Unknown,Unknown,Unknown,Unknown,19.0592868,-70.1483299
Centro de Oftalmología y Glaucoma,Unknown,Unknown,Unknown,Unknown,Unknown,Unknown,hospital,hospital,Unknown,Unknown,Unknown,18.4759965,-69.9212999
Laboratorio Doctor Collado,Unknown,Unknown,Unknown,Unknown,Unknown,Unknown,pharmacy,pharmacy,Unknown,Unknown,Unknown,18.479044,-69.9433526
Centro Cardiologico Digital 3D,Unknown,Unknown,Unknown,Unknown,Unknown,Unknown,clinic,clinic,Unknown,Unknown,Unknown,18.4721201,-69.9298268
Centre de Santé de Gros Cheval,Unknown,Unknown,Unknown,Unknown,Unknown,Unknown,hospital,Unknown,Unknown,Unknown,Unknown,18.3389755,-71.8650654
Unknown,Unknown,Unknown,Unknown,Unknown,Unknown,Unknown,pharmacy,pharmacy,Unknown,Unknown,Unknown,18.4187118,-68.9657462
Hospital Alicia De Legendre,Unknown,Trinitaria,Villa Riva,Unknown,Unknown,Unknown,hospital,Unknown,Unknown,Unknown,Unknown,19.1802427,-69.9146995
Farmacia Calderon,Unknown,Unknown,Unknown,Unknown,Unknown,Unknown,pharmacy,Unknown,Unknown,Unknown,Unknown,19.2966126,-70.2509499
Centre de Santé communautaire,Unknown,Unknown,Unknown,Unknown,Unknown,Unknown,hospital,Unknown,Unknown,Unknown,Unknown,19.2213707,-71.9255851
Centre de Santé de Cerca-Carvajal,Unknown,Unknown,Unknown,Unknown,Unknown,Unknown,hospital,Unknown,Unknown,Unknown,Unknown,19.2705435,-71.9416348
Centre de Santé de Cerca-la-Source,Unknown,Unknown,Unknown,Unknown,Unknown,Unknown,hospital,Unknown,Unknown,Unknown,Unknown,19.1629914,-71.7898534
Centre de Santé de Los Cacaos,Unknown,Unknown,Unknown,Unknown,Unknown,Unknown,hospital,Unknown,Unknown,Unknown,Unknown,19.1237295,-71.6799044
Centre de Santé de Los Palis,Unknown,Unknown,Unknown,Unknown,Unknown,Unknown,hospital,Unknown,Unknown,Unknown,Unknown,19.1415952,-71.9400109
Centre de Santé de Thomassique,Unknown,Unknown,Unknown,Unknown,Unknown,Unknown,hospital,Unknown,Unknown,Unknown,Unknown,19.0866461,-71.8362088
Centre de Santé de Tilory,Unknown,Unknown,Unknown,Unknown,Unknown,Unknown,hospital,Unknown,Unknown,Unknown,Unknown,19.2325421,-71.683001
Dispensaire Ste Famille de Cerca-Carvajal,Unknown,Unknown,Unknown,Unknown,Unknown,Unknown,hospital,Unknown,Unknown,Unknown,Unknown,19.2684699,-71.9396913
Dra. Gina García,Unknown,Calle Rafael Augusto Sanchez,Santo Domingo,10122,Unknown,Unknown,dentist,dentist,(809) 563-5992,Unknown,Unknown,18.4725562,-69.931272
Laboratorio Dr. Herrera Khoury,Unknown,Olegario Tenares,Castillo,31000,Unknown,Unknown,hospital,Unknown,Unknown,Unknown,Unknown,19.2097641,-70.0282465
Farmacia Ana,Unknown,San Vicente de Paúl,Unknown,Unknown,Unknown,Unknown,pharmacy,Unknown,Unknown,Unknown,Unknown,18.5096295,-69.8619518
Clínica La Altagracia,Unknown,Av. Domingo Rosario,Santiago,Unknown,Unknown,Unknown,hospital,Unknown,Unknown,Unknown,Unknown,19.421587,-70.689939
Policlínica La Joya,Unknown,Unknown,Unknown,Unknown,Unknown,Unknown,hospital,Unknown,Unknown,Unknown,Unknown,19.356007,-70.2798375
Farmacia San Luis,Unknown,132,Nagua,Unknown,Unknown,Unknown,pharmacy,Unknown,Unknown,Unknown,Unknown,19.3667564,-69.8514457
Hospital IDSS,Unknown,Av. Manolo Tavárez Justo,San Francisco De Macoris,31000,Unknown,Unknown,hospital,Unknown,Unknown,Unknown,Unknown,19.2800974,-70.2422096
Farmacia Candilejas,Unknown,Unknown,Unknown,Unknown,Unknown,Unknown,pharmacy,Unknown,Unknown,Unknown,Unknown,19.0990906,-70.1670527
farmacia almirante,Unknown,Calle Miguel Diaz,Unknown,Unknown,Unknown,Unknown,pharmacy,Unknown,Unknown,Unknown,Mo-Sa 08:00-18:00; Su 08:00-18:00,18.5266912,-69.8141236
Farmacia Carol,Unknown,Unknown,Unknown,Unknown,Unknown,Unknown,pharmacy,pharmacy,Unknown,Unknown,Unknown,18.4692732,-69.9395159
Pharmacia,Unknown,Unknown,Unknown,Unknown,Unknown,Unknown,pharmacy,Unknown,Unknown,Unknown,Unknown,18.9021882,-70.2672049
Christian Clinic for Integrated Health,Unknown,Unknown,Unknown,Unknown,Unknown,Unknown,clinic,Unknown,Unknown,Unknown,Unknown,18.8103212,-71.2410858
Clinica de El Pinar,Unknown,Unknown,Unknown,Unknown,Unknown,Unknown,clinic,Unknown,Unknown,Unknown,Unknown,18.547239,-70.5525515
SmileMakers,Unknown,Unknown,Unknown,Unknown,Unknown,Unknown,dentist,dentist,Unknown,Unknown,Unknown,18.4689378,-69.9265259
Telefarma,Unknown,Unknown,Unknown,Unknown,Unknown,Unknown,pharmacy,pharmacy,Unknown,Unknown,Unknown,18.4719918,-69.9218159
Farmacia Miguela,Unknown,Unknown,Unknown,Unknown,Unknown,Unknown,pharmacy,pharmacy,Unknown,Unknown,Unknown,18.4254056,-68.9643415
Unknown,Unknown,Unknown,Unknown,Unknown,Unknown,Unknown,pharmacy,pharmacy,Unknown,Unknown,Unknown,18.3680797,-68.8391907
Hospital Las Cabuyas,Unknown,"Calle No.28, Las Cabuyas, La Vega",La Vega,41000,Unknown,Unknown,hospital,Unknown,Unknown,Unknown,Unknown,19.2242794,-70.4194196
Unknown,Unknown,Unknown,Unknown,Unknown,Unknown,Unknown,hospital,hospital,Unknown,Unknown,Unknown,18.3670052,-68.8401416
Centro Cardiovascular Urolaser,Unknown,Unknown,Unknown,Unknown,Unknown,Unknown,hospital,Unknown,Unknown,Unknown,Unknown,18.4625565,-69.9072976
Torniacero,Unknown,Avenida San Martín,Santo Domingo,Unknown,Unknown,Unknown,clinic,clinic,+18095082030,https://www.torniacero.com.do/,Unknown,18.4852211,-69.9194579
Farma Xtra,Unknown,Unknown,Unknown,Unknown,Unknown,Unknown,pharmacy,pharmacy,Unknown,Unknown,Unknown,18.475015,-69.9426084
Aeroambulancia,Unknown,Unknown,Unknown,Unknown,Unknown,Unknown,hospital,Unknown,Unknown,Unknown,Unknown,18.4789239,-69.9372592
Farmax,Unknown,Unknown,Unknown,Unknown,Unknown,Unknown,pharmacy,pharmacy,Unknown,Unknown,Unknown,18.4341726,-68.9937304
Hospital Municipal,Unknown,Unknown,Unknown,Unknown,Unknown,Unknown,hospital,Unknown,Unknown,Unknown,Unknown,18.5874597,-68.9777159
Silimed,Unknown,Mustafa Kemal Ataturk,Unknown,Unknown,Unknown,Unknown,pharmacy,pharmacy,Unknown,Unknown,Unknown,18.4717657,-69.9212012
Farmacia Puerto Rico 2,Unknown,Unknown,Unknown,Unknown,Unknown,Unknown,pharmacy,Unknown,+18095915060,Unknown,Unknown,18.4900397,-69.8535491
Vitasalud,Unknown,Unknown,Unknown,Unknown,Unknown,Unknown,pharmacy,Unknown,Unknown,Unknown,Unknown,19.2764139,-70.2407112
Carxal,Unknown,Avenida República De Argentina,Santiago,Unknown,Unknown,Unknown,pharmacy,Unknown,Unknown,Unknown,Unknown,19.4537313,-70.6858919
Farma Xtra,Unknown,Avenida Independencia,Unknown,Unknown,Unknown,Unknown,pharmacy,pharmacy,Unknown,Unknown,Unknown,18.4708037,-69.8916253
Wah Hing Trading Farmaceutica,Unknown,Calle Benito González,Unknown,Unknown,Unknown,Unknown,pharmacy,pharmacy,Unknown,Unknown,Unknown,18.4787245,-69.8878172
Unknown,Unknown,Unknown,Unknown,Unknown,Unknown,Unknown,doctors,doctor,Unknown,Unknown,Unknown,18.4717668,-69.8893283
Farmacia Eunice,Unknown,Calle 16 de Agosto,Unknown,Unknown,Unknown,Unknown,pharmacy,pharmacy,Unknown,Unknown,Unknown,18.474119,-69.893648
Farmacia Thasulij,Unknown,Unknown,Unknown,Unknown,Unknown,Unknown,pharmacy,pharmacy,+18095655112,Unknown,Unknown,18.4711528,-69.9181304
Farmacia Caribe,Unknown,Calle Palo Hincado,Unknown,Unknown,Unknown,Unknown,pharmacy,pharmacy,Unknown,Unknown,Unknown,18.4724274,-69.8914242
Farmacia Carol,Unknown,Avenida México,Unknown,Unknown,Unknown,Unknown,pharmacy,pharmacy,Unknown,Unknown,Unknown,18.4770636,-69.8916656
Farmacia Sofia,Unknown,Unknown,Unknown,Unknown,Unknown,Unknown,pharmacy,pharmacy,Unknown,Unknown,Unknown,18.4762687,-69.8914236
Unknown,Unknown,Calle Fabio Fiallo,Unknown,Unknown,Unknown,Unknown,pharmacy,pharmacy,Unknown,Unknown,Unknown,18.4677353,-69.8942914
Farmacia Rachell,Unknown,Avenida 26 De Enero,Santo Domingo,Unknown,Unknown,Unknown,pharmacy,Unknown,Unknown,Unknown,Unknown,18.4736393,-69.8559789
Farmacia Ligia,Unknown,Calle Padre Billini,Unknown,Unknown,Unknown,Unknown,pharmacy,pharmacy,Unknown,Unknown,Unknown,18.4692458,-69.890978
Sociedad Dominicana de Gastroenterologia,Unknown,Avenida Simón Bolivar,Unknown,Unknown,Unknown,Unknown,doctors,doctor,Unknown,Unknown,Unknown,18.4695495,-69.9021698
Farmacia Carol,Unknown,Unknown,Unknown,Unknown,Unknown,Unknown,pharmacy,pharmacy,Unknown,Unknown,Unknown,18.4733577,-69.8969841
Farmacia Aybar II D Cristian,Unknown,Calle Juan Bastista Vicini,Unknown,Unknown,Unknown,Unknown,pharmacy,pharmacy,Unknown,Unknown,Unknown,18.4812415,-69.8935932
Farmacia San Ramón,Unknown,Calle Monte Christi,Unknown,Unknown,Unknown,Unknown,pharmacy,pharmacy,Unknown,Unknown,Unknown,18.4791168,-69.8955638
Farmacia Doña Chucha,Unknown,Calle Maria Viuda de La Cruz Doña Cucha,Unknown,Unknown,Unknown,Unknown,pharmacy,Unknown,Unknown,Unknown,Unknown,18.4979961,-69.8888326
Super Farmacia El Amor de Cristo,Unknown,Avenida Independencia,Unknown,Unknown,Unknown,Unknown,pharmacy,Unknown,Unknown,Unknown,Unknown,18.4624531,-69.9046367
Farmacia Carmina,Unknown,Avenida Independencia,Unknown,Unknown,Unknown,Unknown,pharmacy,pharmacy,Unknown,Unknown,Unknown,18.4654584,-69.8981375
Clinica Dr. Mojica Peña,Unknown,Calle Jacinto de La Concha,Unknown,Unknown,Unknown,Unknown,doctors,doctor,Unknown,Unknown,Unknown,18.4792256,-69.8902238
Unknown,Unknown,Unknown,Unknown,Unknown,Unknown,Unknown,pharmacy,Unknown,Unknown,Unknown,Unknown,19.4102394,-70.6404953
Farmacia L&V,Unknown,Calle Francisco Henríquez y Carvajal,Unknown,Unknown,Unknown,Unknown,pharmacy,pharmacy,Unknown,Unknown,Unknown,18.4824282,-69.9022676
Farmacia Europa,Unknown,Avenida Los Palmeros. Marginal Las Américas,Unknown,Unknown,Unknown,Unknown,pharmacy,pharmacy,+1 809 559 6837;+1 809 599 6111,Unknown,Unknown,18.4653576,-69.8176022
Farmacia Rosa,Unknown,Unknown,Unknown,Unknown,Unknown,Unknown,pharmacy,Unknown,Unknown,Unknown,Unknown,19.461321,-70.7036859
Farmacia Grecia,Unknown,Unknown,Unknown,Unknown,Unknown,Unknown,pharmacy,Unknown,Unknown,Unknown,Unknown,18.4983292,-69.8917845
ProDentixa,Unknown,Calle Penetracion,Santiago,Unknown,Unknown,Unknown,dentist,dentist,Unknown,Unknown,Unknown,19.4486174,-70.6659511
Farmacia Miledy,Unknown,Los Rosales,Santiago,Unknown,Unknown,Unknown,pharmacy,Unknown,Unknown,Unknown,Unknown,19.4348199,-70.6613832
Farmacia ADA,Unknown,Avenida Nicolás de Ovando,Unknown,Unknown,Unknown,Unknown,pharmacy,Unknown,Unknown,Unknown,Unknown,18.5029388,-69.9013304
ADA Centro Diagnóstico,Unknown,Avenida Nicolás de Ovando,Unknown,Unknown,Unknown,Unknown,clinic,Unknown,Unknown,Unknown,Unknown,18.5026716,-69.9016633
Super Farmacia Altagracia,Unknown,Avenida Nicolás de Ovando,Unknown,Unknown,Unknown,Unknown,pharmacy,Unknown,Unknown,Unknown,Unknown,18.5023819,-69.902085
Laboratorio Clínico Pichardo Gonzalez,Unknown,Avenida Nicolás de Ovando,Unknown,Unknown,Unknown,Unknown,clinic,Unknown,Unknown,Unknown,Unknown,18.5023376,-69.9021463
Farmacia Fantino,Unknown,Avenida Duarte,Unknown,Unknown,Unknown,Unknown,pharmacy,Unknown,Unknown,Unknown,Unknown,18.4915236,-69.8980632
Los Hidalgos,Unknown,Avenida 27 de Febrero,Unknown,Unknown,Unknown,Unknown,pharmacy,pharmacy,Unknown,Unknown,Unknown,18.4765448,-69.9117918
Farmacia Shalimar's,Unknown,Carretera Don Pedro,Santiago,Unknown,Unknown,Unknown,pharmacy,pharmacy,Unknown,Unknown,Unknown,19.4598361,-70.661176
Pharma Salud,Unknown,Avenida 27 de Febrero,Santiago,Unknown,Unknown,Unknown,pharmacy,Unknown,Unknown,Unknown,Unknown,19.4645043,-70.6703225
Luz Divina,Unknown,Calle Jerusalén,Santo Domingo,Unknown,Unknown,Unknown,pharmacy,Unknown,Unknown,Unknown,Unknown,18.4745252,-69.8567147
OscariDent,Unknown,Avenida Máximo Gómez,Unknown,Unknown,Unknown,Unknown,dentist,dentist,Unknown,Unknown,Unknown,18.4869873,-69.9142746
Unknown,Unknown,Unknown,Unknown,Unknown,Unknown,Unknown,pharmacy,pharmacy,Unknown,Unknown,Unknown,18.4871208,-69.9142853
Farmacia Los Multi,Unknown,Calle San Juan de la Maguana,Unknown,Unknown,Unknown,Unknown,pharmacy,Unknown,Unknown,Unknown,Unknown,18.5019263,-69.9152046
Unknown,Unknown,Unknown,Unknown,Unknown,Unknown,Unknown,pharmacy,Unknown,Unknown,Unknown,Unknown,18.5080009,-69.9151508
Farma Xtra,Unknown,Unknown,Unknown,Unknown,Unknown,Unknown,pharmacy,Unknown,Unknown,Unknown,Unknown,18.4839077,-69.9594988
Farmacia Marine Cruz,Unknown,Calle Los Haitices,Unknown,Unknown,Unknown,Unknown,pharmacy,Unknown,Unknown,Unknown,Unknown,18.5187898,-69.9175059
Unknown,Unknown,Unknown,Unknown,Unknown,Unknown,Unknown,pharmacy,pharmacy,Unknown,Unknown,Unknown,18.4756118,-69.9065325
Farmacia Mercado,Unknown,Avenida 27 de Febrero,Santiago,Unknown,Unknown,Unknown,pharmacy,Unknown,Unknown,Unknown,Unknown,19.4660603,-70.6656201
Farmacias Fuente-San Luis,Unknown,Unknown,Unknown,Unknown,Unknown,Unknown,pharmacy,Unknown,+1 829 575 2772,Unknown,Unknown,19.469274,-70.7104209
Farmacia Villa Claudia,Unknown,Calle Los Angeles,Unknown,Unknown,Unknown,Unknown,pharmacy,Unknown,Unknown,Unknown,Unknown,18.5010424,-69.9895928
Farmacia Ana Maria,Unknown,Avenida Imbert,Santiago de los Caballeros,Unknown,Unknown,Unknown,pharmacy,Unknown,+1 809 295 2591,Unknown,Unknown,19.471028,-70.7113088
Referencia,Unknown,Avenida 27 de Febrero,Santiago de los Caballeros,Unknown,Unknown,Unknown,Unknown,laboratory,Unknown,Unknown,Unknown,19.4610806,-70.6889105
Farmacia Raymy,Unknown,Anacaona,Unknown,Unknown,Unknown,Unknown,pharmacy,Unknown,Unknown,Unknown,Unknown,18.5229944,-69.9152772
Farmacia Ian,Unknown,Carlos Ml. Cespedes,Unknown,Unknown,Unknown,Unknown,pharmacy,Unknown,Unknown,Unknown,Unknown,18.5181072,-69.9068294
Farmacia,Unknown,Unknown,Unknown,Unknown,Unknown,Unknown,pharmacy,Unknown,8092953126,Unknown,Unknown,19.4804722,-70.7181698
Farmacia Las 3N,Unknown,Av. Nuñez De Cácerez,Sanitago,Unknown,Unknown,Unknown,pharmacy,Unknown,Unknown,Unknown,Unknown,19.424682,-70.7126029
Farmacia San Martin,Unknown,Avenida Hermanas Mirabal,Unknown,Unknown,Unknown,Unknown,pharmacy,Unknown,Unknown,Unknown,Unknown,18.5298736,-69.908352
Farmacia Buena Vista,Unknown,Avenida Penetración,Unknown,Unknown,Unknown,Unknown,pharmacy,Unknown,Unknown,Unknown,Unknown,18.5306775,-69.906695
Botifarma,Unknown,Las Violetas,Unknown,Unknown,Unknown,Unknown,pharmacy,Unknown,Unknown,Unknown,Unknown,18.5265549,-69.8953569
Farmacia Rx,Unknown,Avenida Circunvalacion,Santiago de los Caballeros,Unknown,Unknown,Unknown,pharmacy,Unknown,Unknown,Unknown,Unknown,19.473725,-70.720237
Farmacia Aurora,Unknown,Placina Josue,Unknown,Unknown,Unknown,Unknown,pharmacy,Unknown,Unknown,Unknown,Unknown,18.5384882,-69.8845274
Farmacia Anlly,Unknown,Autopista Duarte,Unknown,Unknown,Unknown,Unknown,pharmacy,Unknown,Unknown,Unknown,Unknown,19.4058431,-70.6360701
Farmacia Los Tanquecitos,Unknown,Respaldo 1ra,André,Unknown,Unknown,Unknown,pharmacy,Unknown,Unknown,Unknown,Unknown,18.4597604,-69.6285796
centro reumatologico,Unknown,Rosa Duarte,Unknown,Unknown,Unknown,Unknown,clinic,clinic,Unknown,Unknown,Unknown,18.474771,-69.9025055
Farmacia YNA,Unknown,Unknown,Unknown,Unknown,Unknown,Unknown,pharmacy,Unknown,Unknown,Unknown,Unknown,19.4866335,-70.7188558
Unknown,Unknown,Unknown,Unknown,Unknown,Unknown,Unknown,pharmacy,Unknown,Unknown,Unknown,Unknown,18.5528129,-69.9023539
Farmacia Inmaculada,Unknown,Pedro Fco. Bonó Deschamps,Santiago,Unknown,Unknown,Unknown,pharmacy,pharmacy,Unknown,Unknown,Unknown,19.4545729,-70.7005633
Farmacia Santa Lucía,Unknown,Avenida Las Carreras,Santiago de los Caballeros,Unknown,Unknown,Unknown,pharmacy,pharmacy,Unknown,Unknown,Unknown,19.4532993,-70.6983647
Farmacia Leticia,Unknown,Avenida Las Carreras,Santiago,Unknown,Unknown,Unknown,pharmacy,Unknown,Unknown,Unknown,Unknown,19.454162,-70.7016421
Farmacia Grudy,Unknown,Pedro Fco. Bonó Deschamps,Santiago,Unknown,Unknown,Unknown,pharmacy,Unknown,Unknown,Unknown,Unknown,19.4545264,-70.7002797
Banco de Sangre Dr. Liriano,Unknown,Pedro Fco. Bonó Deschamps,Santiago,Unknown,Unknown,Unknown,Unknown,blood_donation,Unknown,Unknown,Unknown,19.4544923,-70.7000673
Farmacia Roland,Unknown,Calle 4ta,Unknown,Unknown,Unknown,Unknown,pharmacy,Unknown,Unknown,Unknown,Unknown,18.4787693,-69.822426
Farmacia R&E,Unknown,Calle Brisa,Unknown,Unknown,Unknown,Unknown,pharmacy,Unknown,Unknown,Unknown,Unknown,18.4773811,-69.8033676
Farmacia Luis Miguel,Unknown,Unknown,Unknown,Unknown,Unknown,Unknown,pharmacy,Unknown,Unknown,Unknown,Unknown,18.4734814,-69.7946431
Farmacia L&J,Unknown,Calle 7ma,Unknown,Unknown,Unknown,Unknown,pharmacy,Unknown,Unknown,Unknown,Unknown,18.5538681,-69.895414
Centro Dermatológico Dra. Roxanna Rodríguez,Unknown,Unknown,Unknown,Unknown,Unknown,Unknown,doctors,doctor,+1 809 583 0845,Unknown,Unknown,19.4592407,-70.6982556
Super Farmacia Camille,Unknown,Avenida Coronel Rafael Tomás Fernández Domínguez,Unknown,Unknown,Unknown,Unknown,pharmacy,Unknown,Unknown,Unknown,Unknown,18.4942969,-69.8072495
Farmacia Tony,Unknown,Avenida Hípica,Unknown,Unknown,Unknown,Unknown,pharmacy,Unknown,809 231 8902,Unknown,Unknown,18.4809348,-69.8167361
Farmacia Lidia,Unknown,Avenida Bartolomé Colón,Santiago,Unknown,Unknown,Unknown,pharmacy,pharmacy,Unknown,Unknown,Unknown,19.4664427,-70.6903402
Farmacia El Bienstar,Unknown,Padre Las Casas,Santiago,Unknown,Unknown,Unknown,pharmacy,Unknown,Unknown,Unknown,Unknown,19.4685208,-70.6924107
Farmacia Yamila,Unknown,Calle Las Habras,Santo Domingo,Unknown,Unknown,Unknown,pharmacy,Unknown,Unknown,Unknown,Unknown,18.4875535,-69.973078
Farmacia Nilda,Unknown,Avenida Sánchez,Unknown,Unknown,Unknown,Unknown,pharmacy,Unknown,Unknown,Unknown,Unknown,18.5444997,-69.9276938
Farmacia Leidsa,Unknown,Calle Frey Anton Montecino,Unknown,Unknown,Unknown,Unknown,pharmacy,Unknown,Unknown,Unknown,Unknown,18.5410858,-69.9260764
Farmahorro,Unknown,Calle Restauración,Santiago,Unknown,Unknown,Unknown,pharmacy,pharmacy,Unknown,Unknown,Unknown,19.4530957,-70.7072923
Farma Value,Unknown,Avenida Francia,Santiago,Unknown,Unknown,Unknown,pharmacy,pharmacy,Unknown,Unknown,Unknown,19.4486011,-70.6959403
Clínica Dental,Unknown,Calle Restauración,Santiago,Unknown,Unknown,Unknown,dentist,dentist,Unknown,Unknown,Unknown,19.4521518,-70.6993445
Unknown,Unknown,Unknown,Unknown,Unknown,Unknown,Unknown,pharmacy,Unknown,Unknown,Unknown,Unknown,18.5609628,-69.9370929
Unknown,Unknown,Calle Restauración,Santiago,Unknown,Unknown,Unknown,dentist,dentist,Unknown,Unknown,Unknown,19.4532196,-70.70714
Farmatodo,Unknown,Calle 30 de Marzo,Santiago,Unknown,Unknown,Unknown,pharmacy,pharmacy,Unknown,Unknown,Unknown,19.4539405,-70.7055152
Clínica Odontologica,Unknown,Germán Soriano,Santiago de los Caballeros,Unknown,Unknown,Unknown,dentist,dentist,Unknown,Unknown,Unknown,19.458041,-70.700808
Patria Rivas,Unknown,Germán Soriano,Santiago de los Caballeros,Unknown,Unknown,Unknown,clinic,Unknown,Unknown,Unknown,Unknown,19.4580031,-70.7007436
Farmacia Popular Cristobal,Unknown,Avenida Constitucion,San Cristóbal,Unknown,Unknown,Unknown,pharmacy,Unknown,Unknown,Unknown,Unknown,18.4224822,-70.1155136
Unknown,Unknown,Unknown,Unknown,Unknown,Unknown,Unknown,pharmacy,Unknown,Unknown,Unknown,Unknown,18.4518084,-69.9730393
Farmacia Gio,Unknown,Unknown,Unknown,Unknown,Unknown,Unknown,pharmacy,Unknown,+1 809 241 9084,Unknown,Unknown,19.4450435,-70.6715713
Farmacentro,Unknown,Unknown,Unknown,Unknown,Unknown,Unknown,pharmacy,Unknown,+1 809 583 2122,Unknown,Unknown,19.4510043,-70.681449
Farmacia Cuesta,Unknown,Avenida Tiradentes,Santo Domingo,Unknown,Unknown,Unknown,pharmacy,pharmacy,Unknown,Unknown,Unknown,18.4773339,-69.9277797
Magnadent,Unknown,Avenida Tiradentes,Santo Domingo,Unknown,Unknown,Unknown,dentist,dentist,Unknown,Unknown,Unknown,18.4697697,-69.9244424
Farmacia Fontana,Unknown,Unknown,Unknown,Unknown,Unknown,Unknown,pharmacy,Unknown,Unknown,Unknown,Unknown,18.5065033,-69.9586718
Farmacias Fuente San Luis,Unknown,Unknown,Unknown,Unknown,Unknown,Unknown,pharmacy,pharmacy,Unknown,Unknown,Unknown,19.4555732,-70.6658922
Farmacia Villa Olga,Unknown,Unknown,Unknown,Unknown,Unknown,Unknown,pharmacy,Unknown,Unknown,Unknown,Unknown,19.4552815,-70.6751461
Farmacia Carol,Unknown,Avenida Lope de Vega,Santo Domingo,Unknown,Unknown,Unknown,pharmacy,pharmacy,Unknown,Unknown,Unknown,18.4725628,-69.931673
Farmacia Constanza,Unknown,General Gregorio Luperon,Unknown,Unknown,Unknown,Unknown,pharmacy,Unknown,18095392880,Unknown,Mo-Su 07:30-21:00,18.9089708,-70.7473402
CEDENSA,Unknown,José Joaquín Pérez,Unknown,Unknown,Unknown,Unknown,dentist,dentist,8092000677,https://cedensa.com.do/,Unknown,18.4685338,-69.902098
Family Dental Center,Unknown,Avenida 27 de Febrero,Santo Domingo,10149,Unknown,Unknown,dentist,dentist,Unknown,Unknown,Unknown,18.4651921,-69.9316891
Farma Blue,Unknown,Calle Federico Geraldino,Santo Domingo,Unknown,Unknown,Unknown,pharmacy,Unknown,Unknown,Unknown,Unknown,18.4754498,-69.9384637
Farmacia Bernado,Unknown,Calle Padre Borbón,San Cristóbal,Unknown,Unknown,Unknown,pharmacy,Unknown,Unknown,Unknown,Unknown,18.4155099,-70.1112648
Farma Xpress,Unknown,Unknown,Unknown,Unknown,Unknown,Unknown,pharmacy,pharmacy,Unknown,Unknown,Unknown,18.480288,-69.9411588
Superfarmacia Nacional,Unknown,Unknown,Unknown,Unknown,Unknown,Unknown,pharmacy,Unknown,Unknown,Unknown,Unknown,19.4517793,-70.7037786
Unknown,Unknown,Unknown,Unknown,Unknown,Unknown,Unknown,pharmacy,Unknown,Unknown,Unknown,Unknown,18.497643,-69.7925482
Primium,Unknown,Calle Penetracion,Santo Domingo Este,Unknown,Unknown,Unknown,pharmacy,pharmacy,+1 809 748 0283,Unknown,Lu-Sa 08:00-22:00; Do off,18.4960761,-69.7983651
Farmacia Cynthia,Unknown,Unknown,Unknown,Unknown,Unknown,Unknown,pharmacy,pharmacy,Unknown,Unknown,Unknown,18.4881378,-69.8888559
Farmacia,Unknown,Unknown,Unknown,Unknown,Unknown,Unknown,pharmacy,Unknown,Unknown,Unknown,Unknown,18.4921254,-69.8918286
Farmacia Carol Metro Country Club,Unknown,Unknown,Unknown,Unknown,Unknown,Unknown,pharmacy,pharmacy,Unknown,Unknown,Unknown,18.4281605,-69.4165699
Farmacia Luis Migel,Unknown,Avenida El Eden,Unknown,Unknown,Unknown,Unknown,pharmacy,Unknown,Unknown,Unknown,Unknown,18.4734289,-69.7945719
Farmacia Greliz,Unknown,Avenida Principal Dr Hector B Jimenez,Unknown,Unknown,Unknown,Unknown,pharmacy,pharmacy,Unknown,Unknown,Unknown,18.4918257,-69.7864165
Centro de Vacunación Clínica Corominas,Unknown,Unknown,Unknown,Unknown,Unknown,Unknown,clinic,Unknown,Unknown,Unknown,Unknown,19.4525907,-70.6997218
FarmaXtra,Unknown,Unknown,Unknown,Unknown,Unknown,Unknown,pharmacy,Unknown,Unknown,Unknown,Unknown,18.4765281,-69.9741763
Laboratorio Clinico Lidamer,Unknown,Unknown,Unknown,Unknown,Unknown,Unknown,clinic,Unknown,Unknown,Unknown,Unknown,18.4755154,-69.9843866
Farmacia Efigenia,Unknown,Unknown,Unknown,Unknown,Unknown,Unknown,pharmacy,Unknown,Unknown,Unknown,Unknown,18.4763485,-69.983488
Farmacia Pujols,Unknown,Calle 8,Unknown,Unknown,Unknown,Unknown,pharmacy,Unknown,Unknown,Unknown,Unknown,19.4745206,-70.6765125
Farma Xtra,Unknown,Carretera Mella,Santo Domingo Este,Unknown,Unknown,Unknown,pharmacy,Unknown,Unknown,Unknown,Unknown,18.5108787,-69.8483384
Centro Dental Stetic Plus,Unknown,Carretera Mella,Santo Domingo Este,Unknown,Unknown,Unknown,pharmacy,Unknown,Unknown,Unknown,Unknown,18.5142169,-69.8435304
Farmacia Medicar,Unknown,Unknown,Unknown,Unknown,Unknown,Unknown,pharmacy,Unknown,Unknown,Unknown,Unknown,18.4616377,-69.9519751
Farmacia Alianza,Unknown,Calle Del Sol,Santiago,Unknown,Unknown,Unknown,pharmacy,Unknown,Unknown,Unknown,Unknown,19.452156,-70.7128002
Farmacias Los Pinos,Unknown,Avenida Las Carreras,Santiago de los Caballeros,Unknown,Unknown,Unknown,pharmacy,Unknown,Unknown,Unknown,Unknown,19.4542956,-70.702148
Farmacia Yamila,Unknown,Calle Jilguerillo,Santo Domingo,Unknown,Unknown,Unknown,pharmacy,Unknown,Unknown,Unknown,24/7,18.5058073,-69.9811634
Farmacia Los Cerros,Unknown,Carretera Luperón,Unknown,Unknown,Unknown,Unknown,pharmacy,Unknown,Unknown,Unknown,Unknown,19.4704072,-70.6837668
Farmacia GBC,Unknown,Avenida República de Colombia,Santo Domingo,Unknown,Unknown,Unknown,pharmacy,Unknown,Unknown,Unknown,Unknown,18.5068751,-69.9783166
Farmahorro,Unknown,Unknown,Unknown,Unknown,Unknown,Unknown,pharmacy,Unknown,Unknown,Unknown,Unknown,18.466115,-69.9538731
Farmacia Keisy Omar,Unknown,Unknown,Unknown,Unknown,Unknown,Unknown,pharmacy,Unknown,Unknown,Unknown,Unknown,18.4803183,-70.0009491
Farmacity1,Unknown,Unknown,Unknown,Unknown,Unknown,Unknown,pharmacy,Unknown,Unknown,Unknown,Unknown,18.487358,-69.8340798
Nos Farma,Unknown,Unknown,Unknown,Unknown,Unknown,Unknown,pharmacy,Unknown,Unknown,Unknown,Unknown,18.4859603,-69.8422075
Farmacia Boulevar,Unknown,Unknown,Unknown,Unknown,Unknown,Unknown,pharmacy,pharmacy,Unknown,Unknown,Unknown,18.4807829,-69.8577813
Farmacia Gigante,Unknown,Avenida Charles de Gaulle,Santo Domingo este,11801,Unknown,Unknown,pharmacy,pharmacy,+1809 598 4565,Unknown,Unknown,18.5126055,-69.8309436
corominas pepin,Unknown,Calle Profesor Ajiro Paulino,Unknown,Unknown,Unknown,Unknown,clinic,clinic,Unknown,Unknown,Unknown,18.4806886,-69.9220993
Unknown,Unknown,Unknown,Unknown,Unknown,Unknown,Unknown,pharmacy,Unknown,Unknown,Unknown,Unknown,18.4497473,-69.9670422
Farmacia Jerding,Unknown,Unknown,Unknown,Unknown,Unknown,Unknown,pharmacy,Unknown,Unknown,Unknown,Unknown,18.4627642,-69.9578894
Farma Xtra,Unknown,Unknown,Unknown,Unknown,Unknown,Unknown,pharmacy,Unknown,Unknown,Unknown,Unknown,18.4644192,-69.9582413
Super Farmacia Felicidad,Unknown,Unknown,Unknown,Unknown,Unknown,Unknown,pharmacy,Unknown,Unknown,Unknown,Unknown,18.4831314,-70.000003
ChaRxles,Unknown,Unknown,Unknown,Unknown,Unknown,Unknown,pharmacy,Unknown,Unknown,Unknown,Unknown,18.4997068,-69.8238242
Farmacia Xtra,Unknown,Unknown,Unknown,Unknown,Unknown,Unknown,pharmacy,Unknown,Unknown,Unknown,Unknown,18.4863193,-69.8357979
Centro Comunitario de Salud Suxual & Reproductiva,Unknown,Unknown,Unknown,Unknown,Unknown,Unknown,clinic,Unknown,Unknown,Unknown,Unknown,18.4905575,-69.9027782
Farmacia Cristiana,Unknown,Avenida Padre Castellanos Calle 17,Unknown,Unknown,Unknown,Unknown,pharmacy,Unknown,809 684 6263,Unknown,Unknown,18.496802,-69.8940264
Farmacia Ines,Unknown,Avenida Padre Castellanos Calle 17,Unknown,Unknown,Unknown,Unknown,pharmacy,Unknown,Unknown,Unknown,Unknown,18.5026034,-69.8856288
Farmacia Europa,Unknown,San Vicente de Paúl,Unknown,Unknown,Unknown,Unknown,pharmacy,Unknown,809 596 3680,Unknown,Unknown,18.5098406,-69.866685
Farmasil,Unknown,Avenida Winston Churchill,Santo Domingo,10149,Unknown,Unknown,pharmacy,pharmacy,Unknown,Unknown,Unknown,18.4666628,-69.9373835
Farmax-Pole,Unknown,Calle Caminio Chiquito (Luis Amiamia Tio),Unknown,Unknown,Unknown,Unknown,pharmacy,Unknown,Unknown,Unknown,Unknown,18.4921016,-69.9322093
Super Farmacia Sandra,Unknown,Avenida Los Constiyuentes,San Cristóbal,Unknown,Unknown,Unknown,pharmacy,Unknown,Unknown,Unknown,Unknown,18.4196529,-70.1017206
Farma Xtra,Unknown,Avenida Jiménez Moya,Unknown,Unknown,Unknown,Unknown,pharmacy,Unknown,Unknown,Unknown,24/7,18.4533171,-69.9286748
Farmacia Santa Teresa V,Unknown,Calle 14 de Junio,Unknown,Unknown,Unknown,Unknown,pharmacy,pharmacy,Unknown,Unknown,Unknown,18.4880226,-69.9168687
Farmacia San Cosme,Unknown,Unknown,Unknown,Unknown,Unknown,Unknown,pharmacy,pharmacy,Unknown,Unknown,Unknown,18.4862113,-69.9156684
Farmacia E&G,Unknown,Unknown,Unknown,Unknown,Unknown,Unknown,pharmacy,Unknown,Unknown,Unknown,Unknown,18.4852155,-69.9108926
Super Farmacia Ritalex,Unknown,Avenida Independencia,Unknown,Unknown,Unknown,Unknown,pharmacy,Unknown,Unknown,Unknown,Unknown,18.4385547,-69.951068
Farmacia Krishelle,Unknown,Unknown,Unknown,Unknown,Unknown,Unknown,pharmacy,Unknown,Unknown,Unknown,Unknown,18.4343224,-69.9605844
Farmacia Baik II,Unknown,Avenida Independencia,Unknown,Unknown,Unknown,Unknown,pharmacy,Unknown,Unknown,Unknown,Unknown,18.4330917,-69.96327
Farma Xtra,Unknown,Unknown,Unknown,Unknown,Unknown,Unknown,pharmacy,Unknown,Unknown,Unknown,Unknown,18.4316324,-69.9692842
Farma Xtra,Unknown,Unknown,Unknown,Unknown,Unknown,Unknown,pharmacy,Unknown,Unknown,Unknown,Unknown,18.4442124,-69.9460219
Farm-Kar II,Unknown,Avenida Nicolás de Ovando,Unknown,Unknown,Unknown,Unknown,pharmacy,Unknown,Unknown,Unknown,Unknown,18.4996603,-69.9189074
Farmacia Las Flores,Unknown,San Juan de la Maguana,Unknown,Unknown,Unknown,Unknown,pharmacy,Unknown,Unknown,Unknown,Unknown,18.5015528,-69.915714
Medicar GBC,Unknown,Unknown,Unknown,Unknown,Unknown,Unknown,doctors,doctor,Unknown,Unknown,Unknown,18.4841306,-69.9251242
Farmacia del Pueblo,Unknown,Avenida Dr Pedro A. Columna,Bonao,Unknown,Unknown,Unknown,pharmacy,Unknown,Unknown,Unknown,Unknown,18.9370085,-70.4113571
Unknown,Unknown,Avenida Correa y Cidrón,Unknown,Unknown,Unknown,Unknown,pharmacy,Unknown,Unknown,Unknown,Unknown,18.4572151,-69.9210094
Unknown,Unknown,Unknown,Unknown,Unknown,Unknown,Unknown,pharmacy,pharmacy,Unknown,Unknown,Unknown,18.4870244,-69.9189554
FarmaTem,Unknown,Unknown,Unknown,Unknown,Unknown,Unknown,pharmacy,Unknown,Unknown,Unknown,Unknown,18.4853767,-69.9078191
Farmacia Hector,Unknown,Calle Juan Erazo,Unknown,Unknown,Unknown,Unknown,pharmacy,Unknown,Unknown,Unknown,Unknown,18.4908816,-69.9065879
Dispensario Medico Paraoquial,Unknown,30 De Marzo,Villa Altagracia,Unknown,Unknown,Unknown,clinic,Unknown,Unknown,Unknown,Unknown,18.6723099,-70.174504
Farmacia,Unknown,Avenida Duarte,Villa Altagracia,Unknown,Unknown,Unknown,pharmacy,Unknown,Unknown,Unknown,Unknown,18.6722535,-70.1745253
Farmacia Karen,Unknown,Avenida Nicolás de Ovando,Unknown,Unknown,Unknown,Unknown,pharmacy,Unknown,Unknown,Unknown,Unknown,18.4991441,-69.9239052
Super Farmacia Denia,Unknown,Avenida Nicolás de Ovando,Unknown,Unknown,Unknown,Unknown,pharmacy,Unknown,Unknown,Unknown,Unknown,18.4990699,-69.9249459
Farmacia M&H,Unknown,Avenida Nicolás de Ovando,Unknown,Unknown,Unknown,Unknown,pharmacy,Unknown,Unknown,Unknown,Unknown,18.4988819,-69.9280571
Farmacia Allan,Unknown,Santo Cerro,Unknown,Unknown,Unknown,Unknown,pharmacy,Unknown,Unknown,Unknown,Unknown,19.2863046,-70.5733844
Unknown,Unknown,Unknown,Unknown,Unknown,Unknown,Unknown,pharmacy,Unknown,Unknown,Unknown,Unknown,18.4915745,-69.9299226
Farmacia San Rafael,Unknown,Don Antonio Guzman Fernandez,La Vega,Unknown,Unknown,Unknown,pharmacy,Unknown,Unknown,Unknown,Unknown,19.2235209,-70.5324829
Telefarma,Unknown,Avenida Sabana Larga,Santo Domingo Este,Unknown,Unknown,Unknown,pharmacy,pharmacy,Unknown,Unknown,Unknown,18.4911731,-69.8651631
Cortina Gonzalez1,Unknown,Carretera Mella,Santo Domingo Este,Unknown,Unknown,Unknown,clinic,clinic,Unknown,Unknown,Unknown,18.4949542,-69.8629532
Farmacia Lennin,Unknown,Carretera Mella,Santo Domingo Este,Unknown,Unknown,Unknown,pharmacy,pharmacy,Unknown,Unknown,Unknown,18.4950002,-69.8628142
"Farmacia ""Santo Domingo Savio""",Unknown,Don Luis Despradel,La Vega,Unknown,Unknown,Unknown,pharmacy,Unknown,Unknown,Unknown,Unknown,19.2256242,-70.5319033
Laboratorio Clinico Beretecnica,Unknown,Carretera Mella,Santo Domingo Este,Unknown,Unknown,Unknown,Unknown,laboratory,Unknown,Unknown,Unknown,18.5001288,-69.8603944
Unknown,Unknown,Unknown,Unknown,Unknown,Unknown,Unknown,pharmacy,Unknown,Unknown,Unknown,Unknown,18.4906337,-69.8498262
Farmacia Sebastian1,Unknown,Carretera Mella,Santo Domingo Este,Unknown,Unknown,Unknown,pharmacy,Unknown,Unknown,Unknown,Unknown,18.5042563,-69.8581575
Farmacia Eden 1,Unknown,Avenida Fernandez Navarrete,Unknown,Unknown,Unknown,Unknown,pharmacy,Unknown,Unknown,Unknown,Unknown,18.5119773,-69.8691993
Unknown,Unknown,Unknown,Unknown,Unknown,Unknown,Unknown,pharmacy,Unknown,Unknown,Unknown,Unknown,18.5386906,-69.8610818
Clinica Dental Dr. Francisco Mateo,Unknown,Calle Padre Billini,La Vega,Unknown,Unknown,Unknown,dentist,dentist,Unknown,Unknown,Unknown,19.2276251,-70.5333606
Distrubuidora Farmaceutica Emmanuel,Unknown,Calle Duarte,Los Alcarrizos,Unknown,Unknown,Unknown,pharmacy,Unknown,Unknown,Unknown,Unknown,18.5241028,-70.0317047
Boti-Farma,Unknown,Calle 13,Unknown,Unknown,Unknown,Unknown,pharmacy,Unknown,Unknown,Unknown,Unknown,18.5395308,-69.8631613
"Centro Medico ""Padre Fantino""",Unknown,Calle Gral. Juan Rodriguez,La Vega,Unknown,Unknown,Unknown,clinic,clinic,Unknown,Unknown,Unknown,19.224747,-70.5271502
Clinica De La Diel,Unknown,Calle Duarte,Los Alcarrizos,Unknown,Unknown,Unknown,clinic,Unknown,Unknown,Unknown,Unknown,18.5237027,-70.0226245
FarmaXtra,Unknown,Avenida Correa y Cidrón,Unknown,Unknown,Unknown,Unknown,pharmacy,Unknown,Unknown,Unknown,Unknown,18.4613118,-69.9113199
Farmacia Sandomar,Unknown,Avenida Correa y Cidrón,Unknown,Unknown,Unknown,Unknown,pharmacy,Unknown,Unknown,Unknown,Unknown,18.4588558,-69.9166237
Dermistetic,Unknown,Avenida Venezuela,Unknown,Unknown,Unknown,Unknown,doctors,doctor,Unknown,Unknown,Unknown,18.4929494,-69.8698371
Farmacia Nokaury,Unknown,Telesforo Jaime,Unknown,Unknown,Unknown,Unknown,pharmacy,Unknown,Unknown,Unknown,Unknown,18.4719451,-70.0035545
CEMLI - Centro Medico Dr.Liriano,Unknown,Unknown,Unknown,Unknown,Unknown,Unknown,clinic,Unknown,Unknown,Unknown,Unknown,19.3448844,-70.6035423
Copinfa,Unknown,Unknown,Unknown,Unknown,Unknown,Unknown,pharmacy,pharmacy,Unknown,Unknown,Unknown,18.4811514,-69.9212798
Laboratorio Amadita,Unknown,Unknown,Unknown,Unknown,Unknown,Unknown,pharmacy,Unknown,Unknown,Unknown,Unknown,18.5359213,-69.9060947
Farmacia Maniel,Unknown,Unknown,Unknown,Unknown,Unknown,Unknown,pharmacy,Unknown,Unknown,Unknown,Unknown,18.5311562,-69.9069476
Laboratorio Patria Rivas,Unknown,Unknown,Unknown,Unknown,Unknown,Unknown,pharmacy,Unknown,+18095693094,Unknown,Unknown,18.5274888,-69.9136102
Policlínica de los Rosales,Unknown,Unknown,Unknown,Unknown,Unknown,Unknown,hospital,Unknown,Unknown,Unknown,Unknown,18.611372,-68.7234174
Hospital público Inmaculada Concepción ,Unknown,Avenida Mella,Unknown,Unknown,Unknown,Unknown,hospital,hospital,Unknown,Unknown,Unknown,19.0490307,-70.1522444
Farmacia Mima ,Unknown,Avenida Mella,Unknown,Unknown,Unknown,Unknown,pharmacy,Unknown,Unknown,Unknown,Unknown,19.0542299,-70.1528925
Farmacia Mercury ,Unknown,Avenida República De Argentina,Santiago,51043,Unknown,Unknown,pharmacy,pharmacy,Unknown,Unknown,Unknown,19.4501703,-70.674517
Farmacia Rachelle ,Unknown,Carretera Don Pedro,Unknown,Unknown,Unknown,Unknown,pharmacy,Unknown,Unknown,Unknown,Unknown,19.4618277,-70.6547176
Farma Ahorro ,Unknown,Juan Pablo Duarte,Unknown,Unknown,Unknown,Unknown,pharmacy,Unknown,Unknown,Unknown,Unknown,19.4583086,-70.6726328
Hospital Jacinto Ignacio Mañón (Hospital de los Girasoles),Unknown,Avenida República de Colombia,Unknown,Unknown,Unknown,Unknown,hospital,Unknown,809-930-0034,Unknown,Unknown,18.507029,-69.989163
Clínica Dermatologica De Herrera,Unknown,Calle San Anton,Unknown,Unknown,Unknown,Unknown,clinic,Unknown,Unknown,Unknown,Unknown,18.4644292,-69.9741147
Farmacia Rosa,Unknown,Padre Las Casas,Unknown,Unknown,Unknown,Unknown,pharmacy,Unknown,8095821646,Unknown,Unknown,19.4719418,-70.6913728
CECIESMED,Unknown,Ramon Antonio Liranzo,Fantino,43000,Unknown,DO,hospital,Unknown,Unknown,Unknown,Unknown,19.1207781,-70.2996516
Centro Medico Quirurgico Fantino,Unknown,Duarte,Fantino,43000,Unknown,Unknown,hospital,Unknown,1-809-574-1249,Unknown,Unknown,19.1256082,-70.29583
FarmAhorro,Unknown,Unknown,Unknown,Unknown,Unknown,Unknown,pharmacy,pharmacy,Unknown,Unknown,Unknown,19.4466824,-70.6667988
Diagnostica SA,Unknown,Unknown,Unknown,Unknown,Unknown,Unknown,clinic,clinic,Unknown,Unknown,Unknown,18.4671137,-69.8995107
Los Hidalgo,Unknown,Unknown,Unknown,Unknown,Unknown,Unknown,pharmacy,pharmacy,Unknown,Unknown,Unknown,18.4513263,-69.6722757
EMBASSY Corporation,Unknown,Unknown,Unknown,Unknown,Unknown,Unknown,pharmacy,pharmacy,8096897453,Unknown,Unknown,18.4696559,-69.8864813
Farmacia angelo,Unknown,Carretera de Mendoza,Unknown,Unknown,Unknown,Unknown,pharmacy,pharmacy,Unknown,Unknown,Unknown,18.4982332,-69.8568468
Centro Médico El Vergel,Unknown,Calle El Vergel,Unknown,Unknown,Unknown,Unknown,clinic,clinic,Unknown,Unknown,Unknown,18.4726495,-69.9176368
CPNA Especializado y Diagnostico Inocencio Diaz Piñeyro,Unknown,Calle 10,Unknown,Unknown,Unknown,Unknown,clinic,Unknown,8095343093,http://www.facebook.com/inocencio.diazpineyro,Mo-Fr 07:30-17:00,18.4482409,-69.9845051
YANNA,Unknown,Unknown,Unknown,Unknown,Unknown,Unknown,pharmacy,Unknown,Unknown,Unknown,Unknown,18.5088297,-69.8386832
centro medico hispánico,Unknown,Unknown,Unknown,Unknown,Unknown,Unknown,clinic,Unknown,Unknown,Unknown,Unknown,18.4876775,-69.8494703
Centro de Atención Primaria,Unknown,Unknown,Unknown,Unknown,Unknown,Unknown,clinic,Unknown,Unknown,Unknown,Unknown,18.7002447,-68.951786
hospital san Cristóbal,Unknown,Unknown,Unknown,Unknown,Unknown,Unknown,hospital,Unknown,Unknown,Unknown,Unknown,18.4160848,-70.1086935
Oftalmolaser,Unknown,Sábana Larga,Unknown,Unknown,Unknown,Unknown,clinic,clinic,Unknown,Unknown,Unknown,19.4542084,-70.6983622
Dermachange Clinica,Unknown,Manuel María Valencia,Unknown,Unknown,Unknown,Unknown,clinic,clinic,809-378-1348,Unknown,Unknown,18.4741614,-69.9593164
Farmacia Nieve,Unknown,Imbert,Unknown,Unknown,Unknown,Unknown,pharmacy,Unknown,Unknown,Unknown,Unknown,19.3938968,-70.5269921
clínica Dr. Reyes,Unknown,Calle C,Santo Domingo Oeste,Unknown,Unknown,Unknown,clinic,Unknown,809-534-3000,Unknown,lunes - 8:00 -18:00 martes - 8:00 - 18:00 miércoles - 8:00 - 18:00 jueves - 8:00 -18:00 viernes - 8:00 -18:00 sábado - Cerrado domingo - Cerrado,18.4478177,-69.9852424
clínica nuevo amanecer,Unknown,Unknown,Unknown,Unknown,Unknown,Unknown,clinic,Unknown,Unknown,Unknown,Unknown,18.4469654,-69.9827663
Faarmacia  Los Jardines,Unknown,Villa Tapia - San Francisco,Villa Tapia,Unknown,Unknown,Unknown,pharmacy,Unknown,Unknown,Unknown,Unknown,19.2965874,-70.4130768
Farmacia Ruth Esther,Unknown,Unknown,Unknown,Unknown,Unknown,Unknown,pharmacy,Unknown,Unknown,Unknown,Unknown,19.2995023,-70.4263289
Cruz Roja Dominicana,Unknown,Mella,Unknown,51000,Unknown,Unknown,hospital,hospital,8295822595,Unknown,Unknown,19.4490995,-70.7021516
Clínica Rural,Unknown,Duarte,Unknown,Unknown,Unknown,Unknown,clinic,Unknown,Unknown,Unknown,Unknown,18.8494973,-71.6292856
VIP,Unknown,Unknown,Unknown,Unknown,Unknown,Unknown,pharmacy,Unknown,Unknown,Unknown,Unknown,18.5054642,-69.9364105
Instituto Dominicano De Gastroenterologia,Unknown,Avenida Hermanas Mirabal,Santo Domingo Norte,11201,Unknown,Unknown,hospital,hospital,(809) 741-2262,Unknown,Unknown,18.5275661,-69.9130919
Unknown,Unknown,Unknown,Unknown,Unknown,Unknown,Unknown,clinic,clinic,Unknown,Unknown,Unknown,18.4690544,-69.8997032
Hospimed,Unknown,José Dolores Alfonseca,Unknown,Unknown,Unknown,Unknown,hospital,Unknown,Unknown,Unknown,Unknown,19.3940144,-70.526053
fabiola uñas.,Unknown,Unknown,Unknown,Unknown,Unknown,Unknown,clinic,Unknown,Unknown,Unknown,Unknown,19.4274879,-70.6710392
Patronato Cibao de Rehabilitación Inc.,Unknown,Unknown,Unknown,Unknown,Unknown,Unknown,hospital,Unknown,Unknown,Unknown,Unknown,19.4804388,-70.7159386
Hospital Villa La Mata,Unknown,Unknown,Unknown,Unknown,Unknown,Unknown,hospital,hospital,Unknown,Unknown,Unknown,19.1002393,-70.1568135
Centro de atencion primaria Villa la Mata,Unknown,Unknown,Unknown,Unknown,Unknown,Unknown,hospital,hospital,Unknown,Unknown,Unknown,19.1062806,-70.177729
Clínica Bahia Azul,Unknown,Carretera Las Galeras - Samaná,Unknown,Unknown,Unknown,Unknown,hospital,Unknown,8095380042,www.ninosdelasgaleras.org,Unknown,19.2896869,-69.200373
dentista,Unknown,Unknown,Unknown,Unknown,Unknown,Unknown,dentist,dentist,Unknown,Unknown,Unknown,18.4732861,-69.9598396
Farmacia del Sol,Unknown,Unknown,Unknown,Unknown,Unknown,Unknown,pharmacy,Unknown,Unknown,Unknown,Unknown,19.4515609,-70.709395
Unknown,Unknown,Unknown,Unknown,Unknown,Unknown,Unknown,clinic,clinic,Unknown,Unknown,Unknown,18.4889422,-69.9220866
Unknown,Unknown,Unknown,Unknown,Unknown,Unknown,Unknown,hospital,hospital,Unknown,Unknown,Unknown,18.4756149,-69.8853292
Farmacia luiggy,Unknown,Unknown,Unknown,Unknown,Unknown,Unknown,pharmacy,pharmacy,+809 788 0221,Unknown,Unknown,18.5162724,-69.8584015
Hospital Auxilio Mutuo,Unknown,Calle Gregorio Rivas,Unknown,Unknown,Unknown,Unknown,hospital,hospital,+1 809 595 1059,Unknown,24/7,18.5120981,-69.8621743
Farmacia Freddy,Unknown,Unknown,Unknown,Unknown,Unknown,Unknown,pharmacy,pharmacy,Unknown,Unknown,Unknown,18.5158142,-69.8305729
MedPediátrica,Unknown,Unknown,Unknown,Unknown,Unknown,Unknown,clinic,clinic,Unknown,Unknown,Unknown,18.476723,-69.9556806
Centro de Salud Fundación Activó 20-30,Unknown,Unknown,Unknown,Unknown,Unknown,Unknown,hospital,Unknown,Unknown,Unknown,Unknown,18.4936362,-69.889338
Referencia Laboratorio Clínico,Unknown,Pelegrina Herrera,Unknown,Unknown,Unknown,Unknown,hospital,Unknown,8095747730,Unknown,Unknown,19.1233957,-70.6426036
Cruz Jiminian,Unknown,Unknown,Unknown,Unknown,Unknown,Unknown,clinic,Unknown,Unknown,Unknown,Unknown,18.5016114,-69.9224144
Farmacia Carol,Unknown,Avenida Sarasota,Santo Domingo,11109,Unknown,Unknown,pharmacy,Unknown,Unknown,Unknown,Unknown,18.448292,-69.9538843
Amadita Labortorio,Unknown,Unknown,Unknown,Unknown,Unknown,Unknown,pharmacy,Unknown,Unknown,Unknown,Unknown,18.4508083,-69.9542514
Emergencia Hospital Robert Reid Cabral,Unknown,Unknown,Unknown,Unknown,Unknown,Unknown,hospital,Unknown,Unknown,Unknown,Unknown,18.4530229,-69.9234386
Emergencia Maternidad La Altagracia,Unknown,Unknown,Unknown,Unknown,Unknown,Unknown,hospital,Unknown,Unknown,Unknown,Unknown,18.4729472,-69.9093498
Unknown,Unknown,Unknown,Unknown,Unknown,Unknown,Unknown,hospital,Unknown,Unknown,Unknown,Unknown,18.446944,-69.9646181
Emergencia Maternidad de Villa Mella,Unknown,Unknown,Unknown,Unknown,Unknown,Unknown,hospital,Unknown,Unknown,Unknown,Unknown,18.5512745,-69.9006965
Emergencia Centro Médico Dominicano,Unknown,Unknown,Unknown,Unknown,Unknown,Unknown,hospital,Unknown,Unknown,Unknown,Unknown,18.4556356,-69.9561803
Emergencia Hospital Dr. Vinicio Calventi,Unknown,Unknown,Unknown,Unknown,Unknown,Unknown,hospital,Unknown,Unknown,Unknown,Unknown,18.525974,-70.0531255
Farmacia Moncion,Unknown,Unknown,Unknown,Unknown,Unknown,Unknown,pharmacy,Unknown,Unknown,Unknown,Unknown,19.4102218,-71.1624268
Unknown,Unknown,Unknown,Unknown,Unknown,Unknown,Unknown,pharmacy,Unknown,Unknown,Unknown,Unknown,18.4488073,-69.9585969
Farma Value,Unknown,27 de Febrero,Unknown,Unknown,Unknown,Unknown,pharmacy,Unknown,Unknown,Unknown,Unknown,18.9409942,-70.4140845
Laboratorio Micologico,Unknown,Duarte,Unknown,Unknown,Unknown,Unknown,clinic,Unknown,8092474166,Unknown,Unknown,19.4551582,-70.7033122
Dispensario El Deán,Unknown,Unknown,Unknown,Unknown,Unknown,Unknown,hospital,hospital,Unknown,Unknown,Unknown,18.8494528,-69.8882108
Unknown,Unknown,Unknown,Unknown,Unknown,Unknown,Unknown,clinic,Unknown,Unknown,Unknown,Unknown,18.4959237,-69.9247027
"Instituto de la Diabetes, Endocrinologia y Nutrición",Unknown,Azua - San Juan,Unknown,Unknown,Unknown,Unknown,clinic,clinic,Unknown,Unknown,Unknown,18.8005033,-71.21377
Jesús Abreu Body Maker,Unknown,Avenida Rafael Vidal,Unknown,Unknown,Unknown,Unknown,clinic,clinic,8095834510,Unknown,Unknown,19.4519189,-70.6656781
Farmacia Crisyari,Unknown,Avenida La Cordillera,Unknown,Unknown,Unknown,Unknown,pharmacy,Unknown,8097416164,Unknown,Mo-Su 09:00-21:00,18.4848214,-70.0108216
Farmacia del pueblo,Unknown,Unknown,Unknown,Unknown,Unknown,Unknown,pharmacy,Unknown,Unknown,Unknown,Unknown,18.4992599,-69.8890429
Hogar crea Alma Rosa,Unknown,Avenida Profesor Egbert Morrison,Santo Domingo Este,Unknown,Unknown,Unknown,Unknown,counselling,+809 596 8095,Unknown,Unknown,18.4970668,-69.8592174
Unknown,Unknown,Carretera Mella,Santo Domingo Este,Unknown,Unknown,Unknown,pharmacy,pharmacy,Unknown,Unknown,Unknown,18.5018151,-69.8603389
Brebaje Medicinales y brujeria,Unknown,Apollo II,Unknown,Unknown,Unknown,Unknown,pharmacy,Unknown,8099419498,Unknown,Mo-Su 09:00-17:00,18.5153227,-69.8602072
Farmacia mi gloria,Unknown,Antonio Guzman Fernandez,Unknown,Unknown,Unknown,Unknown,pharmacy,Unknown,8092470000,Unknown,Sa 08:00-20:00,19.4409357,-70.715462
Farmacia Medimed,Unknown,Avenida Sarasota,Unknown,Unknown,Unknown,Unknown,pharmacy,Unknown,8095346111,Unknown,Mo-Fr 08:00-23:00; Sa 08:00-22:00,18.4573704,-69.9355698
CRESA,Unknown,Calle Chefito Batista,Unknown,Unknown,Unknown,Unknown,clinic,Unknown,8095731227,Unknown,Unknown,19.2235547,-70.5225381
Chivo,Unknown,Unknown,Unknown,Unknown,Unknown,Unknown,pharmacy,pharmacy,Unknown,Unknown,Unknown,18.4877274,-69.8996352
laboratorio Referencia,Unknown,Unknown,Unknown,Unknown,Unknown,Unknown,clinic,Unknown,Unknown,Unknown,Unknown,18.4357985,-69.9842
Centro Médico Herrera,Unknown,Calle 31,Unknown,Unknown,Unknown,Unknown,clinic,Unknown,Unknown,Unknown,Unknown,18.4517886,-69.9828454
Farmacia Ananías,Unknown,Sabaneta - Villa Los Almácigos,Unknown,Unknown,Unknown,Unknown,pharmacy,Unknown,8095790387,Unknown,Unknown,19.4108471,-71.4380026
Senasa,Unknown,Unknown,Unknown,Unknown,Unknown,Unknown,hospital,hospital,Unknown,Unknown,Unknown,18.4829359,-69.9109524
Jesús Abreu Cirugía Plástica,Unknown,Avenida Rafael Vidal,Unknown,Unknown,Unknown,Unknown,clinic,clinic,8095834510,Unknown,Unknown,19.451877,-70.6656615
Laboratorio Amadita,Unknown,Calle Chefito Batista,Unknown,Unknown,Unknown,Unknown,hospital,Unknown,Unknown,Unknown,Unknown,19.2233312,-70.5225917
Dra. Fabiola Reyes,Unknown,Calle Del Sol,Unknown,Unknown,Unknown,Unknown,dentist,dentist,8095811180,Unknown,Unknown,19.4491374,-70.6926101
Centro de Bienestar Emocional Dr. Zoilo García,Unknown,Calle Republica Del Libano,Unknown,Unknown,Unknown,Unknown,doctors,doctor,8092417781,http://m.facebook.com/cbe.stgo/?locale2=es_LA,Mo-Fr 08:00-18:00,19.4617926,-70.6930954
Farmacia Rachelle,Unknown,Federico Basilis,Unknown,Unknown,Unknown,Unknown,pharmacy,Unknown,8095747448,Unknown,Unknown,19.1567138,-70.6011729
Ecofarma,Unknown,Avenida Independencia,Unknown,Unknown,Unknown,Unknown,pharmacy,Unknown,8093659500,Unknown,Unknown,19.1226481,-70.642508
Unknown,Unknown,Unknown,Unknown,Unknown,Unknown,Unknown,clinic,Unknown,Unknown,Unknown,Unknown,18.5435038,-69.9065901
Farmacia Emmy,Unknown,Sabana Larga,Unknown,Unknown,Unknown,Unknown,pharmacy,Unknown,8098220081,Unknown,Unknown,19.389674,-70.528173
Farmacia Mercedes Candelier,Unknown,Calle Moca - Los Robles,Unknown,Unknown,Unknown,Unknown,pharmacy,Unknown,8095777181,Unknown,Unknown,19.422803,-70.511297
Farmacia Candelier,Unknown,Las Lagunas - Moca,Unknown,Unknown,Unknown,Unknown,pharmacy,Unknown,Unknown,Unknown,Unknown,19.4147795,-70.5191277
MEDICAR GBC,Unknown,Avenida Isabel Aguiar,Unknown,Unknown,Unknown,Unknown,pharmacy,Unknown,8093630990,Unknown,Unknown,18.4651327,-69.974791
Farmax,Unknown,Avenida Benito Juarez,Unknown,Unknown,Unknown,Unknown,pharmacy,Unknown,Unknown,Unknown,Unknown,19.4576258,-70.6757089
GBC,Unknown,Avenida Rómulo Betancourt,Santo Domingo,11109,Unknown,Unknown,pharmacy,Unknown,Unknown,Unknown,Unknown,18.4491148,-69.9569308
Farmacia celicia,Unknown,Unknown,Unknown,Unknown,Unknown,Unknown,pharmacy,Unknown,Unknown,Unknown,Unknown,18.5041781,-69.8718682
Hospital Hato del Yaque,Unknown,Unknown,Unknown,Unknown,Unknown,Unknown,hospital,Unknown,Unknown,Unknown,24/7,19.4522996,-70.7691908
Patronato Contra la Diabetes de Santiago,Unknown,Calle B,Unknown,Unknown,Unknown,Unknown,hospital,Unknown,8095702426,Unknown,Unknown,19.4825799,-70.7229937
Macrotech farma,Unknown,Prolong Avenida 27 De Febrero,Unknown,Unknown,Unknown,Unknown,pharmacy,Unknown,Unknown,Unknown,Unknown,18.499993,-69.997458
Amwey,Unknown,Autopista Duarte,Unknown,Unknown,Unknown,Unknown,pharmacy,Unknown,Unknown,https://www.amway.com.do/,Mo-Fr 09:00-18:00; Sa 09:00-16:00,18.5000619,-69.9965028
Laboratorio Clínico Rodríguez Taveras,Unknown,Av. Próceres de la Restauración,Unknown,Unknown,Unknown,Unknown,clinic,Unknown,Unknown,Unknown,Unknown,19.4775456,-71.3407128
Unknown,Unknown,Unknown,Unknown,Unknown,Unknown,Unknown,pharmacy,Unknown,Unknown,Unknown,Unknown,18.5003497,-69.9073771
Centro oriental de la diabetes,Unknown,Unknown,Unknown,Unknown,Unknown,Unknown,hospital,Unknown,Unknown,Unknown,Unknown,18.502338,-69.8663721
Unknown,Unknown,Unknown,Unknown,Unknown,Unknown,Unknown,pharmacy,Unknown,Unknown,Unknown,Unknown,18.4530632,-69.676733
Farma Value,Unknown,Avenida Rómulo Betancourt,Santo Domingo,Unknown,Unknown,Unknown,pharmacy,pharmacy,+18095358855,Unknown,Unknown,18.4525426,-69.9492347
Farma Value,Unknown,Avenida Roberto Pastoriza,Santo Domingo,10119,Unknown,Unknown,pharmacy,pharmacy,+18092891515,Unknown,Unknown,18.4702102,-69.9286289
Farma Value,Unknown,Calle Rafael J. Castillo,Santo Domingo,Unknown,Unknown,Unknown,pharmacy,Unknown,+18095651515,Unknown,Unknown,18.499075,-69.9206678
Laboratorio Clínico Salud y Vida,Unknown,Juan Pablo Duarte,Unknown,Unknown,Unknown,Unknown,hospital,Unknown,8095817584,Unknown,Unknown,19.4586732,-70.6804982
Ars Semma,Unknown,Santiago,Unknown,Unknown,Unknown,Unknown,hospital,Unknown,Unknown,Unknown,Unknown,18.4627372,-69.9115392
Farmacia Rosmairy,Unknown,Carretera Hnos. Gutierrez (Carretera Tigaiga),Unknown,Unknown,Unknown,Unknown,pharmacy,Unknown,8097340412,Unknown,Unknown,19.4697774,-70.6580911
Centro Médico Haina,Unknown,Unknown,Unknown,Unknown,Unknown,Unknown,hospital,Unknown,Unknown,Unknown,Unknown,18.4235861,-70.0273569
Hospital Balsequillo,Unknown,Unknown,Unknown,Unknown,Unknown,Unknown,hospital,Unknown,Unknown,Unknown,Unknown,18.4274684,-70.0338363
Homs,Unknown,Unknown,Unknown,Unknown,Unknown,Unknown,pharmacy,Unknown,Unknown,Unknown,Unknown,19.4357713,-70.6609827
Medicamentos,Unknown,Unknown,Unknown,Unknown,Unknown,Unknown,clinic,clinic,Unknown,Unknown,Unknown,18.4876378,-69.8996826
Farmacia Central,Unknown,Presidente Vasquez,Unknown,Unknown,Unknown,Unknown,pharmacy,Unknown,8095782572,Unknown,Unknown,19.3932244,-70.5274032
Clínica doctor arias 2,Unknown,Calle Orlando Martinez,Unknown,Unknown,Unknown,Unknown,clinic,Unknown,Unknown,Unknown,Unknown,18.4703367,-69.9954857
Farmacia CS,Unknown,Las Lagunas - Moca,Unknown,Unknown,Unknown,Unknown,pharmacy,Unknown,8098223333,Unknown,Unknown,19.4236002,-70.4754764
Hospital DR. Jose de JS. Jimenez Almonte,Unknown,Unknown,Unknown,Unknown,Unknown,Unknown,hospital,Unknown,Unknown,Unknown,Unknown,19.4868708,-70.7242291
Farmacia buen pastor,Unknown,Camino De Buena Vista,Unknown,Unknown,Unknown,Unknown,pharmacy,Unknown,Unknown,Unknown,Unknown,19.4739935,-70.6867712
Unknown,Unknown,Unknown,Unknown,Unknown,Unknown,Unknown,hospital,hospital,Unknown,Unknown,Unknown,18.4205133,-68.9737318
Dra. Cristina López Fuertes,Unknown,R. Pastoriza,Unknown,Unknown,Unknown,Unknown,dentist,dentist,8092762443,Unknown,Mo-Fr 08:00-18:00,19.4634851,-70.6894419
Farmacia Naraly,Unknown,Paseo de los Agricultores,Unknown,56000,Unknown,Unknown,pharmacy,Unknown,809-578-9697,Unknown,Mo-Su 08:00-22:00,19.3880652,-70.5303347
farmacia eduina encarnacion,Unknown,Unknown,Unknown,Unknown,Unknown,Unknown,pharmacy,Unknown,Unknown,Unknown,Unknown,18.4921985,-69.9348171
Farmacia centro,Unknown,Prof. Simón Orozco,Unknown,Unknown,Unknown,Unknown,pharmacy,Unknown,Unknown,Unknown,Unknown,18.5103117,-69.8281292
Farmacia centro,Unknown,Prof. Simón Orozco,Unknown,Unknown,Unknown,Unknown,pharmacy,Unknown,Unknown,Unknown,Unknown,18.5102361,-69.828162
Medical Liaison and Veterans Assistance,Unknown,Unknown,Unknown,Unknown,Unknown,Unknown,hospital,Unknown,Unknown,Unknown,Unknown,19.4581377,-70.6802032
Clinica Oftalmologica de Santo Domingo,Unknown,Desiderio Arias,Unknown,Unknown,Unknown,Unknown,clinic,clinic,Unknown,Unknown,Unknown,18.4623657,-69.932453
Centre de Santé de Lascahobas,Unknown,Unknown,Unknown,Unknown,Unknown,Unknown,hospital,Unknown,Unknown,Unknown,Unknown,18.8306341,-71.9356468
Unicardio,Unknown,Unknown,Unknown,Unknown,Unknown,Unknown,doctors,doctor,Unknown,Unknown,Unknown,18.4969701,-69.8652278
Servicio Nacional de Salud El Puerto,Unknown,El Puerto - Los Llanos,Unknown,Unknown,Unknown,Unknown,hospital,Unknown,Unknown,Unknown,Unknown,18.7633831,-69.4625729
Unknown,Unknown,Unknown,Unknown,Unknown,Unknown,Unknown,hospital,Unknown,Unknown,Unknown,Unknown,18.4944596,-69.8822577
Centro De Atención Ambulatoria  CALEON,Unknown,Avenida Sabana Larga,Unknown,Unknown,Unknown,Unknown,doctors,doctor,Unknown,Unknown,Su-Fr 08:00-19:00,18.4969037,-69.8651043
CENTRO MEDICO GRAN PODER DE DIOS,Unknown,Calle San Ignacio,Unknown,Unknown,Unknown,Unknown,clinic,Unknown,Unknown,Unknown,Unknown,19.4767403,-71.3420931
Farmacia Moca,Unknown,Unknown,Unknown,Unknown,Unknown,Unknown,hospital,Unknown,Unknown,Unknown,Unknown,18.4955649,-69.8832651
Hospital Jaime Oliver Pino,Unknown,Calle Lic. Freddy Prestól Castillo,Unknown,21000,Unknown,Unknown,hospital,Unknown,Unknown,Unknown,24/7,18.460517,-69.297338
Clínica Dr. Perozo,Unknown,Unknown,Unknown,Unknown,Unknown,Unknown,clinic,Unknown,Unknown,Unknown,Unknown,18.6120078,-68.7194912
Farmacia San Martín,Unknown,Unknown,Unknown,Unknown,Unknown,Unknown,pharmacy,Unknown,Unknown,Unknown,Unknown,18.6071018,-68.7160129
Kayey,Unknown,Unknown,Unknown,Unknown,Unknown,Unknown,pharmacy,pharmacy,Unknown,Unknown,Unknown,18.4710176,-69.8498746
Caribean plástic surgeriern,Unknown,Los Conquistadores,Unknown,Unknown,Unknown,Unknown,clinic,Unknown,8492474901,Unknown,Unknown,18.5007525,-69.9516662
Botica Hoya Del Caimito,Unknown,Calle 25,Unknown,Unknown,Unknown,Unknown,pharmacy,Unknown,Unknown,Unknown,Mo-Fr 08:00-17:00; Sa 08:00-12:00,19.4635288,-70.6658988
Unidad Nacional de Atencion Primaria,Unknown,Hermanas Mirabal esq. 24 Abril,Unknown,Unknown,Unknown,Unknown,Unknown,Unidad_Nacional_de_Atencion_Primaria,Unknown,Unknown,Unknown,18.4977858,-69.8836099
Maxim,Unknown,Unknown,Unknown,Unknown,Unknown,Unknown,pharmacy,pharmacy,+809 592 6137,Unknown,Unknown,18.5064116,-69.8275555
Dr. Baltazar,Unknown,Unknown,Unknown,Unknown,Unknown,Unknown,clinic,Unknown,Unknown,Unknown,Unknown,18.6080501,-68.7136002
Clinica Union,Unknown,Unknown,Unknown,Unknown,Unknown,Unknown,hospital,Unknown,Unknown,Unknown,Unknown,19.3750838,-69.8492485
Farmacia Sainagua,Unknown,Unknown,Unknown,Unknown,Unknown,Unknown,pharmacy,pharmacy,Unknown,Unknown,Unknown,18.3884773,-70.1133348
Clinical Dental Comunitaria Dr. Denny Paredes,Unknown,Calle Venezuela,Santo Domingo Oeste,Unknown,Unknown,Unknown,dentist,dentist,Unknown,Unknown,Unknown,18.448896,-69.9847233
Referencia,Unknown,Unknown,Unknown,Unknown,Unknown,Unknown,pharmacy,laboratory,18092215545,Unknown,Unknown,18.4732321,-69.9293625
Farmacia Leandro,Unknown,Calle Hermanas Mirabal,Santo Domingo Oeste,Unknown,Unknown,Unknown,pharmacy,pharmacy,Unknown,Unknown,Unknown,18.4481988,-69.9856717
Farmacia Enriquillo,Unknown,Avenida Isabel Aguiar,Unknown,Unknown,Unknown,Unknown,pharmacy,Unknown,Unknown,Unknown,Unknown,18.4768421,-69.9720256
CRESA(Centro de radiología especializada),Unknown,Avenida Pedro Henríquez Ureña,Unknown,Unknown,Unknown,Unknown,clinic,Unknown,Unknown,Unknown,Unknown,18.4690777,-69.918445
Clínica Dr. Morel,Unknown,Unknown,Unknown,Unknown,Unknown,Unknown,clinic,clinic,Unknown,Unknown,Unknown,19.4112188,-71.1550589
CRESA (Centro de radiología especializada ),Unknown,Avenida Pedro Henríquez Ureña,Unknown,Unknown,Unknown,Unknown,clinic,clinic,Unknown,Unknown,Unknown,18.4698154,-69.9172387
Multimagen Diagnóstica - Breast Center,Unknown,Calle General Frank Felix Miranda,Unknown,809,Unknown,Unknown,hospital,hospital,8093380415,http://www.multimagendianostica.com.do,Mo-Fr 08:00-18:00,18.4702515,-69.9240032
Pie Diabetico,Unknown,Unknown,Unknown,Unknown,Unknown,Unknown,hospital,Unknown,Unknown,Unknown,Unknown,18.4916375,-69.9645545
Laboratorio Clínico Scott,Unknown,Mella,Villa Altagracia,Unknown,Unknown,Unknown,Unknown,laboratory,Unknown,Unknown,Unknown,18.6719931,-70.1721679
Farmacia Amistad,Unknown,Unknown,Unknown,Unknown,Unknown,Unknown,pharmacy,Unknown,8095223267,Unknown,Unknown,18.2834143,-70.3322512
CEDISA (Centro de diagnostico especializado,Unknown,Unknown,Unknown,Unknown,Unknown,Unknown,clinic,Unknown,Unknown,Unknown,Unknown,18.462922,-69.9068091
Farmacia La Nueva,Unknown,María Trinidad Sánchez,Unknown,Unknown,Unknown,Unknown,pharmacy,Unknown,Unknown,Unknown,Unknown,19.058199,-70.1526449
Depósito Dental Fernández,Unknown,Franco Bido,Unknown,Unknown,Unknown,Unknown,dentist,dentist,8092262771,Unknown,Unknown,19.4532227,-70.6954095
Hospital Dr. Marios Fernandez Mena,Unknown,Cenovi - Cruce de Cenovi,Unknown,Unknown,Unknown,Unknown,hospital,Unknown,Unknown,Unknown,Unknown,19.2142263,-70.3540991
Dentanova,Unknown,Unknown,Unknown,Unknown,Unknown,Unknown,dentist,dentist,Unknown,Unknown,Unknown,18.4839411,-69.9670048
Centro Quirurgico Dr. Jose Calderon,Unknown,Calle Manuel Rueda Gonzales,Unknown,Unknown,Unknown,Unknown,clinic,Unknown,Unknown,Unknown,Unknown,18.4480122,-69.9656795
Farmacia Carxol,Unknown,Unknown,Unknown,Unknown,Unknown,Unknown,pharmacy,pharmacy,Unknown,Unknown,Unknown,19.2030248,-69.3378288
Unknown,Unknown,Unknown,Unknown,Unknown,Unknown,Unknown,hospital,hospital,Unknown,Unknown,Unknown,18.8476276,-69.7743374
Farmacia Asilis Javier,Unknown,Unknown,Unknown,Unknown,Unknown,Unknown,pharmacy,pharmacy,Unknown,Unknown,Unknown,18.4476481,-69.9840244
Clinica Central Dr. Roberto Circo,Unknown,Unknown,Unknown,Unknown,Unknown,Unknown,clinic,clinic,Unknown,Unknown,Unknown,18.4476656,-69.9841553
Fisio Quiro unidad de terapia fisica,Unknown,Unknown,Unknown,Unknown,Unknown,Unknown,Unknown,physiotherapist,Unknown,Unknown,Unknown,18.4477821,-69.9849675
Clínica Abel González,Unknown,Unknown,Unknown,Unknown,Unknown,Unknown,hospital,hospital,Unknown,Unknown,Unknown,18.4686679,-69.8948633
Unknown,Unknown,Unknown,Unknown,Unknown,Unknown,Unknown,pharmacy,pharmacy,Unknown,Unknown,Unknown,18.4880559,-69.9388362
Carol,Unknown,Unknown,Unknown,Unknown,Unknown,Unknown,pharmacy,pharmacy,Unknown,Unknown,24/7,18.4735095,-69.9308343
Farmacia Karen Paola,Unknown,Calle Francisco Del Rosario Sanchez,Unknown,Unknown,Unknown,Unknown,pharmacy,Unknown,8092361412,Unknown,Mo-Su 08:00-21:00,18.5205481,-69.8047889
Centro Diagnóstico RIA,Unknown,Calle Eugenio Dechamps,Santo Domingo,Unknown,Unknown,DO,Unknown,laboratory,Unknown,Unknown,Unknown,18.4725859,-69.959906
Red Oncológica Dominicana Integral,Unknown,Unknown,Unknown,Unknown,Unknown,Unknown,clinic,clinic,Unknown,https://www.rodi.com.do/,Unknown,19.457029,-70.6940711
Centro endoscopico digestivo integral,Unknown,Pedro Ignacio Espaillat,Unknown,Unknown,Unknown,Unknown,hospital,Unknown,Unknown,Unknown,Unknown,18.4637324,-69.9073328
centro médico contanza,Unknown,Enriquillo,Unknown,Unknown,Unknown,Unknown,clinic,Unknown,Unknown,Unknown,Unknown,18.9094178,-70.7443057
Odontología Omar,Unknown,Unknown,Unknown,Unknown,Unknown,Unknown,dentist,dentist,Unknown,Unknown,Unknown,18.5000658,-69.8577355
Enriquillo union trabajo,Unknown,Unknown,Unknown,Unknown,Unknown,Unknown,pharmacy,Unknown,Unknown,Unknown,Unknown,18.4772618,-69.9720884
MELIDA,Unknown,Unknown,Unknown,Unknown,Unknown,Unknown,pharmacy,Unknown,Unknown,Unknown,Unknown,18.8082321,-71.2250289
ENRIQUILLO,Unknown,Unknown,Unknown,Unknown,Unknown,Unknown,pharmacy,Unknown,Unknown,Unknown,Unknown,18.8135688,-71.232085
ISAMAL,Unknown,Unknown,Unknown,Unknown,Unknown,Unknown,pharmacy,Unknown,Unknown,Unknown,Unknown,18.8129281,-71.2330955
EL CARMEN,Unknown,Unknown,Unknown,Unknown,Unknown,Unknown,pharmacy,Unknown,Unknown,Unknown,Unknown,18.8065075,-71.2333971
SAN RAMON,Unknown,Unknown,Unknown,Unknown,Unknown,Unknown,pharmacy,Unknown,Unknown,Unknown,Unknown,18.8074303,-71.2303815
YANY,Unknown,Unknown,Unknown,Unknown,Unknown,Unknown,pharmacy,Unknown,Unknown,Unknown,Unknown,18.8074538,-71.229874
ERIDANIA,Unknown,Unknown,Unknown,Unknown,Unknown,Unknown,pharmacy,Unknown,Unknown,Unknown,Unknown,18.8215942,-71.2353462
ROSA AURA 2,Unknown,Unknown,Unknown,Unknown,Unknown,Unknown,pharmacy,Unknown,Unknown,Unknown,Unknown,18.4509594,-70.7389743
Super Farmacia Peguero Castro,Unknown,Unknown,Azua,Unknown,Unknown,Unknown,pharmacy,pharmacy,Unknown,Unknown,Unknown,18.4501178,-70.7311065
NURYS,Unknown,Unknown,Unknown,Unknown,Unknown,Unknown,pharmacy,Unknown,Unknown,Unknown,Unknown,18.2052991,-71.1011113
DOTEL,Unknown,Unknown,Unknown,Unknown,Unknown,Unknown,pharmacy,Unknown,Unknown,Unknown,Unknown,18.2078464,-71.0991544
www,Unknown,Unknown,Unknown,Unknown,Unknown,Unknown,pharmacy,Unknown,Unknown,Unknown,Unknown,18.565804,-69.9033033
BUENAVENTURA,Unknown,Unknown,Unknown,Unknown,Unknown,Unknown,pharmacy,Unknown,Unknown,Unknown,Unknown,18.5822455,-69.9195108
shaia,Unknown,Unknown,Unknown,Unknown,Unknown,Unknown,pharmacy,Unknown,Unknown,Unknown,Unknown,18.5312806,-69.8002896
MARCHI,Unknown,Unknown,Unknown,Unknown,Unknown,Unknown,pharmacy,Unknown,Unknown,Unknown,Unknown,18.5529825,-69.9075725
ENMANUEL,Unknown,Unknown,Unknown,Unknown,Unknown,Unknown,pharmacy,Unknown,Unknown,Unknown,Unknown,18.475479,-69.9861582
MARIANNY,Unknown,Unknown,Unknown,Unknown,Unknown,Unknown,pharmacy,Unknown,Unknown,Unknown,Unknown,18.4687295,-69.9898569
POSIBLE CAROLINA,Unknown,Unknown,Unknown,Unknown,Unknown,Unknown,pharmacy,Unknown,Unknown,Unknown,Unknown,18.5087139,-69.8655116
euridice,Unknown,Unknown,Unknown,Unknown,Unknown,Unknown,pharmacy,Unknown,Unknown,Unknown,Unknown,18.5112553,-69.8436399
Patricia2,Unknown,Unknown,Unknown,Unknown,Unknown,Unknown,pharmacy,Unknown,Unknown,Unknown,Unknown,18.495149,-69.9081743
virgen maria,Unknown,Unknown,Unknown,Unknown,Unknown,Unknown,pharmacy,Unknown,Unknown,Unknown,Unknown,18.4687342,-69.8877704
Josefina,Unknown,Unknown,Unknown,Unknown,Unknown,Unknown,pharmacy,pharmacy,Unknown,Unknown,Unknown,18.4717226,-69.8893257
LUZ,Unknown,Unknown,Unknown,Unknown,Unknown,Unknown,pharmacy,pharmacy,Unknown,Unknown,Unknown,18.4312808,-68.9767077
RADONAEL,Unknown,Unknown,Unknown,Unknown,Unknown,Unknown,pharmacy,pharmacy,Unknown,Unknown,Unknown,18.426318,-68.9815604
bella vista,Unknown,Unknown,Unknown,Unknown,Unknown,Unknown,pharmacy,Unknown,Unknown,Unknown,Unknown,18.6201954,-68.7229339
feliu,Unknown,Unknown,Unknown,Unknown,Unknown,Unknown,pharmacy,Unknown,Unknown,Unknown,Unknown,18.6237318,-68.7158111
BERARCA,Unknown,Unknown,Unknown,Unknown,Unknown,Unknown,pharmacy,Unknown,Unknown,Unknown,Unknown,18.6092994,-68.7216805
COOPERATIVA SAN JOSE,Unknown,Unknown,Unknown,Unknown,Unknown,Unknown,pharmacy,pharmacy,Unknown,Unknown,Unknown,18.7694096,-70.0245515
DILONE II,Unknown,Unknown,Unknown,Unknown,Unknown,Unknown,pharmacy,pharmacy,Unknown,Unknown,Unknown,18.7750912,-70.0266358
GALENO,Unknown,Unknown,Unknown,Unknown,Unknown,Unknown,pharmacy,pharmacy,Unknown,Unknown,Unknown,18.7761592,-70.0271233
DIMAR,Unknown,Unknown,Unknown,Unknown,Unknown,Unknown,pharmacy,Unknown,Unknown,Unknown,Unknown,18.7168342,-69.9703585
farmacia popular,Unknown,Unknown,Unknown,Unknown,Unknown,Unknown,pharmacy,Unknown,Unknown,Unknown,Unknown,18.5156713,-69.8389869
Mauricio baez,Unknown,Calle Mauricio Báez,Unknown,Unknown,Unknown,Unknown,pharmacy,pharmacy,Unknown,Unknown,Unknown,18.4883717,-69.9134735
Unknown,Unknown,Unknown,Unknown,Unknown,Unknown,Unknown,pharmacy,Unknown,Unknown,Unknown,Unknown,18.486343,-69.9088357
ramses,Unknown,Unknown,Unknown,Unknown,Unknown,Unknown,pharmacy,Unknown,Unknown,Unknown,Unknown,18.500411,-69.9048357
Yuclenia,Unknown,Unknown,Unknown,Unknown,Unknown,Unknown,pharmacy,Unknown,Unknown,Unknown,Unknown,18.6726041,-70.1739749
Silibe,Unknown,Unknown,Unknown,Unknown,Unknown,Unknown,pharmacy,Unknown,Unknown,Unknown,Unknown,18.6864435,-70.1754318
Anjura,Unknown,Unknown,Unknown,Unknown,Unknown,Unknown,pharmacy,Unknown,Unknown,Unknown,Unknown,18.6732657,-70.1675955
Farmatex 360,Unknown,Unknown,Unknown,Unknown,Unknown,Unknown,pharmacy,Unknown,Unknown,Unknown,Unknown,18.547386,-69.9008131
Del barrio,Unknown,Unknown,Unknown,Unknown,Unknown,Unknown,pharmacy,Unknown,Unknown,Unknown,Unknown,18.5341192,-69.9385542
Habana,Unknown,Unknown,Unknown,Unknown,Unknown,Unknown,pharmacy,pharmacy,Unknown,Unknown,Unknown,18.476124,-69.9028512
Villa,Unknown,Unknown,Unknown,Unknown,Unknown,Unknown,pharmacy,Unknown,Unknown,Unknown,Unknown,18.5380684,-69.940926
Espinal,Unknown,Unknown,Unknown,Unknown,Unknown,Unknown,pharmacy,Unknown,Unknown,Unknown,Unknown,18.5043969,-69.8671901
LOS MINA,Unknown,Unknown,Unknown,Unknown,Unknown,Unknown,pharmacy,Unknown,Unknown,Unknown,Unknown,18.5031098,-69.8644645
FARMAVITAL,Unknown,Unknown,Unknown,Unknown,Unknown,Unknown,pharmacy,Unknown,Unknown,Unknown,Unknown,18.501976,-69.8677605
CHABELA,Unknown,Unknown,Unknown,Unknown,Unknown,Unknown,pharmacy,Unknown,Unknown,Unknown,Unknown,18.5069994,-69.8696286
Rowifarma,Unknown,Unknown,Unknown,Unknown,Unknown,Unknown,pharmacy,Unknown,Unknown,Unknown,Unknown,18.5097006,-69.8601357
TURINA,Unknown,Unknown,Unknown,Unknown,Unknown,Unknown,pharmacy,Unknown,Unknown,Unknown,Unknown,18.4847696,-69.8270276
palmar encantado,Unknown,Unknown,Unknown,Unknown,Unknown,Unknown,pharmacy,Unknown,Unknown,Unknown,Unknown,18.5440312,-69.8655883
monterrey,Unknown,Unknown,Unknown,Unknown,Unknown,Unknown,pharmacy,Unknown,Unknown,Unknown,Unknown,18.5427923,-69.879251
maria auxiliadora,Unknown,Unknown,Unknown,Unknown,Unknown,Unknown,pharmacy,Unknown,Unknown,Unknown,Unknown,18.5407507,-69.8647335
Farmacia YSA,Unknown,Calle E,Santo Domingo este,11803,Unknown,Unknown,pharmacy,pharmacy,+1 809 245 7271,Unknown,Lu-Vi 08:00-21:00; Do 0800-14:00,18.4940318,-69.8151961
rosyel,Unknown,Unknown,Unknown,Unknown,Unknown,Unknown,pharmacy,Unknown,Unknown,Unknown,Unknown,18.4974103,-69.7937891
Farmacia Filadelfia,Unknown,Unknown,Unknown,Unknown,Unknown,Unknown,pharmacy,pharmacy,Unknown,Unknown,Unknown,18.4980122,-69.7868021
yunkiel,Unknown,Unknown,Unknown,Unknown,Unknown,Unknown,pharmacy,Unknown,Unknown,Unknown,Unknown,18.4907559,-69.8337648
mayel,Unknown,Unknown,Unknown,Unknown,Unknown,Unknown,pharmacy,Unknown,Unknown,Unknown,Unknown,18.4904745,-69.841133
rusbert-yu,Unknown,Unknown,Unknown,Unknown,Unknown,Unknown,pharmacy,Unknown,Unknown,Unknown,Unknown,18.5042332,-69.8501936
NICOMAR,Unknown,Unknown,Unknown,Unknown,Unknown,Unknown,pharmacy,Unknown,Unknown,Unknown,Unknown,18.5166041,-69.8512295
EUROPA,Unknown,Unknown,Unknown,Unknown,Unknown,Unknown,pharmacy,Unknown,Unknown,Unknown,Unknown,18.5205674,-69.8447354
karen-paola,Unknown,Unknown,Unknown,Unknown,Unknown,Unknown,pharmacy,Unknown,Unknown,Unknown,Unknown,18.5075103,-69.8485858
KEYLA,Unknown,Unknown,Unknown,Unknown,Unknown,Unknown,pharmacy,Unknown,Unknown,Unknown,Unknown,18.5044236,-69.8462952
JAFREISY,Unknown,Unknown,Unknown,Unknown,Unknown,Unknown,pharmacy,Unknown,Unknown,Unknown,Unknown,18.5380766,-69.8132946
SANTO DOMINGO,Unknown,Unknown,Unknown,Unknown,Unknown,Unknown,pharmacy,Unknown,Unknown,Unknown,Unknown,18.8063922,-71.2299345
CENTRO,Unknown,Unknown,Unknown,Unknown,Unknown,Unknown,pharmacy,Unknown,Unknown,Unknown,Unknown,18.8075379,-71.2271227
CATANO,Unknown,Unknown,Unknown,Unknown,Unknown,Unknown,pharmacy,Unknown,Unknown,Unknown,Unknown,18.4522708,-70.7358699
ANA ISABEL,Unknown,Unknown,Unknown,Unknown,Unknown,Unknown,pharmacy,Unknown,Unknown,Unknown,Unknown,18.2055332,-71.094894
SAMERY,Unknown,Unknown,Unknown,Unknown,Unknown,Unknown,pharmacy,Unknown,Unknown,Unknown,Unknown,18.5662668,-69.9090478
MIRANDA,Unknown,Unknown,Unknown,Unknown,Unknown,Unknown,pharmacy,Unknown,Unknown,Unknown,Unknown,18.8086832,-71.2313219
MAYCORT,Unknown,Unknown,Unknown,Unknown,Unknown,Unknown,pharmacy,Unknown,Unknown,Unknown,Unknown,18.8192114,-71.2340252
SANTOME,Unknown,Unknown,Unknown,Unknown,Unknown,Unknown,pharmacy,Unknown,Unknown,Unknown,Unknown,18.8063288,-71.2296659
SUPER FARMACIA SILDIA,Unknown,Unknown,Unknown,Unknown,Unknown,Unknown,pharmacy,Unknown,Unknown,Unknown,Unknown,18.8023351,-71.2229755
MARIA VIRGEN MELO,Unknown,Unknown,Unknown,Unknown,Unknown,Unknown,pharmacy,Unknown,Unknown,Unknown,Unknown,18.8123339,-71.221103
ADRIANA,Unknown,Unknown,Unknown,Unknown,Unknown,Unknown,pharmacy,Unknown,Unknown,Unknown,Unknown,18.4566947,-70.7261148
MINERVA,Unknown,Unknown,Unknown,Unknown,Unknown,Unknown,pharmacy,Unknown,Unknown,Unknown,Unknown,18.4535475,-70.7320108
DILANIA,Unknown,Unknown,Unknown,Unknown,Unknown,Unknown,pharmacy,Unknown,Unknown,Unknown,Unknown,18.4525887,-70.734213
SAN MARCOS,Unknown,Unknown,Unknown,Unknown,Unknown,Unknown,pharmacy,Unknown,Unknown,Unknown,Unknown,18.451197,-70.7322453
MERCEDES,Unknown,Unknown,Unknown,Unknown,Unknown,Unknown,pharmacy,Unknown,Unknown,Unknown,Unknown,18.4519421,-70.7282798
MARISOL,Unknown,Unknown,Unknown,Unknown,Unknown,Unknown,pharmacy,Unknown,Unknown,Unknown,Unknown,18.4533145,-70.7496945
ROSA,Unknown,Unknown,Unknown,Unknown,Unknown,Unknown,pharmacy,pharmacy,Unknown,Unknown,Unknown,18.452984,-70.7379251
RAN,Unknown,Unknown,Unknown,Unknown,Unknown,Unknown,pharmacy,pharmacy,Unknown,Unknown,Unknown,18.4547274,-70.6450264
NAYARIT,Unknown,Unknown,Unknown,Unknown,Unknown,Unknown,pharmacy,Unknown,Unknown,Unknown,Unknown,18.4496047,-70.6192105
LAS 5 ESQUINAS,Unknown,Unknown,Unknown,Unknown,Unknown,Unknown,pharmacy,Unknown,Unknown,Unknown,Unknown,18.455684,-70.7448574
MENDEZ C POR A,Unknown,Unknown,Unknown,Unknown,Unknown,Unknown,pharmacy,Unknown,Unknown,Unknown,Unknown,18.2053009,-71.0962669
LEMBERT,Unknown,Unknown,Unknown,Unknown,Unknown,Unknown,pharmacy,Unknown,Unknown,Unknown,Unknown,18.2073751,-71.094871
MI BOTICA POPULAR,Unknown,Unknown,Unknown,Unknown,Unknown,Unknown,pharmacy,Unknown,Unknown,Unknown,Unknown,18.20376,-71.0950244
VILLA ESTELA,Unknown,Unknown,Unknown,Unknown,Unknown,Unknown,pharmacy,Unknown,Unknown,Unknown,Unknown,18.2048999,-71.0973012
FELLITO,Unknown,Unknown,Unknown,Unknown,Unknown,Unknown,pharmacy,Unknown,Unknown,Unknown,Unknown,18.207496,-71.0974114
ercilia,Unknown,Unknown,Unknown,Unknown,Unknown,Unknown,pharmacy,Unknown,Unknown,Unknown,Unknown,18.5026714,-69.8705917
les enfant de job,Unknown,Unknown,Unknown,Unknown,Unknown,Unknown,pharmacy,Unknown,Unknown,Unknown,Unknown,18.5649862,-69.9070435
OBED,Unknown,Unknown,Unknown,Unknown,Unknown,Unknown,pharmacy,Unknown,Unknown,Unknown,Unknown,18.5717909,-69.9152542
NIQUIN,Unknown,Unknown,Unknown,Unknown,Unknown,Unknown,pharmacy,Unknown,Unknown,Unknown,Unknown,18.5796597,-69.9196659
JUANER,Unknown,Unknown,Unknown,Unknown,Unknown,Unknown,pharmacy,Unknown,Unknown,Unknown,Unknown,18.8170624,-71.226917
BRENDA,Unknown,Unknown,Unknown,Unknown,Unknown,Unknown,pharmacy,Unknown,Unknown,Unknown,Unknown,18.2038066,-71.0934
HILDA,Unknown,Unknown,Unknown,Unknown,Unknown,Unknown,pharmacy,Unknown,Unknown,Unknown,Unknown,18.4523682,-69.9892844
lizmary,Unknown,Unknown,Unknown,Unknown,Unknown,Unknown,pharmacy,Unknown,Unknown,Unknown,Unknown,18.5283884,-69.8123228
DANIA,Unknown,Unknown,Unknown,Unknown,Unknown,Unknown,pharmacy,Unknown,Unknown,Unknown,Unknown,18.4554304,-69.9777653
SHARLYN,Unknown,Unknown,Unknown,Unknown,Unknown,Unknown,pharmacy,Unknown,Unknown,Unknown,Unknown,18.4708719,-69.9854594
YAROMIK,Unknown,Unknown,Unknown,Unknown,Unknown,Unknown,pharmacy,Unknown,Unknown,Unknown,Unknown,18.4798255,-69.9749099
LAS PALMAS,Unknown,Unknown,Unknown,Unknown,Unknown,Unknown,pharmacy,Unknown,Unknown,Unknown,Unknown,18.4769477,-69.9815944
Nemesis,Unknown,Prolong Avenida 27 De Febrero,Santo Domingo Oeste,10902,Unknown,Unknown,pharmacy,pharmacy,Unknown,Unknown,Unknown,18.4932415,-69.9996467
CAMINO DIVINO,Unknown,Unknown,Unknown,Unknown,Unknown,Unknown,pharmacy,Unknown,Unknown,Unknown,Unknown,18.4545965,-69.9826146
CHARO,Unknown,Unknown,Unknown,Unknown,Unknown,Unknown,pharmacy,Unknown,Unknown,Unknown,Unknown,18.4812695,-69.9772286
Yudelka,Unknown,Unknown,Unknown,Unknown,Unknown,Unknown,pharmacy,pharmacy,+1 809 594 2424;+1 809 593 1620,Unknown,Unknown,18.5120577,-69.8613948
luis miguel,Unknown,Unknown,Unknown,Unknown,Unknown,Unknown,pharmacy,Unknown,Unknown,Unknown,Unknown,18.4874455,-69.8055552
Luisa,Unknown,Unknown,Unknown,Unknown,Unknown,Unknown,pharmacy,Unknown,Unknown,Unknown,Unknown,18.4978345,-69.9057804
Collado,Unknown,Unknown,Unknown,Unknown,Unknown,Unknown,pharmacy,Unknown,Unknown,Unknown,Unknown,18.4904984,-69.9109871
mazara,Unknown,Unknown,Unknown,Unknown,Unknown,Unknown,pharmacy,Unknown,Unknown,Unknown,Unknown,18.6116956,-68.7105378
michell,Unknown,Unknown,Unknown,Unknown,Unknown,Unknown,pharmacy,Unknown,Unknown,Unknown,Unknown,18.6078562,-68.7115008
dimar,Unknown,Unknown,Unknown,Unknown,Unknown,Unknown,pharmacy,Unknown,Unknown,Unknown,Unknown,18.7380283,-70.0006357
RAUDYS,Unknown,Unknown,Unknown,Unknown,Unknown,Unknown,pharmacy,pharmacy,Unknown,Unknown,Unknown,18.7664029,-70.0226633
miguelina,Unknown,Unknown,Unknown,Unknown,Unknown,Unknown,pharmacy,Unknown,Unknown,Unknown,Unknown,18.4964928,-69.9070844
Evelyn ll,Unknown,Unknown,Unknown,Unknown,Unknown,Unknown,pharmacy,Unknown,Unknown,Unknown,Unknown,18.4769028,-69.8763686
Bartolina,Unknown,Unknown,Unknown,Unknown,Unknown,Unknown,pharmacy,Unknown,Unknown,Unknown,Unknown,18.5412518,-69.9382935
Rubi,Unknown,Unknown,Unknown,Unknown,Unknown,Unknown,pharmacy,Unknown,Unknown,Unknown,Unknown,18.5344563,-69.9402796
Kirsys,Unknown,Unknown,Unknown,Unknown,Unknown,Unknown,pharmacy,Unknown,Unknown,Unknown,Unknown,18.5406351,-69.9314542
Deiny 2,Unknown,Unknown,Unknown,Unknown,Unknown,Unknown,pharmacy,Unknown,Unknown,Unknown,Unknown,18.5427931,-69.9394907
JOVANNY,Unknown,Unknown,Unknown,Unknown,Unknown,Unknown,pharmacy,Unknown,Unknown,Unknown,Unknown,18.5003579,-69.8633852
elida,Unknown,Unknown,Unknown,Unknown,Unknown,Unknown,pharmacy,Unknown,Unknown,Unknown,Unknown,18.5275775,-69.8755863
vinyvic,Unknown,Unknown,Unknown,Unknown,Unknown,Unknown,pharmacy,Unknown,Unknown,Unknown,Unknown,18.5288171,-69.8700354
santa monica,Unknown,Unknown,Unknown,Unknown,Unknown,Unknown,pharmacy,Unknown,Unknown,Unknown,Unknown,18.4884158,-69.8314286
MARIA LUISA,Unknown,Unknown,Unknown,Unknown,Unknown,Unknown,pharmacy,Unknown,Unknown,Unknown,Unknown,18.5227406,-69.8418791
mendoza,Unknown,Unknown,Unknown,Unknown,Unknown,Unknown,pharmacy,Unknown,Unknown,Unknown,Unknown,18.4988076,-69.83256
Luz Bethania,Unknown,Jose Francisco Peña Gome,Santo Domingo Este,11802,Unknown,Unknown,pharmacy,pharmacy,+809 547 8397,Unknown,Unknown,18.5045602,-69.8220562
NUEVA ERA,Unknown,Unknown,Unknown,Unknown,Unknown,Unknown,pharmacy,Unknown,Unknown,Unknown,Unknown,18.5038037,-69.8256806
divina misericordia,Unknown,Unknown,Unknown,Unknown,Unknown,Unknown,pharmacy,Unknown,Unknown,Unknown,Unknown,18.5225703,-69.799118
jehova,Unknown,Unknown,Unknown,Unknown,Unknown,Unknown,pharmacy,Unknown,Unknown,Unknown,Unknown,18.5426606,-69.8023004
ISHTAR,Unknown,Unknown,Unknown,Unknown,Unknown,Unknown,pharmacy,Unknown,Unknown,Unknown,Unknown,18.5396894,-69.8128517
Gilda,Unknown,Unknown,Unknown,Unknown,Unknown,Unknown,pharmacy,Unknown,Unknown,Unknown,Unknown,18.4873664,-69.9099231
Guarocuya,Unknown,Unknown,Unknown,Unknown,Unknown,Unknown,pharmacy,Unknown,Unknown,Unknown,Unknown,18.4886762,-69.9067305
YANILSY,Unknown,Unknown,Unknown,Unknown,Unknown,Unknown,pharmacy,pharmacy,Unknown,Unknown,Unknown,18.4714456,-69.7345507
Alejandrina,Unknown,Unknown,Unknown,Unknown,Unknown,Unknown,pharmacy,Unknown,Unknown,Unknown,Unknown,18.5425959,-69.9280533
Lhumy pharma,Unknown,Unknown,Unknown,Unknown,Unknown,Unknown,pharmacy,pharmacy,Unknown,Unknown,Unknown,18.5113345,-69.8599468
TRINY,Unknown,Unknown,Unknown,Unknown,Unknown,Unknown,pharmacy,Unknown,Unknown,Unknown,Unknown,18.5091186,-69.8631104
los mellos,Unknown,Unknown,Unknown,Unknown,Unknown,Unknown,pharmacy,Unknown,Unknown,Unknown,Unknown,18.5374625,-69.8694784
susan y geraldine,Unknown,Unknown,Unknown,Unknown,Unknown,Unknown,pharmacy,Unknown,Unknown,Unknown,Unknown,18.5210692,-69.8515413
la hermosa,Unknown,Unknown,Unknown,Unknown,Unknown,Unknown,pharmacy,Unknown,Unknown,Unknown,Unknown,18.4392012,-68.9749384
FARMACIA JASPE,Unknown,Unknown,Unknown,Unknown,Unknown,Unknown,pharmacy,Unknown,Unknown,Unknown,Unknown,18.4541618,-69.0130758
Vademecum,Unknown,Unknown,Unknown,Unknown,Unknown,Unknown,pharmacy,pharmacy,+1 809 595 4747,Unknown,Unknown,18.5107952,-69.8337642
Nectarina,Unknown,Unknown,Unknown,Unknown,Unknown,Unknown,pharmacy,Unknown,Unknown,Unknown,Unknown,18.4428176,-69.9862753
worldwide,Unknown,Unknown,Unknown,Unknown,Unknown,Unknown,pharmacy,Unknown,Unknown,Unknown,Unknown,18.4357733,-69.9699468
Alquimia,Unknown,Unknown,Unknown,Unknown,Unknown,Unknown,pharmacy,Unknown,Unknown,Unknown,Unknown,18.6761245,-70.1754794
Peter,Unknown,Unknown,Unknown,Unknown,Unknown,Unknown,pharmacy,Unknown,Unknown,Unknown,Unknown,18.5617746,-69.9151463
Farma new,Unknown,Unknown,Unknown,Unknown,Unknown,Unknown,pharmacy,Unknown,Unknown,Unknown,Unknown,18.5466373,-69.9162346
Elite,Unknown,Unknown,Unknown,Unknown,Unknown,Unknown,pharmacy,Unknown,Unknown,Unknown,Unknown,18.541565,-69.9353143
Jevi,Unknown,Unknown,Unknown,Unknown,Unknown,Unknown,pharmacy,pharmacy,Unknown,Unknown,Unknown,18.4779894,-69.9001073
Ruth isabel,Unknown,Unknown,Unknown,Unknown,Unknown,Unknown,pharmacy,Unknown,Unknown,Unknown,Unknown,18.5590595,-69.8917833
ENERCIDA,Unknown,Unknown,Unknown,Unknown,Unknown,Unknown,pharmacy,Unknown,Unknown,Unknown,Unknown,18.5053252,-69.8631996
ludiam 2,Unknown,Unknown,Unknown,Unknown,Unknown,Unknown,pharmacy,Unknown,Unknown,Unknown,Unknown,18.5483753,-69.8555519
MARIA,Unknown,Unknown,Unknown,Unknown,Unknown,Unknown,pharmacy,Unknown,Unknown,Unknown,Unknown,18.5074942,-69.868953
tito 4to,Unknown,Unknown,Unknown,Unknown,Unknown,Unknown,pharmacy,Unknown,Unknown,Unknown,Unknown,18.5229329,-69.8516764
D Y M,Unknown,Unknown,Unknown,Unknown,Unknown,Unknown,pharmacy,Unknown,Unknown,Unknown,Unknown,18.4997335,-69.8373297
Unknown,Unknown,Unknown,Unknown,Unknown,Unknown,Unknown,pharmacy,pharmacy,Unknown,Unknown,Unknown,18.4873669,-69.9636907
Farmacia Giovanny,Unknown,Unknown,Unknown,Unknown,Unknown,Unknown,pharmacy,pharmacy,Unknown,Unknown,Unknown,18.9449948,-69.7921334
Farm. Maximo gomez,Unknown,Unknown,Unknown,Unknown,Unknown,Unknown,pharmacy,Unknown,Unknown,Unknown,Unknown,18.5522716,-69.8610033
Pharmatech,Unknown,Calle Jose Desiderio Valverde,Unknown,Unknown,Unknown,Unknown,pharmacy,Unknown,8096208000,http://www.pharmatech.com.do,Mo-Fr 08:00-17:00,18.4636863,-69.9103277
Centro Antirrabico Nacional,Unknown,Unknown,Unknown,Unknown,Unknown,Unknown,hospital,Unknown,Unknown,Unknown,Unknown,18.4804588,-69.8977084
Hospital Dr. Felix Maria Goico,Unknown,Calle Francisco Nuñez Fabian,Santo Domingo,Unknown,Unknown,Unknown,hospital,hospital,(809) 689-2233,https://hfmg.hospital.do/,Unknown,18.4899707,-69.902278
Reyes,Unknown,Unknown,Unknown,Unknown,Unknown,Unknown,pharmacy,pharmacy,Unknown,Unknown,Unknown,18.4752664,-69.7373125
Clinica Los Rios,Unknown,Unknown,Unknown,Unknown,Unknown,Unknown,clinic,clinic,Unknown,Unknown,Unknown,19.1254499,-70.6401821
Centro de Diagnóstico Integral,Unknown,Avenida Independencia,Unknown,Unknown,Unknown,Unknown,clinic,clinic,Unknown,https://www.studikard.com/,Unknown,18.467612,-69.8952437
Farmacia,Unknown,Calle 1,Unknown,Unknown,Unknown,Unknown,pharmacy,Unknown,Unknown,Unknown,Unknown,18.4839605,-69.9771158
Unknown,Unknown,Unknown,Unknown,Unknown,Unknown,Unknown,pharmacy,Unknown,Unknown,Unknown,Unknown,18.4034503,-70.10531
Victoria Yeb S.A,Unknown,Carretera Duarte,Unknown,Unknown,Unknown,Unknown,pharmacy,Unknown,Unknown,Unknown,Unknown,19.4492448,-70.6488481
Farmacia,Unknown,Unknown,Unknown,Unknown,Unknown,Unknown,pharmacy,Unknown,Unknown,Unknown,Unknown,19.485418,-70.7342775
Farmacia monterico,Unknown,Unknown,Unknown,Unknown,Unknown,Unknown,pharmacy,Unknown,Unknown,Unknown,Unknown,19.4841297,-70.7379833
Centro de Rehabilitación,Unknown,Unknown,Unknown,Unknown,Unknown,Unknown,hospital,hospital,Unknown,Unknown,Unknown,18.9367154,-70.4122168
profamila,Unknown,Unknown,Unknown,Unknown,Unknown,Unknown,clinic,Unknown,Unknown,Unknown,Unknown,18.5019168,-69.9024736
Farmacia Carol,Unknown,Calle Rosario,Unknown,Unknown,Unknown,Unknown,pharmacy,Unknown,Unknown,Unknown,Unknown,18.4458896,-69.9687577
Hospital Regional,Unknown,Unknown,Unknown,Unknown,Unknown,Unknown,hospital,Unknown,Unknown,Unknown,Unknown,19.4782191,-71.3416197
Gran Poder de Dios,Unknown,Unknown,Unknown,Unknown,Unknown,Unknown,pharmacy,Unknown,Unknown,Unknown,Unknown,19.476645,-71.3409857
Farmacia,Unknown,Unknown,Unknown,Unknown,Unknown,Unknown,pharmacy,Unknown,Unknown,Unknown,Unknown,19.4768618,-71.3401185
Omayra 2,Unknown,Unknown,Unknown,Unknown,Unknown,Unknown,pharmacy,Unknown,Unknown,Unknown,Unknown,18.4498592,-69.6383858
Santa tejeda,Unknown,Unknown,Unknown,Unknown,Unknown,Unknown,pharmacy,Unknown,Unknown,Unknown,Unknown,18.4542032,-69.639437
Marfiel,Unknown,Unknown,Unknown,Unknown,Unknown,Unknown,pharmacy,Unknown,Unknown,Unknown,Unknown,18.5350842,-69.8954373
International Medical Center,Unknown,Duarte,Unknown,15700,Unknown,Unknown,hospital,Unknown,+1-829-946-3991,https://www.internationalmedicalcenter.com/,Mo-Su 09:00-17:00,18.4480734,-69.6111138
Centre de Santé de Marmont,Unknown,Unknown,Unknown,Unknown,Unknown,Unknown,hospital,Unknown,Unknown,Unknown,Unknown,19.061834,-71.9836235
Villa esperanza,Unknown,Unknown,Unknown,Unknown,Unknown,Unknown,pharmacy,Unknown,Unknown,Unknown,Unknown,18.521073,-69.8187005
La misericordia,Unknown,Unknown,Unknown,Unknown,Unknown,Unknown,pharmacy,Unknown,Unknown,Unknown,Unknown,18.5314803,-69.8110029
Dona juana,Unknown,Unknown,Unknown,Unknown,Unknown,Unknown,pharmacy,Unknown,Unknown,Unknown,Unknown,18.5357278,-69.8234059
Gosen,Unknown,Unknown,Unknown,Unknown,Unknown,Unknown,pharmacy,Unknown,Unknown,Unknown,Unknown,18.5252653,-69.809157
Saona,Unknown,Unknown,Unknown,Unknown,Unknown,Unknown,pharmacy,Unknown,Unknown,Unknown,Unknown,18.5212821,-69.8176295
Farmacia Invivienda,Unknown,Unknown,Unknown,Unknown,Unknown,Unknown,pharmacy,pharmacy,Unknown,Unknown,Unknown,18.5141411,-69.8205355
Farmacia,Unknown,Unknown,Unknown,Unknown,Unknown,Unknown,pharmacy,pharmacy,Unknown,Unknown,Unknown,19.2970384,-70.2606819
Salud y bie n,Unknown,Unknown,Unknown,Unknown,Unknown,Unknown,pharmacy,Unknown,Unknown,Unknown,Unknown,18.4966283,-69.9058848
Iris,Unknown,Unknown,Unknown,Unknown,Unknown,Unknown,pharmacy,Unknown,Unknown,Unknown,Unknown,18.5450954,-69.9310435
Carmen elena,Unknown,Unknown,Unknown,Unknown,Unknown,Unknown,pharmacy,Unknown,Unknown,Unknown,Unknown,18.5306334,-69.9231499
Kenyi,Unknown,Unknown,Unknown,Unknown,Unknown,Unknown,pharmacy,Unknown,Unknown,Unknown,Unknown,18.5374607,-69.9329167
Pendiente,Unknown,Unknown,Unknown,Unknown,Unknown,Unknown,pharmacy,Unknown,Unknown,Unknown,Unknown,18.5385982,-69.9381494
Pinto,Unknown,Unknown,Unknown,Unknown,Unknown,Unknown,pharmacy,Unknown,Unknown,Unknown,Unknown,18.5227226,-69.916393
Sante de Santé de Tomonde,Unknown,Unknown,Unknown,Unknown,Unknown,Unknown,hospital,Unknown,Unknown,Unknown,Unknown,19.0265182,-71.9689211
Unknown,Unknown,Unknown,Unknown,Unknown,Unknown,Unknown,hospital,Unknown,Unknown,Unknown,Unknown,18.8102385,-71.948942
Centro Especializado Las Terrenas,Unknown,Calle Fabio Abreu,Unknown,Unknown,Unknown,Unknown,hospital,Unknown,Unknown,Unknown,Unknown,19.3077174,-69.547252
B rochit,Unknown,Unknown,Unknown,Unknown,Unknown,Unknown,pharmacy,Unknown,Unknown,Unknown,Unknown,18.5410252,-69.8723613
FARMACIA JUMAR,Unknown,Unknown,Unknown,Unknown,Unknown,Unknown,pharmacy,Unknown,Unknown,Unknown,Unknown,18.5337552,-69.9428501
Farmacia Carol,Unknown,Avenida Independencia,Unknown,Unknown,Unknown,Unknown,pharmacy,Unknown,Unknown,Unknown,24/7,18.4589138,-69.9105025
CEPEASUR,Unknown,Santomé,Baní,94000,Unknown,Unknown,Unknown,counselling,(809) 380-0474,https://cepeasur.com,Unknown,18.2773622,-70.3337985
Unidad de Atencion Primaria (UNAP),Unknown,Sánchez - Samaná,Arroyo Barril,Unknown,Unknown,Unknown,hospital,hospital,Unknown,Unknown,Unknown,19.2017278,-69.445319
Unknown,Unknown,Unknown,Unknown,Unknown,Unknown,Unknown,pharmacy,pharmacy,Unknown,Unknown,Unknown,18.4739224,-69.8837421
Unknown,Unknown,Unknown,Unknown,Unknown,Unknown,Unknown,pharmacy,pharmacy,Unknown,Unknown,Unknown,19.3213166,-69.5406522
Farnmacia Vista al Valle,Unknown,Avenida Caonabo,San Francisco De Macoris,31000,Unknown,Unknown,pharmacy,pharmacy,Unknown,Unknown,Mo-Su 08:00-20:00,19.3118744,-70.2672331
Farmacia Norte,Unknown,Avenida 27 de Febrero,SAN FRANCISCO DE MACORIS,31000,Unknown,Unknown,pharmacy,pharmacy,(809) 588-2341,Unknown,Mo-Su 08:00-22:00,19.2994057,-70.2596651
UNAP Vista Al Valle,Unknown,Profesor Juan Bosch,San Francisco De Macoris,31000,Unknown,Unknown,hospital,hospital,Unknown,Unknown,Unknown,19.3133273,-70.2730309
Clinica ProFamilia,Unknown,Unknown,Unknown,Unknown,Unknown,Unknown,clinic,clinic,Unknown,Unknown,Unknown,19.4532141,-70.7082168
Farmacia alyali,Unknown,Unknown,Unknown,Unknown,Unknown,Unknown,pharmacy,Unknown,Unknown,Unknown,Unknown,19.4536329,-70.7102338
Farmacia Yamila,Unknown,Unknown,Unknown,Unknown,Unknown,Unknown,pharmacy,pharmacy,Unknown,Unknown,Unknown,18.488514,-69.9646121
Referencia Laboratorio Clinico,Unknown,Cabrera - Nagua,Nagua,Unknown,Unknown,Unknown,Unknown,laboratory,809-584-2124,https://www.labreferencia.com/,Mo-Fr 07:00-19:00; Sa 07:30-12:30,19.3685724,-69.851921
"Centro De Diabetes, Bocio Y Endocrinologia",Unknown,Avenida Francia,Unknown,Unknown,Unknown,Unknown,clinic,clinic,+1 809 685 1222,http://centrodeendocrinologia.com,"Mo-Fr 07:00-12:00, 16:00-18:00",18.4764864,-69.8998113
RehabiSaludRD,Unknown,Sábana Larga,Unknown,51000,Unknown,Unknown,doctors,doctor,8294600496,Unknown,Mo-Sa 08:00-17:00,19.4526846,-70.698415
Farmacia Supermercado La Fuente,Unknown,Unknown,Unknown,Unknown,Unknown,Unknown,pharmacy,pharmacy,809-583-4525,Unknown,Unknown,19.4304905,-70.6904037
D Aurelia Farmacia,Unknown,Unknown,Unknown,Unknown,Unknown,Unknown,pharmacy,pharmacy,Unknown,Unknown,Unknown,18.5929465,-68.7063786
Farmacia 5 estrella,Unknown,Unknown,Unknown,Unknown,Unknown,Unknown,pharmacy,pharmacy,Unknown,Unknown,Unknown,18.6029283,-68.7110684
Clinica de Maternidad Dr. Gil,Unknown,Unknown,Unknown,Unknown,Unknown,Unknown,clinic,clinic,Unknown,Unknown,Unknown,18.6032364,-68.7091664
Clinica Dr. Reyes,Unknown,Unknown,Unknown,Unknown,Unknown,Unknown,hospital,hospital,Unknown,Unknown,Unknown,18.6041964,-68.7151069
Farmacia Melo,Unknown,Unknown,Unknown,Unknown,Unknown,Unknown,pharmacy,pharmacy,Unknown,Unknown,Unknown,18.6121082,-68.7150805
Hotel Patria,Unknown,Unknown,Unknown,Unknown,Unknown,Unknown,pharmacy,pharmacy,Unknown,Unknown,Unknown,18.6099754,-68.7066643
Farmacia Santana,Unknown,Unknown,Unknown,Unknown,Unknown,Unknown,pharmacy,pharmacy,Unknown,Unknown,Unknown,18.6166491,-68.7135571
Farmacia San José,Unknown,Unknown,Unknown,Unknown,Unknown,Unknown,pharmacy,pharmacy,Unknown,Unknown,Unknown,18.6182985,-68.7092784
Laboratorio clínico amadita,Unknown,Avenida Charles Sumner,Unknown,Unknown,Unknown,Unknown,doctors,doctor,809-682-5414,https://amadita.com/,Mo-Fr 07:00-19:00; Sa-Su 07:00-13:00,18.4756481,-69.9575254
Unknown,Unknown,Unknown,Unknown,Unknown,Unknown,Unknown,pharmacy,Unknown,Unknown,Unknown,Unknown,19.291378,-69.4299514
Pharmacia,Unknown,Unknown,Unknown,Unknown,Unknown,Unknown,pharmacy,Unknown,Unknown,Unknown,Unknown,18.4481623,-69.6105986
Farmacia Nehemias,Unknown,Unknown,Unknown,Unknown,Unknown,Unknown,pharmacy,pharmacy,Unknown,Unknown,Unknown,18.6134577,-68.7273494
Amadita,Unknown,Unknown,Unknown,Unknown,Unknown,Unknown,clinic,clinic,+1 809 682 5414; +1 809 621 5414; +1 809 200 0544,https://amadita.com,"Mo-Fr 07:00-17:00; Sa,Su 07:00-13:00",19.4524198,-70.701085
CENTRIMED Centro de Investigaciones Médicas,Unknown,Avenida Ingeniero Roberto Pastoriza,Unknown,Unknown,Unknown,Unknown,clinic,Unknown,+1 809 475 5005,https://centrimed.com.do/,Mo-Fr 07:00-22:00; Sa 07:00-13:00,18.4730321,-69.9216332
Clinica Rincon,Unknown,Unknown,Unknown,Unknown,Unknown,Unknown,hospital,hospital,Unknown,Unknown,Unknown,19.2791642,-69.2643012
Unknown,Unknown,Unknown,Unknown,Unknown,Unknown,Unknown,pharmacy,Unknown,Unknown,Unknown,Unknown,19.2081236,-69.3371216
Unknown,Unknown,Unknown,Unknown,Unknown,Unknown,Unknown,clinic,Unknown,Unknown,Unknown,Unknown,19.2082017,-69.3371419
Farmacia del pueblo,Unknown,Unknown,Unknown,Unknown,Unknown,Unknown,pharmacy,Unknown,Unknown,Unknown,Unknown,19.1959993,-69.8642224
Jade Recovery House,Unknown,Unknown,Unknown,Unknown,Unknown,Unknown,Unknown,rehabilitation,Unknown,Unknown,Unknown,18.487453,-69.8206285
Hospital PAD,Unknown,Unknown,Unknown,Unknown,Unknown,Unknown,hospital,hospital,Unknown,Unknown,Unknown,17.989687,-71.1658669
Farmacia Patrizo S.R.L.,Unknown,Calle Manolo Betances,Santo Domingo Este,Unknown,Unknown,Unknown,pharmacy,pharmacy,(809)592-1100,Unknown,Unknown,18.4850185,-69.78759
Farmacia Medicar G B C S.R.L,Unknown,Av. Coronel Rafael Tomás Fernández Domínguez,Santo Domingo Este,Unknown,Unknown,Unknown,pharmacy,pharmacy,Unknown,Unknown,Unknown,18.4928026,-69.8107806
Cruz Roja,Unknown,Unknown,Unknown,Unknown,Unknown,Unknown,doctors,doctor,Unknown,Unknown,Unknown,19.291379,-69.4312482
Delbamar,Unknown,Unknown,Unknown,Unknown,Unknown,Unknown,pharmacy,pharmacy,Unknown,Unknown,Unknown,19.295603,-69.4367749
Torres,Unknown,Calle Orlando Martinez,Santo Domingo Este,Unknown,Unknown,Unknown,pharmacy,pharmacy,Unknown,Unknown,Mo-Sa 08:00-20:00,18.507298,-69.8179051
Brisas del eden,Unknown,Carretera A Mendoza,Santo Domingo Este,Unknown,Unknown,Unknown,pharmacy,pharmacy,+1 809 262 9989;+1 809 236 5976,Unknown,Unknown,18.5057995,-69.8137329
Dispensario Médico,Unknown,Unknown,Unknown,Unknown,Unknown,Unknown,Unknown,nurse,Unknown,Unknown,Unknown,18.5335178,-69.8018659
Farmacia Carol,Unknown,Unknown,Unknown,Unknown,Unknown,Unknown,pharmacy,pharmacy,Unknown,Unknown,Unknown,18.4695334,-69.9021268
Farmacia El Manantial,Unknown,Carretera Presidente Antonio Guzmán Fernández,San Drancisco De Macoris,31000,Unknown,Unknown,pharmacy,pharmacy,Unknown,Unknown,Mo-Su 07:00-22:00,19.2859717,-70.2744761
Unknown,Unknown,Unknown,Unknown,Unknown,Unknown,Unknown,pharmacy,pharmacy,Unknown,Unknown,Unknown,19.2526602,-69.4578275
Marina,Unknown,Unknown,Unknown,Unknown,Unknown,Unknown,pharmacy,pharmacy,Unknown,Unknown,Unknown,19.2040506,-69.3432997
Centro de vacunación,Unknown,Avenida Profesor Simón Orozco,Santo Domingo Este,11802,Unknown,Unknown,Unknown,vaccination_centre,Unknown,Unknown,Unknown,18.5128573,-69.8202581
Centro de Diagnóstico Especializado CEDISA,Unknown,Autopista Las Américas,Unknown,Unknown,Unknown,Unknown,doctors,doctor,Unknown,Unknown,Unknown,18.4857526,-69.8711554
Farmacia Patrizo,Unknown,Unknown,Unknown,Unknown,Unknown,Unknown,pharmacy,pharmacy,Unknown,Unknown,Unknown,18.48749,-69.7504462
Unidad de Atencion Primaria,Unknown,Unknown,Unknown,Unknown,Unknown,Unknown,Unknown,doctor,Unknown,Unknown,Unknown,18.4847927,-69.751417
Coral Mall,Unknown,Unknown,Unknown,Unknown,Unknown,Unknown,dentist,dentist,Unknown,Unknown,Unknown,18.4865467,-69.8326165
CLINICA RURAL  DE AGUAS NEGRAS,Unknown,Unknown,Unknown,Unknown,Unknown,Unknown,hospital,hospital,Unknown,Unknown,Unknown,18.1670632,-71.698718
Farmacia Karol,Unknown,Carretera Presidente Antonio Guzmán Fernández,San Francisco De Macoris,31000,Unknown,Unknown,pharmacy,pharmacy,Unknown,Unknown,Unknown,19.2875335,-70.2691504
Farmacias VIP,Unknown,Av. Martin Luther King Jr,Santo Domingo Este,Unknown,Unknown,Unknown,pharmacy,pharmacy,809 388 0002,https://www.farmaciasvip.com/,Unknown,18.5080424,-69.8139465
Laboratorio Clínico De Moya,Unknown,Unknown,Unknown,Unknown,Unknown,Unknown,Unknown,laboratory,Unknown,Unknown,Unknown,18.508081,-69.8559962
Laboratorio Clínico Amadita,Unknown,Unknown,Unknown,Unknown,Unknown,Unknown,Unknown,laboratory,Unknown,Unknown,Unknown,18.5063184,-69.8562268
Punto Médico,Unknown,Unknown,Unknown,Unknown,Unknown,Unknown,clinic,clinic,Unknown,Unknown,Unknown,18.5065244,-69.8562939
Farmacia Carol,Unknown,Unknown,Unknown,Unknown,Unknown,Unknown,pharmacy,pharmacy,Unknown,Unknown,Unknown,18.506516,-69.8571252
Meds,Unknown,Unknown,Unknown,Unknown,Unknown,Unknown,clinic,clinic,Unknown,Unknown,Unknown,18.5065148,-69.8564869
Jose Alonso DDS Dental Office,Unknown,Avenida Abraham Lincoln,Santo Domingo,10124,Unknown,Unknown,hospital,hospital,Unknown,https://www.josealonsodds.com,Unknown,18.4710988,-69.9335705
Unidad Barrio Alcoa,Unknown,Unknown,Unknown,Unknown,Unknown,Unknown,hospital,hospital,Unknown,Unknown,Unknown,18.0379668,-71.7420618
Isa Grupo Dermatológico,Unknown,Calle Luis F. Thomén,Unknown,Unknown,Unknown,Unknown,clinic,Unknown,+18095440661,Unknown,Mo-Fr 08:00-19:00,18.4631696,-69.9377275
Cliderm,Unknown,Calle Manuel de Jesús Troncoso,Unknown,Unknown,Unknown,Unknown,clinic,Unknown,+18096891025,Unknown,Mo-Fr 08:00-18:00; Sa 08:00-12:00,18.4783822,-69.9419994
CENTRO DE SALUD  MENCIA,Unknown,Unknown,Unknown,Unknown,Unknown,Unknown,hospital,hospital,Unknown,Unknown,Unknown,18.1718612,-71.7418791
CLIDERMES,Unknown,Calle Duarte,Unknown,Unknown,Unknown,Unknown,clinic,Unknown,8095481878,https://clidermes.negocio.site/?utm_source=gmb&utm_medium=referral,Mo-Fr 08:00-18:00; Sa 08:00-13:00,18.5215387,-70.0143553
Farmacia 30 de Mayo,Unknown,Calle Marcial Soto,Unknown,94000,Unknown,Unknown,pharmacy,pharmacy,Unknown,Unknown,Mo-Sa 08:00-19:00,18.276196,-70.3401614
Farmacia Medicar GBC,Unknown,Baní - Azua,Unknown,94000,Unknown,Unknown,pharmacy,Unknown,Unknown,https://farmaciamedicargbc.com/,Mo-Sa 07:00-22:00; Su 08:00-21:00,18.2800736,-70.3423766
Grupo Médico Bani,Unknown,Calle Santomé,Baní,94000,Unknown,Unknown,clinic,clinic,8093464444,Unknown,Unknown,18.279205,-70.3337864
Instituto Regional Materno Infantil y Especialidades Medicas IRMIE,Unknown,Avenida Presidente Francisco Gregorio Billini,Bani,94000,Unknown,Unknown,clinic,clinic,+18098987300,http://www.clinicairmie.net/,Unknown,18.2793779,-70.3280838
Farmacia Altagracia,Unknown,Calle Juan Pablo Duarte,Unknown,94000,Unknown,Unknown,pharmacy,Unknown,809 522 3248,Unknown,Mo-Su 08:00-23:00,18.2818077,-70.3320727
Farmacia Luisandra,Unknown,Avenida Máximo Gómez,Unknown,94000,Unknown,Unknown,pharmacy,Unknown,8095223300,Unknown,Unknown,18.2804178,-70.3359818
Médica,Unknown,Unknown,Unknown,Unknown,Unknown,Unknown,hospital,hospital,Unknown,Unknown,Unknown,19.4727075,-70.7301845
Referencia Laboratorio Clínico SA,Unknown,Unknown,Unknown,Unknown,Unknown,Unknown,Unknown,laboratory,+18092337318,https://www.labreferencia.com/,Unknown,19.4614908,-70.68132
Farmacia Mejia (Farmesa),Unknown,Avenida Máximo Gómez,Unknown,94000,Unknown,Unknown,pharmacy,Unknown,809 522-3476,Unknown,Unknown,18.2802329,-70.3372728
Farmacia Álvarez,Unknown,Calle Nicolás Heredia,Unknown,94000,Unknown,Unknown,pharmacy,Unknown,809-522-9382,Unknown,Unknown,18.2751086,-70.3365018
Farmacia San Jose Obrero,Unknown,Calle General Antonio Duvergé,Baní,94000,Unknown,Unknown,pharmacy,pharmacy,809-522-3223,Unknown,Unknown,18.2765291,-70.3347102
Farmacia Díaz Rosario,Unknown,Calle El Número,Unknown,94000,Unknown,Unknown,pharmacy,pharmacy,809-522-9398,Unknown,Unknown,18.2749594,-70.3292999
Farmacia Diaz Rosario #4,Unknown,Avenida Fabio Herrera,Unknown,94000,Unknown,Unknown,pharmacy,Unknown,(809) 380-0078,Unknown,Unknown,18.2581771,-70.329339
Farmacia Diaz Rosario,Unknown,Avenida Fabio Herrera,Unknown,94000,Unknown,Unknown,pharmacy,Unknown,809-380-0078,Unknown,Unknown,18.2703477,-70.3307658
Unknown,Unknown,Unknown,Unknown,Unknown,Unknown,Unknown,clinic,Unknown,Unknown,http://Confidencehealthcenter.com,"We-Fr,Mo-Tu 08:00-02:00",18.3078122,-71.832165
Farmaconal Boca Chica,Unknown,Unknown,Unknown,Unknown,Unknown,Unknown,hospital,Unknown,Unknown,Unknown,Unknown,18.4486592,-69.6402687
Blue Dental Clinic By Mervin Diaz & Victor de Leon,Unknown,Antigua carretera María Trinidad Sanchez,San Cristóbal,91000,Unknown,Unknown,dentist,dentist,Unknown,Unknown,Mo-Sa 08:00-18:00,18.414377,-70.1164332
Los Hidalgos,Unknown,Unknown,Unknown,Unknown,Unknown,Unknown,pharmacy,pharmacy,Unknown,Unknown,Unknown,19.3121495,-69.5434345
Unknown,Unknown,Calle Juan Isidro Ortega,Unknown,Unknown,Unknown,Unknown,clinic,Unknown,Unknown,Unknown,Su-Th 08:00-05:00; Fr 08:00-11:59,18.4791539,-69.9591136
Referencia,Unknown,Unknown,Unknown,Unknown,Unknown,Unknown,Unknown,laboratory,+18092215545,https://www.labreferencia.com/,Mo-Sa 08:00-19:00; Su off,18.464748,-69.9248028
Lilia,Unknown,Avenida Santiago,Santo Domingo,10207,Unknown,Unknown,pharmacy,pharmacy,+18094147687,Unknown,Mo-Sa 08:00-22:00; Su off,18.4678826,-69.899669
Farmacia UASD,Unknown,Avenida Alma Mater,Santo Domingo,10105,Unknown,Unknown,pharmacy,pharmacy,Unknown,Unknown,Unknown,18.4596748,-69.9178654
Wellvet Health Centre,Unknown,Calle Los Pinos,Santo Domingo,10108,Unknown,Unknown,Unknown,physiotherapist,+1 809 692 9903,https://mywellvet.com/,"Mo-Fr 08:00-18:00; Sa ""call us""",18.4641303,-69.9220219
Farmacia Sabana Iglesia II,Unknown,Unknown,Unknown,Unknown,Unknown,Unknown,pharmacy,pharmacy,Unknown,Unknown,Unknown,19.3252635,-70.8149761
unad duarte,Unknown,Unknown,Unknown,Unknown,Unknown,Unknown,pharmacy,pharmacy,Unknown,Unknown,Unknown,18.034972,-71.745992
farmacia del pueblo,Unknown,Unknown,Unknown,Unknown,Unknown,Unknown,pharmacy,pharmacy,Unknown,Unknown,Unknown,18.0322096,-71.7459584
clínica Díaz perez,Unknown,Unknown,Unknown,Unknown,Unknown,Unknown,hospital,hospital,Unknown,Unknown,Unknown,18.0336831,-71.7461224
farmacia yune,Unknown,Unknown,Unknown,Unknown,Unknown,Unknown,pharmacy,pharmacy,Unknown,Unknown,Unknown,18.033335,-71.7461569
Centro de Salud MARCELINO PEÑA (EL RAMON),Unknown,Unknown,Unknown,Unknown,Unknown,Unknown,hospital,clinic,Unknown,Unknown,Unknown,18.5010584,-70.1462099
farmacia yune,Unknown,Unknown,Unknown,Unknown,Unknown,Unknown,pharmacy,pharmacy,Unknown,Unknown,Unknown,18.0383927,-71.7445644
Unknown,Unknown,Unknown,Unknown,Unknown,Unknown,Unknown,pharmacy,pharmacy,Unknown,Unknown,Unknown,18.0337085,-71.7387386
Clínica Villafaña Jiménez,Unknown,Av. Próceres de la Restauración,Unknown,Unknown,Unknown,Unknown,clinic,Unknown,8095802480,Unknown,24/7,19.4780565,-71.3383622
Laboratorio Dental,Unknown,Unknown,Unknown,Unknown,Unknown,Unknown,dentist,dentist,Unknown,Unknown,Unknown,19.3243672,-70.8144454
Navita Plus,Unknown,Unknown,Moca,56000,Unknown,Unknown,pharmacy,pharmacy,+1 829 802 7966‬,Unknown,08:00-22:00,19.4218143,-70.4807922
Hospital Yrene Fernandez de Jánico,Unknown,Unknown,Unknown,Unknown,Unknown,Unknown,clinic,clinic,Unknown,Unknown,Unknown,19.3257875,-70.8190221
Centro De Atencion Primaria El 20,Unknown,Unknown,Unknown,Unknown,Unknown,Unknown,clinic,clinic,Unknown,Unknown,Unknown,18.8534436,-69.3236192
CPN PEDERNALES,Unknown,Unknown,Unknown,Unknown,Unknown,Unknown,hospital,hospital,Unknown,Unknown,Unknown,18.0388236,-71.738151
Dirección provincial de salud Pedernales,Unknown,Unknown,Unknown,Unknown,Unknown,Unknown,hospital,hospital,Unknown,Unknown,Unknown,18.0323596,-71.7443677
Hospital Provincial Dr. Elio Fiallo,Unknown,Unknown,Unknown,Unknown,Unknown,Unknown,hospital,hospital,Unknown,Unknown,Unknown,18.0328022,-71.7448159
centro medico gazcue,Unknown,Avenida Simón Bolívar,Unknown,Unknown,Unknown,Unknown,hospital,Unknown,Unknown,Unknown,Unknown,18.4687027,-69.9054192
dispensario médico Manuel de Jesús matos,Unknown,Unknown,Unknown,Unknown,Unknown,Unknown,hospital,hospital,Unknown,Unknown,Unknown,18.0298934,-71.7422813
CENTRO DE SALUD LOS ROBLES,Unknown,Unknown,Unknown,Unknown,Unknown,Unknown,hospital,hospital,Unknown,Unknown,Unknown,18.0393406,-71.7473731
INIEICONT,Unknown,Calle La Atarazana,Santo Domingo,10212,Unknown,Unknown,clinic,clinic,+1-809-793-9565,https://inieicont.org/,"""by appointment""",18.4787927,-69.8831847
escudea centro de vacunación,Unknown,Unknown,Unknown,Unknown,Unknown,Unknown,clinic,clinic,Unknown,Unknown,Unknown,18.491045,-69.9356109
MAPA Clinic Dental Group,Unknown,Calle Pablo Pumarol,Santo Domingo,10132,Unknown,Unknown,dentist,dentist,+1-829-687-6951,Unknown,Mo-Fr 08:00-18:30; Sa 09:00-12:030,18.4792506,-69.9555952
Hotel dulce hogar,Unknown,Unknown,Unknown,Unknown,Unknown,Unknown,hospital,hospital,Unknown,Unknown,Unknown,19.3637778,-69.83903
