Name,Full Address,Street,City,Postcode,State,Country,Amenity,Healthcare,Phone,Website,Opening Hours,Latitude,Longitude
مشفى اماني,Unknown,Unknown,Unknown,Unknown,Unknown,Unknown,hospital,Unknown,Unknown,Unknown,Unknown,33.362187,36.2472284
الشفاء,Unknown,Unknown,Unknown,Unknown,Unknown,Unknown,pharmacy,Unknown,Unknown,Unknown,Unknown,33.3574375,36.2419351
الأسدي,Unknown,Unknown,Unknown,Unknown,Unknown,Unknown,hospital,Unknown,Unknown,Unknown,Unknown,33.5002042,36.2394902
مستشفى الأطفال,Unknown,Unknown,Unknown,Unknown,Unknown,Unknown,hospital,hospital,Unknown,Unknown,Unknown,33.5122831,36.2618209
دكتور تركجي,Unknown,Unknown,Unknown,Unknown,Unknown,Unknown,doctors,doctor,Unknown,Unknown,Unknown,33.512707,36.2973512
Unknown,Unknown,Unknown,Unknown,Unknown,Unknown,Unknown,dentist,dentist,Unknown,Unknown,Unknown,33.5165669,36.2802254
بديع حمودة الجراحي,Unknown,Unknown,Unknown,Unknown,Unknown,Unknown,hospital,hospital,Unknown,Unknown,Unknown,33.5198052,36.2855141
Unknown,Unknown,Unknown,Unknown,Unknown,Unknown,Unknown,pharmacy,Unknown,Unknown,Unknown,Unknown,33.5306515,36.2319022
صيدلية ميسون,Unknown,Unknown,Unknown,Unknown,Unknown,Unknown,pharmacy,Unknown,Unknown,Unknown,Unknown,33.5443783,36.2231507
خان القصير,Unknown,Unknown,Unknown,Unknown,Unknown,Unknown,hospital,Unknown,Unknown,Unknown,Unknown,33.5833333,36.4333333
دكتور نبيه خردجي,Unknown,Unknown,Unknown,Unknown,Unknown,Unknown,dentist,dentist,Unknown,Unknown,Unknown,33.5190987,36.2849129
مفيد الكردي,Unknown,Unknown,Unknown,Unknown,Unknown,Unknown,pharmacy,pharmacy,Unknown,Unknown,Unknown,33.4940169,36.2381454
Malak Pharmacy,Unknown,Unknown,Unknown,Unknown,Unknown,Unknown,pharmacy,pharmacy,6130457,Unknown,Unknown,33.4935963,36.2341543
صيدلية الخراط,Unknown,Unknown,Unknown,Unknown,Unknown,Unknown,pharmacy,pharmacy,Unknown,Unknown,Unknown,33.5203028,36.307947
Pharmacy One,Unknown,Unknown,Unknown,Unknown,Unknown,Unknown,pharmacy,pharmacy,Unknown,Unknown,Unknown,31.9549156,35.8842193
مستشفى الرشيد,Unknown,Unknown,Unknown,Unknown,Unknown,Unknown,hospital,Unknown,Unknown,Unknown,Unknown,33.4998788,36.3022561
دكتور أ شلهوب,Unknown,Unknown,Unknown,Unknown,Unknown,Unknown,doctors,doctor,Unknown,Unknown,Unknown,33.5199092,36.2945901
مستوصف سبينة,Unknown,Unknown,Unknown,Unknown,Unknown,Unknown,hospital,Unknown,Unknown,Unknown,Unknown,33.4366157,36.2869816
عساف,Unknown,Unknown,Unknown,Unknown,Unknown,Unknown,pharmacy,pharmacy,Unknown,Unknown,Unknown,33.4883248,36.3011341
مشفى محجوب,Unknown,Unknown,Unknown,Unknown,Unknown,Unknown,hospital,Unknown,Unknown,Unknown,Unknown,33.4404743,36.2751585
صيدلية دولة,Unknown,Unknown,Unknown,Unknown,Unknown,Unknown,pharmacy,Unknown,Unknown,Unknown,Unknown,33.3584828,36.2448406
صيدلية الثناء,Unknown,Unknown,Unknown,Unknown,Unknown,Unknown,pharmacy,Unknown,Unknown,Unknown,Unknown,33.3588659,36.2456507
Unknown,Unknown,Unknown,Unknown,Unknown,Unknown,Unknown,pharmacy,Unknown,Unknown,Unknown,Unknown,33.3573525,36.2438769
Unknown,Unknown,Unknown,Unknown,Unknown,Unknown,Unknown,pharmacy,Unknown,Unknown,Unknown,Unknown,33.3621198,36.2472713
صيدلية غباش,Unknown,Unknown,Unknown,Unknown,Unknown,Unknown,pharmacy,Unknown,Unknown,Unknown,Unknown,33.3636442,36.2460288
Unknown,Unknown,Unknown,Unknown,Unknown,Unknown,Unknown,pharmacy,pharmacy,Unknown,Unknown,Unknown,33.5197797,36.2868806
مستشفى الشرق,Unknown,Unknown,Unknown,Unknown,Unknown,Unknown,hospital,hospital,Unknown,Unknown,Unknown,32.6257364,36.1157403
صيدلية أمون,Unknown,Unknown,Unknown,Unknown,Unknown,Unknown,pharmacy,Unknown,Unknown,Unknown,Unknown,31.9659654,35.8917718
Al Istishari Hospital,Unknown,Unknown,Unknown,Unknown,Unknown,Unknown,hospital,hospital,Unknown,Unknown,Unknown,31.965633,35.8861697
مستشفى شميساني,Unknown,Unknown,Unknown,Unknown,Unknown,Unknown,hospital,Unknown,Unknown,Unknown,Unknown,31.9700612,35.8939604
Unknown,Unknown,Unknown,Unknown,Unknown,Unknown,Unknown,clinic,Unknown,Unknown,Unknown,Unknown,33.3075964,35.7727058
صيدلية الأحمد,Unknown,Unknown,Unknown,Unknown,Unknown,Unknown,pharmacy,pharmacy,Unknown,Unknown,Unknown,33.5412293,36.1952585
Unknown,Unknown,Unknown,Unknown,Unknown,Unknown,Unknown,pharmacy,Unknown,Unknown,Unknown,Unknown,33.5398642,36.1958365
مستشفى الإمام النووي,Unknown,Unknown,Unknown,Unknown,Unknown,Unknown,hospital,Unknown,Unknown,Unknown,Unknown,32.8887774,36.0351235
مستشفى نوى الوطني,Unknown,Unknown,Unknown,Unknown,Unknown,Unknown,hospital,Unknown,Unknown,Unknown,Unknown,32.8992049,36.0457242
صيدلية تشرين,Unknown,Unknown,Unknown,Unknown,Unknown,Unknown,pharmacy,Unknown,Unknown,Unknown,Unknown,32.7104034,36.5718124
صيدلية الوفاء,Unknown,Unknown,Unknown,Unknown,Unknown,Unknown,pharmacy,Unknown,Unknown,Unknown,Unknown,32.7086522,36.5694091
الصيدلية العمالية,Unknown,Unknown,Unknown,Unknown,Unknown,Unknown,pharmacy,Unknown,Unknown,Unknown,Unknown,32.709099,36.5691892
صيدلية الحياة,Unknown,Unknown,Unknown,Unknown,Unknown,Unknown,pharmacy,Unknown,Unknown,Unknown,Unknown,32.7097988,36.5703694
صيدلية عبير عواد,Unknown,Unknown,Unknown,Unknown,Unknown,Unknown,pharmacy,pharmacy,Unknown,Unknown,Unknown,33.5256884,36.2992138
هالة داوود,Unknown,Unknown,Unknown,Unknown,Unknown,Unknown,pharmacy,Unknown,Unknown,Unknown,Unknown,33.523847,36.3176129
Unknown,Unknown,Unknown,Unknown,Unknown,Unknown,Unknown,pharmacy,pharmacy,Unknown,Unknown,Unknown,33.4957767,36.2348199
Modern Dental Clinic,Unknown,Unknown,Unknown,Unknown,Unknown,Unknown,dentist,dentist,Unknown,Unknown,Unknown,33.4951683,36.2414718
فراس طهاوي,Unknown,Unknown,Unknown,Unknown,Unknown,Unknown,pharmacy,pharmacy,Unknown,Unknown,Unknown,33.4968235,36.2398839
مشفى أمية,Unknown,Unknown,Unknown,Unknown,Unknown,Unknown,hospital,hospital,Unknown,Unknown,Unknown,33.5293009,36.2927481
مشفى الطب الجراحي,Unknown,Unknown,Unknown,Unknown,Unknown,Unknown,hospital,hospital,Unknown,Unknown,Unknown,33.5206162,36.2987412
مشفى التوفيق,Unknown,Unknown,Unknown,Unknown,Unknown,Unknown,hospital,hospital,Unknown,Unknown,Unknown,33.514981,36.2893728
البرج,Unknown,Unknown,Unknown,Unknown,Unknown,Unknown,pharmacy,Unknown,Unknown,Unknown,Unknown,33.5161203,36.3156502
الصيدلية المركزية,Unknown,Unknown,Unknown,Unknown,Unknown,Unknown,pharmacy,pharmacy,Unknown,Unknown,Unknown,33.5209103,36.2966797
صيدلية الإخوة,Unknown,Unknown,Unknown,Unknown,Unknown,Unknown,pharmacy,pharmacy,Unknown,Unknown,Unknown,33.5180594,36.316794
صيدلية أمل شمعون,Unknown,Unknown,Unknown,Unknown,Unknown,Unknown,pharmacy,pharmacy,Unknown,Unknown,Unknown,33.5178638,36.312603
أمل جناوي,Unknown,Unknown,Unknown,Unknown,Unknown,Unknown,pharmacy,pharmacy,Unknown,Unknown,Unknown,33.5187767,36.3110812
مركز خلخلة الصحي,Unknown,Unknown,Unknown,Unknown,Unknown,Unknown,hospital,Unknown,Unknown,Unknown,Unknown,33.0657541,36.5329099
يوسف نونة,Unknown,Unknown,Unknown,Unknown,Unknown,Unknown,pharmacy,Unknown,Unknown,Unknown,Unknown,33.5212457,36.3210361
سارة عيسى,Unknown,Unknown,Unknown,Unknown,Unknown,Unknown,pharmacy,Unknown,Unknown,Unknown,Unknown,33.5204161,36.3208947
دينا ديب,Unknown,Unknown,Unknown,Unknown,Unknown,Unknown,pharmacy,Unknown,Unknown,Unknown,Unknown,33.5238829,36.3219587
صيدلية منير جمال,Unknown,Unknown,Unknown,Unknown,Unknown,Unknown,pharmacy,Unknown,Unknown,Unknown,Unknown,33.5187815,36.3197462
هالة الزهر,Unknown,Unknown,Unknown,Unknown,Unknown,Unknown,pharmacy,Unknown,Unknown,Unknown,Unknown,33.5277493,36.31803
نقولا الزهر,Unknown,Unknown,Unknown,Unknown,Unknown,Unknown,pharmacy,Unknown,Unknown,Unknown,Unknown,33.5224711,36.3218622
عدنان سعيد تيناوي,Unknown,Unknown,Unknown,Unknown,Unknown,Unknown,pharmacy,pharmacy,Unknown,Unknown,Unknown,33.525949,36.3213794
صيدلية الوفاء,Unknown,Unknown,Unknown,Unknown,Unknown,Unknown,pharmacy,Unknown,Unknown,Unknown,Unknown,33.5279529,36.3167998
صيدلية: القصاع,Unknown,Unknown,Unknown,Unknown,Unknown,Unknown,pharmacy,Unknown,Unknown,Unknown,Unknown,33.5160132,36.3179031
الرفاه,Unknown,Unknown,Unknown,Unknown,Unknown,Unknown,pharmacy,pharmacy,Unknown,Unknown,Unknown,33.5190176,36.3120351
كوثر انطوان,Unknown,Unknown,Unknown,Unknown,Unknown,Unknown,pharmacy,pharmacy,Unknown,Unknown,Unknown,33.5179443,36.3143418
صيدلية الراسي,Unknown,Unknown,Unknown,Unknown,Unknown,Unknown,pharmacy,pharmacy,Unknown,Unknown,Unknown,33.5214629,36.3153927
الزبلطاني,Unknown,Unknown,Unknown,Unknown,Unknown,Unknown,pharmacy,pharmacy,Unknown,Unknown,Unknown,33.5159326,36.3189225
المعونة,Unknown,Unknown,Unknown,Unknown,Unknown,Unknown,pharmacy,pharmacy,Unknown,Unknown,Unknown,33.5192429,36.3176126
بنك الدم,Unknown,Unknown,Unknown,Unknown,Unknown,Unknown,hospital,hospital,Unknown,Unknown,Unknown,32.6992624,36.5788844
مشفى الحياة,Unknown,Unknown,Unknown,Unknown,Unknown,Unknown,hospital,hospital,Unknown,Unknown,Unknown,33.5242724,36.3011456
مستوصف جديدة عرطوز الطبي,Unknown,Unknown,Unknown,Unknown,Unknown,Unknown,clinic,Unknown,Unknown,Unknown,Unknown,33.4372989,36.1673167
رزان,Unknown,Unknown,Unknown,Unknown,Unknown,Unknown,pharmacy,pharmacy,Unknown,Unknown,Unknown,33.5368831,36.3044764
Unknown,Unknown,Unknown,Unknown,Unknown,Unknown,Unknown,pharmacy,pharmacy,Unknown,Unknown,Unknown,31.9541789,35.8568161
صيدلية 1,Unknown,Unknown,عمان,Unknown,Unknown,Unknown,pharmacy,pharmacy,Unknown,Unknown,Unknown,31.9583329,35.8583105
مركز الرحمة الطبي,Unknown,Unknown,Unknown,Unknown,Unknown,Unknown,hospital,Unknown,Unknown,Unknown,Unknown,33.059235,36.0024051
קופת חולים כללית,Unknown,Unknown,Unknown,Unknown,Unknown,Unknown,clinic,Unknown,Unknown,Unknown,Su-Fr 08:30-20:00,32.7984303,35.6876867
صيدلية المجتهد,Unknown,Unknown,Unknown,Unknown,Unknown,Unknown,pharmacy,pharmacy,Unknown,Unknown,Unknown,33.5459901,36.3204989
صيدلية كفاح,Unknown,جادة معاوية بن حُدَيج,دمشق,Unknown,Unknown,Unknown,pharmacy,pharmacy,+963 11 5117706;+963 933391041,Unknown,Unknown,33.5515661,36.3151189
المستشفى الإيطالى,Unknown,Unknown,Unknown,Unknown,Unknown,Unknown,hospital,hospital,Unknown,Unknown,Unknown,31.1865057,35.7019597
صيدلية عرنوس,Unknown,Unknown,Unknown,Unknown,Unknown,Unknown,pharmacy,pharmacy,Unknown,Unknown,Unknown,33.5202726,36.2999896
صيدلية نسرين,Unknown,Unknown,Unknown,Unknown,Unknown,Unknown,pharmacy,pharmacy,Unknown,Unknown,Unknown,33.5558808,36.3205131
مشفى الكسوة,Unknown,Unknown,Unknown,Unknown,Unknown,Unknown,hospital,Unknown,Unknown,Unknown,Unknown,33.3620255,36.2357929
مشفى العين والاذن,Unknown,Unknown,Unknown,Unknown,Unknown,Unknown,hospital,hospital,Unknown,Unknown,Unknown,33.5202591,36.3002739
صيدلية أمل دياب,Unknown,Unknown,Unknown,Unknown,Unknown,Unknown,pharmacy,pharmacy,Unknown,Unknown,Unknown,33.5565953,36.3216243
صيدلية القزاز,Unknown,Unknown,Unknown,Unknown,Unknown,Unknown,pharmacy,pharmacy,Unknown,Unknown,Unknown,33.553079,36.3169477
صيدلية عياش,Unknown,شارع القعقاع بن عمرو التميمي,دمشق,Unknown,Unknown,Unknown,pharmacy,pharmacy,+963 944 733 432;+963 11 514 124,Unknown,Unknown,33.5515277,36.3121775
صيدلية لونا حربا,Unknown,شارع الرحمة,دمشق,Unknown,Unknown,Unknown,pharmacy,pharmacy,Unknown,Unknown,Unknown,33.5499384,36.3132047
صيدلية المساكن,Unknown,Unknown,Unknown,Unknown,Unknown,Unknown,pharmacy,pharmacy,Unknown,Unknown,Unknown,33.547723,36.319854
صيدلية,Unknown,Unknown,Unknown,Unknown,Unknown,Unknown,pharmacy,pharmacy,Unknown,Unknown,Unknown,33.5481433,36.3180569
صيدلية العباس,Unknown,Unknown,Unknown,Unknown,Unknown,Unknown,pharmacy,pharmacy,Unknown,Unknown,Unknown,33.5496544,36.3203421
صيدلية ميادة رزق,Unknown,Unknown,Unknown,Unknown,Unknown,Unknown,pharmacy,pharmacy,Unknown,Unknown,Unknown,33.5486172,36.3190708
Unknown,Unknown,Unknown,Unknown,Unknown,Unknown,Unknown,pharmacy,pharmacy,Unknown,Unknown,Unknown,33.5465114,36.3153961
صيدلية سمر جمل,Unknown,Unknown,Unknown,Unknown,Unknown,Unknown,pharmacy,pharmacy,Unknown,Unknown,Unknown,33.5519166,36.3172093
صيدلية سويد,Unknown,Unknown,Unknown,Unknown,Unknown,Unknown,pharmacy,pharmacy,Unknown,Unknown,Unknown,33.5534813,36.3193336
صيدلية طربين,Unknown,Unknown,Unknown,Unknown,Unknown,Unknown,pharmacy,pharmacy,Unknown,Unknown,Unknown,33.5551808,36.3261183
صيدلية الصلخدي,Unknown,Unknown,Unknown,Unknown,Unknown,Unknown,pharmacy,pharmacy,Unknown,Unknown,Unknown,33.5494756,36.3166004
صيدلية الامل,Unknown,Unknown,Unknown,Unknown,Unknown,Unknown,pharmacy,pharmacy,Unknown,Unknown,Unknown,33.548781,36.3149233
صيدلية سامر خلف,Unknown,Unknown,Unknown,Unknown,Unknown,Unknown,pharmacy,pharmacy,Unknown,Unknown,Unknown,33.5499361,36.3182339
صيدلية رشا ديب,Unknown,Unknown,Unknown,Unknown,Unknown,Unknown,pharmacy,pharmacy,Unknown,Unknown,Unknown,33.5508928,36.3200793
صيدلية قاسيون مول,Unknown,Unknown,Unknown,Unknown,Unknown,Unknown,pharmacy,pharmacy,Unknown,Unknown,Unknown,33.5486852,36.3126743
صيدلية محمد أنيس قدور,Unknown,Unknown,Unknown,Unknown,Unknown,Unknown,pharmacy,pharmacy,Unknown,Unknown,Unknown,33.5459012,36.3082936
Unknown,Unknown,Unknown,Unknown,Unknown,Unknown,Unknown,pharmacy,pharmacy,Unknown,Unknown,Unknown,33.5464801,36.3189045
فاديا عكه,Unknown,Unknown,دمشق,Unknown,Unknown,Unknown,pharmacy,pharmacy,Unknown,Unknown,Unknown,33.515111,36.2973073
عوض,Unknown,Unknown,Unknown,Unknown,Unknown,Unknown,pharmacy,pharmacy,Unknown,Unknown,Unknown,33.5149098,36.2962076
القنوات,Unknown,Unknown,Unknown,Unknown,Unknown,Unknown,pharmacy,pharmacy,Unknown,Unknown,Unknown,33.5160413,36.2957034
الحلبي,Unknown,Unknown,Unknown,Unknown,Unknown,Unknown,pharmacy,pharmacy,Unknown,Unknown,Unknown,33.5157774,36.2953922
Unknown,Unknown,Unknown,Unknown,Unknown,Unknown,Unknown,pharmacy,pharmacy,Unknown,Unknown,Unknown,33.5165291,36.2947516
Unknown,Unknown,Unknown,Unknown,Unknown,Unknown,Unknown,pharmacy,pharmacy,Unknown,Unknown,Unknown,33.5160995,36.2933269
صيدلية زراعية,Unknown,Unknown,Unknown,Unknown,Unknown,Unknown,pharmacy,Unknown,Unknown,Unknown,Unknown,33.4423718,36.1640798
صيدلية ناهد سلوم,Unknown,Unknown,Unknown,Unknown,Unknown,Unknown,pharmacy,pharmacy,Unknown,Unknown,Unknown,33.5394798,36.2203409
صيدلية البيرقدار,Unknown,Unknown,Unknown,Unknown,Unknown,Unknown,pharmacy,Unknown,Unknown,Unknown,Unknown,33.5395335,36.2162479
صيدلية سلمى يازرباشي,Unknown,Unknown,Unknown,Unknown,Unknown,Unknown,pharmacy,Unknown,+963113210921,Unknown,Unknown,33.5395916,36.2127746
صيدلية ناديا فاخوري,Unknown,Unknown,Unknown,Unknown,Unknown,Unknown,pharmacy,Unknown,Unknown,Unknown,Unknown,33.5418652,36.2137132
مشفى السلام,Unknown,Unknown,Unknown,Unknown,Unknown,Unknown,hospital,Unknown,Unknown,Unknown,Unknown,33.4482968,36.2654475
Unknown,Unknown,Unknown,Unknown,Unknown,Unknown,Unknown,pharmacy,Unknown,Unknown,Unknown,Unknown,33.5425216,36.214298
Unknown,Unknown,Unknown,Unknown,Unknown,Unknown,Unknown,pharmacy,pharmacy,Unknown,Unknown,Unknown,33.5399772,36.2142554
Unknown,Unknown,Unknown,Unknown,Unknown,Unknown,Unknown,pharmacy,Unknown,Unknown,Unknown,Unknown,33.5404511,36.2188624
صيدلية جمانة سحلول,Unknown,Unknown,Unknown,Unknown,Unknown,Unknown,pharmacy,Unknown,Unknown,Unknown,Unknown,33.5466766,36.2111149
Mohammad,Unknown,Unknown,Unknown,Unknown,Unknown,Unknown,pharmacy,pharmacy,Unknown,Unknown,Unknown,31.9427116,35.946046
Abu Qobo',Unknown,Unknown,Unknown,Unknown,Unknown,Unknown,pharmacy,pharmacy,Unknown,Unknown,Unknown,31.9448397,35.9449061
Nidal,Unknown,Unknown,Unknown,Unknown,Unknown,Unknown,pharmacy,pharmacy,Unknown,Unknown,Unknown,31.9441114,35.9456598
Jordan University Hospital,Unknown,Unknown,Unknown,Unknown,Unknown,Unknown,hospital,hospital,Unknown,Unknown,Unknown,32.0046303,35.8749665
Unknown,Unknown,Unknown,Unknown,Unknown,Unknown,Unknown,hospital,hospital,Unknown,Unknown,Unknown,31.9979263,35.8729361
مستشفى العيون التخصصي أمي,Unknown,Unknown,Unknown,Unknown,Unknown,Unknown,hospital,hospital,+962 (6) 5205555,https://www.ibn-alhaytham-hospital.com/Default.htm,Unknown,31.9975442,35.8723782
Unknown,Unknown,Unknown,Unknown,Unknown,Unknown,Unknown,hospital,Unknown,Unknown,Unknown,Unknown,32.0594043,35.9191398
Pharmacy One (Jubaiha),Unknown,Unknown,Unknown,Unknown,Unknown,Unknown,pharmacy,Unknown,Unknown,Unknown,Unknown,32.0251936,35.8560333
Abu Nuseir Health Center,Unknown,Unknown,Unknown,Unknown,Unknown,Unknown,hospital,Unknown,Unknown,Unknown,Unknown,32.0527051,35.8820239
مستشفى يافا,Unknown,Unknown,Unknown,Unknown,Unknown,Unknown,hospital,hospital,Unknown,Unknown,Unknown,33.4940543,36.2388238
أبو غزالة,Unknown,Unknown,Unknown,Unknown,Unknown,Unknown,pharmacy,Unknown,Unknown,Unknown,Unknown,33.5405382,36.2158918
Unknown,Unknown,Unknown,Unknown,Unknown,Unknown,Unknown,pharmacy,Unknown,Unknown,Unknown,Unknown,33.5465116,36.2138614
مستشفى الجندويل للتوليد,Unknown,Unknown,Unknown,Unknown,Unknown,Unknown,hospital,Unknown,Unknown,Unknown,Unknown,31.9577664,35.8453973
صيدلية جونية,Unknown,Al Hashimiyyeen,Unknown,Unknown,Unknown,Unknown,pharmacy,Unknown,Unknown,Unknown,Unknown,31.9431446,35.8662881
صيدلية يعقوب,Unknown,Unknown,Unknown,Unknown,Unknown,Unknown,pharmacy,pharmacy,Unknown,Unknown,Unknown,31.9539524,35.9112758
مركز البادية الشمالية الشامل,Unknown,Unknown,Unknown,Unknown,Unknown,Unknown,hospital,Unknown,Unknown,Unknown,Unknown,32.2662867,36.4556609
مستشفى البادية الشمالية,Unknown,Unknown,Unknown,Unknown,Unknown,Unknown,hospital,Unknown,Unknown,Unknown,Unknown,32.2657061,36.4570556
عيادة الدكتور باسل حسين للجراحة التجميلية,Unknown,سوق الصالحية,دمشق,Unknown,Unknown,Unknown,clinic,clinic,+963114432802,Unknown,14:00-20:00,33.5204363,36.291482
Unknown,Unknown,Unknown,Unknown,Unknown,Unknown,Unknown,pharmacy,Unknown,Unknown,Unknown,Unknown,31.9925909,35.8181699
صيدلية صبّار,Unknown,Unknown,Unknown,Unknown,Unknown,Unknown,pharmacy,Unknown,Unknown,Unknown,Unknown,31.9925438,35.8138677
صيدلية دروزة,Unknown,Unknown,Unknown,Unknown,Unknown,Unknown,pharmacy,Unknown,Unknown,Unknown,Unknown,31.9567072,35.8709108
Unknown,Unknown,Unknown,Unknown,Unknown,Unknown,Unknown,pharmacy,Unknown,Unknown,Unknown,Unknown,31.9881562,35.8061965
Dr. Ghassan Basheer Alami,Unknown,Unknown,Unknown,Unknown,Unknown,Unknown,clinic,clinic,Unknown,Unknown,Unknown,31.9507382,35.9082073
קופת חולים כללית,Unknown,Unknown,Unknown,Unknown,Unknown,Unknown,clinic,Unknown,Unknown,Unknown,Unknown,32.9573439,35.7403161
Unknown,Unknown,Unknown,Unknown,Unknown,Unknown,Unknown,clinic,Unknown,Unknown,Unknown,Unknown,32.3637328,36.4010711
Jordan Red Crescent Psychosocial centre,Unknown,Salti al Ebrahimi St,Amman,Unknown,Unknown,Unknown,clinic,Unknown,+96264908588,Unknown,Unknown,31.9698995,35.9576557
صيدلية السلسبيل,Unknown,Unknown,Unknown,Unknown,Unknown,Unknown,pharmacy,Unknown,Unknown,Unknown,Unknown,31.9887302,36.0202786
صيدلبية الاستاذ,Unknown,Unknown,Unknown,Unknown,Unknown,Unknown,pharmacy,Unknown,Unknown,Unknown,Unknown,31.9871995,36.0191962
Unknown,Unknown,Unknown,Unknown,Unknown,Unknown,Unknown,pharmacy,Unknown,Unknown,Unknown,Unknown,31.9987458,35.9981641
مستشفى ماركا العسكري,Unknown,Unknown,Unknown,Unknown,Unknown,Unknown,hospital,Unknown,Unknown,Unknown,Unknown,31.9817585,35.9900366
مركز ماركا الصحي,Unknown,Unknown,Unknown,Unknown,Unknown,Unknown,hospital,Unknown,Unknown,Unknown,Unknown,31.973562,35.9742391
"The National Center for Diabetes, Endocrinology and Genetics",Unknown,Unknown,Unknown,Unknown,Unknown,Unknown,Unknown,centre,Unknown,Unknown,Unknown,32.0079077,35.8725731
קופת חולים כללית,Unknown,Unknown,Unknown,Unknown,Unknown,Unknown,clinic,Unknown,Unknown,Unknown,Unknown,32.7383882,35.6566127
صيدلية دعاء,Unknown,Jamal Qaitouqah Street,Unknown,Unknown,Unknown,Unknown,pharmacy,pharmacy,Unknown,Unknown,Unknown,31.9539768,35.8405227
Orange Pharmacy,Unknown,Unknown,Unknown,Unknown,Unknown,Unknown,pharmacy,pharmacy,Unknown,Unknown,Unknown,31.9727338,35.9106472
Unknown,Unknown,Unknown,Unknown,Unknown,Unknown,Unknown,pharmacy,pharmacy,Unknown,Unknown,Unknown,32.9948273,35.6891632
مستوصف اشرفية الوادي,Unknown,Unknown,Unknown,Unknown,Unknown,Unknown,hospital,Unknown,Unknown,Unknown,Unknown,33.5880358,36.1958911
مركز الامل الطبي,Unknown,Unknown,Unknown,Unknown,Unknown,Unknown,hospital,Unknown,Unknown,Unknown,Unknown,33.5772677,36.1928194
الدكتور عبدالله محمد حمدان,Unknown,Unamed Road,Amman,Unknown,Unknown,Unknown,doctors,doctor,Unknown,Unknown,Unknown,31.8989324,35.8581403
Farmacity,Unknown,Unknown,amman,Unknown,Unknown,Unknown,pharmacy,Unknown,Unknown,Unknown,Unknown,31.9803959,35.8373368
مشفى الأمير فيصل,Unknown,Unknown,الرصيفة,Unknown,Unknown,Unknown,hospital,Unknown,Unknown,Unknown,Unknown,32.030467,36.0462536
Pharmacy One Al Zarqa,Unknown,Amman - Zarqa Autostrad,Al Zarqa,Unknown,Unknown,Unknown,pharmacy,Unknown,Unknown,Unknown,Unknown,32.0477868,36.0918038
الإيثار,Unknown,الزواهرة,الزرقاء,Unknown,Unknown,Unknown,pharmacy,Unknown,Unknown,Unknown,Unknown,32.0668911,36.0669484
المركز الصحي,Unknown,Unknown,Unknown,Unknown,Unknown,Unknown,hospital,Unknown,Unknown,Unknown,Unknown,32.3377432,36.2465446
Unknown,Unknown,Unknown,Unknown,Unknown,Unknown,Unknown,pharmacy,Unknown,Unknown,Unknown,Unknown,32.0630412,36.0782562
صيدلية بالي,Unknown,Amman - Zarqa Highway,الزرقاء,Unknown,Unknown,Unknown,pharmacy,Unknown,Unknown,Unknown,Unknown,32.0550589,36.0944639
Pharmacy 1,Unknown,دوار معصوم,الزرقاء,Unknown,Unknown,Unknown,pharmacy,Unknown,Unknown,Unknown,Unknown,32.0785339,36.0736872
Unknown,Unknown,شارع الشهيد وصفي التل,Amman,Unknown,Unknown,Unknown,pharmacy,pharmacy,Unknown,Unknown,Unknown,31.9841442,35.8889667
גולן פארם,Unknown,Unknown,Unknown,Unknown,Unknown,Unknown,pharmacy,pharmacy,+972 4 696 2578,Unknown,Unknown,32.9947244,35.6893868
Katzrin Hyper Pharm,Unknown,Unknown,Unknown,Unknown,Unknown,Unknown,pharmacy,pharmacy,Unknown,Unknown,Unknown,32.9949169,35.6898582
Unknown,Unknown,باب الواد,الزرقاء,Unknown,Unknown,Unknown,pharmacy,Unknown,Unknown,Unknown,Unknown,32.0626925,36.0876278
Unknown,Unknown,بهاء الدين عبد الله,الزرقاء,Unknown,Unknown,Unknown,hospital,Unknown,Unknown,Unknown,Unknown,32.0599602,36.0759629
Unknown,Unknown,بهاء الدين عبد الله,الزرقاء,Unknown,Unknown,Unknown,pharmacy,Unknown,Unknown,Unknown,Unknown,32.0599079,36.0760809
مستشفى الحكمة,Unknown,Unknown,الزرقاء,Unknown,Unknown,Unknown,hospital,Unknown,Unknown,Unknown,Unknown,32.0538247,36.0937621
Unknown,Unknown,Unknown,Unknown,Unknown,Unknown,Unknown,pharmacy,Unknown,Unknown,Unknown,Unknown,32.0346428,36.0912274
عيادة الدكتور معين فضة,Unknown,شارع الكلية العلمية الإسلامية,Unknown,Unknown,Unknown,Unknown,clinic,clinic,Unknown,Unknown,Unknown,31.9535854,35.9110142
Unknown,Unknown,الملك حسين ( شارع السعادة ),الزرقاء,Unknown,Unknown,Unknown,pharmacy,Unknown,Unknown,Unknown,Unknown,32.0628225,36.0939884
عيادة الدكتور انطون الحلاق,Unknown,Unknown,Unknown,Unknown,Unknown,Unknown,doctors,doctor,+9634410100,Unknown,Unknown,33.5188588,36.3116543
Al Amal Hospital,Unknown,Unknown,Unknown,Unknown,Unknown,Unknown,hospital,hospital,Unknown,Unknown,Unknown,31.9734169,35.9109564
Baby Cord,Unknown,Unknown,Unknown,Unknown,Unknown,Unknown,hospital,Unknown,Unknown,Unknown,Unknown,31.7476469,35.9406671
Pharmacy One,Unknown,Al Sakhrah Al Musharrafah Street,Unknown,Unknown,Unknown,Unknown,hospital,Unknown,Unknown,Unknown,Unknown,31.9114012,35.915
مستشفى الأمير هاشم بن الحسبن,Unknown,الجيش,الزرقاء,Unknown,Unknown,Unknown,hospital,Unknown,Unknown,Unknown,Unknown,32.0666808,36.0970652
دواكم,Unknown,الأرز,الزرقاء,Unknown,Unknown,Unknown,pharmacy,Unknown,Unknown,Unknown,Unknown,32.0560568,36.0852797
مركز صحي محي الاولي,Unknown,Unknown,Unknown,Unknown,Unknown,Unknown,hospital,Unknown,Unknown,Unknown,Unknown,30.9867638,35.8601371
Unknown,Unknown,Unknown,Unknown,Unknown,Unknown,Unknown,pharmacy,Unknown,Unknown,Unknown,Unknown,32.0223996,35.8420857
مركز الكفرين الصحي,Unknown,Unknown,Unknown,Unknown,Unknown,Unknown,hospital,Unknown,Unknown,Unknown,Su-Th 10:00-15:00,33.4315947,36.5480758
صيدلية,Unknown,Unknown,Unknown,Unknown,Unknown,Unknown,pharmacy,Unknown,Unknown,Unknown,Unknown,33.4386779,36.5486354
د.ياسر ذيب,Unknown,Unknown,Unknown,Unknown,Unknown,Unknown,clinic,Unknown,Unknown,Unknown,Unknown,33.4352393,36.5488221
صيدلية فارما,Unknown,الشريف عبد الحميد شرف,الزرقاء,Unknown,Unknown,Unknown,pharmacy,Unknown,Unknown,Unknown,Unknown,32.0734773,36.0738075
Unknown,Unknown,الشهيد وصفي التل,الزرقاء,Unknown,Unknown,Unknown,pharmacy,Unknown,Unknown,Unknown,Unknown,32.0483103,36.0841664
دواكم,Unknown,الثورة العربية الكبرى,الزرقاء,Unknown,Unknown,Unknown,pharmacy,Unknown,Unknown,Unknown,Unknown,32.0435638,36.0883743
مستشفى الكندي,Unknown,Unknown,دمشق,Unknown,Unknown,Unknown,hospital,hospital,+963112249199,Unknown,Unknown,33.5058081,36.2957737
Unknown,Unknown,Zain Al Sharaf 26th Street,الزرقاء,Unknown,Unknown,Unknown,pharmacy,Unknown,Unknown,Unknown,Unknown,32.0907906,36.0891808
Gardens,Unknown,شارع وصفي التل,Unknown,Unknown,Unknown,Unknown,hospital,hospital,Unknown,Unknown,Unknown,31.9857692,35.8784005
عيادة جمزو الخيرية,Unknown,مطيع الشيشاني,الزرقاء,Unknown,Unknown,Unknown,clinic,Unknown,Unknown,Unknown,Unknown,32.0628298,36.0779531
صيدلية شومر,Unknown,شارع شومر,الزرقاء,Unknown,Unknown,Unknown,pharmacy,Unknown,Unknown,Unknown,Unknown,32.0719317,36.0633144
صيدلية المدائن,Unknown,Unknown,Unknown,Unknown,Unknown,Unknown,pharmacy,Unknown,Unknown,Unknown,Unknown,32.0410119,36.0943822
دواكم,Unknown,الجيش,الزرقاء,Unknown,Unknown,Unknown,pharmacy,Unknown,Unknown,Unknown,Unknown,32.0673687,36.0961014
النقطة واحد القديمة,Unknown,Unknown,Unknown,Unknown,Unknown,Unknown,hospital,Unknown,Unknown,Unknown,Unknown,33.5689076,36.3972402
Dr. Hamadah Saleh Clinic,Unknown,Unknown,Unknown,Unknown,Unknown,Unknown,clinic,clinic,Unknown,Unknown,Unknown,31.9788377,35.9017801
دواكم,Unknown,Mekkah 36th Street,Al Zarqa,Unknown,Unknown,Unknown,pharmacy,Unknown,Unknown,Unknown,Unknown,32.0870155,36.1009918
صيدلية الزرقاء الحديثة,Unknown,الملك حسين ( شارع السعادة ),الزرقاء,Unknown,Unknown,Unknown,pharmacy,Unknown,Unknown,Unknown,Unknown,32.0632297,36.0914031
دواكم,Unknown,الملك حسين ( شارع السعادة ),الزرقاء,Unknown,Unknown,Unknown,pharmacy,Unknown,Unknown,Unknown,Unknown,32.0632762,36.0908881
صيدلية فلسطين,Unknown,الملك حسين ( شارع السعادة ),الزرقاء,Unknown,Unknown,Unknown,pharmacy,Unknown,Unknown,Unknown,Unknown,32.0633922,36.0901076
صيدلية السعادة,Unknown,الملك حسين ( شارع السعادة ),الزرقاء,Unknown,Unknown,Unknown,pharmacy,Unknown,Unknown,Unknown,Unknown,32.0633558,36.0893995
صيدلية القاضي,Unknown,الملك حسين ( شارع السعادة ),الزرقاء,Unknown,Unknown,Unknown,pharmacy,Unknown,Unknown,Unknown,Unknown,32.0634195,36.0889757
مختبرات أبو سارة الطبية,Unknown,الملك حسين ( شارع السعادة ),الزرقاء,Unknown,Unknown,Unknown,clinic,Unknown,Unknown,Unknown,Unknown,32.0635399,36.0881389
صيدلية الحجاوي,Unknown,الشريف عبد الحميد شرف,الزرقاء,Unknown,Unknown,Unknown,pharmacy,Unknown,Unknown,Unknown,Unknown,32.0669855,36.0762382
ابو محمود المقابلين,Unknown,Unknown,Unknown,Unknown,Unknown,Unknown,pharmacy,Unknown,Unknown,Unknown,Unknown,31.8930808,35.910733
صيدلية الدواء,Unknown,Unknown,Unknown,Unknown,Unknown,Unknown,pharmacy,Unknown,Unknown,Unknown,Unknown,29.8234208,38.9238596
صيدلية الرازي,Unknown,Moussalli Street,Unknown,Unknown,Unknown,Unknown,pharmacy,Unknown,Unknown,Unknown,24/7,33.5419606,36.1955625
صيدلية زينة عياش,Unknown,Unknown,Unknown,Unknown,Unknown,Unknown,pharmacy,pharmacy,Unknown,Unknown,Unknown,33.5296108,36.3174069
صيدليه زيد,Unknown,Unknown,Unknown,Unknown,Unknown,Unknown,pharmacy,Unknown,Unknown,Unknown,Unknown,31.9637421,35.8675945
صيدلية البواسل,Unknown,Al Dammam Street,Unknown,Unknown,Unknown,Unknown,pharmacy,Unknown,06 5522419,Unknown,Unknown,31.9654655,35.869862
صيدلية الشاي الاخضر,Unknown,Jaber Bin Hayyan Street,Unknown,Unknown,Unknown,Unknown,pharmacy,pharmacy,Unknown,Unknown,Su-Th 10:00-22:00,31.975317,35.9052055
صيدلية امتتال,Unknown,شارع الملكة زين الشرف,Unknown,Unknown,Unknown,Unknown,pharmacy,Unknown,Unknown,Unknown,Unknown,31.9459756,35.8621254
Unknown,Unknown,Unknown,Unknown,Unknown,Unknown,Unknown,clinic,Unknown,Unknown,Unknown,Unknown,32.2939804,36.331149
مستشفى الحمايده,Unknown,شارع كفارنة,Unknown,Unknown,Unknown,Unknown,hospital,hospital,Unknown,Unknown,Unknown,31.9013989,35.9339756
صيدلية بيت يافا,Unknown,Unknown,Unknown,Unknown,Unknown,Unknown,pharmacy,Unknown,Unknown,Unknown,Unknown,32.5191651,35.7892545
Dr. Tarek Bahmad dental clinic,Unknown,Daher al Ahmar,Unknown,Unknown,Unknown,Unknown,clinic,Unknown,Unknown,Unknown,Unknown,33.5313033,35.8319694
صيدلية ناديا طقم,Unknown,Unknown,Unknown,Unknown,Unknown,Unknown,pharmacy,Unknown,Unknown,Unknown,Unknown,33.5745229,36.2972115
صيدلية جيهان باكير,Unknown,Unknown,Unknown,Unknown,Unknown,Unknown,pharmacy,pharmacy,Unknown,Unknown,Unknown,33.5761376,36.2984247
احمد ابراهيم,Unknown,Unknown,Unknown,Unknown,Unknown,Unknown,pharmacy,Unknown,Unknown,Unknown,Unknown,33.5277783,36.0697183
صيدلية لينا سيناوي,Unknown,Unknown,Unknown,Unknown,Unknown,Unknown,pharmacy,pharmacy,Unknown,Unknown,Unknown,33.5769439,36.2981949
مارينا شماس,Unknown,Unknown,Unknown,Unknown,Unknown,Unknown,pharmacy,Unknown,Unknown,Unknown,Unknown,33.4352305,36.0811296
محمد غنام,Unknown,Unknown,Unknown,Unknown,Unknown,Unknown,pharmacy,Unknown,Unknown,Unknown,Unknown,33.4357887,36.0825988
العيادة النفسية/د. جميل ركاب,Unknown,السبع بحرات - شارع العابد - دخلة ثانية يمين (جادة البحتري),Unknown,Unknown,Unknown,Unknown,clinic,clinic,+963114445984,Unknown,Sa-Th 09:00-21:00,33.5201757,36.2937786
دار الدواء المركزية,Unknown,Unknown,Unknown,Unknown,Unknown,Unknown,pharmacy,pharmacy,Unknown,Unknown,Unknown,33.5220008,36.291402
بسام الجوخدار جراح عصبية,Unknown,Unknown,Unknown,Unknown,Unknown,Unknown,doctors,doctor,Unknown,Unknown,Unknown,33.5201097,36.2905237
صيدلية الصحابه,Unknown,Unknown,Unknown,Unknown,Unknown,Unknown,pharmacy,Unknown,Unknown,Unknown,Unknown,33.4980436,36.300501
محمد وسيم احمد النمر,Unknown,Unknown,Unknown,Unknown,Unknown,Unknown,dentist,dentist,Unknown,Unknown,Unknown,33.5254413,36.289172
مختبرات القرنجي,Unknown,Unknown,Unknown,Unknown,Unknown,Unknown,Unknown,laboratory,Unknown,Unknown,Unknown,33.5197271,36.2872651
محمد بطيخة,Unknown,Unknown,Unknown,Unknown,Unknown,Unknown,pharmacy,Unknown,Unknown,Unknown,Unknown,33.4380617,36.0850563
صديقة جوني,Unknown,Unknown,Unknown,Unknown,Unknown,Unknown,pharmacy,Unknown,Unknown,Unknown,Unknown,33.4433176,36.0845692
نهوند علي,Unknown,Unknown,Unknown,Unknown,Unknown,Unknown,pharmacy,Unknown,Unknown,Unknown,Unknown,33.4336246,36.0668581
زكريا ابو خلف,Unknown,ابو العتاهية,Unknown,Unknown,Unknown,Unknown,clinic,Unknown,0777480024,Unknown,Mo-Su 08:00-16:00,31.9901125,35.8986209
مستشفى الجولان الوطني,Unknown,Unknown,Unknown,Unknown,Unknown,Unknown,hospital,hospital,Unknown,Unknown,Unknown,33.1709042,35.8779589
Unknown,Unknown,Unknown,Unknown,Unknown,Unknown,Unknown,hospital,Unknown,Unknown,Unknown,Unknown,31.9797235,35.9781347
صيدلية الصحابه,Unknown,Unknown,Unknown,Unknown,Unknown,Unknown,pharmacy,pharmacy,Unknown,Unknown,Unknown,33.4981209,36.3003252
Unknown,Unknown,Unknown,Unknown,Unknown,Unknown,Unknown,hospital,Unknown,Unknown,Unknown,Unknown,32.3255812,35.6493974
صيدلية بندر,Unknown,شارع الكفاح,Unknown,Unknown,Unknown,Unknown,pharmacy,Unknown,Unknown,Unknown,Unknown,32.7105446,36.5696977
صيدلية سومر,Unknown,Unknown,Unknown,Unknown,Unknown,Unknown,pharmacy,Unknown,Unknown,Unknown,24/7,33.4685752,36.2070633
Pharmacy One,Unknown,Al-Razi Street,Unknown,Unknown,Unknown,Unknown,pharmacy,pharmacy,Unknown,Unknown,Unknown,31.9628066,35.9165524
صيدلية طيبة,Unknown,Unknown,Unknown,Unknown,Unknown,Unknown,pharmacy,Unknown,Unknown,Unknown,Unknown,30.1981192,35.7346899
Unknown,Unknown,Unknown,Unknown,Unknown,Unknown,Unknown,pharmacy,Unknown,Unknown,Unknown,Unknown,30.1935676,35.7289045
صيدلية أبو طويلة,Unknown,Unknown,Unknown,Unknown,Unknown,Unknown,pharmacy,Unknown,Unknown,Unknown,Unknown,30.1972165,35.7350966
مستشفى معان الحكومي,Unknown,Unknown,Unknown,Unknown,Unknown,Unknown,hospital,Unknown,Unknown,Unknown,Unknown,30.1910009,35.7284382
مستشفى الحياة,Unknown,Unknown,عمان,Unknown,Unknown,Unknown,hospital,hospital,Unknown,Unknown,Unknown,31.9473862,35.8954029
مستشفى الحياة العام هبة الله,Unknown,Unknown,Unknown,Unknown,Unknown,Unknown,hospital,Unknown,Unknown,Unknown,Unknown,31.9214533,35.9031193
مستشفى هبة للولادة,Unknown,Khaled Bin Al Waleed Street,Unknown,Unknown,Unknown,Unknown,hospital,Unknown,Unknown,Unknown,24/7,31.9679603,35.9170648
صيدلية النبراس,Unknown,فاطمة الزهراء,Unknown,Unknown,Unknown,Unknown,pharmacy,Unknown,Unknown,Unknown,Unknown,31.9759069,35.9904876
Arab Dental Center,Unknown,Yousef Bin Tashefeen Street,Unknown,Unknown,Unknown,Unknown,dentist,dentist,Unknown,Unknown,Unknown,31.981483,35.8951959
مستوصف جمعية الأعمال الخيرية,Unknown,جادة زين العابدين,Unknown,Unknown,Unknown,Unknown,hospital,hospital,+963113315488,Unknown,24/7,33.530338,36.2839356
صيدلية زين العابدين,Unknown,Unknown,Unknown,Unknown,Unknown,Unknown,pharmacy,pharmacy,Unknown,Unknown,Unknown,33.5290854,36.2833503
مستوصف زين العابدين,Unknown,Unknown,Unknown,Unknown,Unknown,Unknown,clinic,clinic,Unknown,Unknown,Unknown,33.5289705,36.2833806
جهاد جليلاتي,Unknown,Unknown,Unknown,Unknown,Unknown,Unknown,pharmacy,Unknown,Unknown,Unknown,Unknown,33.4369441,36.1649454
رنا علوش,Unknown,Unknown,Unknown,Unknown,Unknown,Unknown,pharmacy,Unknown,Unknown,Unknown,Unknown,33.4398512,36.1636244
محمد أبو شامة,Unknown,Unknown,Unknown,Unknown,Unknown,Unknown,pharmacy,Unknown,Unknown,Unknown,Unknown,33.4364368,36.1614382
هديل منصور,Unknown,Unknown,Unknown,Unknown,Unknown,Unknown,pharmacy,Unknown,Unknown,Unknown,Unknown,33.4369138,36.1664069
عاصم,Unknown,Unknown,Unknown,Unknown,Unknown,Unknown,pharmacy,Unknown,Unknown,Unknown,Unknown,33.4161471,36.14989
الهاشم,Unknown,Unknown,Unknown,Unknown,Unknown,Unknown,pharmacy,Unknown,Unknown,Unknown,Unknown,33.426889,36.2310312
ألسو,Unknown,Unknown,Unknown,Unknown,Unknown,Unknown,pharmacy,Unknown,Unknown,Unknown,Unknown,33.4288651,36.2365335
فياض غنام,Unknown,Unknown,Unknown,Unknown,Unknown,Unknown,pharmacy,Unknown,Unknown,Unknown,Unknown,33.431838,36.2425008
SALI PHARMACY,Unknown,Unknown,Unknown,Unknown,Unknown,Unknown,pharmacy,Unknown,Unknown,Unknown,Unknown,33.4311435,36.2499954
نادين صالحة,Unknown,Unknown,Unknown,Unknown,Unknown,Unknown,pharmacy,Unknown,Unknown,Unknown,Unknown,33.430698,36.2372417
الأمل,Unknown,Unknown,Unknown,Unknown,Unknown,Unknown,pharmacy,Unknown,Unknown,Unknown,Unknown,33.4380677,36.1632152
صفاء سويد,Unknown,Unknown,Unknown,Unknown,Unknown,Unknown,pharmacy,Unknown,Unknown,Unknown,Unknown,33.4256894,36.1505427
صيدلية خالد بن الوليد,Unknown,Unknown,Unknown,Unknown,Unknown,Unknown,pharmacy,Unknown,Unknown,Unknown,Unknown,31.969755,35.9143248
عيادة الدكتور معتصم اللطايفة -طبيب عيون,Unknown,Unknown,Unknown,Unknown,Unknown,Unknown,clinic,Unknown,Unknown,Unknown,Unknown,32.0036282,35.9354989
مركز صحي مخيم جرش,Unknown,Unknown,Unknown,Unknown,Unknown,Unknown,hospital,hospital,Unknown,Unknown,Unknown,32.263956,35.8575497
الهلال الاحمر,Unknown,Unknown,Unknown,Unknown,Unknown,Unknown,clinic,Unknown,Unknown,Unknown,Unknown,33.5503428,36.2132402
بنك الدم المركزي,Unknown,Unknown,Unknown,Unknown,Unknown,Unknown,hospital,Unknown,Unknown,Unknown,Unknown,33.4987316,36.2460854
Pharmacy 1,Unknown,Unknown,Unknown,Unknown,Unknown,Unknown,pharmacy,Unknown,Unknown,Unknown,Unknown,31.9741853,35.8865069
الحسين لسر طان,Unknown,Unknown,Unknown,Unknown,Unknown,Unknown,hospital,hospital,Unknown,Unknown,Unknown,32.0052337,35.8738245
الخالدي بلازا,Unknown,Unknown,Unknown,Unknown,Unknown,Unknown,clinic,clinic,Unknown,Unknown,Unknown,31.9508452,35.9041721
مستشفى جمعية الموساة,Unknown,Unknown,Unknown,Unknown,Unknown,Unknown,hospital,hospital,Unknown,Unknown,Unknown,33.5111206,36.2592495
صيدلية كشكة,Unknown,ساحة الأمل,Unknown,Unknown,Unknown,Unknown,pharmacy,Unknown,Unknown,Unknown,Unknown,33.5500318,36.2151283
صيدلية سيدار,Unknown,شارع المجمع الغربي,Unknown,Unknown,Unknown,Unknown,pharmacy,Unknown,Unknown,Unknown,Unknown,32.3446868,36.2051781
صيدلية السلامة,Unknown,نهاية جسر قطنا,Unknown,Unknown,Unknown,Unknown,pharmacy,Unknown,+963994201915,https://www.facebook.com/alslama.pharmacy,Mo-Su 09:00-21:00,33.4232627,36.1419152
Unknown,Unknown,Unknown,Unknown,Unknown,Unknown,Unknown,hospital,Unknown,Unknown,Unknown,Unknown,30.4228647,38.4061905
ابراهيم تركماني,Unknown,شارع عبد الكريم الخطابي,Unknown,Unknown,Unknown,Unknown,dentist,dentist,+963114411999,Unknown,Sa-Th 09:00-20:00,33.5242109,36.310928
المهند,Unknown,Unknown,Unknown,Unknown,Unknown,Unknown,pharmacy,pharmacy,Unknown,Unknown,Unknown,32.0033626,35.8854974
سمر الكعدة,Unknown,أحمد شوقي,Unknown,Unknown,Unknown,Unknown,pharmacy,Unknown,Unknown,Unknown,Unknown,33.4388245,36.1647032
صيدلية المساكن,Unknown,Unknown,Unknown,Unknown,Unknown,Unknown,pharmacy,Unknown,+963115938300,Unknown,Unknown,33.5915304,36.3069814
مستشفى الروضة الجراحي,Unknown,شارع الروضة,Unknown,Unknown,Unknown,Unknown,hospital,hospital,Unknown,Unknown,Unknown,33.52031,36.2856651
مركز صحي وقاص/ وكالة الغوث UNRWA,Unknown,Unknown,Unknown,Unknown,Unknown,Unknown,hospital,Unknown,Unknown,Unknown,Unknown,32.5433994,35.6088119
Hayat Amman Pharmacy,Unknown,Unknown,Unknown,Unknown,Unknown,Unknown,pharmacy,Unknown,Unknown,Unknown,Unknown,32.048785,35.8734311
مستشفى الرويال,Unknown,Unknown,Unknown,Unknown,Unknown,Unknown,hospital,Unknown,Unknown,Unknown,Unknown,31.9887839,35.9173168
مستشفى الاستقلال,Unknown,Unknown,Unknown,Unknown,Unknown,Unknown,hospital,Unknown,Unknown,Unknown,Unknown,31.9796377,35.9162533
مركز دكتور سيريا الطبي,Unknown,البحصة,Unknown,Unknown,Unknown,Unknown,clinic,clinic,+963112330196,Unknown,Sa-Th 10:00-19:00,33.5152312,36.2971171
Unknown,Unknown,Unknown,Unknown,Unknown,Unknown,Unknown,clinic,clinic,Unknown,Unknown,Unknown,33.2198058,35.6222929
مركز العائلة الطبي,Unknown,الجمعيات,Unknown,Unknown,Unknown,Unknown,clinic,Unknown,+96311325112,Unknown,Sa-Th 09:00-00:00,33.5375028,36.214306
مركز العامري الطبي,Unknown,قدسيا القوس,Unknown,Unknown,Unknown,Unknown,clinic,Unknown,+963113217457,Unknown,Unknown,33.5467696,36.2219991
مستوصف رأفت هناوي,Unknown,Unknown,Unknown,Unknown,Unknown,Unknown,clinic,Unknown,Unknown,Unknown,Unknown,33.4314637,36.2284715
صيدلية اياد حماد,Unknown,Unknown,Unknown,Unknown,Unknown,Unknown,pharmacy,pharmacy,+963118839996,Unknown,Unknown,33.4984882,36.3006427
صيدلية تميم البني,Unknown,Unknown,Unknown,Unknown,Unknown,Unknown,pharmacy,pharmacy,Unknown,Unknown,Unknown,33.5083141,36.2923954
صيدلية محمد الملقي,Unknown,Unknown,Unknown,Unknown,Unknown,Unknown,pharmacy,pharmacy,+963 11 2245109,Unknown,Unknown,33.5008322,36.2968252
صيدلية الفا,Unknown,شارع الفارابي,Unknown,Unknown,Unknown,Unknown,pharmacy,Unknown,Unknown,Unknown,Unknown,33.4974787,36.2518834
الفؤاد للحوالات المالية,Unknown,Unknown,Unknown,Unknown,Unknown,Unknown,clinic,Unknown,Unknown,Unknown,Unknown,33.4318777,36.2439127
Pharmacy 1,Unknown,Unknown,Unknown,Unknown,Unknown,Unknown,pharmacy,pharmacy,Unknown,Unknown,Unknown,31.9622423,35.8896562
Carnation,Unknown,Unknown,Unknown,Unknown,Unknown,Unknown,pharmacy,pharmacy,Unknown,Unknown,Unknown,31.9709906,35.9031212
صدلية دواكم,Unknown,Unknown,Unknown,Unknown,Unknown,Unknown,pharmacy,Unknown,Unknown,Unknown,Unknown,32.0333002,35.8698103
مشفى التوليد 29 أيار (الشرق),Unknown,Unknown,دمشق,Unknown,Unknown,Unknown,hospital,hospital,Unknown,Unknown,Unknown,33.5190318,36.29567
صيدلية وائل,Unknown,الاسكان العسكري,Unknown,Unknown,Unknown,Unknown,pharmacy,Unknown,0113112330,Unknown,Mo-Su 08:00-05:00,33.5324067,36.2364032
صيدلية الجود,Unknown,Unknown,Unknown,Unknown,Unknown,Unknown,pharmacy,Unknown,Unknown,Unknown,Unknown,33.540776,36.2146764
مختبر بيولاب الطبي,Unknown,Unknown,Unknown,Unknown,Unknown,Unknown,doctors,laboratory,Unknown,Unknown,"Mo-Th,Sa-Su 07:30-20:00",31.960188,35.8775322
مشفى المزرعة,Unknown,Unknown,Unknown,Unknown,Unknown,Unknown,hospital,Unknown,Unknown,Unknown,Unknown,32.7135181,36.5729041
عيادة تقويم وتجميل الأسنان الدكتور حسام كفا,Unknown,Unknown,Unknown,Unknown,Unknown,Unknown,clinic,clinic,Unknown,Unknown,Unknown,33.5028899,36.2492734
Unknown,Unknown,Unknown,Unknown,Unknown,Unknown,Unknown,dentist,dentist,+972 52 395 4017,Unknown,Unknown,33.2197575,35.6221901
صيدلية إيمان دوبا,Unknown,ساحة عروس الجبل,Unknown,Unknown,Unknown,Unknown,pharmacy,Unknown,Unknown,Unknown,Unknown,33.5015314,36.2416758
مستشفى المستقبل,Unknown,Unknown,الغارية الغربية,Unknown,Unknown,Unknown,hospital,hospital,Unknown,Unknown,Unknown,32.6889909,36.2270914
Unknown,Unknown,Unknown,Unknown,Unknown,Unknown,Unknown,pharmacy,pharmacy,Unknown,Unknown,Unknown,31.9799319,35.9569378
مستشفى البشير,Unknown,Unknown,Unknown,Unknown,Unknown,Unknown,clinic,Unknown,Unknown,Unknown,Unknown,31.9381213,35.9394084
مشفى عفان,Unknown,شارع الباكستان,Unknown,Unknown,Unknown,Unknown,doctors,doctor,Unknown,Unknown,Unknown,33.5217775,36.2931892
صيدلية آلاء,Unknown,Unknown,Unknown,Unknown,Unknown,Unknown,pharmacy,pharmacy,Unknown,Unknown,Unknown,33.5488095,36.3230736
مركز صحي سال,Unknown,الرئيسي,إربد‎,Unknown,Unknown,Unknown,hospital,hospital,Unknown,Unknown,Unknown,32.5711767,35.9117581
مركز صحي عرجان,Unknown,شارع ام العيون,عجلون,Unknown,Unknown,Unknown,hospital,hospital,Unknown,Unknown,Unknown,32.3961746,35.7335205
مركز صحي حنينا,Unknown,حبيب بن زيد,اربد,Unknown,Unknown,Unknown,hospital,hospital,Unknown,Unknown,Unknown,32.5703597,35.8600172
مركز صحي حنينا,Unknown,القدس,إربد‎,Unknown,Unknown,Unknown,hospital,hospital,Unknown,Unknown,Unknown,32.5703661,35.8600117
مركز صحي عبين,Unknown,عبين عبيلن,عجلون,Unknown,Unknown,Unknown,hospital,hospital,026441069,Unknown,Unknown,32.3579359,35.8148985
مستشفى الرمثا الحكومي,Unknown,Unknown,Unknown,Unknown,Unknown,Unknown,hospital,hospital,Unknown,Unknown,Unknown,32.5662005,36.0163966
Unknown,Unknown,Unknown,Unknown,Unknown,Unknown,Unknown,pharmacy,pharmacy,Unknown,Unknown,Unknown,32.5594325,36.0149042
مركز صحي الصريح,Unknown,الرئيسي,إربد‎,Unknown,Unknown,Unknown,hospital,hospital,Unknown,Unknown,Unknown,32.5113278,35.8950554
صيدليه طموح,Unknown,الشارع الرئيسي,Unknown,Unknown,Unknown,Unknown,pharmacy,pharmacy,Unknown,Unknown,24/7,32.567806,35.9056589
مركز صحي سهل حوران الشامل,Unknown,Unknown,منطقة سهل حوران,Unknown,Unknown,Unknown,hospital,hospital,Unknown,Unknown,Unknown,32.6386223,35.96761
مركز صحي زوبيا,Unknown,الشارع الئيسي _بجانب بلدية زوبيا,اربد,Unknown,Unknown,Unknown,hospital,hospital,Unknown,Unknown,Unknown,32.4326352,35.7709676
منزل مصطفى غوانمه,Unknown,الشارع الرئيسي بقرب من مسجد زوبيا الكبير,اربد,Unknown,Unknown,Unknown,hospital,hospital,Unknown,Unknown,Unknown,32.4311086,35.7730125
بلدية زوبيا,Unknown,الشارع الرئيسي,اربد,Unknown,Unknown,Unknown,hospital,hospital,Unknown,Unknown,Unknown,32.4324431,35.7712476
مدرسة زوبيا الثانوية للبنين,Unknown,الشارع الرئيسي اول البلد,اربد,Unknown,Unknown,Unknown,hospital,hospital,Unknown,Unknown,Unknown,32.4243356,35.7855917
مدرسة زوبيا الاساسية للبنين,Unknown,اخر البلد,اربد,Unknown,Unknown,Unknown,hospital,hospital,Unknown,Unknown,Unknown,32.4350057,35.7650072
منزل محمد مصطفى غوانمه,Unknown,الشارع الرئيسي بقرب من مسجد زوبيا الكبير,اربد,Unknown,Unknown,Unknown,hospital,hospital,Unknown,Unknown,Unknown,32.4309291,35.7728155
منزل عبدالله مصطفى غوانمه,Unknown,قرب من المسجد الكبير,اربد,Unknown,Unknown,Unknown,hospital,hospital,Unknown,Unknown,Unknown,32.4307652,35.7725937
مدرسة زوبيا الثانوية للبنات,Unknown,تحت المقبرة القديمة,اربد,Unknown,Unknown,Unknown,hospital,hospital,Unknown,Unknown,Unknown,32.4341108,35.7701505
مركز صحي كفريوبا الشامل,Unknown,Unknown,Unknown,Unknown,Unknown,Unknown,hospital,hospital,Unknown,Unknown,Unknown,32.540579,35.801449
مركز صحي دير يوسف,Unknown,Unknown,ديريوسف,Unknown,Unknown,Unknown,hospital,dentist;doctor;hospital;pharmacy,Unknown,Unknown,Mo-Fr 08:00-14:00,32.4847937,35.8040965
مركز صحي الطره الجنوبي,Unknown,Unknown,Unknown,Unknown,Unknown,Unknown,hospital,hospital,Unknown,Unknown,Unknown,32.6362969,35.9885898
مركز صحي الطره الشمالي,Unknown,Unknown,Unknown,Unknown,Unknown,Unknown,hospital,hospital,Unknown,Unknown,Unknown,32.6463614,35.992828
مركز صحي راسون,Unknown,Unknown,Unknown,Unknown,Unknown,Unknown,hospital,hospital,Unknown,Unknown,Unknown,32.4011573,35.7574984
مركز كفرخا الصحي,Unknown,Unknown,Unknown,Unknown,Unknown,Unknown,hospital,hospital,Unknown,Unknown,Unknown,32.3575611,35.8827044
مركز بيت يافا الصحي,Unknown,Unknown,Unknown,Unknown,Unknown,Unknown,hospital,hospital,Unknown,Unknown,Unknown,32.519013,35.7832209
مركز حكما,Unknown,Unknown,Unknown,Unknown,Unknown,Unknown,hospital,hospital,Unknown,Unknown,Unknown,32.5914342,35.8833177
مركز صحي دير يوسف,Unknown,Unknown,Unknown,Unknown,Unknown,Unknown,hospital,hospital,Unknown,Unknown,Unknown,32.4849102,35.8042383
المركز الصحي الشرقي,Unknown,Unknown,Unknown,Unknown,Unknown,Unknown,hospital,hospital,Unknown,Unknown,Unknown,32.5422851,36.007458
المركز الصحي الغربي,Unknown,Unknown,Unknown,Unknown,Unknown,Unknown,hospital,hospital,Unknown,Unknown,Unknown,32.5597714,36.0004233
مركز صحي,Unknown,Unknown,Unknown,Unknown,Unknown,Unknown,hospital,hospital,Unknown,Unknown,Unknown,32.3709541,35.7398861
مركز صحي جديتا,Unknown,14,اربد,Unknown,Unknown,Unknown,hospital,hospital,Unknown,Unknown,Unknown,32.408904,35.7022101
Unknown,Unknown,Unknown,Unknown,Unknown,Unknown,Unknown,hospital,hospital,Unknown,Unknown,Unknown,32.5615557,35.8356706
مركز صحي عرجان,Unknown,Unknown,Unknown,Unknown,Unknown,Unknown,hospital,hospital,Unknown,Unknown,Unknown,32.3709541,35.7398861
مركز صحي,Unknown,Unknown,Kufr Yuba,Unknown,Unknown,Unknown,Unknown,doctor,Unknown,Unknown,Unknown,32.5407487,35.8014344
صيدلية كبب,Unknown,Unknown,Unknown,Unknown,Unknown,Unknown,pharmacy,pharmacy,Unknown,Unknown,Unknown,33.4995649,36.2947529
مخبر شحرور للتحاليل الطبية,Unknown,شارع خالد إبن الوليد,Unknown,35044,Unknown,Unknown,Unknown,laboratory,00963112256059,http://shahrour-lab.com,Sa-Th 08:00-19:00,33.5079372,36.2955055
مستوصف الأكرم - الهلال الأحمر العربي السوري,Unknown,Unknown,Unknown,Unknown,Unknown,Unknown,clinic,clinic,+963116110765,Unknown,Sa-Th 09:00-17:00,33.492034,36.2420314
صيدلية الروضة,Unknown,Unknown,Unknown,Unknown,Unknown,Unknown,pharmacy,Unknown,Unknown,Unknown,Unknown,33.4885933,36.3441764
صيدلية ساره,Unknown,Unknown,Unknown,Unknown,Unknown,Unknown,pharmacy,pharmacy,Unknown,Unknown,Unknown,33.4863982,36.3399808
صيدلية شادي,Unknown,Unknown,Unknown,Unknown,Unknown,Unknown,pharmacy,Unknown,Unknown,Unknown,Unknown,33.4878855,36.3397492
صيدلية نجاة,Unknown,Unknown,Unknown,Unknown,Unknown,Unknown,pharmacy,Unknown,Unknown,Unknown,Unknown,33.4893267,36.3414279
الصيدلية الأولى,Unknown,Unknown,Unknown,Unknown,Unknown,Unknown,pharmacy,Unknown,Unknown,Unknown,Unknown,33.4871271,36.339888
سمر الهامس,Unknown,Unknown,Unknown,Unknown,Unknown,Unknown,pharmacy,Unknown,Unknown,Unknown,Unknown,33.4898145,36.3429646
الصيدلية الوطنية,Unknown,Unknown,Unknown,Unknown,Unknown,Unknown,pharmacy,Unknown,Unknown,Unknown,Unknown,33.4887503,36.3404631
صيدلية هند,Unknown,Unknown,Unknown,Unknown,Unknown,Unknown,pharmacy,Unknown,Unknown,Unknown,Unknown,33.4894354,36.33879
صيدلية أنس المسبر,Unknown,Unknown,Unknown,Unknown,Unknown,Unknown,pharmacy,Unknown,Unknown,Unknown,Unknown,33.4900994,36.337081
ماري الكعدة,Unknown,Unknown,Unknown,Unknown,Unknown,Unknown,pharmacy,Unknown,Unknown,Unknown,Unknown,33.4904764,36.3354825
صيدلية القوس,Unknown,Unknown,Unknown,Unknown,Unknown,Unknown,pharmacy,Unknown,Unknown,Unknown,Unknown,33.4918529,36.3332711
صيدلية سنان,Unknown,Unknown,Unknown,Unknown,Unknown,Unknown,pharmacy,Unknown,Unknown,Unknown,Unknown,33.4881002,36.3436404
صيدلية بيت الصحة,Unknown,Unknown,Unknown,Unknown,Unknown,Unknown,pharmacy,Unknown,Unknown,Unknown,Unknown,33.4905616,36.3374749
مدلين نداف,Unknown,Unknown,Unknown,Unknown,Unknown,Unknown,pharmacy,Unknown,Unknown,Unknown,Unknown,33.4911245,36.3374106
صيدلية جنا,Unknown,Unknown,Unknown,Unknown,Unknown,Unknown,pharmacy,Unknown,Unknown,Unknown,Unknown,33.4918954,36.3374279
صيدلية ريتا,Unknown,Unknown,Unknown,Unknown,Unknown,Unknown,pharmacy,Unknown,Unknown,Unknown,Unknown,33.4927484,36.336504
صيدلية نسيم,Unknown,Unknown,Unknown,Unknown,Unknown,Unknown,pharmacy,Unknown,Unknown,Unknown,Unknown,33.4916461,36.3454349
صيدلية همسة,Unknown,Unknown,Unknown,Unknown,Unknown,Unknown,pharmacy,Unknown,Unknown,Unknown,Unknown,33.4917842,36.3419289
صيدلية شادي عبود,Unknown,Unknown,Unknown,Unknown,Unknown,Unknown,pharmacy,Unknown,Unknown,Unknown,Unknown,33.4898397,36.3441202
صيدلية الباسل,Unknown,Unknown,Unknown,Unknown,Unknown,Unknown,pharmacy,Unknown,Unknown,Unknown,Unknown,33.4886411,36.3396959
رولا شماس,Unknown,Unknown,Unknown,Unknown,Unknown,Unknown,pharmacy,Unknown,Unknown,Unknown,Unknown,33.4900137,36.3453384
صيدلية صفاء,Unknown,Unknown,Unknown,Unknown,Unknown,Unknown,pharmacy,Unknown,Unknown,Unknown,Unknown,33.4889978,36.3453896
صيدلية ريما داوود,Unknown,Unknown,Unknown,Unknown,Unknown,Unknown,pharmacy,Unknown,Unknown,Unknown,Unknown,33.4902248,36.3393214
رياض عبد اللطيف,Unknown,Unknown,Unknown,Unknown,Unknown,Unknown,pharmacy,Unknown,Unknown,Unknown,Unknown,33.4961341,36.3339424
لينا دحدل,Unknown,الطبالة -  Tabalah,Unknown,Unknown,Unknown,Unknown,pharmacy,Unknown,Unknown,Unknown,Unknown,33.5008194,36.3231607
غسان,Unknown,Unknown,Unknown,Unknown,Unknown,Unknown,pharmacy,Unknown,Unknown,Unknown,Unknown,33.5011761,36.325527
لمياء طالو,Unknown,Unknown,Unknown,Unknown,Unknown,Unknown,pharmacy,pharmacy,Unknown,Unknown,Unknown,33.4997004,36.3278799
البلسم,Unknown,Unknown,Unknown,Unknown,Unknown,Unknown,pharmacy,Unknown,Unknown,Unknown,Unknown,33.4990209,36.3287115
عساف ابو عيسى,Unknown,Unknown,Unknown,Unknown,Unknown,Unknown,pharmacy,Unknown,Unknown,Unknown,Unknown,33.4983861,36.3297279
أمل قسيس,Unknown,Unknown,Unknown,Unknown,Unknown,Unknown,pharmacy,Unknown,Unknown,Unknown,Unknown,33.4954229,36.3302308
ثائر قسطون,Unknown,Unknown,Unknown,Unknown,Unknown,Unknown,pharmacy,Unknown,Unknown,Unknown,Unknown,33.4945644,36.3322276
رولا,Unknown,Unknown,Unknown,Unknown,Unknown,Unknown,pharmacy,Unknown,Unknown,Unknown,Unknown,33.4929509,36.3319292
فهد شنيص,Unknown,Unknown,Unknown,Unknown,Unknown,Unknown,pharmacy,Unknown,Unknown,Unknown,Unknown,33.4920776,36.3325385
صيدلية دينيز داوود,Unknown,Unknown,Unknown,Unknown,Unknown,Unknown,pharmacy,Unknown,Unknown,Unknown,Unknown,33.4883031,36.344619
صيدلية راني الرشيد,Unknown,Unknown,Unknown,Unknown,Unknown,Unknown,pharmacy,Unknown,Unknown,Unknown,Unknown,33.4929249,36.3335256
مجد طعمة الجوابرة,Unknown,Unknown,Unknown,Unknown,Unknown,Unknown,pharmacy,Unknown,Unknown,Unknown,Unknown,33.4909379,36.3454394
صيدلية طارق,Unknown,Unknown,Unknown,Unknown,Unknown,Unknown,pharmacy,Unknown,Unknown,Unknown,Unknown,33.4917691,36.3440166
المعونة,Unknown,Unknown,Unknown,Unknown,Unknown,Unknown,pharmacy,Unknown,Unknown,Unknown,Unknown,33.4916263,36.3422959
صيدلية منال الحلاق,Unknown,Unknown,Unknown,Unknown,Unknown,Unknown,pharmacy,Unknown,Unknown,Unknown,Unknown,33.4916816,36.3412254
صيدلية مريم عساف,Unknown,Unknown,Unknown,Unknown,Unknown,Unknown,pharmacy,Unknown,Unknown,Unknown,Unknown,33.4916933,36.3400198
صيدلية العهد,Unknown,Unknown,Unknown,Unknown,Unknown,Unknown,pharmacy,Unknown,Unknown,Unknown,Unknown,33.491226,36.3394264
أسمهان الحلواني,Unknown,Unknown,Unknown,Unknown,Unknown,Unknown,pharmacy,Unknown,Unknown,Unknown,Unknown,33.4891083,36.3390707
صيدلية كشكول المركزية,Unknown,Unknown,Unknown,Unknown,Unknown,Unknown,pharmacy,Unknown,Unknown,Unknown,Unknown,33.4980275,36.331304
سامي الجريس,Unknown,Unknown,Unknown,Unknown,Unknown,Unknown,pharmacy,Unknown,Unknown,Unknown,Unknown,33.4934225,36.3323656
هبة عامر ادريس,Unknown,Unknown,Unknown,Unknown,Unknown,Unknown,pharmacy,Unknown,Unknown,Unknown,Unknown,33.4880964,36.3427057
باسمة دحدل,Unknown,Unknown,Unknown,Unknown,Unknown,Unknown,pharmacy,Unknown,Unknown,Unknown,Unknown,33.4953677,36.333846
النعمة,Unknown,Unknown,Unknown,Unknown,Unknown,Unknown,pharmacy,Unknown,Unknown,Unknown,Unknown,33.5001227,36.3240235
الرعاية الصحية,Unknown,Unknown,Unknown,Unknown,Unknown,Unknown,pharmacy,Unknown,Unknown,Unknown,Unknown,33.4977407,36.3308841
صيدلية شاهين,Unknown,Unknown,Unknown,Unknown,Unknown,Unknown,pharmacy,Unknown,Unknown,Unknown,Unknown,33.4874769,36.3421844
المجد,Unknown,Unknown,Unknown,Unknown,Unknown,Unknown,pharmacy,Unknown,Unknown,Unknown,Unknown,33.5023902,36.3239849
صيدلية عساف,Unknown,Unknown,Unknown,Unknown,Unknown,Unknown,pharmacy,Unknown,Unknown,Unknown,Unknown,33.4879661,36.3413264
صيدلية ميساء,Unknown,Unknown,Unknown,Unknown,Unknown,Unknown,pharmacy,Unknown,Unknown,Unknown,Unknown,33.494114,36.3335883
جلال الخليل,Unknown,Unknown,Unknown,Unknown,Unknown,Unknown,pharmacy,Unknown,Unknown,Unknown,Unknown,33.5016046,36.3245303
السلام,Unknown,Unknown,Unknown,Unknown,Unknown,Unknown,pharmacy,pharmacy,Unknown,Unknown,Unknown,33.5020542,36.3207426
صفاء هيلانة,Unknown,Unknown,Unknown,Unknown,Unknown,Unknown,pharmacy,Unknown,Unknown,Unknown,Unknown,33.5032821,36.3202882
الحسن,Unknown,Unknown,Unknown,Unknown,Unknown,Unknown,pharmacy,Unknown,Unknown,Unknown,Unknown,33.5001432,36.327004
صيدلية العلاء,Unknown,Unknown,Unknown,Unknown,Unknown,Unknown,pharmacy,Unknown,Unknown,Unknown,Unknown,33.4868303,36.3435461
صيدلية الحكمة,Unknown,Unknown,Unknown,Unknown,Unknown,Unknown,pharmacy,Unknown,Unknown,Unknown,Unknown,33.4853333,36.3500437
صيدلية الأمل,Unknown,Unknown,Unknown,Unknown,Unknown,Unknown,pharmacy,Unknown,Unknown,Unknown,Unknown,33.4871396,36.3443252
صيدلية غنوة,Unknown,Unknown,Unknown,Unknown,Unknown,Unknown,pharmacy,Unknown,Unknown,Unknown,Unknown,33.4823558,36.3488071
الصيدلية المركزية,Unknown,Unknown,Unknown,Unknown,Unknown,Unknown,pharmacy,Unknown,Unknown,Unknown,Unknown,33.4862173,36.3446234
الصيدلية النموذجية,Unknown,Unknown,Unknown,Unknown,Unknown,Unknown,pharmacy,Unknown,Unknown,Unknown,Unknown,33.4882429,36.3467781
الصيدلية الحديثة,Unknown,Unknown,Unknown,Unknown,Unknown,Unknown,pharmacy,Unknown,Unknown,Unknown,Unknown,33.4827948,36.346247
صيدلية جرمانا,Unknown,Unknown,Unknown,Unknown,Unknown,Unknown,pharmacy,Unknown,Unknown,Unknown,Unknown,33.4856832,36.3479088
لينا,Unknown,Unknown,Unknown,Unknown,Unknown,Unknown,pharmacy,Unknown,Unknown,Unknown,Unknown,33.4861788,36.3460866
دار الدواء,Unknown,Unknown,Unknown,Unknown,Unknown,Unknown,pharmacy,Unknown,Unknown,Unknown,Unknown,33.4863925,36.3453608
صيدلية ربى أبو ذياب,Unknown,Unknown,Unknown,Unknown,Unknown,Unknown,pharmacy,Unknown,Unknown,Unknown,Unknown,33.4888453,36.3428291
صيدلية ماهر,Unknown,Unknown,Unknown,Unknown,Unknown,Unknown,pharmacy,Unknown,Unknown,Unknown,Unknown,33.4881995,36.3476433
انطوانيت حلاق,Unknown,Unknown,Unknown,Unknown,Unknown,Unknown,pharmacy,Unknown,Unknown,Unknown,Unknown,33.4882069,36.3488942
رلى نقولا,Unknown,Unknown,Unknown,Unknown,Unknown,Unknown,pharmacy,Unknown,Unknown,Unknown,Unknown,33.4867068,36.3541649
صيدلية رنى,Unknown,Unknown,Unknown,Unknown,Unknown,Unknown,pharmacy,Unknown,Unknown,Unknown,Unknown,33.484041,36.3491964
الصحة,Unknown,Unknown,Unknown,Unknown,Unknown,Unknown,pharmacy,Unknown,Unknown,Unknown,Unknown,33.4884413,36.3536455
هبة اسعد,Unknown,Unknown,Unknown,Unknown,Unknown,Unknown,pharmacy,Unknown,Unknown,Unknown,Unknown,33.4878505,36.3538708
صيدلية اليانا,Unknown,Unknown,Unknown,Unknown,Unknown,Unknown,pharmacy,Unknown,Unknown,Unknown,Unknown,33.4839109,36.3551894
صيدلية الشام,Unknown,Unknown,Unknown,Unknown,Unknown,Unknown,pharmacy,Unknown,Unknown,Unknown,Unknown,33.482994,36.354571
براءة السهوي,Unknown,Unknown,Unknown,Unknown,Unknown,Unknown,pharmacy,Unknown,Unknown,Unknown,Unknown,33.482791,36.3519494
كورية دوقو,Unknown,Unknown,Unknown,Unknown,Unknown,Unknown,pharmacy,Unknown,Unknown,Unknown,Unknown,33.4835754,36.3498649
صيدلية الآس,Unknown,Unknown,Unknown,Unknown,Unknown,Unknown,pharmacy,Unknown,Unknown,Unknown,Unknown,33.4839048,36.3509152
صيدلية الحمصي,Unknown,Unknown,Unknown,Unknown,Unknown,Unknown,pharmacy,Unknown,Unknown,Unknown,Unknown,33.4827127,36.3510141
رويدا,Unknown,Unknown,Unknown,Unknown,Unknown,Unknown,pharmacy,Unknown,Unknown,Unknown,Unknown,33.4812774,36.3524993
صيدلية,Unknown,Unknown,Unknown,Unknown,Unknown,Unknown,pharmacy,Unknown,Unknown,Unknown,Unknown,33.4807749,36.3514067
صيدلية الصفدي,Unknown,Unknown,Unknown,Unknown,Unknown,Unknown,pharmacy,Unknown,Unknown,Unknown,Unknown,33.4796992,36.3508076
صيدلية رؤى,Unknown,Unknown,Unknown,Unknown,Unknown,Unknown,pharmacy,Unknown,Unknown,Unknown,Unknown,33.4801563,36.3500024
صيدلية ميسون,Unknown,Unknown,Unknown,Unknown,Unknown,Unknown,pharmacy,Unknown,Unknown,Unknown,Unknown,33.4809918,36.3478609
صيدلية نكد,Unknown,Unknown,Unknown,Unknown,Unknown,Unknown,pharmacy,Unknown,Unknown,Unknown,Unknown,33.4819568,36.3457034
وداد القطان,Unknown,Unknown,Unknown,Unknown,Unknown,Unknown,pharmacy,Unknown,Unknown,Unknown,Unknown,33.482658,36.3477284
جباصيني,Unknown,Unknown,Unknown,Unknown,Unknown,Unknown,pharmacy,Unknown,Unknown,Unknown,Unknown,33.4858039,36.3481181
صيدلية جان,Unknown,Unknown,Unknown,Unknown,Unknown,Unknown,pharmacy,Unknown,Unknown,Unknown,Unknown,33.4860462,36.3474371
ثناء راحيل,Unknown,Unknown,Unknown,Unknown,Unknown,Unknown,pharmacy,Unknown,Unknown,Unknown,Unknown,33.4858967,36.3470862
صيدلية وصال,Unknown,Unknown,Unknown,Unknown,Unknown,Unknown,pharmacy,Unknown,Unknown,Unknown,Unknown,33.4887906,36.3419046
صيدلية الوحدة,Unknown,Unknown,Unknown,Unknown,Unknown,Unknown,pharmacy,Unknown,Unknown,Unknown,Unknown,33.4905909,36.3423414
انطوانيت فضول,Unknown,Unknown,Unknown,Unknown,Unknown,Unknown,pharmacy,Unknown,Unknown,Unknown,Unknown,33.4855001,36.3544598
صيدلية كورنيش الجناين,Unknown,Unknown,Unknown,Unknown,Unknown,Unknown,pharmacy,Unknown,Unknown,Unknown,Unknown,33.4848265,36.3548355
صيدلية ناديا,Unknown,Unknown,Unknown,Unknown,Unknown,Unknown,pharmacy,pharmacy,Unknown,Unknown,Unknown,33.4855417,36.3491047
الصيدلية الشاملة,Unknown,Unknown,Unknown,Unknown,Unknown,Unknown,pharmacy,Unknown,Unknown,Unknown,Unknown,33.4909923,36.3441011
صيدلية مي ميرو,Unknown,Unknown,Unknown,Unknown,Unknown,Unknown,pharmacy,Unknown,Unknown,Unknown,Unknown,33.4863178,36.3427832
مشفى البراعم,Unknown,Unknown,Unknown,Unknown,Unknown,Unknown,hospital,hospital,Unknown,Unknown,Unknown,33.484888,36.3424365
صيدلية النعسان,Unknown,Unknown,Unknown,Unknown,Unknown,Unknown,pharmacy,pharmacy,Unknown,Unknown,Unknown,33.4854145,36.3398222
مشفى جرمانا الجراحي,Unknown,Unknown,Unknown,Unknown,Unknown,Unknown,hospital,hospital,Unknown,Unknown,Unknown,33.4856907,36.3410963
صيدلية بيت الصحة,Unknown,Unknown,Unknown,Unknown,Unknown,Unknown,pharmacy,pharmacy,Unknown,Unknown,Unknown,33.4854045,36.3408138
صيدلية المغيث,Unknown,‫شارع البلدية‬‎,دمشق,Unknown,Unknown,Unknown,pharmacy,pharmacy,+963115625870,Unknown,Mo-Su 09:00-21:00,33.4855512,36.3416105
صيدلية فرح,Unknown,Unknown,Unknown,Unknown,Unknown,Unknown,pharmacy,pharmacy,Unknown,Unknown,closed,33.5250697,36.3228271
مستشفى اليمان,Unknown,شارع الجلاء,دوما,Unknown,Unknown,Unknown,hospital,hospital,Unknown,Unknown,24/7,33.5709197,36.4059863
מרפאת כפר סאלד,Unknown,Unknown,כפר סאלד,Unknown,Unknown,Unknown,clinic,Unknown,Unknown,Unknown,Unknown,33.1959209,35.6576659
صيدلية الشفاء,Unknown,Unknown,Unknown,Unknown,Unknown,Unknown,pharmacy,Unknown,Unknown,Unknown,Unknown,33.4930903,36.3456179
life line,Unknown,Unknown,Unknown,Unknown,Unknown,Unknown,pharmacy,pharmacy,Unknown,Unknown,Unknown,31.9607198,35.9049765
Unknown,Unknown,Unknown,Unknown,Unknown,Unknown,Unknown,hospital,Unknown,Unknown,Unknown,Unknown,32.3440109,35.8192271
فارماكو,Unknown,Unknown,Unknown,Unknown,Unknown,Unknown,pharmacy,pharmacy,Unknown,Unknown,Unknown,33.5056115,36.2580613
مستشفى الملكة علياء العسكري,Unknown,Unknown,Unknown,Unknown,Unknown,Unknown,hospital,Unknown,Unknown,Unknown,Unknown,31.9999211,35.9187016
صيدلية علاء,Unknown,Unknown,Unknown,Unknown,Unknown,Unknown,pharmacy,Unknown,Unknown,Unknown,Unknown,32.7153859,36.5700689
العيادة العينية التخصصية,Unknown,دوار الشهيد سعد زمام,Unknown,Unknown,Unknown,Unknown,clinic,clinic,+963115358958,Unknown,Sa-Th 17:00-20:00,33.5831652,36.3675064
Unknown,Unknown,Unknown,Unknown,Unknown,Unknown,Unknown,pharmacy,pharmacy,Unknown,Unknown,Unknown,31.9832698,35.8982134
Unknown,Unknown,Unknown,Unknown,Unknown,Unknown,Unknown,hospital,Unknown,Unknown,Unknown,Unknown,31.1473041,35.7253643
שירותי בריאות כללית,Unknown,Unknown,Unknown,Unknown,Unknown,Unknown,clinic,clinic,Unknown,Unknown,Unknown,33.2294598,35.6393216
Unknown,Unknown,Unknown,Unknown,Unknown,Unknown,Unknown,pharmacy,pharmacy,Unknown,Unknown,Unknown,31.9719639,35.9059379
קופת חולים כללית,Unknown,Unknown,מעיין ברוך,Unknown,Unknown,Unknown,clinic,clinic,Unknown,Unknown,Unknown,33.240566,35.608356
Unknown,Unknown,Unknown,Unknown,Unknown,Unknown,Unknown,dentist,dentist,Unknown,Unknown,Unknown,33.2405323,35.6082641
د وليد متري,Unknown,Unknown,Unknown,Unknown,Unknown,Unknown,dentist,dentist,+963933300808,Unknown,Unknown,33.5219938,36.3186586
عيادة الدكتور سعيد الأشقر العينية,Unknown,شرق ساحة الطرشان،أمام البسة الغدير ط2,Unknown,Unknown,Unknown,Unknown,clinic,Unknown,0933649339,https://www.facebook.com/eye.clinic.dr.said/,"Sa-Th 10:00-14:00, 18:00-20:00",32.7071659,36.5681495
رباب,Unknown,Unknown,Unknown,Unknown,Unknown,Unknown,pharmacy,Unknown,Unknown,Unknown,Unknown,32.7074012,36.5712822
الشعار,Unknown,Unknown,Unknown,Unknown,Unknown,Unknown,pharmacy,Unknown,Unknown,Unknown,Unknown,32.705944,36.5707119
صيدلية رشا,Unknown,Unknown,Unknown,Unknown,Unknown,Unknown,pharmacy,Unknown,Unknown,Unknown,Unknown,32.7119767,36.5776201
صيدلية ضحى,Unknown,Unknown,Unknown,Unknown,Unknown,Unknown,pharmacy,Unknown,Unknown,Unknown,Unknown,32.7074391,36.5655636
صيداية  الكرمة,Unknown,Unknown,Unknown,Unknown,Unknown,Unknown,pharmacy,Unknown,Unknown,Unknown,Unknown,32.7080832,36.5652653
صيدلية عمر,Unknown,Unknown,Unknown,Unknown,Unknown,Unknown,pharmacy,Unknown,Unknown,Unknown,Unknown,32.7038279,36.565127
صيدلية رويال,Unknown,Unknown,Unknown,Unknown,Unknown,Unknown,pharmacy,Unknown,Unknown,Unknown,Unknown,32.7065097,36.5652379
صيدلية سماح كتيل,Unknown,Unknown,Unknown,Unknown,Unknown,Unknown,pharmacy,Unknown,Unknown,Unknown,Unknown,33.5007203,36.2443273
العيادة,Unknown,Unknown,Unknown,Unknown,Unknown,Unknown,hospital,hospital,Unknown,Unknown,Unknown,31.9935702,36.0172224
العيادة الجراحية والتجميلية,Unknown,شارع الفضيل بن عياض,Unknown,Unknown,Unknown,Unknown,clinic,clinic,0933335971,Unknown,Unknown,33.5218187,36.2941005
صيدلية اليمان,Unknown,جادة القادسية,Unknown,Unknown,Unknown,Unknown,pharmacy,Unknown,Unknown,Unknown,Unknown,33.5706691,36.4058952
الداوودي,Unknown,شارع الباكستان,Unknown,Unknown,Unknown,Unknown,pharmacy,pharmacy,0114455058,Unknown,Sa-Th 10:00-21:30,33.5206036,36.2921881
د رلى السوس,Unknown,Unknown,Unknown,Unknown,Unknown,Unknown,doctors,doctor,Unknown,Unknown,Unknown,31.9517941,35.9046039
عمارة,Unknown,أبو فراس الحمداني,Unknown,Unknown,Unknown,Unknown,doctors,doctor,Unknown,Unknown,Unknown,31.9518075,35.9046081
دكتور بشر دعبول,Unknown,Unknown,Unknown,Unknown,Unknown,Unknown,doctors,doctor,+963113332360,Unknown,Unknown,33.5222395,36.2873915
عيادة الدكتور بشار سليمان الحلبي,Unknown,Unknown,Unknown,Unknown,Unknown,Unknown,doctors,doctor,Unknown,Unknown,Unknown,33.4864585,36.3433205
صيدلية اليمامة,Unknown,Unknown,Unknown,Unknown,Unknown,Unknown,pharmacy,Unknown,Unknown,Unknown,Unknown,33.4349225,36.0805556
صيدلية عبير درويش,Unknown,Unknown,Unknown,Unknown,Unknown,Unknown,pharmacy,Unknown,Unknown,Unknown,Unknown,33.4408689,36.0654319
حنان سيور,Unknown,Unknown,Unknown,Unknown,Unknown,Unknown,pharmacy,Unknown,Unknown,Unknown,Unknown,33.4814066,36.3565119
نتالي,Unknown,Unknown,Unknown,Unknown,Unknown,Unknown,pharmacy,Unknown,Unknown,Unknown,Unknown,33.4816154,36.358249
باسم,Unknown,Unknown,Unknown,Unknown,Unknown,Unknown,pharmacy,Unknown,Unknown,Unknown,Unknown,33.482804,36.3571167
اياد ابو سعادة,Unknown,Unknown,Unknown,Unknown,Unknown,Unknown,pharmacy,Unknown,Unknown,Unknown,Unknown,33.4858443,36.3534511
الحلياني,Unknown,Unknown,Unknown,Unknown,Unknown,Unknown,pharmacy,Unknown,Unknown,Unknown,Unknown,33.4835879,36.3520855
عيادة الدكتور اسد الابراهيم,Unknown,Unknown,Unknown,Unknown,Unknown,Unknown,clinic,Unknown,Unknown,Unknown,Unknown,33.505983,36.253071
Unknown,Unknown,Unknown,Unknown,Unknown,Unknown,Unknown,clinic,Unknown,Unknown,Unknown,Unknown,31.3561099,37.2982272
Unknown,Unknown,Unknown,Unknown,Unknown,Unknown,Unknown,clinic,Unknown,Unknown,Unknown,Unknown,31.3561221,37.2979552
Al-Weqaya Pharmacy,Unknown,Al Sakhrah Al Musharrafah Street,Unknown,Unknown,Unknown,Unknown,pharmacy,Unknown,Unknown,Unknown,Unknown,31.9072965,35.9321042
مستشفى الحنان,Unknown,Al Sakhrah Al Musharrafah Street,Unknown,Unknown,Unknown,Unknown,hospital,Unknown,Unknown,Unknown,Unknown,31.9091465,35.9289765
Unknown,Unknown,Luqman Street,Unknown,Unknown,Unknown,Unknown,pharmacy,Unknown,Unknown,Unknown,Unknown,31.9032462,35.9044254
Freesia Pharmacy,Unknown,Rifa'Ah Al Ansari Street,Unknown,Unknown,Unknown,Unknown,pharmacy,Unknown,Unknown,Unknown,Unknown,32.0174339,35.8487199
Barakeh Medical Clinics,Unknown,Khair Al Din Al Ma'ani Street,Unknown,Unknown,Unknown,Unknown,clinic,Unknown,Unknown,Unknown,Unknown,32.0155489,35.8335748
Hiam Pharmacy,Unknown,Awni Bilal Street,Unknown,Unknown,Unknown,Unknown,pharmacy,Unknown,Unknown,Unknown,Unknown,32.0202951,35.8483715
Unknown,Unknown,Al-Shoura Street,Unknown,Unknown,Unknown,Unknown,pharmacy,Unknown,Unknown,Unknown,Unknown,31.9276403,35.9012
Unknown,Unknown,Unknown,Unknown,Unknown,Unknown,Unknown,pharmacy,Unknown,Unknown,Unknown,Unknown,31.9224915,35.896362
Unknown,Unknown,Amer Bin Maalek Street,Unknown,Unknown,Unknown,Unknown,clinic,Unknown,Unknown,Unknown,Unknown,31.9813326,35.8473802
Unknown,Unknown,Princess Zein Bint Al-Hussein Street,Unknown,Unknown,Unknown,Unknown,pharmacy,Unknown,Unknown,Unknown,Unknown,31.9805949,35.8474237
Unknown,Unknown,Princess Zein Bint Al-Hussein Street,Unknown,Unknown,Unknown,Unknown,pharmacy,Unknown,Unknown,Unknown,Unknown,31.9797827,35.8486354
Unknown,Unknown,Princess Zein Bint Al-Hussein Street,Unknown,Unknown,Unknown,Unknown,pharmacy,Unknown,Unknown,Unknown,Unknown,31.9791917,35.8512171
Leen Pharma,Unknown,شارع مكة,Unknown,Unknown,Unknown,Unknown,pharmacy,Unknown,Unknown,Unknown,Unknown,31.9762635,35.8591443
Unknown,Unknown,Sa'eed Moh'd Al-Abbadi Street,Unknown,Unknown,Unknown,Unknown,pharmacy,Unknown,Unknown,Unknown,Unknown,31.8887188,35.8580669
Unknown,Unknown,Unknown,Unknown,Unknown,Unknown,Unknown,pharmacy,Unknown,Unknown,Unknown,Unknown,31.8960078,35.864661
Unknown,Unknown,Princess Taghreed Moh'd Street,Unknown,Unknown,Unknown,Unknown,pharmacy,Unknown,Unknown,Unknown,Unknown,31.8876529,35.8560625
Unknown,Unknown,Princess Zeinab Bent Al-Hussein Street,Unknown,Unknown,Unknown,Unknown,pharmacy,Unknown,Unknown,Unknown,Unknown,31.981113,35.8583477
Unknown,Unknown,Sa'eed Moh'd Al-Abbadi Street,Unknown,Unknown,Unknown,Unknown,pharmacy,Unknown,Unknown,Unknown,Unknown,31.8900572,35.8591045
Unknown,Unknown,Princess Saleha Bint Assem Street,Unknown,Unknown,Unknown,Unknown,pharmacy,Unknown,Unknown,Unknown,Unknown,31.8877759,35.8593395
Unknown,Unknown,Al-Hatemiyah Street,Unknown,Unknown,Unknown,Unknown,pharmacy,Unknown,Unknown,Unknown,Unknown,31.9856688,35.8630617
Mawal,Unknown,Prince Assem Bin Nayef Street,Unknown,Unknown,Unknown,Unknown,pharmacy,Unknown,Unknown,Unknown,Unknown,31.9013335,35.844668
Hashem Pharmacy,Unknown,Prince Nayef Bin Asem Street,Unknown,Unknown,Unknown,Unknown,pharmacy,Unknown,Unknown,Unknown,Unknown,31.9029434,35.8493657
صيدلية تلة المرج,Unknown,Mifleh Al-Mete'b Al-Elayyan Street,Unknown,Unknown,Unknown,Unknown,pharmacy,Unknown,Unknown,Unknown,Unknown,31.9040866,35.8432887
Care Well,Unknown,Al-Anbabi Street,Unknown,Unknown,Unknown,Unknown,pharmacy,Unknown,Unknown,Unknown,Unknown,31.9055735,35.8412223
Melia Pharmacy,Unknown,Princess Rahmah Bint Al-Hassan Street,Unknown,Unknown,Unknown,Unknown,pharmacy,Unknown,Unknown,Unknown,Unknown,31.9888657,35.8549447
Unknown,Unknown,Mousa Al-Nahar Street,Unknown,Unknown,Unknown,Unknown,pharmacy,Unknown,Unknown,Unknown,Unknown,31.8917347,35.8446841
Drug Center,Unknown,Unknown,Unknown,Unknown,Unknown,Unknown,pharmacy,pharmacy,Unknown,Unknown,Unknown,31.9943942,35.8592805
Pharmore,Unknown,Unknown,Unknown,Unknown,Unknown,Unknown,pharmacy,pharmacy,Unknown,Unknown,Unknown,31.993478,35.862361
Rawhi Pharmacy,Unknown,شارع وصفي التل,Unknown,Unknown,Unknown,Unknown,pharmacy,Unknown,Unknown,Unknown,Unknown,31.9962367,35.8375539
Medicine One,Unknown,شارع وصفي التل,Unknown,Unknown,Unknown,Unknown,pharmacy,Unknown,Unknown,Unknown,Unknown,31.9964056,35.8397627
Al Sawamer Pharmacy,Unknown,Azmi Al-Mufti Street,Unknown,Unknown,Unknown,Unknown,pharmacy,Unknown,Unknown,Unknown,Unknown,31.9920272,35.8412154
Unknown,Unknown,Um Abhara Street,Unknown,Unknown,Unknown,Unknown,pharmacy,Unknown,Unknown,Unknown,Unknown,31.9052899,35.8368324
Almoriat Pharmacy,Unknown,Unknown,Unknown,Unknown,Unknown,Unknown,pharmacy,Unknown,Unknown,Unknown,Unknown,32.0642827,35.8379901
Jounia of Jordan Pharmacy,Unknown,شارع عمر بن عبد العزيز,Unknown,Unknown,Unknown,Unknown,pharmacy,Unknown,Unknown,Unknown,Unknown,31.9788072,35.8708027
We Care Clinic,Unknown,Faysal Farhan Al Jarba Street,Unknown,Unknown,Unknown,Unknown,clinic,Unknown,Unknown,Unknown,Unknown,31.9821388,35.8759063
Pharmacy One,Unknown,Al-Madina Al-Munawwara Street,Unknown,Unknown,Unknown,Unknown,pharmacy,Unknown,Unknown,Unknown,Unknown,31.9825743,35.8653164
Medicine One Pharmacy,Unknown,Khnaifes Al-Dweikat Street,Unknown,Unknown,Unknown,Unknown,pharmacy,Unknown,Unknown,Unknown,Unknown,31.9911014,35.8178638
صيدليه بنيان الصحه,Unknown,شارع واقد بن عبد الله,Unknown,Unknown,Unknown,Unknown,pharmacy,Unknown,Unknown,Unknown,"PH,Mo-Su 07:00-13:00",31.9957187,35.9162989
Unknown,Unknown,Al-Jhair Street,Unknown,Unknown,Unknown,Unknown,pharmacy,pharmacy,Unknown,Unknown,Unknown,31.9970841,35.8742358
Pharmore,Unknown,شارع الشهيد وصفي التل,Unknown,Unknown,Unknown,Unknown,pharmacy,pharmacy,Unknown,Unknown,Unknown,31.985281,35.8815418
Unknown,Unknown,Unknown,Unknown,Unknown,Unknown,Unknown,pharmacy,Unknown,Unknown,Unknown,Unknown,31.9945051,35.896311
Pharma Beaute' Pharmacy,Unknown,Queen Alia,Unknown,Unknown,Unknown,Unknown,pharmacy,pharmacy,Unknown,Unknown,Unknown,31.9765479,35.904703
Unknown,Unknown,Mustafa Majed Al Adwn Street,Unknown,Unknown,Unknown,Unknown,pharmacy,pharmacy,Unknown,Unknown,Unknown,31.9926318,35.8722389
Unknown,Unknown,Nablus Street,Unknown,Unknown,Unknown,Unknown,pharmacy,Unknown,Unknown,Unknown,Unknown,31.9753523,35.9140103
Unknown,Unknown,Moh'd Mifleh Al-Qdhah Street,Unknown,Unknown,Unknown,Unknown,pharmacy,Unknown,Unknown,Unknown,Unknown,31.9880132,35.884516
Unknown,Unknown,شارع الربيع الحارثي,Unknown,Unknown,Unknown,Unknown,pharmacy,pharmacy,Unknown,Unknown,Unknown,32.0027695,35.8833721
Unknown,Unknown,شارع الوفاق,Unknown,Unknown,Unknown,Unknown,dentist,dentist,Unknown,Unknown,Unknown,32.0053386,35.8801138
Curve Pharmacy,Unknown,شارع خيرو ديرانية,Unknown,Unknown,Unknown,Unknown,pharmacy,pharmacy,Unknown,Unknown,Unknown,32.0050065,35.8851121
Yara Pharmacy,Unknown,شارع الوفاق,Unknown,Unknown,Unknown,Unknown,pharmacy,Unknown,Unknown,Unknown,Unknown,31.9984523,35.8870849
Unknown,Unknown,شارع الشريف ناصر بن جميل,Unknown,Unknown,Unknown,Unknown,pharmacy,pharmacy,Unknown,Unknown,Unknown,31.9796638,35.8903867
Istishari Hospital,Unknown,شارع الكندي,Unknown,Unknown,Unknown,Unknown,hospital,hospital,Unknown,Unknown,Unknown,31.9660779,35.8867349
N Kawar,Unknown,Gourge Mabda Khoury Street,Unknown,Unknown,Unknown,Unknown,pharmacy,Unknown,Unknown,Unknown,Unknown,31.9044013,35.8535781
Unknown,Unknown,شارع سيبوبه,Unknown,Unknown,Unknown,Unknown,pharmacy,Unknown,Unknown,Unknown,Unknown,31.9787135,35.9271174
Unknown,Unknown,شارع الملك عبدالله الأول,Unknown,Unknown,Unknown,Unknown,pharmacy,Unknown,Unknown,Unknown,Unknown,31.9786144,35.9826165
Unknown,Unknown,شارع سعيد بن المسيب,Unknown,Unknown,Unknown,Unknown,pharmacy,Unknown,Unknown,Unknown,Unknown,31.9720523,35.9281191
Unknown,Unknown,شارع سعيد بن المسيب,Unknown,Unknown,Unknown,Unknown,pharmacy,Unknown,Unknown,Unknown,Unknown,31.9770883,35.9244642
Unknown,Unknown,Kuwayber Al-Utaybi Street,Unknown,Unknown,Unknown,Unknown,pharmacy,Unknown,Unknown,Unknown,Unknown,31.9075919,35.8708777
Pharma,Unknown,شارع طارق,Unknown,Unknown,Unknown,Unknown,pharmacy,Unknown,Unknown,Unknown,Unknown,32.0001771,35.9440771
Liza Pharmacy,Unknown,Unknown,Unknown,Unknown,Unknown,Unknown,pharmacy,Unknown,Unknown,Unknown,Unknown,31.9496918,35.8170967
Unknown,Unknown,شارع الملك عبدالله الأول,Unknown,Unknown,Unknown,Unknown,pharmacy,Unknown,Unknown,Unknown,Unknown,31.9628751,35.9619561
Mhanna Pharmacy,Unknown,Jamal Qaitouqah Street,Unknown,Unknown,Unknown,Unknown,pharmacy,Unknown,Unknown,Unknown,Unknown,31.9468867,35.8396487
صيدلية إبراهيم,Unknown,Wadi Towa Street,Unknown,Unknown,Unknown,Unknown,pharmacy,pharmacy,Unknown,Unknown,Unknown,31.9537604,35.8343941
Siwar Al-Asal Pharmacy,Unknown,Abdullrazzaq Al-Hasan Street,Unknown,Unknown,Unknown,Unknown,pharmacy,pharmacy,Unknown,Unknown,Unknown,31.951195,35.8349551
FruCtose,Unknown,Mikhled Al-Rawashdeh Street,Unknown,Unknown,Unknown,Unknown,pharmacy,Unknown,Unknown,Unknown,Unknown,31.9465499,35.8474928
Pharmacy One,Unknown,شارع القدس,Unknown,Unknown,Unknown,Unknown,pharmacy,Unknown,Unknown,Unknown,Unknown,31.91799,35.9083669
Unknown,Unknown,شارع حامد علي الدعجة,Unknown,Unknown,Unknown,Unknown,pharmacy,Unknown,Unknown,Unknown,Unknown,31.9800255,35.9847777
Unknown,Unknown,Unknown,Unknown,Unknown,Unknown,Unknown,hospital,Unknown,Unknown,Unknown,Unknown,31.9843903,35.9903285
Abeer Al-Ward Pharmacy,Unknown,شارع ثويبة,Unknown,Unknown,Unknown,Unknown,pharmacy,Unknown,Unknown,Unknown,Unknown,31.985935,35.9595059
Pharmacy One,Unknown,شارع الشهيد,Unknown,Unknown,Unknown,Unknown,pharmacy,Unknown,Unknown,Unknown,Unknown,31.9888742,35.9477994
Pansee Pharmacy,Unknown,Ibrahim Al-Qattan Street,Unknown,Unknown,Unknown,Unknown,pharmacy,Unknown,Unknown,Unknown,Unknown,31.9622595,35.8534192
صيدلية بتونيا,Unknown,شارع طارق,Unknown,Unknown,Unknown,Unknown,pharmacy,Unknown,Unknown,Unknown,Unknown,31.9911673,35.9441248
Unknown,Unknown,Abdulrahman Khaleefah Street,Unknown,Unknown,Unknown,Unknown,pharmacy,Unknown,Unknown,Unknown,Unknown,31.95895,35.8506901
Unknown,Unknown,Princess Sarvath El-Hassan Street,Unknown,Unknown,Unknown,Unknown,pharmacy,Unknown,Unknown,Unknown,Unknown,31.966972,35.8449623
Pharmacy One,Unknown,Ali Seedo Al-Kurdi Street,Unknown,Unknown,Unknown,Unknown,pharmacy,Unknown,Unknown,Unknown,Unknown,31.9471793,35.8726501
Unknown,Unknown,شارع مكة,Unknown,Unknown,Unknown,Unknown,pharmacy,Unknown,Unknown,Unknown,Unknown,31.975656,35.8508348
Unknown,Unknown,شارع الشيماء السعدية,Unknown,Unknown,Unknown,Unknown,pharmacy,Unknown,Unknown,Unknown,Unknown,32.0281673,35.8817594
Strawberry Pharmacy,Unknown,شارع الشيماء السعدية,Unknown,Unknown,Unknown,Unknown,pharmacy,Unknown,Unknown,Unknown,Unknown,32.0143995,35.8940483
باسكوال العيادة التجميلية الآمنة,Unknown,Abderahman ashahbandar,Unknown,Unknown,Unknown,Unknown,doctors,doctor,+963941111959,Unknown,Sa-Th 10:00-19:00,33.5248342,36.2920158
Bab Al Hadid Pharmacy,Unknown,Ibrahim Al Yousef Al Lawzi street,Unknown,Unknown,Unknown,Unknown,pharmacy,Unknown,Unknown,Unknown,Unknown,32.0263368,35.872139
Pharmore,Unknown,Al-Madina Al-Munawwara Street,Unknown,Unknown,Unknown,Unknown,pharmacy,pharmacy,Unknown,Unknown,Unknown,31.9972452,35.8720906
Unknown,Unknown,شارع عبدالله علي اللوزي,Unknown,Unknown,Unknown,Unknown,pharmacy,Unknown,Unknown,Unknown,Unknown,32.0262874,35.8639961
Unknown,Unknown,Unknown,Unknown,Unknown,Unknown,Unknown,pharmacy,Unknown,Unknown,Unknown,Unknown,32.0234021,35.8889711
Unknown,Unknown,Unknown,Unknown,Unknown,Unknown,Unknown,pharmacy,Unknown,Unknown,Unknown,Unknown,32.021839,35.886089
صيدلية لين,Unknown,Unknown,Unknown,Unknown,Unknown,Unknown,pharmacy,Unknown,Unknown,Unknown,Unknown,33.4851062,36.3456896
رحاب غانم,Unknown,Unknown,Unknown,Unknown,Unknown,Unknown,pharmacy,Unknown,Unknown,Unknown,Unknown,33.489084,36.3470227
صيدليه البيروني,Unknown,Unknown,Unknown,Unknown,Unknown,Unknown,hospital,hospital,Unknown,Unknown,Unknown,31.9517213,35.9054692
صيدلية الخليج,Unknown,Prince El Hassan Street,Unknown,Unknown,Unknown,Unknown,pharmacy,pharmacy,Unknown,Unknown,Unknown,31.9138031,35.9387268
مشفى الحراك,Unknown,Unknown,Unknown,Unknown,Unknown,Unknown,hospital,Unknown,Unknown,Unknown,Unknown,32.7511721,36.2903311
د. محمد العادل,Unknown,ساحة عرنوس,دمشق,Unknown,Unknown,Unknown,dentist,dentist,+963 11 3326894,Unknown,Sa-Th 11:00-20:00,33.5208173,36.290064
صيدلية زهرة المرج,Unknown,Unknown,Unknown,Unknown,Unknown,Unknown,pharmacy,pharmacy,Unknown,Unknown,Unknown,31.8833489,35.8959603
صيدلية ابو زهرة,Unknown,Unknown,Unknown,Unknown,Unknown,Unknown,pharmacy,pharmacy,Unknown,Unknown,Unknown,31.8975271,35.8870907
Munther,Unknown,Unknown,Unknown,Unknown,Unknown,Unknown,doctors,doctor,Unknown,Unknown,Unknown,32.0205649,35.8641994
Lubna Obeidat Dentist,Unknown,Unknown,Unknown,Unknown,Unknown,Unknown,dentist,dentist,Unknown,Unknown,Mo-Su 09:00-20:00,31.9562937,35.8567619
منزل الصيدلي يوسف الدبعي ابو طارق,Unknown,Ahmad halkoz,Unknown,Unknown,Unknown,Unknown,pharmacy,Unknown,Unknown,Unknown,Unknown,31.9192306,35.850058
صيدلية الصحابة,Unknown,Unknown,Unknown,Unknown,Unknown,Unknown,pharmacy,Unknown,Unknown,Unknown,Unknown,31.9187416,35.922758
مستشفى القدس,Unknown,Unknown,Unknown,Unknown,Unknown,Unknown,hospital,Unknown,(06) 438 7181,Unknown,Unknown,31.9258995,35.927845
مستشفى الحمايدة,Unknown,Unknown,Unknown,Unknown,Unknown,Unknown,hospital,hospital,Unknown,Unknown,Unknown,31.9015225,35.9339773
عيادة الدكتورة بشرى الخوري,Unknown,Unknown,Unknown,Unknown,Unknown,Unknown,doctors,doctor,Unknown,Unknown,Unknown,33.5211,36.302587
صيدلية العسل,Unknown,Iyad Abu Hilal Street,Unknown,Unknown,Unknown,Unknown,pharmacy,Unknown,Unknown,Unknown,Unknown,31.9714959,35.8431861
ميسون العباس,Unknown,Unknown,Unknown,Unknown,Unknown,Unknown,pharmacy,Unknown,Unknown,Unknown,Unknown,33.4929018,36.3375492
صيدلية غيده زهرة,Unknown,الشهيد عبد المنعم رياض_جباتا,Unknown,Unknown,Unknown,Unknown,clinic,Unknown,Unknown,Unknown,Unknown,33.1833619,35.892553
صيدلية البيدر,Unknown,Unknown,Unknown,Unknown,Unknown,Unknown,pharmacy,Unknown,Unknown,Unknown,Unknown,33.4836067,36.3450694
صيدلية داود,Unknown,دواد الفحامة (ساحة الجهاد),Unknown,Unknown,Unknown,Unknown,pharmacy,pharmacy,Unknown,Unknown,Sa-Th 09:00-23:15,33.5072331,36.2926999
الدكتورة هدى جوزيف غزّي,Unknown,ساحة السيوف,Unknown,Unknown,Unknown,Unknown,clinic,Unknown,0937542622,Unknown,"Sa-Th 12:00-15:00, 18:00-21:00",33.4856269,36.3493545
صيدلية ردينة,Unknown,Unknown,Unknown,Unknown,Unknown,Unknown,pharmacy,Unknown,Unknown,Unknown,Unknown,33.5405236,36.2415488
دار العيون,Unknown,Unknown,Unknown,Unknown,Unknown,Unknown,doctors,doctor,Unknown,Unknown,Unknown,33.5194371,36.297016
صيدليه,Unknown,Unknown,Unknown,Unknown,Unknown,Unknown,pharmacy,Unknown,Unknown,Unknown,Unknown,32.0587442,35.8930638
صيدليه وجدان,Unknown,Unknown,Unknown,Unknown,Unknown,Unknown,pharmacy,Unknown,Unknown,Unknown,Unknown,32.0587562,35.8930761
صيدلية وجدان,Unknown,Unknown,Unknown,Unknown,Unknown,Unknown,pharmacy,Unknown,Unknown,Unknown,Unknown,32.0587754,35.8930869
Unknown,Unknown,Unknown,Unknown,Unknown,Unknown,Unknown,clinic,clinic,Unknown,Unknown,Unknown,33.5158363,36.2878713
مستشفى الفيحاء,Unknown,شارع الزاهرة,Unknown,Unknown,Unknown,Unknown,hospital,hospital,Unknown,Unknown,Unknown,33.4901851,36.3002632
عيادة الدكتور عبد الرزاق عبد العزيز,Unknown,Unknown,Unknown,Unknown,Unknown,Unknown,clinic,Unknown,Unknown,Unknown,Unknown,33.4980009,36.3063347
صيدلية الخالد,Unknown,Unknown,Unknown,Unknown,Unknown,Unknown,pharmacy,Unknown,Unknown,Unknown,Unknown,33.4980193,36.3063106
مستشفى الأندلس,Unknown,Unknown,Unknown,Unknown,Unknown,Unknown,hospital,hospital,Unknown,Unknown,Unknown,33.4958208,36.2818525
مركز صحي مغير السرحان الشامل,Unknown,Unknown,مغير السرحان,Unknown,Unknown,Unknown,Unknown,alternative,Unknown,Unknown,Unknown,32.4594777,36.1958389
صيدلية مغير السرحان,Unknown,Unknown,مغير السرحان,Unknown,Unknown,Unknown,pharmacy,pharmacy,Unknown,Unknown,Unknown,32.4617377,36.1947686
مشفى المدينة,Unknown,Unknown,Unknown,Unknown,Unknown,Unknown,hospital,hospital,Unknown,Unknown,Unknown,33.5278863,36.3201148
صيدلية وجدان,Unknown,Unknown,Unknown,Unknown,Unknown,Unknown,pharmacy,Unknown,Unknown,Unknown,Unknown,32.0587928,35.8930912
مستشفى الفيحاء الأهلي,Unknown,Unknown,Unknown,Unknown,Unknown,Unknown,hospital,hospital,Unknown,Unknown,Unknown,33.4904183,36.3002449
صيدلية أبو بكر الرازي,Unknown,Unknown,Unknown,Unknown,Unknown,Unknown,pharmacy,pharmacy,Unknown,Unknown,Unknown,32.5417667,35.8440503
الشجرة,Unknown,Unknown,Unknown,Unknown,Unknown,Unknown,pharmacy,Unknown,Unknown,Unknown,Unknown,32.5269068,35.8414014
Pharmacy One,Unknown,Rainbow Street,Unknown,Unknown,Unknown,Unknown,pharmacy,pharmacy,Unknown,Unknown,Unknown,31.9502358,35.9243939
Rahmeh Pharmacy,Unknown,Rainbow Street,Unknown,Unknown,Unknown,Unknown,pharmacy,pharmacy,Unknown,Unknown,Unknown,31.9492271,35.9270076
مستشفى طبرجل العام,Unknown,Unknown,Unknown,Unknown,Unknown,Unknown,hospital,Unknown,Unknown,Unknown,Unknown,30.4998374,38.2026685
صيدلية جبل رحمه,Unknown,Unknown,Unknown,Unknown,Unknown,Unknown,pharmacy,pharmacy,Unknown,Unknown,Unknown,32.0445201,36.0772934
عباد الرحمن,Unknown,Unknown,Unknown,Unknown,Unknown,Unknown,pharmacy,pharmacy,Unknown,Unknown,Unknown,31.9487684,35.9392707
Pharmacy World,Unknown,Unknown,Unknown,Unknown,Unknown,Unknown,pharmacy,pharmacy,Unknown,Unknown,Unknown,31.9505567,35.9210307
المستشفى الإيطالي,Unknown,شارع ابن زهر,عمان,Unknown,Unknown,Unknown,hospital,hospital,Unknown,Unknown,Unknown,31.9447307,35.9320837
Unknown,Unknown,Unknown,Unknown,Unknown,Unknown,Unknown,Unknown,laboratory,+9624641261,Unknown,Unknown,31.9535348,35.912391
صيدلية الجامعة,Unknown,Unknown,Unknown,Unknown,Unknown,Unknown,pharmacy,pharmacy,Unknown,Unknown,Unknown,31.9517872,35.9149985
مركز فحص الوافدين,Unknown,Unknown,Unknown,Unknown,Unknown,Unknown,clinic,Unknown,Unknown,Unknown,Unknown,31.9825827,35.8900129
فارمسي ون,Unknown,Unknown,Unknown,Unknown,Unknown,Unknown,pharmacy,Unknown,Unknown,Unknown,Unknown,31.9633513,35.8711266
مركز النجمة الشعاعي التخصصي,Unknown,Unknown,Unknown,Unknown,Unknown,Unknown,doctors,doctor,Unknown,Unknown,Unknown,33.5217361,36.3102394
مركز لطب الأستان,Unknown,Unknown,السيدة زينب,Unknown,Unknown,Unknown,dentist,dentist,Unknown,Unknown,Unknown,33.4456112,36.3421474
صيدلية النهضة,Unknown,Unknown,Unknown,Unknown,Unknown,Unknown,pharmacy,Unknown,+963 16 325 351,Unknown,Unknown,32.7140492,36.5798666
صيدلية الريم,Unknown,Unknown,Unknown,Unknown,Unknown,Unknown,pharmacy,Unknown,Unknown,Unknown,Unknown,32.7156473,36.5798224
Unknown,Unknown,Unknown,Unknown,Unknown,Unknown,Unknown,hospital,Unknown,Unknown,Unknown,Unknown,33.1328337,35.8270336
مركز الشريف للعيون,Unknown,Unknown,Unknown,Unknown,Unknown,Unknown,clinic,clinic,Unknown,Unknown,Unknown,31.9507524,35.905862
قطرنجي مختبر,Unknown,Unknown,Unknown,Unknown,Unknown,Unknown,Unknown,laboratory,Unknown,Unknown,Unknown,33.5192558,36.2873714
plus,Unknown,Unknown,Unknown,Unknown,Unknown,Unknown,pharmacy,Unknown,Unknown,Unknown,Unknown,32.5382311,35.851836
ركان,Unknown,Unknown,Unknown,Unknown,Unknown,Unknown,pharmacy,pharmacy,Unknown,Unknown,Unknown,32.5417129,35.852685
صيدلية السواعي,Unknown,Unknown,Unknown,Unknown,Unknown,Unknown,pharmacy,pharmacy,Unknown,Unknown,Unknown,32.5328325,35.8559218
صيدلية اربيلا,Unknown,Unknown,Unknown,Unknown,Unknown,Unknown,pharmacy,Unknown,Unknown,Unknown,Unknown,32.5351968,35.8617301
الحذاء الإيطالي,Unknown,Unknown,Unknown,Unknown,Unknown,Unknown,hospital,hospital,Unknown,Unknown,Unknown,32.5345302,35.8626266
صيدلية الرازي,Unknown,Unknown,Unknown,Unknown,Unknown,Unknown,pharmacy,pharmacy,Unknown,Unknown,Unknown,32.5364228,35.8521505
الصيدلية الكبرى,Unknown,Unknown,Unknown,Unknown,Unknown,Unknown,pharmacy,Unknown,Unknown,Unknown,Unknown,32.5420626,35.8548878
لوسي,Unknown,Unknown,Unknown,Unknown,Unknown,Unknown,pharmacy,Unknown,Unknown,Unknown,Unknown,32.5303144,35.8528738
دواكم,Unknown,Unknown,Unknown,Unknown,Unknown,Unknown,pharmacy,Unknown,Unknown,Unknown,Unknown,32.5312313,35.8527967
صيدلية عدنان,Unknown,Unknown,Unknown,Unknown,Unknown,Unknown,pharmacy,Unknown,Unknown,Unknown,Unknown,32.5413941,35.8509434
زمزم,Unknown,Unknown,Unknown,Unknown,Unknown,Unknown,pharmacy,Unknown,Unknown,Unknown,Unknown,32.5416946,35.8508917
عيادة الدكتور احمد مهيدات,Unknown,Unknown,Unknown,Unknown,Unknown,Unknown,dentist,dentist,Unknown,Unknown,Unknown,32.5417185,35.8508893
اطباء بلا حدود,Unknown,Unknown,Unknown,Unknown,Unknown,Unknown,clinic,clinic,Unknown,Unknown,Unknown,32.5392718,35.8514899
صيدليه الرازي,Unknown,Unknown,Unknown,Unknown,Unknown,Unknown,pharmacy,Unknown,Unknown,Unknown,Unknown,32.5321442,35.8543382
Khaledi Dentist,Unknown,Unknown,Unknown,Unknown,Unknown,Unknown,clinic,dentist,Unknown,Unknown,Mo-Th 10:00-23:55; Sa-Su 10:00-23:55,32.5226582,35.8639884
Irbid Specialty Hospital,Unknown,Unknown,Unknown,Unknown,Unknown,Unknown,hospital,birthing_center;clinic;hospital;laboratory;pharmacy,Unknown,Unknown,24/7,32.53359,35.862599
Mecca Pharmacy,Unknown,Unknown,Unknown,Unknown,Unknown,Unknown,clinic,pharmacy,Unknown,Unknown,24/7,32.523893,35.8535331
لابل,Unknown,Unknown,Unknown,Unknown,Unknown,Unknown,hospital,hospital,Unknown,Unknown,Unknown,33.5380033,36.2294769
Unknown,Unknown,Unknown,Unknown,Unknown,Unknown,Unknown,hospital,hospital,Unknown,Unknown,Unknown,33.4755606,36.3007736
Yarmouk University health center,Unknown,Unknown,Unknown,Unknown,Unknown,Unknown,clinic,clinic,Unknown,Unknown,Mo-Fr 08:00-15:00,32.5363488,35.8557755
مركز صحي زحر,Unknown,Unknown,Unknown,Unknown,Unknown,Unknown,hospital,hospital,Unknown,Unknown,Unknown,32.5625442,35.780483
Al-Asad Medical Complex,Unknown,Unknown,Irbid,Unknown,Unknown,Unknown,clinic,clinic;dentist;doctor,Unknown,Unknown,24/7,32.5241101,35.8575565
baoun health center,Unknown,Unknown,ajloun,Unknown,Unknown,Unknown,clinic,clinic;dentist;doctor,Unknown,Unknown,Unknown,32.3862312,35.7211876
eye pharmacy,Unknown,Unknown,ajloun,Unknown,Unknown,Unknown,clinic,doctor;pharmacy,Unknown,Unknown,Unknown,32.3814383,35.7291913
eye pharmacy baoun,Unknown,Unknown,ajouln,Unknown,Unknown,Unknown,clinic,pharmacy,Unknown,Unknown,Unknown,32.3829061,35.7319915
al ayoun pharmacy,Unknown,Unknown,ajloun,Unknown,Unknown,Unknown,clinic,pharmacy,Unknown,Unknown,Unknown,32.3815471,35.7291591
baoun primary health center,Unknown,Unknown,ajloun,Unknown,Unknown,Unknown,clinic,clinic;dentist;doctor,Unknown,Unknown,Unknown,32.383486,35.727421
عيادة الدكتور اياد عيد,Unknown,Unknown,Unknown,Unknown,Unknown,Unknown,doctors,doctor,Unknown,Unknown,Unknown,31.9495844,35.9057096
community health center,Unknown,Unknown,Irbid,Unknown,Unknown,Unknown,clinic,dentist;doctor;pharmacy,Unknown,Unknown,Unknown,32.6035412,35.7681316
pharmacy,Unknown,Unknown,Irbid Hawar,Unknown,Unknown,Unknown,clinic,pharmacy,Unknown,Unknown,Unknown,32.6047432,35.7874221
Pharmacy,Unknown,Unknown,Hawar,Unknown,Unknown,Unknown,clinic,pharmacy,Unknown,Unknown,Mo-Fr 12:00-23:30,32.6047477,35.787406
مركز صحي,Unknown,Unknown,Unknown,Unknown,Unknown,Unknown,clinic,yes,Unknown,Unknown,Unknown,31.3730511,37.5982624
مركز صحي,Unknown,Unknown,Unknown,Unknown,Unknown,Unknown,Unknown,yes,Unknown,Unknown,Unknown,31.4243,37.9845
مركز صحي زحر,Unknown,Unknown,Unknown,Unknown,Unknown,Unknown,hospital,hospital,Unknown,Unknown,Unknown,32.5628266,35.7803963
صيدلية دوائي,Unknown,Unknown,Unknown,Unknown,Unknown,Unknown,pharmacy,Unknown,Unknown,Unknown,Unknown,31.9212397,35.9240395
صيديلة نابلس,Unknown,Unknown,Unknown,Unknown,Unknown,Unknown,pharmacy,pharmacy,Unknown,Unknown,Unknown,31.9312739,35.9348105
صديلية البراق,Unknown,Unknown,Unknown,Unknown,Unknown,Unknown,pharmacy,Unknown,Unknown,Unknown,Unknown,31.9297242,35.9363679
صيدلية اضاليا,Unknown,Unknown,Unknown,Unknown,Unknown,Unknown,pharmacy,pharmacy,Unknown,Unknown,Unknown,31.9175847,35.9047283
صيدلية سيبال,Unknown,Unknown,Unknown,Unknown,Unknown,Unknown,pharmacy,Unknown,Unknown,Unknown,Unknown,31.9206486,35.9338303
مختبرات العثمان الطبية,Unknown,Unknown,Unknown,Unknown,Unknown,Unknown,Unknown,laboratory,Unknown,Unknown,Unknown,31.9200356,35.9222776
صيدلية الزعفران,Unknown,Unknown,Unknown,Unknown,Unknown,Unknown,pharmacy,Unknown,Unknown,Unknown,Unknown,31.92206,35.9282646
صيدلية سوا,Unknown,Unknown,Unknown,Unknown,Unknown,Unknown,pharmacy,Unknown,Unknown,Unknown,Unknown,31.9194899,35.9247802
صيدلبة زوانه,Unknown,Unknown,Unknown,Unknown,Unknown,Unknown,pharmacy,Unknown,Unknown,Unknown,Unknown,31.9168134,35.9311798
صيدلية العلاجات التجانسية,Unknown,Unknown,Unknown,Unknown,Unknown,Unknown,pharmacy,Unknown,Unknown,Unknown,Unknown,31.9201515,35.9296299
صيدلية سامراء,Unknown,Unknown,Unknown,Unknown,Unknown,Unknown,pharmacy,Unknown,Unknown,Unknown,Unknown,31.919995,35.915762
صيدلية القوة,Unknown,Unknown,Unknown,Unknown,Unknown,Unknown,pharmacy,Unknown,Unknown,Unknown,Unknown,31.9049612,35.8877506
صدلية جمانة,Unknown,Unknown,Unknown,Unknown,Unknown,Unknown,pharmacy,Unknown,Unknown,Unknown,Unknown,31.9164652,35.9215997
صيدلية الرنتيسي,Unknown,Unknown,Unknown,Unknown,Unknown,Unknown,pharmacy,Unknown,Unknown,Unknown,Unknown,31.9025374,35.8893281
صيدلية تهاليل,Unknown,Unknown,Unknown,Unknown,Unknown,Unknown,pharmacy,pharmacy,Unknown,Unknown,Unknown,31.9060781,35.9372556
صيدلية الحافظ,Unknown,Unknown,Unknown,Unknown,Unknown,Unknown,pharmacy,Unknown,Unknown,Unknown,Unknown,31.9212459,35.9183176
صيدلية سيروتونين,Unknown,Unknown,Unknown,Unknown,Unknown,Unknown,pharmacy,Unknown,Unknown,Unknown,Unknown,31.9241839,35.9236444
عبود للبصريات,Unknown,Unknown,Unknown,Unknown,Unknown,Unknown,Unknown,optometrist,Unknown,Unknown,Unknown,31.9304585,35.9361747
مشفى الصدر,Unknown,Unknown,Unknown,Unknown,Unknown,Unknown,clinic,Unknown,Unknown,Unknown,Unknown,33.4434335,36.34432
الهلال الأحمر العربي السوري-فرع دمشق,Unknown,Unknown,Unknown,Unknown,Unknown,Unknown,clinic,Unknown,Unknown,Unknown,Unknown,33.4955354,36.3026291
Unknown,Unknown,Unknown,Unknown,Unknown,Unknown,Unknown,hospital,hospital,Unknown,Unknown,Unknown,33.4956036,36.2818639
صيدلية التمر,Unknown,Unknown,Unknown,Unknown,Unknown,Unknown,pharmacy,Unknown,Unknown,Unknown,Unknown,33.5084335,36.2580262
صيدلية الملقي,Unknown,Unknown,Unknown,Unknown,Unknown,Unknown,pharmacy,pharmacy,Unknown,Unknown,Unknown,33.5111493,36.262398
شفا الشام للتجهيزات الطبية,Unknown,Unknown,Unknown,Unknown,Unknown,Unknown,pharmacy,pharmacy,Unknown,Unknown,Unknown,33.5093882,36.2600982
صيدلية لمياء,Unknown,شارع بغداد,Unknown,Unknown,Unknown,Unknown,pharmacy,pharmacy,Unknown,Unknown,Unknown,33.5186925,36.3099801
صيدلية الحفار,Unknown,Unknown,Unknown,Unknown,Unknown,Unknown,pharmacy,pharmacy,Unknown,Unknown,Unknown,33.5205478,36.2832006
الدكتور براء جديني,Unknown,شارع عبد الله إبن رواحة,Unknown,Unknown,Unknown,Unknown,clinic,Unknown,Unknown,Unknown,Unknown,33.4974496,36.2804643
مخبر نزار أبوعساف,Unknown,Unknown,Unknown,Unknown,Unknown,Unknown,dentist,dentist,00963993554360,https://www.facebook.com/nizar.assaf.5,Sa-Th 09:00-20:00,32.7071456,36.5697203
صيدلية العز,Unknown,Unknown,Unknown,Unknown,Unknown,Unknown,pharmacy,Unknown,Unknown,Unknown,Unknown,31.9235973,35.8979384
صيدلية انعام عبود,Unknown,Unknown,Unknown,Unknown,Unknown,Unknown,pharmacy,pharmacy,Unknown,Unknown,Unknown,33.543679,36.3188948
حسام ايوبي,Unknown,Unknown,Unknown,Unknown,Unknown,Unknown,doctors,doctor,Unknown,Unknown,Unknown,33.5246334,36.2951159
عيادة الدكتور محمود مهيزع للأسنان,Unknown,شارع الحرية,Amman,Unknown,Unknown,JO,dentist,dentist,+96264202779,http://m.facebook.com/MohaziaDC,Sa-Th 10:00-18:00,31.8960036,35.9034164
صيدلية الغبرة,Unknown,Unknown,Unknown,Unknown,Unknown,Unknown,pharmacy,pharmacy,Unknown,Unknown,Unknown,33.522666,36.2990202
دكتور حسين الطراونه,Unknown,Unknown,Unknown,Unknown,Unknown,Unknown,doctors,doctor,Unknown,Unknown,Unknown,31.954261,35.8985768
مستودع ابو شيخة,Unknown,Unknown,Unknown,Unknown,Unknown,Unknown,clinic,Unknown,Unknown,Unknown,Unknown,32.0078562,35.8850627
صيدلية سلامة,Unknown,نهر عيشة,دمشق,Unknown,Unknown,Unknown,pharmacy,pharmacy,Unknown,Unknown,Unknown,33.4865157,36.2880371
hajer pharmacy,Unknown,Unknown,Unknown,Unknown,Unknown,Unknown,pharmacy,pharmacy,Unknown,Unknown,Unknown,33.5865464,35.8346506
mounib pharmacy,Unknown,Unknown,Unknown,Unknown,Unknown,Unknown,pharmacy,pharmacy,Unknown,Unknown,Unknown,33.5739745,35.828393
khoair-al-pharmacy,Unknown,Unknown,Unknown,Unknown,Unknown,Unknown,pharmacy,pharmacy,Unknown,Unknown,Unknown,33.5683711,35.8264807
صيدلية زيد,Unknown,شارع خالد ابن الوليد,دمشق,Unknown,Unknown,Unknown,pharmacy,pharmacy,Unknown,Unknown,Unknown,33.5054065,36.2944608
صيدلية الطباع,Unknown,شارع خالد ابن الوليد,دمشق,Unknown,Unknown,Unknown,pharmacy,pharmacy,Unknown,Unknown,Unknown,33.5059878,36.295227
صيدلية السادات,Unknown,شارع خالد ابن الوليد,دمشق,Unknown,Unknown,Unknown,pharmacy,pharmacy,Unknown,Unknown,Unknown,33.5068191,36.2956589
صيدلية البيرقدار,Unknown,الفحامة,دمشق,Unknown,Unknown,Unknown,pharmacy,pharmacy,Unknown,Unknown,Unknown,33.507307,36.2937407
دار الأشعة للتصوير الطبي,Unknown,شارع خالد إبن الوليد,دمشق,Unknown,Unknown,Unknown,Unknown,laboratory,Unknown,Unknown,Unknown,33.5085656,36.2959724
مخبر النوري للتحاليل الطبية,Unknown,شارع خالد ابن الوليد,دمشق,Unknown,Unknown,Unknown,Unknown,laboratory,Unknown,Unknown,Unknown,33.5069505,36.295686
مركز البشائر للتوحد,Unknown,Unknown,Unknown,Unknown,Unknown,Unknown,Unknown,audiologist,Unknown,Unknown,Unknown,33.5283145,36.2900928
Pharmacy One,Unknown,Unknown,Unknown,Unknown,Unknown,Unknown,pharmacy,pharmacy,Unknown,Unknown,Unknown,32.5317931,35.8519653
فيتامين,Unknown,شارع قنوات,Unknown,Unknown,Unknown,Unknown,pharmacy,Unknown,Unknown,Unknown,Unknown,32.7165761,36.5756455
صيدلية ريم,Unknown,شارع قنوات,Unknown,Unknown,Unknown,Unknown,pharmacy,Unknown,Unknown,Unknown,Unknown,32.7141565,36.5738556
صيدلية نبع الحياة,Unknown,‫شارع الباسل‬‎,Unknown,Unknown,Unknown,Unknown,pharmacy,Unknown,Unknown,Unknown,Unknown,33.4866362,36.338392
Unknown,Unknown,Unknown,Unknown,Unknown,Unknown,Unknown,pharmacy,pharmacy,Unknown,Unknown,Unknown,31.9854714,35.893436
Unknown,Unknown,شارع الزمخشري,Amman,Unknown,Unknown,Unknown,pharmacy,pharmacy,Unknown,Unknown,Unknown,31.9894798,35.903561
Unknown,Unknown,Unknown,Unknown,Unknown,Unknown,Unknown,pharmacy,pharmacy,Unknown,Unknown,Unknown,31.9880639,35.8996512
معمل فينومينال للأدوية,Unknown,Unknown,Unknown,Unknown,Unknown,Unknown,pharmacy,Unknown,Unknown,Unknown,Unknown,33.5973958,36.5837562
صيدلية فادي,Unknown,ساحة الطرشان,Unknown,Unknown,Unknown,Unknown,pharmacy,Unknown,252239,Unknown,Unknown,32.7076638,36.5681479
طبيب غاندي فرح,Unknown,Unknown,Unknown,Unknown,Unknown,Unknown,clinic,clinic,Unknown,Unknown,Unknown,33.5466456,36.3188542
Unknown,Unknown,شارع الشهيد,Amman,Unknown,Unknown,Unknown,pharmacy,pharmacy,Unknown,Unknown,Unknown,31.9873759,35.9010218
Unknown,Unknown,Unknown,Unknown,Unknown,Unknown,Unknown,pharmacy,pharmacy,Unknown,Unknown,Unknown,31.9871208,35.9000948
Unknown,Unknown,Unknown,Unknown,Unknown,Unknown,Unknown,Unknown,health_post,Unknown,Unknown,Unknown,30.784825,36.5172361
صيدلية اسلام,Unknown,Unknown,Unknown,Unknown,Unknown,Unknown,pharmacy,pharmacy,Unknown,Unknown,Unknown,33.595921,36.3094293
صيدلية سامي صادق,Unknown,Unknown,Unknown,Unknown,Unknown,Unknown,pharmacy,pharmacy,Unknown,Unknown,Unknown,33.5963617,36.310805
صيدلية فايز,Unknown,Unknown,Unknown,Unknown,Unknown,Unknown,pharmacy,Unknown,Unknown,Unknown,Unknown,33.5950668,36.3094524
صيدلية الريني,Unknown,Unknown,Unknown,Unknown,Unknown,Unknown,pharmacy,Unknown,Unknown,Unknown,Unknown,33.5971429,36.3112169
Unknown,Unknown,Unknown,Unknown,Unknown,Unknown,Unknown,pharmacy,Unknown,Unknown,Unknown,Unknown,31.9274922,35.8758834
Unknown,Unknown,Unknown,Unknown,Unknown,Unknown,Unknown,pharmacy,Unknown,Unknown,Unknown,Unknown,32.0006173,35.8740631
صيدلية روحي,Unknown,Unknown,Unknown,Unknown,Unknown,Unknown,pharmacy,Unknown,Unknown,Unknown,Unknown,31.9694095,35.8646498
Unknown,Unknown,Unknown,Unknown,Unknown,Unknown,Unknown,pharmacy,Unknown,Unknown,Unknown,Unknown,31.9800257,35.8655699
Unknown,Unknown,Unknown,Unknown,Unknown,Unknown,Unknown,clinic,Unknown,Unknown,Unknown,Unknown,32.0005762,35.8741654
Unknown,Unknown,Unknown,Unknown,Unknown,Unknown,Unknown,pharmacy,pharmacy,Unknown,Unknown,Unknown,31.9505063,35.9157827
Unknown,Unknown,Unknown,Unknown,Unknown,Unknown,Unknown,clinic,clinic,Unknown,Unknown,Unknown,31.9502375,35.9163931
Unknown,Unknown,Unknown,Unknown,Unknown,Unknown,Unknown,dentist,dentist,Unknown,Unknown,Unknown,31.9504195,35.9160311
City Lab,Unknown,Unknown,Unknown,Unknown,Unknown,Unknown,clinic,clinic,Unknown,Unknown,Unknown,31.9503747,35.916116
Unknown,Unknown,Unknown,Unknown,Unknown,Unknown,Unknown,pharmacy,Unknown,Unknown,Unknown,Unknown,31.9504599,35.8837553
Fattaleh,Unknown,Unknown,Unknown,Unknown,Unknown,Unknown,pharmacy,pharmacy,Unknown,Unknown,Unknown,31.9560716,35.927477
Unknown,Unknown,Unknown,Unknown,Unknown,Unknown,Unknown,pharmacy,Unknown,Unknown,Unknown,Unknown,31.9845489,35.8660701
Covid-19 Testing,Unknown,Unknown,Unknown,Unknown,Unknown,Unknown,Unknown,sample_collection,Unknown,Unknown,Unknown,31.9196342,35.859673
صيدلية السيد,Unknown,Unknown,Unknown,Unknown,Unknown,Unknown,pharmacy,pharmacy,Unknown,Unknown,Unknown,31.954768,35.9150768
صيدلية الصالحية,Unknown,Unknown,Unknown,Unknown,Unknown,Unknown,pharmacy,pharmacy,Unknown,Unknown,Unknown,33.5179868,36.2943328
Unknown,Unknown,Unknown,Unknown,Unknown,Unknown,Unknown,clinic,Unknown,Unknown,Unknown,Unknown,31.9600628,35.8794812
Unknown,Unknown,Unknown,Unknown,Unknown,Unknown,Unknown,pharmacy,pharmacy,Unknown,Unknown,Unknown,31.960553,35.8787997
Unknown,Unknown,Unknown,Unknown,Unknown,Unknown,Unknown,pharmacy,Unknown,Unknown,Unknown,Unknown,31.9580394,35.8772998
Unknown,Unknown,شارع كمال جنبلاط,Unknown,Unknown,Unknown,Unknown,clinic,Unknown,0798455553,http://www.megalabs.org,Unknown,31.9578199,35.8772454
صيدلية الصباغ,Unknown,Unknown,Unknown,Unknown,Unknown,Unknown,pharmacy,pharmacy,Unknown,Unknown,Unknown,33.5191929,36.2951682
صيدلية طهاوي,Unknown,Unknown,Unknown,Unknown,Unknown,Unknown,pharmacy,pharmacy,Unknown,Unknown,Unknown,33.5193077,36.2942624
الدكتور براء قبيسي,Unknown,Unknown,Unknown,Unknown,Unknown,Unknown,doctors,doctor,Unknown,Unknown,Unknown,33.5239391,36.2922426
مجمع ضاحية قدسيا الطبي,Unknown,Unknown,Unknown,Unknown,Unknown,Unknown,hospital,Unknown,Unknown,Unknown,Unknown,33.5481163,36.1998168
Unknown,Unknown,Unknown,Unknown,Unknown,Unknown,Unknown,Unknown,laboratory,Unknown,Unknown,Unknown,31.9476717,35.8647781
د. نسرين تغلبي,Unknown,Unknown,Unknown,Unknown,Unknown,Unknown,dentist,dentist,Unknown,Unknown,Unknown,33.5234797,36.2868249
مستوصف دويلعة,Unknown,Unknown,Unknown,Unknown,Unknown,Unknown,clinic,clinic,Unknown,Unknown,Unknown,33.5027564,36.3271652
Care Well,Unknown,Unknown,Unknown,Unknown,Unknown,Unknown,dentist,dentist,Unknown,Unknown,Unknown,31.9483541,35.8684379
קופת חולים כללית,Unknown,Unknown,Unknown,Unknown,Unknown,Unknown,clinic,clinic,Unknown,Unknown,Unknown,33.1716904,35.6107146
صيدلية الوفاق,Unknown,Unknown,Unknown,Unknown,Unknown,Unknown,pharmacy,pharmacy,Unknown,Unknown,Unknown,31.9515287,35.8237565
مركز ديكارت الاستشاري للعيون,Unknown,شارع مكة المكرمة,عمان,Unknown,Unknown,Unknown,clinic,clinic,Unknown,Unknown,24/7,31.9766189,35.8567211
Al-Hoffaz Clinics,Unknown,شارع الحرية,Amman,Unknown,Unknown,JO,clinic,clinic,Unknown,Unknown,Sa-Th 10:00-20:00,31.8959635,35.9035282
صيدلية إسراء المصري,Unknown,شارع الرحمة,دمشق,Unknown,Unknown,Unknown,pharmacy,pharmacy,Unknown,Unknown,Mo-Sa 09:00-21:00,33.550705,36.3136566
DENTALINE ORTHODONTICS,Unknown,شارع مثقال الفايز,amman,Unknown,Unknown,Unknown,hospital,dentist,0789220013,Unknown,Unknown,31.9535469,35.9006799
مركز الدكتور طارق شعلان لطب وتقويم الأسنان,Unknown,شارع مثقال الفايز,amman,Unknown,Unknown,Unknown,hospital,hospital,00962799706931,Unknown,Unknown,31.9534279,35.9006831
PROJECT SITE,Unknown,Unknown,Unknown,Unknown,Unknown,Unknown,hospital,hospital,Unknown,Unknown,Unknown,32.5018278,35.9990219
Unknown,Unknown,Unknown,Unknown,Unknown,Unknown,Unknown,pharmacy,Unknown,Unknown,Unknown,Unknown,31.9133923,35.9320508
Unknown,Unknown,Unknown,Unknown,Unknown,Unknown,Unknown,pharmacy,Unknown,Unknown,Unknown,Unknown,32.2828408,35.8949945
Unknown,Unknown,Unknown,Unknown,Unknown,Unknown,Unknown,pharmacy,Unknown,Unknown,Unknown,Unknown,32.280006,35.8949111
Unknown,Unknown,Unknown,Unknown,Unknown,Unknown,Unknown,pharmacy,Unknown,Unknown,Unknown,Unknown,32.2815326,35.8951011
مجمع الثقة الطبي,Unknown,Unknown,Irbid,Unknown,Unknown,Unknown,Unknown,clinic,Unknown,Unknown,Mo-Su 09:00-21:00,32.5227452,35.8652877
مركز صحي بيت راس,Unknown,Unknown,irbid,21124,Unknown,Unknown,Unknown,clinic,Unknown,Unknown,Unknown,32.5977839,35.8598426
Al-Sakha Pharmacy,Unknown,Unknown,Unknown,Unknown,Unknown,Unknown,pharmacy,pharmacy,Unknown,Unknown,Unknown,31.9947487,35.8297238
مركز ديكارت للعيون,Unknown,Unknown,عمان,Unknown,Unknown,Unknown,Unknown,optometrist,Unknown,Unknown,Unknown,31.9683486,35.8596349
صيدلية ابن سينا,Unknown,Unknown,Unknown,Unknown,Unknown,Unknown,pharmacy,pharmacy,Unknown,Unknown,Unknown,33.5202378,36.2914214
Rafika Alsidawi,Unknown,شارع الجلاء,دوما,Unknown,Unknown,Unknown,pharmacy,pharmacy,Unknown,Unknown,Unknown,33.5711798,36.4114822
سيدلية رحيق الأزهار,Unknown,Unknown,Unknown,Unknown,Unknown,Unknown,pharmacy,pharmacy,Unknown,Unknown,Unknown,32.0168169,35.8624561
صيدلية الراحة,Unknown,Unknown,Unknown,Unknown,Unknown,Unknown,pharmacy,pharmacy,Unknown,Unknown,Mo-Su 10:00-22:00,32.6391931,35.9906001
صيدلية الازهر,Unknown,كفراسد -الشارع الرئيسي,إربد-كفرأسد,21823,Unknown,Unknown,pharmacy,pharmacy,Unknown,Unknown,Mo-Su 10:00-22:00,32.5963649,35.7152964
صيدلية الشفا,Unknown,شارع رئسي,هاشمية,26894,Unknown,Unknown,pharmacy,pharmacy,Unknown,Unknown,Mo-Su 10:00-22:00,32.3639744,35.6582454
صيدلية زينون الرمثا,Unknown,Unknown,Unknown,Unknown,Unknown,Unknown,pharmacy,pharmacy,Unknown,Unknown,24/7,32.5645341,36.0153319
صيدلية الرازي,Unknown,Unknown,Unknown,Unknown,Unknown,Unknown,pharmacy,pharmacy,Unknown,Unknown,Unknown,32.6561698,35.7479707
مركز صحي كفرعان,Unknown,Unknown,Unknown,Unknown,Unknown,Unknown,hospital,hospital,Unknown,Unknown,Unknown,32.5505286,35.761194
مركز  صحي المشيرفة,Unknown,شارع البلدية,جرش,Unknown,Unknown,Unknown,hospital,hospital,Unknown,Unknown,Unknown,32.3696619,35.9724446
مركز صحي كتم الاولي,Unknown,Irbid-kitim,Irbid,21553,Unknown,Unknown,Unknown,centre,Unknown,https://m.facebook.com/108978607957470,Unknown,32.4391483,35.8958684
Vitamin Pharmacy,Unknown,Kitim - Downtown,Irbid,21553,Unknown,Unknown,pharmacy,pharmacy,Unknown,Unknown,Su-Sa 08:00 AM -12:00 AM,32.4393861,35.8947846
مركز صحي النعيمة,Unknown,Unknown,Unknown,Unknown,Unknown,Unknown,Unknown,yes,Unknown,Unknown,Unknown,32.4131899,35.9054353
صيدلية ديلاس,Unknown,Unknown,Unknown,Unknown,Unknown,Unknown,pharmacy,pharmacy,Unknown,Unknown,Unknown,32.4092128,35.70624
مركز صحي جفين الاولي,Unknown,Unknown,Unknown,Unknown,Unknown,Unknown,Unknown,yes,Unknown,Unknown,Unknown,32.4864877,35.6517757
صيدلية الاقصى,Unknown,Unknown,Unknown,Unknown,Unknown,Unknown,pharmacy,pharmacy,Unknown,Unknown,Unknown,32.4768669,35.9084631
مركز صحي الهاشميه الأولي,Unknown,Unknown,Unknown,Unknown,Unknown,Unknown,hospital,hospital,Unknown,Unknown,Unknown,32.3642206,35.6583299
مركز صحي الرازي,Unknown,Unknown,جرش,Unknown,Unknown,Unknown,Unknown,yes,Unknown,Unknown,Unknown,32.2783574,35.8329697
صيدليه نورهان,Unknown,Unknown,Unknown,Unknown,Unknown,Unknown,pharmacy,pharmacy,Unknown,Unknown,Unknown,32.5363956,35.8654894
صيدلية الرازي,Unknown,Unknown,Unknown,Unknown,Unknown,Unknown,pharmacy,pharmacy,Unknown,Unknown,Unknown,32.541642,35.8597748
صيدليه الرازي,Unknown,Unknown,Unknown,Unknown,Unknown,Unknown,pharmacy,pharmacy,Unknown,Unknown,Unknown,32.5315878,35.8530189
Unknown,Unknown,Unknown,Unknown,Unknown,Unknown,Unknown,pharmacy,pharmacy,Unknown,Unknown,Unknown,32.5398986,35.8802263
Unknown,Unknown,Unknown,Unknown,Unknown,Unknown,Unknown,Unknown,laboratory,Unknown,Unknown,Unknown,32.5394531,35.8784243
Unknown,Unknown,Unknown,Unknown,Unknown,Unknown,Unknown,pharmacy,pharmacy,Unknown,Unknown,Unknown,32.540118,35.879078
Unknown,Unknown,Unknown,Unknown,Unknown,Unknown,Unknown,pharmacy,pharmacy,Unknown,Unknown,Unknown,32.5445778,35.8573134
صيدلية الرازي,Unknown,Unknown,Unknown,Unknown,Unknown,Unknown,pharmacy,pharmacy,Unknown,Unknown,Unknown,32.536938,35.8677286
صيدلية مي,Unknown,Unknown,Unknown,Unknown,Unknown,Unknown,pharmacy,pharmacy,Unknown,Unknown,Sa-Su 00:00-24:00,32.5285335,35.8784744
مختبرات ميجا لاب الطبية,Unknown,Unknown,Unknown,Unknown,Unknown,Unknown,Unknown,laboratory,Unknown,Unknown,Sa-Su 00:00-24:00,32.5291176,35.8784623
الدكتور مظهر نايف الصقور,Unknown,Unknown,Unknown,Unknown,Unknown,Unknown,clinic,clinic,Unknown,Unknown,Unknown,32.5291508,35.8784638
صيدلية الرازي,Unknown,Unknown,Unknown,Unknown,Unknown,Unknown,pharmacy,pharmacy,Unknown,Unknown,Unknown,32.5343502,35.8782954
مستشفى أبن النفيس,Unknown,Unknown,Unknown,Unknown,Unknown,Unknown,hospital,hospital,Unknown,Unknown,Unknown,32.536044,35.867479
مختبرات جدارا التخصصية,Unknown,Unknown,Unknown,Unknown,Unknown,Unknown,Unknown,laboratory,Unknown,Unknown,Unknown,32.5361787,35.8660588
مستشفى أبن النفيس,Unknown,Unknown,Unknown,Unknown,Unknown,Unknown,hospital,hospital,Unknown,Unknown,Unknown,32.5359356,35.8668799
صيدلية البلد,Unknown,Unknown,Unknown,Unknown,Unknown,Unknown,pharmacy,pharmacy,Unknown,Unknown,Unknown,32.5362215,35.8644424
د.سارة الرواشدة,Unknown,Unknown,Unknown,Unknown,Unknown,Unknown,clinic,clinic,Unknown,Unknown,Unknown,32.5361955,35.8643439
د.عادل المومني,Unknown,Unknown,Unknown,Unknown,Unknown,Unknown,clinic,clinic,Unknown,Unknown,Unknown,32.5362094,35.8644027
مركز الرشدان,Unknown,Unknown,Unknown,Unknown,Unknown,Unknown,dentist,dentist,Unknown,Unknown,Unknown,32.5450185,35.8562908
صيدليه الرازي,Unknown,Unknown,Unknown,Unknown,Unknown,Unknown,pharmacy,pharmacy,Unknown,Unknown,Unknown,32.544903,35.8564811
كيولاب,Unknown,Unknown,Unknown,Unknown,Unknown,Unknown,Unknown,laboratory,Unknown,Unknown,Unknown,32.5387866,35.8762859
سر الدواء,Unknown,Unknown,Unknown,Unknown,Unknown,Unknown,pharmacy,pharmacy,Unknown,Unknown,Unknown,32.5384262,35.8752789
صيدلية المملكة,Unknown,Unknown,Unknown,Unknown,Unknown,Unknown,pharmacy,pharmacy,Unknown,Unknown,Unknown,32.5389299,35.8613916
الرازي,Unknown,Unknown,Unknown,Unknown,Unknown,Unknown,pharmacy,pharmacy,Unknown,Unknown,Unknown,32.5376905,35.8731514
white pearl dental center,Unknown,Unknown,Unknown,Unknown,Unknown,Unknown,clinic,clinic,Unknown,Unknown,Unknown,32.5254094,35.8785333
مركز الاسناد للعلاج الطبيعي,Unknown,Unknown,Unknown,Unknown,Unknown,Unknown,Unknown,physiotherapist,Unknown,Unknown,Unknown,32.5251223,35.8783748
صيدلية سر الدواء,Unknown,Unknown,Unknown,Unknown,Unknown,Unknown,pharmacy,pharmacy,Unknown,Unknown,Unknown,32.5217804,35.8747784
مجمع لامار الطبي التجميل,Unknown,Unknown,Unknown,Unknown,Unknown,Unknown,clinic,clinic,Unknown,Unknown,Unknown,32.5370712,35.8697418
صيدلية الرازي,Unknown,Unknown,Unknown,Unknown,Unknown,Unknown,pharmacy,pharmacy,Unknown,Unknown,Unknown,32.5348819,35.8853944
صيدلية رامي,Unknown,Unknown,Unknown,Unknown,Unknown,Unknown,pharmacy,pharmacy,Unknown,Unknown,Unknown,32.5235202,35.8772784
Unknown,Unknown,Unknown,Unknown,Unknown,Unknown,Unknown,clinic,clinic,Unknown,Unknown,Unknown,32.5371707,35.8697881
صيدلية السوسن,Unknown,جمعية الخياطين,Unknown,Unknown,Unknown,Unknown,pharmacy,Unknown,Unknown,Unknown,Unknown,33.5515383,36.2121362
Artistry Dental & Cosmetic Clinics,Unknown,شارع عمر المختار,Damascus,Unknown,Unknown,Unknown,dentist,dentist,+963994503503,Unknown,Sa-Th 10:00-22:00,33.5257941,36.2931577
Unknown,Unknown,Unknown,Unknown,Unknown,Unknown,Unknown,pharmacy,Unknown,Unknown,Unknown,Unknown,32.2713682,35.8916976
Ahmed Al Saadi Pharmacy,Unknown,Unknown,Unknown,Unknown,Unknown,Unknown,pharmacy,pharmacy,Unknown,Unknown,Unknown,32.3297741,36.3684408
مختبر مدلاب الطبي,Unknown,Unknown,Unknown,Unknown,Unknown,Unknown,Unknown,laboratory,+962 65857327; +962 7 7040 8865,https://www.medlabsgroup.com/,Unknown,31.9550503,35.8407862
Unknown,Unknown,Unknown,Unknown,Unknown,Unknown,Unknown,pharmacy,Unknown,Unknown,Unknown,Unknown,31.9753017,35.8943691
Unknown,Unknown,Unknown,Unknown,Unknown,Unknown,Unknown,pharmacy,Unknown,Unknown,Unknown,Unknown,31.7234875,35.9872013
Unknown,Unknown,Unknown,Unknown,Unknown,Unknown,Unknown,pharmacy,pharmacy,Unknown,Unknown,Unknown,32.5649785,35.8038774
Unknown,Unknown,Unknown,Unknown,Unknown,Unknown,Unknown,pharmacy,pharmacy,Unknown,Unknown,Unknown,32.558964,35.8051134
الدكتور حنين شبروني,Unknown,حارة عمرو بن مَعدي كَرب ٤,دمشق,Unknown,Unknown,Unknown,dentist,dentist,+963 11 513 2985;+963 944 328 277,Unknown,Unknown,33.5479434,36.3170532
صيدلية سيلينيوم,Unknown,Unknown,Unknown,Unknown,Unknown,Unknown,pharmacy,pharmacy,Unknown,Unknown,Unknown,32.5324707,35.8477093
Al-Kindi Hospital,Unknown,Unknown,Unknown,Unknown,Unknown,Unknown,hospital,hospital,Unknown,Unknown,Unknown,31.9688992,35.9120413
عيادة الدكتور ماهر,Unknown,Unknown,Unknown,Unknown,Unknown,Unknown,clinic,clinic,Unknown,Unknown,Unknown,31.9668939,35.9178634
Unknown,Unknown,Unknown,Unknown,Unknown,Unknown,Unknown,dentist,dentist,Unknown,Unknown,Unknown,32.5350464,35.8455246
صيدلية قطرات,Unknown,Unknown,Unknown,Unknown,Unknown,Unknown,pharmacy,pharmacy,Unknown,Unknown,Unknown,32.537804,35.8429393
صيدلية الثلج,Unknown,Unknown,Unknown,Unknown,Unknown,Unknown,pharmacy,pharmacy,Unknown,Unknown,Unknown,32.5402304,35.8441478
صفوان,Unknown,Unknown,Unknown,Unknown,Unknown,Unknown,pharmacy,Unknown,Unknown,Unknown,Unknown,33.5333966,36.1842579
ابن سينا,Unknown,Unknown,Unknown,Unknown,Unknown,Unknown,pharmacy,pharmacy,Unknown,Unknown,Unknown,31.9522843,35.932124
بنك الدم المزة,Unknown,Unknown,Unknown,Unknown,Unknown,Unknown,Unknown,blood_donation,Unknown,Unknown,Unknown,33.5128601,36.2615305
صيدلية 29 ايار,Unknown,Unknown,Unknown,Unknown,Unknown,Unknown,pharmacy,pharmacy,Unknown,Unknown,Unknown,33.5185043,36.295179
صيدلية العابد,Unknown,Unknown,Unknown,Unknown,Unknown,Unknown,pharmacy,pharmacy,Unknown,Unknown,Unknown,33.5199275,36.2948599
مشفى الشرق,Unknown,Unknown,Unknown,Unknown,Unknown,Unknown,hospital,hospital,Unknown,Unknown,Unknown,33.5189434,36.2955674
مشفى البيروني الجامعي,Unknown,Unknown,Unknown,Unknown,Unknown,Unknown,hospital,hospital,Unknown,Unknown,Unknown,33.5127132,36.2641607
مشفى جراحة القلب الجامعي,Unknown,Unknown,Unknown,Unknown,Unknown,Unknown,hospital,hospital,Unknown,Unknown,Unknown,33.5129206,36.2646644
صيدلية ابن سينا,Unknown,Unknown,Unknown,Unknown,Unknown,Unknown,pharmacy,pharmacy,Unknown,Unknown,Unknown,33.5200654,36.2913365
صيدلية عماد,Unknown,Unknown,Unknown,Unknown,Unknown,Unknown,pharmacy,pharmacy,Unknown,Unknown,Unknown,33.525543,36.2862584
صيدلية العفيف,Unknown,Unknown,Unknown,Unknown,Unknown,Unknown,pharmacy,pharmacy,Unknown,Unknown,Unknown,33.526426,36.2846322
عيادات إشراق الطبية,Unknown,Unknown,Unknown,Unknown,Unknown,Unknown,clinic,clinic,Unknown,Unknown,Unknown,33.507437,36.2838004
مشفى حسن شيخ الأرض التخصصي,Unknown,Unknown,Unknown,Unknown,Unknown,Unknown,hospital,hospital,Unknown,Unknown,Unknown,33.4987872,36.2994837
مركز تجميل Diamond smiles,Unknown,Unknown,Unknown,Unknown,Unknown,Unknown,clinic,clinic,Unknown,Unknown,Unknown,33.5154849,36.2863162
صيدلية جوري,Unknown,Unknown,Unknown,Unknown,Unknown,Unknown,pharmacy,pharmacy,Unknown,Unknown,Unknown,33.5177339,36.2869742
صيدلية القوتلي,Unknown,Unknown,Unknown,Unknown,Unknown,Unknown,pharmacy,pharmacy,Unknown,Unknown,Unknown,33.5183296,36.2878962
صيدلية الشعلان,Unknown,Unknown,Unknown,Unknown,Unknown,Unknown,pharmacy,pharmacy,Unknown,Unknown,Unknown,33.5187897,36.2903259
صيدلية الشرق,Unknown,Unknown,Unknown,Unknown,Unknown,Unknown,pharmacy,pharmacy,Unknown,Unknown,Unknown,33.5203798,36.2896063
صيدلية ندى الصوفي,Unknown,Unknown,Unknown,Unknown,Unknown,Unknown,pharmacy,pharmacy,Unknown,Unknown,Unknown,33.5197162,36.2897647
عيادة الشام,Unknown,Unknown,Unknown,Unknown,Unknown,Unknown,clinic,clinic,Unknown,Unknown,Unknown,33.5144991,36.287172
مشفى الشام,Unknown,جادة عبد الحميد الكاتب,دمشق,Unknown,Unknown,Unknown,hospital,hospital,Unknown,Unknown,Unknown,33.5205123,36.2868538
مركز لاموندا الطبي,Unknown,Unknown,Unknown,Unknown,Unknown,Unknown,clinic,clinic,Unknown,Unknown,Unknown,33.5245394,36.2825342
مخبر حبش للتحاليل الطبية,Unknown,Unknown,Unknown,Unknown,Unknown,Unknown,Unknown,laboratory,Unknown,Unknown,Unknown,33.5236674,36.2874773
مخبر الصواف للتحاليل الطبية,Unknown,Unknown,Unknown,Unknown,Unknown,Unknown,Unknown,laboratory,Unknown,Unknown,Unknown,33.5195697,36.2786255
مركز الروضة للعين والليزر,Unknown,Unknown,Unknown,Unknown,Unknown,Unknown,hospital,hospital,Unknown,Unknown,Unknown,33.5220221,36.2864105
صيدلية الخطيب,Unknown,Unknown,Unknown,Unknown,Unknown,Unknown,pharmacy,pharmacy,Unknown,Unknown,Unknown,33.5233785,36.2887178
صيدلية الحكيم,Unknown,Unknown,Unknown,Unknown,Unknown,Unknown,pharmacy,pharmacy,Unknown,Unknown,Unknown,33.5240748,36.2866053
عيادة الرواد الاستشارية,Unknown,Unknown,Unknown,Unknown,Unknown,Unknown,clinic,clinic,Unknown,Unknown,Unknown,33.5259027,36.2846816
مركز تقويم الوجه والفكين,Unknown,Unknown,Unknown,Unknown,Unknown,Unknown,clinic,clinic,Unknown,Unknown,Unknown,33.521976,36.2833964
Dahab Beauty Clinic,Unknown,Unknown,Unknown,Unknown,Unknown,Unknown,clinic,clinic,Unknown,Unknown,Unknown,33.5238135,36.2937598
مركز الأنتراليزيك الدولي لطب العيون,Unknown,Unknown,Unknown,Unknown,Unknown,Unknown,clinic,clinic,Unknown,Unknown,Unknown,33.5231756,36.2979591
مخبر أمانة للتشريح المرضي,Unknown,Unknown,Unknown,Unknown,Unknown,Unknown,hospital,hospital,Unknown,Unknown,Unknown,33.5230638,36.2986266
صيدلية الفارابي,Unknown,Unknown,Unknown,Unknown,Unknown,Unknown,pharmacy,pharmacy,Unknown,Unknown,Unknown,33.5256156,36.2976335
مركز سوريانا الطبي,Unknown,Unknown,Unknown,Unknown,Unknown,Unknown,clinic,clinic,Unknown,Unknown,Unknown,33.5234799,36.2898708
صيدلية المدني,Unknown,Unknown,Unknown,Unknown,Unknown,Unknown,pharmacy,pharmacy,Unknown,Unknown,Unknown,33.5236645,36.2988865
المركز التخصصي في الحول,Unknown,Unknown,Unknown,Unknown,Unknown,Unknown,clinic,clinic,Unknown,Unknown,Unknown,33.5252695,36.2891502
المركز الطبي السوري الروسي,Unknown,Unknown,Unknown,Unknown,Unknown,Unknown,clinic,clinic,Unknown,Unknown,Unknown,33.5241784,36.291394
مشفى الضياء الجراحي,Unknown,Unknown,Unknown,Unknown,Unknown,Unknown,hospital,hospital,Unknown,Unknown,Unknown,33.5203575,36.2967407
مخبر المتولي للتحاليل الطبية,Unknown,Unknown,Unknown,Unknown,Unknown,Unknown,Unknown,laboratory,Unknown,Unknown,Unknown,33.5257459,36.2900317
مركز رودينا للجراحة التجميلية,Unknown,Unknown,Unknown,Unknown,Unknown,Unknown,clinic,clinic,Unknown,Unknown,Unknown,33.525308,36.2967897
رودينا للجراحة التجميلية والليزر,Unknown,Unknown,Unknown,Unknown,Unknown,Unknown,clinic,clinic,Unknown,Unknown,Unknown,33.5219689,36.3002675
مركز الباسل للتصوير المغناطيسي,Unknown,Unknown,Unknown,Unknown,Unknown,Unknown,clinic,clinic,Unknown,Unknown,Unknown,33.5225228,36.2945691
مشفى الأماني الحديثة,Unknown,Unknown,Unknown,Unknown,Unknown,Unknown,hospital,hospital,Unknown,Unknown,Unknown,33.5226228,36.2951535
مخبر درويش الطبي,Unknown,Unknown,Unknown,Unknown,Unknown,Unknown,Unknown,laboratory,Unknown,Unknown,Unknown,33.5230142,36.2927395
عيادات الياسمين لطب الاسنان,Unknown,Unknown,Unknown,Unknown,Unknown,Unknown,clinic,clinic,Unknown,Unknown,Unknown,33.5228823,36.2931376
صيدلية المزرعة,Unknown,Unknown,Unknown,Unknown,Unknown,Unknown,pharmacy,pharmacy,Unknown,Unknown,Unknown,33.5232078,36.2929028
Life Line Clinic,Unknown,Unknown,Unknown,Unknown,Unknown,Unknown,clinic,clinic,Unknown,Unknown,Unknown,33.4991364,36.2525618
صيدلية هلا النوري,Unknown,Unknown,Unknown,Unknown,Unknown,Unknown,pharmacy,pharmacy,Unknown,Unknown,Unknown,33.4902525,36.2368739
صيدلية نجود الأيوبي,Unknown,Unknown,Unknown,Unknown,Unknown,Unknown,pharmacy,pharmacy,Unknown,Unknown,Unknown,33.4931299,36.2418739
صيدلية الوسام,Unknown,Unknown,Unknown,Unknown,Unknown,Unknown,pharmacy,pharmacy,Unknown,Unknown,Unknown,33.4936331,36.2479614
صيدلية الامان,Unknown,Unknown,Unknown,Unknown,Unknown,Unknown,pharmacy,pharmacy,Unknown,Unknown,Unknown,33.4989801,36.2517674
صيدلية الهدى,Unknown,Unknown,Unknown,Unknown,Unknown,Unknown,pharmacy,pharmacy,Unknown,Unknown,Unknown,33.5000112,36.2417397
Aloe Vera Clinic,Unknown,Unknown,Unknown,Unknown,Unknown,Unknown,clinic,clinic,Unknown,Unknown,Unknown,33.5003184,36.2460903
المركزالتخصصي للعناية الطبية,Unknown,Unknown,Unknown,Unknown,Unknown,Unknown,clinic,clinic,Unknown,Unknown,Unknown,33.5040413,36.2511117
صيدلية السهلي,Unknown,Unknown,Unknown,Unknown,Unknown,Unknown,pharmacy,pharmacy,Unknown,Unknown,Unknown,33.4999826,36.2415616
Seif Beauty Clinic,Unknown,Unknown,Unknown,Unknown,Unknown,Unknown,clinic,clinic,Unknown,Unknown,Unknown,33.5004766,36.2464105
صيدلية هدى الدبيات,Unknown,Unknown,Unknown,Unknown,Unknown,Unknown,pharmacy,pharmacy,Unknown,Unknown,Unknown,33.5033252,36.2498168
صيدلية دمشق الجديدة,Unknown,Unknown,Unknown,Unknown,Unknown,Unknown,pharmacy,pharmacy,Unknown,Unknown,Unknown,33.5042216,36.2508667
صيدلية ميسلون,Unknown,Unknown,Unknown,Unknown,Unknown,Unknown,pharmacy,pharmacy,Unknown,Unknown,Unknown,33.5058578,36.2542233
Aloe Vera Clinic,Unknown,Unknown,Unknown,Unknown,Unknown,Unknown,clinic,clinic,Unknown,Unknown,Unknown,33.5003033,36.2450358
Faour Dental Clinic,Unknown,Unknown,Unknown,Unknown,Unknown,Unknown,clinic,clinic,Unknown,Unknown,Unknown,33.5071728,36.2572217
صيدلية عفراء,Unknown,Unknown,Unknown,Unknown,Unknown,Unknown,pharmacy,pharmacy,Unknown,Unknown,Unknown,33.5013913,36.2479695
صيدلية المزة المركزية,Unknown,Unknown,Unknown,Unknown,Unknown,Unknown,pharmacy,pharmacy,Unknown,Unknown,Unknown,33.5050345,36.2526261
صيدلية الحنفي,Unknown,Unknown,Unknown,Unknown,Unknown,Unknown,pharmacy,pharmacy,Unknown,Unknown,Unknown,33.5088884,36.2586863
LINA Dental Clinic,Unknown,Unknown,Unknown,Unknown,Unknown,Unknown,clinic,clinic,Unknown,Unknown,Unknown,33.4996607,36.2755601
الفارس لطب الأسنان,Unknown,Unknown,Unknown,Unknown,Unknown,Unknown,clinic,clinic,Unknown,Unknown,Unknown,33.5293413,36.3223609
العيادة السنية التخصصية در.انجيلا جورج خوري,Unknown,Unknown,Unknown,Unknown,Unknown,Unknown,clinic,clinic,Unknown,Unknown,Unknown,33.532785,36.321115
صيدلية دمر الجديدة,Unknown,Unknown,Unknown,Unknown,Unknown,Unknown,pharmacy,pharmacy,Unknown,Unknown,Unknown,33.5188424,36.2095902
صيدليةهدى نعمان,Unknown,Unknown,Unknown,Unknown,Unknown,Unknown,pharmacy,pharmacy,Unknown,Unknown,Unknown,33.5291174,36.3175158
صيدلية حداد,Unknown,Unknown,Unknown,Unknown,Unknown,Unknown,pharmacy,pharmacy,Unknown,Unknown,Unknown,33.5277923,36.3185154
Lotus Beauty Clinic,Unknown,Unknown,Unknown,Unknown,Unknown,Unknown,clinic,clinic,Unknown,Unknown,Unknown,33.5300307,36.3172893
Syrian Arab Red Crescent,Unknown,Unknown,Unknown,Unknown,Unknown,Unknown,hospital,hospital,Unknown,Unknown,Unknown,33.5273425,36.3205886
Damas Bright Dental Care,Unknown,Unknown,Unknown,Unknown,Unknown,Unknown,clinic,clinic,Unknown,Unknown,Unknown,33.5221733,36.216159
Dummar Medical Centre,Unknown,Unknown,Unknown,Unknown,Unknown,Unknown,clinic,clinic,Unknown,Unknown,Unknown,33.5229335,36.2165216
صيدلية مركز دمر الطبي,Unknown,Unknown,Unknown,Unknown,Unknown,Unknown,pharmacy,pharmacy,Unknown,Unknown,Unknown,33.5229067,36.21638
صيدلية ايمان حاج علي,Unknown,Unknown,Unknown,Unknown,Unknown,Unknown,pharmacy,pharmacy,Unknown,Unknown,Unknown,33.5228515,36.2218908
صيدلية خلدون,Unknown,Unknown,Unknown,Unknown,Unknown,Unknown,pharmacy,pharmacy,Unknown,Unknown,Unknown,33.4966571,36.2425365
صيدلية سلمى,Unknown,Unknown,Unknown,Unknown,Unknown,Unknown,pharmacy,pharmacy,Unknown,Unknown,Unknown,33.4998739,36.2487502
صيدلية الحكمة,Unknown,Unknown,Unknown,Unknown,Unknown,Unknown,pharmacy,pharmacy,Unknown,Unknown,Unknown,33.5275971,36.3143608
مشفى حمشو,Unknown,Unknown,Unknown,Unknown,Unknown,Unknown,hospital,hospital,Unknown,Unknown,Unknown,33.5189155,36.2117874
صيدلية لين خليل,Unknown,Unknown,Unknown,Unknown,Unknown,Unknown,pharmacy,pharmacy,Unknown,Unknown,Unknown,33.5304891,36.3161579
صيدلية كردوس,Unknown,Unknown,Unknown,Unknown,Unknown,Unknown,pharmacy,pharmacy,Unknown,Unknown,Unknown,33.5291706,36.3164221
مركز السابع من نيسان الصحي-مستوصف,Unknown,Unknown,Unknown,Unknown,Unknown,Unknown,hospital,hospital,Unknown,Unknown,Unknown,33.5302135,36.3166357
صيدلية ليلى,Unknown,Unknown,Unknown,Unknown,Unknown,Unknown,pharmacy,pharmacy,Unknown,Unknown,Unknown,33.5292169,36.3148431
المختبر السوري ااحديث,Unknown,Unknown,Unknown,Unknown,Unknown,Unknown,Unknown,laboratory,Unknown,Unknown,Unknown,33.5296658,36.3157566
الدكتور انطوان يوسف قسيس,Unknown,Unknown,Unknown,Unknown,Unknown,Unknown,clinic,clinic,Unknown,Unknown,Unknown,33.52857,36.3161232
صيدلية حنان الكمشة,Unknown,Unknown,Unknown,Unknown,Unknown,Unknown,pharmacy,pharmacy,Unknown,Unknown,Unknown,33.5289074,36.3136374
Specialized dental clinic,Unknown,Unknown,Unknown,Unknown,Unknown,Unknown,doctors,doctor,Unknown,Unknown,Unknown,33.525778,36.2211768
dr farouq,Unknown,Unknown,Unknown,Unknown,Unknown,Unknown,doctors,doctor,Unknown,Unknown,Unknown,33.5230401,36.2215158
مخبر الشام للتحاليل الطبية,Unknown,Unknown,Unknown,Unknown,Unknown,Unknown,Unknown,laboratory,Unknown,Unknown,Unknown,33.5258409,36.3150686
صيدلية نونة,Unknown,Unknown,Unknown,Unknown,Unknown,Unknown,pharmacy,pharmacy,Unknown,Unknown,Unknown,33.5261372,36.3172376
Smile Dental Clinic,Unknown,Unknown,Unknown,Unknown,Unknown,Unknown,doctors,doctor,Unknown,Unknown,Unknown,33.5254828,36.2206377
صيدلية الصايغ,Unknown,Unknown,Unknown,Unknown,Unknown,Unknown,pharmacy,pharmacy,Unknown,Unknown,Unknown,33.524955,36.3154768
DUO Clinic,Unknown,Unknown,Unknown,Unknown,Unknown,Unknown,clinic,clinic,Unknown,Unknown,Unknown,33.5270441,36.3145307
صيدليةمميز عينتابي,Unknown,Unknown,Unknown,Unknown,Unknown,Unknown,pharmacy,pharmacy,Unknown,Unknown,Unknown,33.5289893,36.2353885
صيدلية هديل,Unknown,Unknown,Unknown,Unknown,Unknown,Unknown,pharmacy,pharmacy,Unknown,Unknown,Unknown,33.5303017,36.2379153
عيادة الجراحة العظيمة الدكتور إحسان شاهين,Unknown,Unknown,Unknown,Unknown,Unknown,Unknown,doctors,doctor,Unknown,Unknown,Unknown,33.5322817,36.236943
صيدليةالبزرة,Unknown,Unknown,Unknown,Unknown,Unknown,Unknown,pharmacy,pharmacy,Unknown,Unknown,Unknown,33.5243657,36.3124526
صيدلية التجارة,Unknown,Unknown,Unknown,Unknown,Unknown,Unknown,pharmacy,pharmacy,Unknown,Unknown,Unknown,33.5274929,36.3121796
Dr.Taha Kass-Hout,Unknown,Unknown,Unknown,Unknown,Unknown,Unknown,clinic,clinic,Unknown,Unknown,Unknown,33.5258434,36.3105437
صيدلية باسل دياب,Unknown,Unknown,Unknown,Unknown,Unknown,Unknown,pharmacy,pharmacy,Unknown,Unknown,Unknown,33.5330147,36.2370886
الدكتورة الاء العلي,Unknown,Unknown,Unknown,Unknown,Unknown,Unknown,doctors,doctor,Unknown,Unknown,Unknown,33.5334633,36.2355042
صيدلية هند الشويري,Unknown,Unknown,Unknown,Unknown,Unknown,Unknown,pharmacy,pharmacy,Unknown,Unknown,Unknown,33.5232287,36.3150315
العيادة النفسية الاستشارية د. تيسير حسون,Unknown,Unknown,Unknown,Unknown,Unknown,Unknown,doctors,doctor,Unknown,Unknown,Unknown,33.5318166,36.2377637
عيادة الدكتور عصام الصيرفي السنية,Unknown,Unknown,Unknown,Unknown,Unknown,Unknown,clinic,clinic,Unknown,Unknown,Unknown,33.5458957,36.3182672
The clinic bone rotation,Unknown,Unknown,Unknown,Unknown,Unknown,Unknown,Unknown,laboratory,Unknown,Unknown,Unknown,33.5349463,36.236279
صيدلية ندى السمان,Unknown,Unknown,Unknown,Unknown,Unknown,Unknown,pharmacy,pharmacy,Unknown,Unknown,Unknown,33.5354213,36.2354878
مستشفى العيون الجراحي,Unknown,Unknown,Unknown,Unknown,Unknown,Unknown,hospital,hospital,Unknown,Unknown,Unknown,33.5475718,36.3070126
عيادة الدكتور معتز بركات,Unknown,Unknown,Unknown,Unknown,Unknown,Unknown,doctors,doctor,Unknown,Unknown,Unknown,33.5364092,36.2352783
صيدلية دمر الغربية,Unknown,Unknown,Unknown,Unknown,Unknown,Unknown,pharmacy,pharmacy,Unknown,Unknown,Unknown,33.5373363,36.2366779
عيادة الدكتور صلاح نمر غزاوي جراحة عامه .جراحة بولية,Unknown,Unknown,Unknown,Unknown,Unknown,Unknown,doctors,doctor,Unknown,Unknown,Unknown,33.537872,36.2368262
مختبر الصحة العامة,Unknown,Unknown,Unknown,Unknown,Unknown,Unknown,Unknown,laboratory,Unknown,Unknown,Unknown,33.5228986,36.3154413
عيادةالنور لطب الأسنان,Unknown,Unknown,Unknown,Unknown,Unknown,Unknown,clinic,clinic,Unknown,Unknown,Unknown,33.5223644,36.3137448
AL NQAA' MEDICAL SERVICES - N.M.S,Unknown,Unknown,Unknown,Unknown,Unknown,Unknown,clinic,clinic,Unknown,Unknown,Unknown,33.5218019,36.3137251
صيدلية حاميش,Unknown,Unknown,Unknown,Unknown,Unknown,Unknown,pharmacy,pharmacy,Unknown,Unknown,Unknown,33.5519525,36.3215215
العيادة المتطورة,Unknown,Unknown,Unknown,Unknown,Unknown,Unknown,clinic,clinic,Unknown,Unknown,Unknown,33.523022,36.3129959
صيدلية عبادة هنوف,Unknown,Unknown,Unknown,Unknown,Unknown,Unknown,pharmacy,pharmacy,Unknown,Unknown,Unknown,33.5371027,36.242977
مخبر د. حيدر للتحاليل الطبية,Unknown,Unknown,Unknown,Unknown,Unknown,Unknown,Unknown,laboratory,Unknown,Unknown,Unknown,33.5389047,36.2401661
صيديلية ايمان دلوني,Unknown,Unknown,Unknown,Unknown,Unknown,Unknown,pharmacy,pharmacy,Unknown,Unknown,Unknown,33.5381937,36.240909
صيدلية نويلاتي,Unknown,Unknown,Unknown,Unknown,Unknown,Unknown,pharmacy,pharmacy,Unknown,Unknown,Unknown,33.5565277,36.3292174
صيدلية تشرين,Unknown,Unknown,Unknown,Unknown,Unknown,Unknown,pharmacy,pharmacy,Unknown,Unknown,Unknown,33.5565192,36.3292545
صيدلية اشبيليا,Unknown,Unknown,Unknown,Unknown,Unknown,Unknown,pharmacy,pharmacy,Unknown,Unknown,Unknown,33.5383465,36.2445986
صيدلية السنا,Unknown,Unknown,Unknown,Unknown,Unknown,Unknown,pharmacy,pharmacy,Unknown,Unknown,Unknown,33.5542517,36.3255523
صيدلية العباسيين,Unknown,Unknown,Unknown,Unknown,Unknown,Unknown,pharmacy,pharmacy,Unknown,Unknown,Unknown,33.5231272,36.3183597
صيدلية عكة,Unknown,Unknown,Unknown,Unknown,Unknown,Unknown,pharmacy,pharmacy,Unknown,Unknown,Unknown,33.5225308,36.3187434
Health Care Centre,Unknown,Unknown,Unknown,Unknown,Unknown,Unknown,clinic,clinic,Unknown,Unknown,Unknown,33.5220885,36.3185431
WAHBEH Dental Esthetic Clinic,Unknown,Unknown,Unknown,Unknown,Unknown,Unknown,clinic,clinic,Unknown,Unknown,Unknown,33.520538,36.3176012
صيدلية فارماسيتي,Unknown,Unknown,Unknown,Unknown,Unknown,Unknown,pharmacy,pharmacy,Unknown,Unknown,Unknown,33.5176252,36.3199659
عيادة جراحة البدانة السورية,Unknown,Unknown,Unknown,Unknown,Unknown,Unknown,clinic,clinic,Unknown,Unknown,Unknown,33.5184352,36.3169104
صيدلية الهامس,Unknown,Unknown,Unknown,Unknown,Unknown,Unknown,pharmacy,pharmacy,Unknown,Unknown,Unknown,33.5178332,36.3180577
مستشفى دمر,Unknown,Unknown,Unknown,Unknown,Unknown,Unknown,hospital,hospital,Unknown,Unknown,Unknown,33.5398489,36.2432223
دكتور كريكور برسكان,Unknown,Unknown,Unknown,Unknown,Unknown,Unknown,clinic,clinic,Unknown,Unknown,Unknown,33.5192063,36.3169435
X academy Health&Fitness,Unknown,Unknown,Unknown,Unknown,Unknown,Unknown,Unknown,x_academy_health&fitness,Unknown,Unknown,Unknown,33.5216401,36.316452
دكتور مصطفى بلال,Unknown,Unknown,Unknown,Unknown,Unknown,Unknown,doctors,doctor,Unknown,Unknown,Unknown,33.527294,36.2344499
Seif Beauty Clinic,Unknown,Unknown,Unknown,Unknown,Unknown,Unknown,clinic,clinic,Unknown,Unknown,Unknown,33.5223427,36.3163386
صيدلية نيشان,Unknown,Unknown,Unknown,Unknown,Unknown,Unknown,pharmacy,pharmacy,Unknown,Unknown,Unknown,33.5270838,36.234981
صيدلية ابن العميد,Unknown,Unknown,Unknown,Unknown,Unknown,Unknown,pharmacy,pharmacy,Unknown,Unknown,Unknown,33.5415662,36.3058702
الدكتور جورج الحداد,Unknown,Unknown,Unknown,Unknown,Unknown,Unknown,clinic,clinic,Unknown,Unknown,Unknown,33.5209648,36.3158691
صيدلية احمد ماهر,Unknown,Unknown,Unknown,Unknown,Unknown,Unknown,pharmacy,pharmacy,Unknown,Unknown,Unknown,33.5407556,36.30424
عيادة ابتسامتي,Unknown,Unknown,Unknown,Unknown,Unknown,Unknown,clinic,clinic,Unknown,Unknown,Unknown,33.5426083,36.3059525
مستوصف هالة بنت خويلد,Unknown,Unknown,Unknown,Unknown,Unknown,Unknown,clinic,clinic,Unknown,Unknown,Unknown,33.5419254,36.3045093
Alura Beauty Clinic&Care,Unknown,Unknown,Unknown,Unknown,Unknown,Unknown,clinic,clinic,Unknown,Unknown,Unknown,33.5197642,36.3159546
عيادة طب وتجميل الاسنان,Unknown,Unknown,Unknown,Unknown,Unknown,Unknown,dentist,dentist,Unknown,Unknown,Unknown,33.5281087,36.2263905
مستوصف برازي الطبي,Unknown,Unknown,Unknown,Unknown,Unknown,Unknown,clinic,clinic,Unknown,Unknown,Unknown,33.5380416,36.2998227
صيدلية الميدان,Unknown,Unknown,Unknown,Unknown,Unknown,Unknown,pharmacy,pharmacy,Unknown,Unknown,Unknown,33.497197,36.295063
مركز الشام لطب الأسنان,Unknown,Unknown,Unknown,Unknown,Unknown,Unknown,clinic,clinic,Unknown,Unknown,Unknown,33.5182745,36.3149174
عيادة الأصبحي التخصصية لطب وتقويم الأسنان,Unknown,Unknown,Unknown,Unknown,Unknown,Unknown,clinic,clinic,Unknown,Unknown,Unknown,33.4994215,36.2958918
صيدلية برنية,Unknown,Unknown,Unknown,Unknown,Unknown,Unknown,pharmacy,pharmacy,Unknown,Unknown,Unknown,33.5402075,36.2968728
صيدلية مهند,Unknown,Unknown,Unknown,Unknown,Unknown,Unknown,pharmacy,pharmacy,Unknown,Unknown,Unknown,33.5298673,36.2253986
صيدلية ابن زيدون,Unknown,Unknown,Unknown,Unknown,Unknown,Unknown,pharmacy,pharmacy,Unknown,Unknown,Unknown,33.4993617,36.2965336
مخبر العلبي,Unknown,Unknown,Unknown,Unknown,Unknown,Unknown,Unknown,laboratory,Unknown,Unknown,Unknown,33.4994877,36.295395
صيدلية الغزالي,Unknown,Unknown,Unknown,Unknown,Unknown,Unknown,pharmacy,pharmacy,Unknown,Unknown,Unknown,33.5314553,36.2291606
صيدلية الروضة,Unknown,Unknown,Unknown,Unknown,Unknown,Unknown,pharmacy,pharmacy,Unknown,Unknown,Unknown,33.5326818,36.2317276
مجمع العثمان الطبي الخيري,Unknown,Unknown,Unknown,Unknown,Unknown,Unknown,hospital,hospital,Unknown,Unknown,Unknown,33.5268807,36.2942587
مركز الزهراء الطبي,Unknown,Unknown,Unknown,Unknown,Unknown,Unknown,hospital,hospital,Unknown,Unknown,Unknown,33.526751,36.2949221
صيدلية اية,Unknown,Unknown,Unknown,Unknown,Unknown,Unknown,pharmacy,pharmacy,Unknown,Unknown,Unknown,33.5351682,36.2384529
صيدلية رنا الشعلان,Unknown,Unknown,Unknown,Unknown,Unknown,Unknown,pharmacy,pharmacy,Unknown,Unknown,Unknown,33.5397301,36.2397731
صيدلية القباني,Unknown,Unknown,Unknown,Unknown,Unknown,Unknown,pharmacy,pharmacy,Unknown,Unknown,Unknown,33.5260979,36.2964793
مركز الرعاية النفسية الشاملة د.محمد الشقيري,Unknown,Unknown,Unknown,Unknown,Unknown,Unknown,clinic,clinic,Unknown,Unknown,Unknown,33.5262751,36.2950241
Damas Clinic,Unknown,Unknown,Unknown,Unknown,Unknown,Unknown,clinic,clinic,Unknown,Unknown,Unknown,33.5254593,36.2945061
صيدلية الفاروق,Unknown,Unknown,Unknown,Unknown,Unknown,Unknown,pharmacy,pharmacy,Unknown,Unknown,Unknown,33.5247302,36.2935419
مركز الجميل د.بشير زريق,Unknown,Unknown,Unknown,Unknown,Unknown,Unknown,clinic,clinic,Unknown,Unknown,Unknown,33.5249518,36.2947452
مخبر شفيقة للتحاليل الطبية,Unknown,Unknown,Unknown,Unknown,Unknown,Unknown,Unknown,laboratory,Unknown,Unknown,Unknown,33.5250252,36.294728
صيدلية دمر الحديثة,Unknown,Unknown,Unknown,Unknown,Unknown,Unknown,pharmacy,pharmacy,Unknown,Unknown,Unknown,33.5403858,36.2459381
صيدلية يزن,Unknown,Unknown,Unknown,Unknown,Unknown,Unknown,pharmacy,pharmacy,Unknown,Unknown,Unknown,33.5412856,36.2432192
صيدلية العطاء,Unknown,Unknown,Unknown,Unknown,Unknown,Unknown,pharmacy,pharmacy,Unknown,Unknown,Unknown,33.540619,36.2436271
صيدلية دمر الشرقية,Unknown,Unknown,Unknown,Unknown,Unknown,Unknown,pharmacy,pharmacy,Unknown,Unknown,Unknown,33.5410389,36.2480973
صيدلية البيان,Unknown,Unknown,Unknown,Unknown,Unknown,Unknown,pharmacy,pharmacy,Unknown,Unknown,Unknown,33.5426719,36.248689
AlKaram Dental,Unknown,Unknown,Unknown,Unknown,Unknown,Unknown,clinic,clinic,Unknown,Unknown,Unknown,33.5242768,36.2994724
صيدلية ضاهر الشيخ علي,Unknown,Unknown,Unknown,Unknown,Unknown,Unknown,pharmacy,pharmacy,Unknown,Unknown,Unknown,33.54725,36.3243033
صيدلية صفاء بركات,Unknown,Unknown,Unknown,Unknown,Unknown,Unknown,pharmacy,pharmacy,Unknown,Unknown,Unknown,33.5476091,36.3153074
صيدلية امل طحان,Unknown,Unknown,Unknown,Unknown,Unknown,Unknown,pharmacy,pharmacy,Unknown,Unknown,Unknown,33.5492227,36.3222668
عيادة الدكتور ابراهيم بركات لطب الاسنان,Unknown,Unknown,Unknown,Unknown,Unknown,Unknown,clinic,clinic,Unknown,Unknown,Unknown,33.546482,36.3243742
شركة الإخوة ميديكال,Unknown,Unknown,Unknown,Unknown,Unknown,Unknown,pharmacy,pharmacy,Unknown,Unknown,Unknown,33.5247052,36.299376
العيادة الاستشارية العينية د.أزهر النايف,Unknown,Unknown,Unknown,Unknown,Unknown,Unknown,clinic,clinic,Unknown,Unknown,Unknown,33.5216338,36.2996724
الدكتور رضوان عبد الرحيم تجميل الانف,Unknown,Unknown,Unknown,Unknown,Unknown,Unknown,clinic,clinic,Unknown,Unknown,Unknown,33.5477297,36.3185788
صيدلية سوريا,Unknown,Unknown,Unknown,Unknown,Unknown,Unknown,pharmacy,pharmacy,Unknown,Unknown,Unknown,33.521283,36.2974719
عيادة الدكتور بسام الايوبي,Unknown,Unknown,Unknown,Unknown,Unknown,Unknown,clinic,clinic,Unknown,Unknown,Unknown,33.5471153,36.3240878
صيدلية العلا الحديثة,Unknown,Unknown,Unknown,Unknown,Unknown,Unknown,pharmacy,pharmacy,Unknown,Unknown,Unknown,33.5230694,36.2982523
Ghnowa Jaroug Clinic,Unknown,Unknown,Unknown,Unknown,Unknown,Unknown,clinic,clinic,Unknown,Unknown,Unknown,33.5245176,36.296505
صيدلية تاج الصحة,Unknown,Unknown,Unknown,Unknown,Unknown,Unknown,pharmacy,pharmacy,Unknown,Unknown,Unknown,33.5547031,36.3285138
صيدلية شام,Unknown,Unknown,Unknown,Unknown,Unknown,Unknown,pharmacy,pharmacy,Unknown,Unknown,Unknown,33.5570953,36.3267686
صيدلية حلا,Unknown,Unknown,Unknown,Unknown,Unknown,Unknown,pharmacy,pharmacy,Unknown,Unknown,Unknown,33.5361855,36.225861
صيدلية هبه الحلبوني,Unknown,Unknown,Unknown,Unknown,Unknown,Unknown,pharmacy,pharmacy,Unknown,Unknown,Unknown,33.5409342,36.3278425
حبوس للزبوت,Unknown,Unknown,Unknown,Unknown,Unknown,Unknown,Unknown,laboratory,Unknown,Unknown,Unknown,33.5400185,36.3254888
صيدلية حنين لولو,Unknown,Unknown,Unknown,Unknown,Unknown,Unknown,pharmacy,pharmacy,Unknown,Unknown,Unknown,33.5749023,36.2925295
مركز النحاس لطب الأسنان,Unknown,Unknown,Unknown,Unknown,Unknown,Unknown,clinic,clinic,Unknown,Unknown,Unknown,33.5201408,36.3010942
مشفى هشام سنان,Unknown,Unknown,Unknown,Unknown,Unknown,Unknown,hospital,hospital,Unknown,Unknown,Unknown,33.5328666,36.2981992
مخبر الخطيب للتحاليل الطبية,Unknown,Unknown,Unknown,Unknown,Unknown,Unknown,Unknown,laboratory,Unknown,Unknown,Unknown,33.5204167,36.3107339
صيدلية الشويكي,Unknown,Unknown,Unknown,Unknown,Unknown,Unknown,pharmacy,pharmacy,Unknown,Unknown,Unknown,33.535164,36.3013368
Jabban Dental Clinic,Unknown,Unknown,Unknown,Unknown,Unknown,Unknown,clinic,clinic,Unknown,Unknown,Unknown,33.5190077,36.3094087
صيدلية وجدان,Unknown,Unknown,Unknown,Unknown,Unknown,Unknown,pharmacy,pharmacy,Unknown,Unknown,Unknown,33.5343449,36.2959966
مشفى الغزالي,Unknown,Unknown,Unknown,Unknown,Unknown,Unknown,hospital,hospital,Unknown,Unknown,Unknown,33.519397,36.3065669
مخبر دياربكرلي للتحاليل الطبية,Unknown,Unknown,Unknown,Unknown,Unknown,Unknown,Unknown,laboratory,Unknown,Unknown,Unknown,33.5363886,36.298658
مركز جمعية الشباب الطبي,Unknown,Unknown,Unknown,Unknown,Unknown,Unknown,clinic,clinic,Unknown,Unknown,Unknown,33.5394643,36.2279641
صيدلية اكتمال,Unknown,Unknown,Unknown,Unknown,Unknown,Unknown,pharmacy,pharmacy,Unknown,Unknown,Unknown,33.5385632,36.2245573
صيدلية ريم خلوف,Unknown,Unknown,Unknown,Unknown,Unknown,Unknown,pharmacy,pharmacy,Unknown,Unknown,Unknown,33.5387298,36.2271056
مشفى الهلال,Unknown,Unknown,Unknown,Unknown,Unknown,Unknown,hospital,hospital,Unknown,Unknown,Unknown,33.5203541,36.3101975
المشفى السوري لأمراض جهاز الهضم,Unknown,Unknown,Unknown,Unknown,Unknown,Unknown,hospital,hospital,Unknown,Unknown,Unknown,33.5205956,36.3096739
صيدلية الامل,Unknown,Unknown,Unknown,Unknown,Unknown,Unknown,pharmacy,pharmacy,Unknown,Unknown,Unknown,33.5365108,36.2987929
مركز قدسيا الصحي,Unknown,Unknown,Unknown,Unknown,Unknown,Unknown,Unknown,laboratory,Unknown,Unknown,Unknown,33.5418154,36.2212869
صيدلية دار الرحمة,Unknown,Unknown,Unknown,Unknown,Unknown,Unknown,pharmacy,pharmacy,Unknown,Unknown,Unknown,33.5331597,36.2924306
صيدلية الأغواني,Unknown,Unknown,Unknown,Unknown,Unknown,Unknown,pharmacy,pharmacy,Unknown,Unknown,Unknown,33.5448706,36.2264242
صيدلية رنا الشعلان,Unknown,Unknown,Unknown,Unknown,Unknown,Unknown,pharmacy,pharmacy,Unknown,Unknown,Unknown,33.544174,36.2266377
Al-Bairakdar,Unknown,Unknown,Unknown,Unknown,Unknown,Unknown,pharmacy,pharmacy,Unknown,Unknown,Unknown,33.5394416,36.2161768
صيدلية عجاج,Unknown,Unknown,Unknown,Unknown,Unknown,Unknown,pharmacy,pharmacy,Unknown,Unknown,Unknown,33.53285,36.2871397
مجمع الشفاء الطبي,Unknown,Unknown,Unknown,Unknown,Unknown,Unknown,doctors,doctor,Unknown,Unknown,Unknown,33.5489629,36.2127337
صيدلية العناية,Unknown,Unknown,Unknown,Unknown,Unknown,Unknown,pharmacy,pharmacy,Unknown,Unknown,Unknown,33.547248,36.213079
صيدلية العطار,Unknown,Unknown,Unknown,Unknown,Unknown,Unknown,pharmacy,pharmacy,Unknown,Unknown,Unknown,33.5468051,36.2213323
مركز باربينا للتجميل,Unknown,Unknown,Unknown,Unknown,Unknown,Unknown,clinic,clinic,Unknown,Unknown,Unknown,33.5288038,36.2932975
العيادة القلبية في المعضمية,Unknown,Unknown,Unknown,Unknown,Unknown,Unknown,clinic,clinic,Unknown,Unknown,Unknown,33.4702128,36.2005587
مجمع الميسات الطبي,Unknown,Unknown,Unknown,Unknown,Unknown,Unknown,clinic,clinic,Unknown,Unknown,Unknown,33.5279942,36.2923115
صيدلية باسم,Unknown,Unknown,Unknown,Unknown,Unknown,Unknown,pharmacy,pharmacy,Unknown,Unknown,Unknown,33.5539711,36.2133644
صيدلية يونيفارما,Unknown,Unknown,Unknown,Unknown,Unknown,Unknown,pharmacy,pharmacy,Unknown,Unknown,Unknown,33.5520065,36.2136869
المركز الخشي الطبي,Unknown,Unknown,Unknown,Unknown,Unknown,Unknown,clinic,clinic,Unknown,Unknown,Unknown,33.4656385,36.1970434
صيدلية صبحية غندور,Unknown,Unknown,Unknown,Unknown,Unknown,Unknown,pharmacy,pharmacy,Unknown,Unknown,Unknown,33.4631182,36.1987944
صيدلية القوس,Unknown,Unknown,Unknown,Unknown,Unknown,Unknown,pharmacy,pharmacy,Unknown,Unknown,Unknown,33.4629955,36.1913823
مركز الضاحية الطبي,Unknown,Unknown,Unknown,Unknown,Unknown,Unknown,Unknown,laboratory,Unknown,Unknown,Unknown,33.5451424,36.1932824
صيدلية هناء اسماعيل,Unknown,Unknown,Unknown,Unknown,Unknown,Unknown,pharmacy,pharmacy,Unknown,Unknown,Unknown,33.5421764,36.198735
صيدلية الحياة المركزية,Unknown,Unknown,Unknown,Unknown,Unknown,Unknown,pharmacy,pharmacy,Unknown,Unknown,Unknown,33.5410967,36.2006714
مشفى ضاحية قدسيا,Unknown,Unknown,Unknown,Unknown,Unknown,Unknown,hospital,hospital,Unknown,Unknown,Unknown,33.5457089,36.1920589
صيدلية الثريا,Unknown,Unknown,Unknown,Unknown,Unknown,Unknown,pharmacy,pharmacy,Unknown,Unknown,Unknown,33.486683,36.291988
صيدلية شام,Unknown,Unknown,Unknown,Unknown,Unknown,Unknown,pharmacy,pharmacy,Unknown,Unknown,Unknown,33.5441293,36.1928746
مركز أديب اللحام,Unknown,Unknown,Unknown,Unknown,Unknown,Unknown,hospital,hospital,Unknown,Unknown,Unknown,33.4889852,36.2916538
مخبر عليان,Unknown,Unknown,Unknown,Unknown,Unknown,Unknown,Unknown,laboratory,Unknown,Unknown,Unknown,33.5400635,36.199264
صيدلية لمياء حمادة,Unknown,Unknown,Unknown,Unknown,Unknown,Unknown,pharmacy,pharmacy,Unknown,Unknown,Unknown,33.5338446,36.1978566
عيادات شام كلينك في ضاحية قدسيا,Unknown,Unknown,Unknown,Unknown,Unknown,Unknown,clinic,clinic,Unknown,Unknown,Unknown,33.5389171,36.1994879
صيدلية المنصور,Unknown,Unknown,Unknown,Unknown,Unknown,Unknown,pharmacy,pharmacy,Unknown,Unknown,Unknown,33.5329247,36.1974247
صيدلية هبة,Unknown,Unknown,Unknown,Unknown,Unknown,Unknown,pharmacy,pharmacy,Unknown,Unknown,Unknown,33.5324247,36.1903876
صيدلية رضوان الحديثة,Unknown,Unknown,Unknown,Unknown,Unknown,Unknown,pharmacy,pharmacy,Unknown,Unknown,Unknown,33.4855672,36.2922029
صيدلية حيدر,Unknown,Unknown,Unknown,Unknown,Unknown,Unknown,pharmacy,pharmacy,Unknown,Unknown,Unknown,33.5409362,36.1861412
Beauty Smile Clunic,Unknown,Unknown,Unknown,Unknown,Unknown,Unknown,clinic,clinic,Unknown,Unknown,Unknown,33.535522,36.1903365
صيدلية سوزان شعبان,Unknown,Unknown,Unknown,Unknown,Unknown,Unknown,pharmacy,pharmacy,Unknown,Unknown,Unknown,33.5333787,36.1888128
مخبر الشام للتحاليل الطبية,Unknown,Unknown,Unknown,Unknown,Unknown,Unknown,Unknown,laboratory,Unknown,Unknown,Unknown,33.4881997,36.2927013
مشفى المهايني الحديث,Unknown,Unknown,Unknown,Unknown,Unknown,Unknown,hospital,hospital,Unknown,Unknown,Unknown,33.4887133,36.2946819
صيدلية وفاء,Unknown,Unknown,Unknown,Unknown,Unknown,Unknown,pharmacy,pharmacy,Unknown,Unknown,Unknown,33.5340951,36.1824627
مستوصف مي زيادة المدرسي,Unknown,Unknown,Unknown,Unknown,Unknown,Unknown,hospital,hospital,Unknown,Unknown,Unknown,33.4915663,36.2966881
معجنات البدر,Unknown,Unknown,Unknown,Unknown,Unknown,Unknown,pharmacy,pharmacy,Unknown,Unknown,Unknown,33.5370817,36.1842334
صيدلية جلال سوقية,Unknown,Unknown,Unknown,Unknown,Unknown,Unknown,pharmacy,pharmacy,Unknown,Unknown,Unknown,33.5343168,36.1814817
صيدلية ايمان سرور,Unknown,Unknown,Unknown,Unknown,Unknown,Unknown,pharmacy,pharmacy,Unknown,Unknown,Unknown,33.5354394,36.1781813
صيدلية نظمي,Unknown,Unknown,Unknown,Unknown,Unknown,Unknown,pharmacy,pharmacy,Unknown,Unknown,Unknown,33.5335407,36.1802596
Marhaf Kiki Pharmacy,Unknown,Unknown,Unknown,Unknown,Unknown,Unknown,pharmacy,pharmacy,Unknown,Unknown,Unknown,33.5341228,36.1764605
مشفى بدر,Unknown,Unknown,Unknown,Unknown,Unknown,Unknown,hospital,hospital,Unknown,Unknown,Unknown,33.5416211,36.2131765
صيدلية سمية هلال,Unknown,Unknown,Unknown,Unknown,Unknown,Unknown,pharmacy,pharmacy,Unknown,Unknown,Unknown,33.4837722,36.29671
مخبر الدكتور علي سعيد للتحاليل الطبية,Unknown,Unknown,Unknown,Unknown,Unknown,Unknown,clinic,clinic,Unknown,Unknown,Unknown,33.5805651,36.357826
صيدلية رولا,Unknown,Unknown,Unknown,Unknown,Unknown,Unknown,pharmacy,pharmacy,Unknown,Unknown,Unknown,33.5822153,36.3662308
مركز العيادات التخصصية,Unknown,Unknown,Unknown,Unknown,Unknown,Unknown,clinic,clinic,Unknown,Unknown,Unknown,33.5803199,36.362305
صيدلية المنار,Unknown,Unknown,Unknown,Unknown,Unknown,Unknown,pharmacy,pharmacy,Unknown,Unknown,Unknown,33.5807956,36.362885
صيدلية ديمة عيسى,Unknown,Unknown,Unknown,Unknown,Unknown,Unknown,pharmacy,pharmacy,Unknown,Unknown,Unknown,33.5510118,36.1261048
صيدلية ريم شاش,Unknown,Unknown,Unknown,Unknown,Unknown,Unknown,pharmacy,pharmacy,Unknown,Unknown,Unknown,33.551949,36.1324323
مشفى المهايني القديمة,Unknown,Unknown,Unknown,Unknown,Unknown,Unknown,hospital,hospital,Unknown,Unknown,Unknown,33.4870596,36.2955687
عيادات الجزماتية التخصصية,Unknown,Unknown,Unknown,Unknown,Unknown,Unknown,clinic,clinic,Unknown,Unknown,Unknown,33.4952086,36.2981046
صيدلية ندى,Unknown,Unknown,Unknown,Unknown,Unknown,Unknown,pharmacy,pharmacy,Unknown,Unknown,Unknown,33.5601984,36.1418247
Unknown,Unknown,Unknown,Unknown,Unknown,Unknown,Unknown,pharmacy,pharmacy,Unknown,Unknown,Unknown,33.5940012,36.1986364
مستوصف الصبورة,Unknown,Unknown,Unknown,Unknown,Unknown,Unknown,clinic,clinic,Unknown,Unknown,Unknown,33.5113051,36.1221054
علاء الدين بيوتي كلينك,Unknown,Unknown,Unknown,Unknown,Unknown,Unknown,clinic,clinic,Unknown,Unknown,Unknown,33.4845896,36.3049167
صيدلية ماري حنا,Unknown,Unknown,Unknown,Unknown,Unknown,Unknown,pharmacy,pharmacy,Unknown,Unknown,Unknown,33.5216913,36.3087937
المشفى السوري التخصصي,Unknown,Unknown,Unknown,Unknown,Unknown,Unknown,hospital,hospital,Unknown,Unknown,Unknown,33.5199998,36.3098207
صيدلية الصفدي,Unknown,Unknown,Unknown,Unknown,Unknown,Unknown,pharmacy,pharmacy,Unknown,Unknown,Unknown,33.5202646,36.3030894
العيادة العينية د.عبد اللطيف عبدالله,Unknown,Unknown,Unknown,Unknown,Unknown,Unknown,clinic,clinic,Unknown,Unknown,Unknown,33.519916,36.3023699
صيدلية الشعار,Unknown,Unknown,Unknown,Unknown,Unknown,Unknown,pharmacy,pharmacy,Unknown,Unknown,Unknown,33.504971,36.3112806
صيدلية شحادة,Unknown,Unknown,Unknown,Unknown,Unknown,Unknown,pharmacy,pharmacy,Unknown,Unknown,Unknown,33.5043133,36.3120638
مشفى المجد,Unknown,Unknown,Unknown,Unknown,Unknown,Unknown,hospital,hospital,Unknown,Unknown,Unknown,33.4734935,36.2878153
جمعية تنظيم الاسرة,Unknown,Unknown,Unknown,Unknown,Unknown,Unknown,clinic,clinic,Unknown,Unknown,Unknown,33.5035499,36.3096481
مركز شفا التخصصي لطب الأسنان,Unknown,Unknown,Unknown,Unknown,Unknown,Unknown,clinic,clinic,Unknown,Unknown,Unknown,33.4997879,36.300912
مشفى العباسيين 3,Unknown,Unknown,Unknown,Unknown,Unknown,Unknown,hospital,hospital,Unknown,Unknown,Unknown,33.5220154,36.3217262
وحدة الاسنان,Unknown,Unknown,Unknown,Unknown,Unknown,Unknown,clinic,clinic,Unknown,Unknown,Unknown,33.5185953,36.2806157
صيدلية ملك حمادة,Unknown,Unknown,Unknown,Unknown,Unknown,Unknown,pharmacy,pharmacy,Unknown,Unknown,Unknown,33.528485,36.330628
صيدلية الطيبي,Unknown,Unknown,Unknown,Unknown,Unknown,Unknown,pharmacy,pharmacy,Unknown,Unknown,Unknown,33.4869826,36.3659393
صيدلية السلام,Unknown,Unknown,Unknown,Unknown,Unknown,Unknown,pharmacy,pharmacy,Unknown,Unknown,Unknown,33.4301316,36.2256323
عيادة الدكتور : أنس سعد الدين ، طب وجراحة الأسنان,Unknown,Unknown,Unknown,Unknown,Unknown,Unknown,clinic,clinic,Unknown,Unknown,Unknown,33.4299341,36.2307378
مشفى المليحة,Unknown,Unknown,Unknown,Unknown,Unknown,Unknown,hospital,hospital,Unknown,Unknown,Unknown,33.4881971,36.379009
مشفى الصفا,Unknown,Unknown,Unknown,Unknown,Unknown,Unknown,hospital,hospital,Unknown,Unknown,Unknown,33.4845107,36.3790456
صيدلية الحياة,Unknown,Unknown,Unknown,Unknown,Unknown,Unknown,pharmacy,pharmacy,Unknown,Unknown,Unknown,33.4276827,36.2231696
صيدلية الكرم المركزية,Unknown,Unknown,Unknown,Unknown,Unknown,Unknown,pharmacy,pharmacy,Unknown,Unknown,Unknown,33.5131567,36.3687389
مشفى نجيب,Unknown,Unknown,Unknown,Unknown,Unknown,Unknown,hospital,hospital,Unknown,Unknown,Unknown,33.51361,36.3578932
صيدلية الحسن,Unknown,Unknown,Unknown,Unknown,Unknown,Unknown,pharmacy,pharmacy,Unknown,Unknown,Unknown,33.4211708,36.2223066
مشفى الفاتح,Unknown,Unknown,Unknown,Unknown,Unknown,Unknown,hospital,hospital,Unknown,Unknown,Unknown,33.5102422,36.3702827
مخبر الفجر للتحاليل الطبية,Unknown,Unknown,Unknown,Unknown,Unknown,Unknown,Unknown,laboratory,Unknown,Unknown,Unknown,33.4274336,36.2236812
صيدلية الشفاء,Unknown,Unknown,Unknown,Unknown,Unknown,Unknown,pharmacy,pharmacy,Unknown,Unknown,Unknown,33.5128652,36.370875
صيدلية الشام,Unknown,Unknown,Unknown,Unknown,Unknown,Unknown,pharmacy,pharmacy,Unknown,Unknown,Unknown,33.5185205,36.2750733
Charm Beauty Clinic,Unknown,Unknown,Unknown,Unknown,Unknown,Unknown,clinic,clinic,Unknown,Unknown,Unknown,33.5192009,36.2920806
مشفى الدكتور عبد الرحمن عفان,Unknown,Unknown,Unknown,Unknown,Unknown,Unknown,hospital,hospital,Unknown,Unknown,Unknown,33.5219504,36.293202
مركز باسل الأسد الطبي,Unknown,Unknown,Unknown,Unknown,Unknown,Unknown,clinic,clinic,Unknown,Unknown,Unknown,33.5222437,36.2942705
صيدلية السبع بحرات,Unknown,Unknown,Unknown,Unknown,Unknown,Unknown,pharmacy,pharmacy,Unknown,Unknown,Unknown,33.523216,36.293477
مشفى الراضي,Unknown,Unknown,Unknown,Unknown,Unknown,Unknown,hospital,hospital,Unknown,Unknown,Unknown,33.4841086,36.3520954
صيدلية القزاز,Unknown,Unknown,Unknown,Unknown,Unknown,Unknown,pharmacy,pharmacy,Unknown,Unknown,Unknown,33.4885134,36.3184835
صيدلية الديلعة المركزية,Unknown,Unknown,Unknown,Unknown,Unknown,Unknown,pharmacy,pharmacy,Unknown,Unknown,Unknown,33.5030988,36.3290887
صيدلية النسيم,Unknown,Unknown,Unknown,Unknown,Unknown,Unknown,pharmacy,pharmacy,Unknown,Unknown,Unknown,33.4786446,36.3585882
صيدلية كشكول الأولى,Unknown,Unknown,Unknown,Unknown,Unknown,Unknown,pharmacy,pharmacy,Unknown,Unknown,Unknown,33.5007616,36.333609
مشفى الرعاية الخاصة,Unknown,Unknown,Unknown,Unknown,Unknown,Unknown,hospital,hospital,Unknown,Unknown,Unknown,33.4916011,36.3425908
مركز الشفاء الطبي التخصصي,Unknown,Unknown,Unknown,Unknown,Unknown,Unknown,clinic,clinic,Unknown,Unknown,Unknown,33.4382399,36.1628484
صيدلية كاترين عبود,Unknown,Unknown,Unknown,Unknown,Unknown,Unknown,pharmacy,pharmacy,Unknown,Unknown,Unknown,33.4371771,36.1678998
صيدلية السيوف,Unknown,Unknown,Unknown,Unknown,Unknown,Unknown,pharmacy,pharmacy,Unknown,Unknown,Unknown,33.4801771,36.3573276
مستوصف عرطوز الصحي,Unknown,Unknown,Unknown,Unknown,Unknown,Unknown,clinic,clinic,Unknown,Unknown,Unknown,33.4227316,36.1486527
صيدلية نسرين,Unknown,Unknown,Unknown,Unknown,Unknown,Unknown,pharmacy,pharmacy,Unknown,Unknown,Unknown,33.4722822,36.301229
صيدلية نوال,Unknown,Unknown,Unknown,Unknown,Unknown,Unknown,pharmacy,pharmacy,Unknown,Unknown,Unknown,33.425188,36.1440735
صيدلية القطيفان,Unknown,Unknown,Unknown,Unknown,Unknown,Unknown,pharmacy,pharmacy,Unknown,Unknown,Unknown,33.4725759,36.2985547
مشفى الحريري,Unknown,Unknown,Unknown,Unknown,Unknown,Unknown,hospital,hospital,Unknown,Unknown,Unknown,33.4659751,36.3217218
صيدلية الخليلي,Unknown,Unknown,Unknown,Unknown,Unknown,Unknown,pharmacy,pharmacy,Unknown,Unknown,Unknown,33.4697109,36.3035989
مركز يلدا الصحي,Unknown,Unknown,Unknown,Unknown,Unknown,Unknown,clinic,clinic,Unknown,Unknown,Unknown,33.4670362,36.3246542
مستوصف الشهيد كايد سليماني,Unknown,Unknown,Unknown,Unknown,Unknown,Unknown,hospital,hospital,Unknown,Unknown,Unknown,33.4677642,36.302289
صيدلية جودي,Unknown,Unknown,Unknown,Unknown,Unknown,Unknown,pharmacy,pharmacy,Unknown,Unknown,Unknown,33.4416413,36.285583
صيدلية الدروبي,Unknown,Unknown,Unknown,Unknown,Unknown,Unknown,pharmacy,pharmacy,Unknown,Unknown,Unknown,33.4832551,36.3112733
صيدلية دف الشوك المركزية,Unknown,Unknown,Unknown,Unknown,Unknown,Unknown,pharmacy,pharmacy,Unknown,Unknown,Unknown,33.4832047,36.3102535
عيادة جراحة الفم وزراعة الأسنان للدكتور علاء ياسين,Unknown,Unknown,Unknown,Unknown,Unknown,Unknown,clinic,clinic,Unknown,Unknown,Unknown,33.4754733,36.3072127
مشفى الباسل سابقا,Unknown,Unknown,Unknown,Unknown,Unknown,Unknown,hospital,hospital,Unknown,Unknown,Unknown,33.4735445,36.3065208
المركز الطبي التخصصي,Unknown,Unknown,Unknown,Unknown,Unknown,Unknown,clinic,clinic,Unknown,Unknown,Unknown,33.440129,36.2721937
صيدلية طارق بن زياد,Unknown,Unknown,Unknown,Unknown,Unknown,Unknown,pharmacy,pharmacy,Unknown,Unknown,Unknown,33.5250682,36.2780229
صيدلية النابلسي,Unknown,Unknown,Unknown,Unknown,Unknown,Unknown,pharmacy,pharmacy,Unknown,Unknown,Unknown,33.5270489,36.2789624
صيدلية الشعار,Unknown,Unknown,Unknown,Unknown,Unknown,Unknown,pharmacy,pharmacy,Unknown,Unknown,Unknown,33.5250819,36.2812724
صيدلية السقاأميني,Unknown,Unknown,Unknown,Unknown,Unknown,Unknown,pharmacy,pharmacy,Unknown,Unknown,Unknown,33.5260617,36.2787503
مشفى داريا الوطني,Unknown,Unknown,Unknown,Unknown,Unknown,Unknown,hospital,hospital,Unknown,Unknown,Unknown,33.4630546,36.2220177
د.وداد الخليلي (أمراض نسائية),Unknown,Unknown,Unknown,Unknown,Unknown,Unknown,clinic,clinic,Unknown,Unknown,Unknown,33.5259276,36.2812444
د.ثواب الغبرة أخصائية التغذية,Unknown,Unknown,Unknown,Unknown,Unknown,Unknown,clinic,clinic,Unknown,Unknown,Unknown,33.5232206,36.2724875
صيدلية العظمة,Unknown,Unknown,Unknown,Unknown,Unknown,Unknown,pharmacy,pharmacy,Unknown,Unknown,Unknown,33.5159935,36.2756286
صيدلية المهاجرين,Unknown,Unknown,Unknown,Unknown,Unknown,Unknown,pharmacy,pharmacy,Unknown,Unknown,Unknown,33.5227319,36.2745431
مشفى الحكمة,Unknown,Unknown,Unknown,Unknown,Unknown,Unknown,hospital,hospital,Unknown,Unknown,Unknown,33.5220546,36.276798
صيدلية الهدى,Unknown,Unknown,Unknown,Unknown,Unknown,Unknown,pharmacy,pharmacy,Unknown,Unknown,Unknown,33.5229399,36.2766191
مستوصف الدحاديل,Unknown,Unknown,Unknown,Unknown,Unknown,Unknown,clinic,clinic,Unknown,Unknown,Unknown,33.4822237,36.283001
صيدلية الأكرم,Unknown,Unknown,Unknown,Unknown,Unknown,Unknown,pharmacy,pharmacy,Unknown,Unknown,Unknown,33.4917436,36.2397629
مركز الأمل الطبي,Unknown,Unknown,Unknown,Unknown,Unknown,Unknown,clinic,clinic,Unknown,Unknown,Unknown,33.436071,36.238487
صيدلية رولا,Unknown,Unknown,Unknown,Unknown,Unknown,Unknown,pharmacy,pharmacy,Unknown,Unknown,Unknown,33.4276997,36.2369697
مسجد شامية,Unknown,Unknown,Unknown,Unknown,Unknown,Unknown,pharmacy,pharmacy,Unknown,Unknown,Unknown,33.4303595,36.2626998
عبادات دبر غبار الطبية,Unknown,Unknown,Unknown,Unknown,Unknown,Unknown,Unknown,yes,Unknown,Unknown,Unknown,31.9428401,35.8669951
GJU Healthcare Centre,Unknown,Unknown,Unknown,Unknown,Unknown,Unknown,doctors,doctor,Unknown,Unknown,Unknown,31.7766475,35.7999002
د.صوفيا مشهدي \د.اياد الصالح,Unknown,شارع بغداد,دمشق,Unknown,Unknown,Unknown,dentist,dentist,Unknown,Unknown,Unknown,33.5184229,36.3105562
صيدلية مها العمر,Unknown,Unknown,Unknown,Unknown,Unknown,Unknown,pharmacy,pharmacy,Unknown,Unknown,Unknown,33.5149289,36.3048217
دكتور نفسية البير,Unknown,Unknown,Unknown,Unknown,Unknown,Unknown,doctors,doctor,Unknown,Unknown,Unknown,33.5228827,36.2891071
Unknown,Unknown,Unknown,Unknown,Unknown,Unknown,Unknown,pharmacy,pharmacy,Unknown,Unknown,Unknown,33.4920372,36.2363301
مشفى ابن رشد للأمراض النفسية,Unknown,شارع فارس الخوري,دمشق,Unknown,Unknown,Unknown,hospital,hospital,Unknown,Unknown,Unknown,33.5309984,36.3237332
مركز صحي فوعرا,Unknown,فوعرا وسط البلد,فوعرا,Unknown,Unknown,Unknown,hospital,hospital,Unknown,Unknown,Unknown,32.6151048,35.7641324
RDC مركز الإغاثة و التنمي,Unknown,Unknown,Unknown,Unknown,Unknown,Unknown,hospital,hospital,Unknown,Unknown,Unknown,33.5091752,36.3170809
دكتور مروان دياب,Unknown,Unknown,Unknown,Unknown,Unknown,Unknown,doctors,doctor,Unknown,Unknown,Unknown,33.5194363,36.3133478
مركز الدكتور بشار خير للعلاج الفيزيائي,Unknown,Unknown,Unknown,Unknown,Unknown,Unknown,doctors,doctor,Unknown,Unknown,Unknown,33.5200524,36.3138649
صيدلية ضرار القواسمي m&h,Unknown,Unknown,Unknown,Unknown,Unknown,Unknown,pharmacy,Unknown,Unknown,Unknown,Unknown,31.98509,35.8914832
Al-JazeeraHospital,Unknown,شارع حنين بن إسحاق,عمان,Unknown,Unknown,Unknown,hospital,hospital,Unknown,Unknown,Unknown,31.9790717,35.8989405
Sama Pharmacy,Unknown,Unknown,Unknown,Unknown,Unknown,Unknown,pharmacy,pharmacy,Unknown,Unknown,Unknown,32.0232737,35.8742038
MonoJo,Unknown,Unknown,Unknown,Unknown,Unknown,Unknown,Unknown,laboratory,Unknown,Unknown,Unknown,32.0227846,35.8749386
Unknown,Unknown,Unknown,Unknown,Unknown,Unknown,Unknown,Unknown,clinic,Unknown,Unknown,Unknown,32.0011226,35.887119
Unknown,Unknown,Unknown,Unknown,Unknown,Unknown,Unknown,pharmacy,pharmacy,Unknown,Unknown,Unknown,32.0011317,35.8860274
Unknown,Unknown,Unknown,Unknown,Unknown,Unknown,Unknown,pharmacy,pharmacy,Unknown,Unknown,Unknown,32.0000636,35.8917142
صيدلية تالين,Unknown,Unknown,Unknown,Unknown,Unknown,Unknown,pharmacy,Unknown,Unknown,Unknown,Unknown,33.490875,36.34016
مستشفى الشام الجراحي,Unknown,Unknown,Unknown,Unknown,Unknown,Unknown,hospital,hospital,Unknown,Unknown,Unknown,33.5210662,36.286166
صيدلية الترزي,Unknown,Unknown,Unknown,Unknown,Unknown,Unknown,pharmacy,Unknown,Unknown,Unknown,Unknown,33.5247289,36.2872985
صيدلية وعد,Unknown,Unknown,Unknown,Unknown,Unknown,Unknown,pharmacy,Unknown,Unknown,Unknown,Unknown,33.525106,36.2906005
صيدلية عالية عمران,Unknown,Unknown,Unknown,Unknown,Unknown,Unknown,pharmacy,Unknown,Unknown,Unknown,Unknown,33.5242202,36.2916432
صيدلية باسمة مارديني,Unknown,Unknown,Unknown,Unknown,Unknown,Unknown,pharmacy,Unknown,Unknown,Unknown,Unknown,33.5349489,36.3037313
صيدلية وجدان,Unknown,Unknown,Unknown,Unknown,Unknown,Unknown,pharmacy,Unknown,Unknown,Unknown,Unknown,33.5342492,36.2960988
صيدلية الماء المعين,Unknown,Unknown,Unknown,Unknown,Unknown,Unknown,pharmacy,Unknown,Unknown,Unknown,Unknown,33.5348048,36.2944536
صيدلية علياء الميداني,Unknown,Unknown,Unknown,Unknown,Unknown,Unknown,pharmacy,Unknown,Unknown,Unknown,Unknown,33.5202279,36.278769
صيدلية الشعار,Unknown,Unknown,Unknown,Unknown,Unknown,Unknown,pharmacy,Unknown,Unknown,Unknown,Unknown,33.5255469,36.2818904
صيدلية صفا ناجي,Unknown,Unknown,Unknown,Unknown,Unknown,Unknown,pharmacy,Unknown,Unknown,Unknown,Unknown,33.5177817,36.2885997
صيدلية زينة حورية,Unknown,Unknown,Unknown,Unknown,Unknown,Unknown,pharmacy,Unknown,Unknown,Unknown,Unknown,33.5218565,36.2878323
صيدلية الجباصيني,Unknown,Unknown,Unknown,Unknown,Unknown,Unknown,pharmacy,Unknown,Unknown,Unknown,Unknown,33.5287247,36.2871639
صيدلية سروجي,Unknown,Unknown,Unknown,Unknown,Unknown,Unknown,pharmacy,Unknown,Unknown,Unknown,Unknown,33.5319138,36.293982
صيدلية أحمد مزعل,Unknown,Unknown,Unknown,Unknown,Unknown,Unknown,pharmacy,Unknown,Unknown,Unknown,Unknown,33.5230644,36.2857124
صيدلية رانية القدسي,Unknown,Unknown,Unknown,Unknown,Unknown,Unknown,pharmacy,Unknown,Unknown,Unknown,Unknown,33.527389,36.2912756
علياء دليواتي,Unknown,Unknown,Unknown,Unknown,Unknown,Unknown,pharmacy,Unknown,Unknown,Unknown,Unknown,33.5393433,36.2406404
صيدلية القهوجي,Unknown,Unknown,Unknown,Unknown,Unknown,Unknown,pharmacy,Unknown,Unknown,Unknown,Unknown,33.5173995,36.2808204
صيدلية نشأت كحال,Unknown,Unknown,Unknown,Unknown,Unknown,Unknown,pharmacy,Unknown,Unknown,Unknown,Unknown,33.5234431,36.2778575
صيدلية هناده حبوس,Unknown,Unknown,Unknown,Unknown,Unknown,Unknown,pharmacy,Unknown,Unknown,Unknown,Unknown,33.5307527,36.2935618
صيدلية عرفة,Unknown,Unknown,Unknown,Unknown,Unknown,Unknown,pharmacy,Unknown,Unknown,Unknown,Unknown,33.5248774,36.283382
صيدلية دمشق,Unknown,Unknown,Unknown,Unknown,Unknown,Unknown,pharmacy,Unknown,Unknown,Unknown,Unknown,33.5181424,36.3031647
صيدلية نسرين,Unknown,Unknown,Unknown,Unknown,Unknown,Unknown,pharmacy,Unknown,Unknown,Unknown,Unknown,33.5276728,36.2895467
صيدلية قزيز,Unknown,Unknown,Unknown,Unknown,Unknown,Unknown,pharmacy,Unknown,Unknown,Unknown,Unknown,33.5249524,36.2917362
صيدلية الوفاء,Unknown,Unknown,Unknown,Unknown,Unknown,Unknown,pharmacy,Unknown,Unknown,Unknown,Unknown,33.5263743,36.290407
صيدلية الشهبندر,Unknown,Unknown,Unknown,Unknown,Unknown,Unknown,pharmacy,Unknown,Unknown,Unknown,Unknown,33.5240124,36.2928858
صيدلية الشفاء,Unknown,Unknown,Unknown,Unknown,Unknown,Unknown,pharmacy,Unknown,Unknown,Unknown,Unknown,33.523417,36.292593
صيدلية وفاء خرسة,Unknown,Unknown,Unknown,Unknown,Unknown,Unknown,pharmacy,Unknown,Unknown,Unknown,Unknown,33.5229871,36.2927719
Unknown,Unknown,Unknown,Unknown,Unknown,Unknown,Unknown,clinic,Unknown,Unknown,Unknown,Unknown,33.519641,36.2931945
مختبر بيولاب الطبي,Unknown,Unknown,Unknown,Unknown,Unknown,Unknown,doctors,laboratory,Unknown,Unknown,"Mo-Th,Sa-Su 07:30-20:00",31.9947513,35.8125866
مختبر بيولاب الطبي,Unknown,Unknown,Unknown,Unknown,Unknown,Unknown,doctors,laboratory,Unknown,Unknown,"Fr 09:00-13:00; Mo-Th,Sa-Su 07:30-20:00",32.5361317,35.8701682
مختبر بيولاب الطبي,Unknown,Unknown,Unknown,Unknown,Unknown,Unknown,doctors,laboratory,Unknown,Unknown,"Mo-Th,Sa-Su 07:30-20:00",32.0070616,35.7860703
مختبر بيولاب الطبي,Unknown,Unknown,Unknown,Unknown,Unknown,Unknown,doctors,laboratory,Unknown,Unknown,"Fr 09:00-13:00; Mo-Th,Sa-Su 08:00-20:00",32.0873514,36.1018735
مختبر بيولاب الطبي,Unknown,Unknown,Unknown,Unknown,Unknown,Unknown,doctors,laboratory,Unknown,Unknown,"Mo-Th,Sa-Su 08:00-20:00",32.5577375,35.8648253
مختبر بيولاب الطبي,Unknown,Unknown,Unknown,Unknown,Unknown,Unknown,doctors,laboratory,Unknown,Unknown,"Mo-Th,Sa-Su 08:00-20:00",31.8874878,35.8576207
مختبر بيولاب الطبي,Unknown,Unknown,Unknown,Unknown,Unknown,Unknown,doctors,laboratory,Unknown,Unknown,"Mo-Th,Sa-Su 07:30-20:00",31.9925175,35.9452862
مختبر بيولاب الطبي,Unknown,Unknown,Unknown,Unknown,Unknown,Unknown,doctors,laboratory,Unknown,Unknown,"Fr 09:00-13:00; Mo-Th,Sa-Su 07:30-20:00",31.960805,35.877786
مختبر بيولاب الطبي,Unknown,Unknown,Unknown,Unknown,Unknown,Unknown,doctors,laboratory,Unknown,Unknown,"Mo-Th,Sa-Su 08:00-20:00",31.9601819,35.878644
مختبر بيولاب الطبي,Unknown,Unknown,Unknown,Unknown,Unknown,Unknown,doctors,laboratory,Unknown,Unknown,"Mo-Th,Sa-Su 08:00-20:00",31.9520348,35.9023842
مختبر بيولاب الطبي,Unknown,Unknown,Unknown,Unknown,Unknown,Unknown,doctors,laboratory,Unknown,Unknown,"Mo-Th,Sa-Su 07:30-20:00",31.9965757,35.8551263
مختبر بيولاب الطبي,Unknown,Unknown,Unknown,Unknown,Unknown,Unknown,doctors,laboratory,Unknown,Unknown,"Mo-Th,Sa-Su 07:30-20:00",31.902659,35.84643
مختبر بيولاب الطبي,Unknown,Unknown,Unknown,Unknown,Unknown,Unknown,doctors,laboratory,Unknown,Unknown,"Fr 09:00-18:00; Mo-Th,Sa-Su 07:30-20:00",31.9960206,35.8366728
مختبر بيولاب الطبي,Unknown,Unknown,Unknown,Unknown,Unknown,Unknown,doctors,laboratory,Unknown,Unknown,24/7,31.9520621,35.9037279
مختبر بيولاب الطبي,Unknown,Unknown,Unknown,Unknown,Unknown,Unknown,doctors,laboratory,Unknown,Unknown,"Mo-Th,Sa-Su 07:30-20:00",31.9553825,35.8439121
مختبر بيولاب الطبي,Unknown,Unknown,Unknown,Unknown,Unknown,Unknown,doctors,laboratory,Unknown,Unknown,"Mo-Th,Sa-Su 09:00-22:00; Fr 12:00-22:00",31.9799641,35.8367479
مختبر بيولاب الطبي,Unknown,Unknown,Unknown,Unknown,Unknown,Unknown,doctors,laboratory,Unknown,Unknown,"Fr 10:00-14:00; Mo-Th,Sa-Su 07:30-20:00",31.9146603,35.8882731
مختبر بيولاب الطبي,Unknown,Unknown,Unknown,Unknown,Unknown,Unknown,doctors,laboratory,Unknown,Unknown,"Mo-Th,Sa-Su 08:00-20:00",31.9795091,35.8995169
مختبر بيولاب الطبي,Unknown,Unknown,Unknown,Unknown,Unknown,Unknown,doctors,laboratory,Unknown,Unknown,"Mo-Th,Sa-Su 08:00-20:00",31.9173537,35.9084058
مختبر بيولاب الطبي,Unknown,Unknown,Unknown,Unknown,Unknown,Unknown,doctors,laboratory,Unknown,Unknown,"Fr 13:00-24:00; Mo-Th,Sa-Su 07:30-24:00",31.9608259,35.8779922
مختبر بيولاب الطبي,Unknown,Unknown,Unknown,Unknown,Unknown,Unknown,doctors,laboratory,Unknown,Unknown,"Mo-Th,Sa-Su 07:30-20:00",31.9602593,35.8786302
مختبر بيولاب الطبي,Unknown,Unknown,Unknown,Unknown,Unknown,Unknown,doctors,laboratory,Unknown,Unknown,"Mo-Th,Sa-Su 08:00-20:00",31.9506716,35.907687
Deir Ghbar Pharmacy,Unknown,Unknown,Unknown,Unknown,Unknown,Unknown,pharmacy,Unknown,Unknown,Unknown,Unknown,31.9379738,35.8559173
Ziadat Orthodontics عيادة الدكتور اسامة زيادات تقويم و جراحة و طب الاسنان,Unknown,شارع عامر بن مالك,khilda,Unknown,Unknown,Unknown,dentist,dentist,Unknown,https://drosamaziadat.com,saturday to thuresday 10:00 Am - 5:00 Pm,31.991725,35.8490056
Unknown,Unknown,شارع اشرفية صحنايا,Unknown,Unknown,Unknown,Unknown,dentist,dentist,+963959522950,Unknown,Fr-We 09:00-18:00,33.4316837,36.2446562
مركز أميمة الطبي,Unknown,شارع عاكف الفايز,amman,1183,Unknown,Unknown,hospital,hospital,Unknown,Unknown,Unknown,32.0065705,35.8842861
Al Bashir Dental Clinic - عيادة البشير السنية,Unknown,Unknown,دمشق,Unknown,Unknown,Unknown,dentist,dentist,Unknown,Unknown,Unknown,33.5442134,36.3154345
Al-Azraq medical centre,Unknown,Unknown,Unknown,Unknown,Unknown,Unknown,clinic,Unknown,Unknown,Unknown,Unknown,31.8516248,36.8161884
Med Park Pharmacy,Unknown,Unknown,Unknown,Unknown,Unknown,Unknown,pharmacy,pharmacy,Unknown,Unknown,Unknown,31.9720202,35.8335062
صيدلية شلش,Unknown,‫شارع كشكول‬‎,Unknown,Unknown,Unknown,Unknown,pharmacy,Unknown,Unknown,Unknown,Unknown,33.4972447,36.3342271
"Comprehensive health center um Al , Jamal",Unknown,Unknown,Unknown,Unknown,Unknown,Unknown,Unknown,yes,Unknown,Unknown,Unknown,32.3342396,36.3587666
Unknown,Unknown,Unknown,Unknown,Unknown,Unknown,Unknown,hospital,Unknown,Unknown,Unknown,Unknown,31.8147017,36.1001056
Unknown,Unknown,Unknown,Unknown,Unknown,Unknown,Unknown,pharmacy,Unknown,Unknown,Unknown,Unknown,31.8128256,36.1058382
Unknown,Unknown,Unknown,Unknown,Unknown,Unknown,Unknown,Unknown,yes,Unknown,Unknown,Unknown,31.8134547,36.1075363
Unknown,Unknown,Unknown,Unknown,Unknown,Unknown,Unknown,Unknown,yes,Unknown,Unknown,Unknown,31.8127161,36.1059118
Unknown,Unknown,Unknown,Unknown,Unknown,Unknown,Unknown,pharmacy,Unknown,Unknown,Unknown,Unknown,31.8134321,36.1075279
Unknown,Unknown,Unknown,Unknown,Unknown,Unknown,Unknown,pharmacy,pharmacy,Unknown,Unknown,Unknown,32.5602406,35.8962834
المدينة مركز صحي,Unknown,Unknown,Unknown,Unknown,Unknown,Unknown,hospital,hospital,Unknown,Unknown,Unknown,31.7237939,35.7953649
Health Center,Unknown,Unknown,Unknown,Unknown,Unknown,Unknown,hospital,hospital,Unknown,Unknown,Unknown,32.0320532,35.7236814
عيادات عرفات لطب الأسنان - Arafat Dental Clinics,Unknown,شارع طبربور,عمان,11947,Unknown,Unknown,dentist,dentist,+962780783788,https://arafatdentalclinics.com,Mo-Sa 10:00-19:00,32.0004597,35.9480652
