Name,Full Address,Street,City,Postcode,State,Country,Amenity,Healthcare,Phone,Website,Opening Hours,Latitude,Longitude
Hitna pomoć,Unknown,Vaka Đurovića,Unknown,Unknown,Unknown,Unknown,hospital,hospital,Unknown,Unknown,Unknown,42.4456312,19.2626088
Dom zdravlja Konik,Unknown,Aleksandra Puškina,Unknown,Unknown,Unknown,Unknown,hospital,hospital,Unknown,Unknown,Unknown,42.437135,19.2819026
Dom zdravlja Pobrežje,Unknown,Unknown,Unknown,Unknown,Unknown,Unknown,hospital,hospital,Unknown,Unknown,Unknown,42.4309282,19.2585181
Dom zdravlja Blok 5,Unknown,Trg Nikole Kovačevića,Podgorica,81000,Unknown,Unknown,hospital,hospital,Unknown,Unknown,Unknown,42.4462195,19.2433933
Ordinacija Laboratorija,Unknown,Jadranski put,Unknown,Unknown,Unknown,Unknown,hospital,hospital,Unknown,https://milmedika.com,Mo-Su 08:00-20:00,42.2889516,18.8439659
Unknown,Unknown,Unknown,Unknown,Unknown,Unknown,Unknown,pharmacy,pharmacy,Unknown,Unknown,Unknown,42.4461105,19.2435397
Dom zdravlja Cetinje,Unknown,Unknown,Unknown,Unknown,Unknown,Unknown,hospital,hospital,Unknown,Unknown,Unknown,42.389641,18.9274974
AMF SHEREMET / Nr. 05,Unknown,Unknown,Unknown,Unknown,Unknown,Unknown,hospital,Unknown,Unknown,Unknown,Unknown,42.4347732,20.3272679
Unknown,Unknown,Unknown,Unknown,Unknown,Unknown,Unknown,hospital,hospital,Unknown,Unknown,Unknown,42.5144385,18.6986482
Unknown,Unknown,Unknown,Unknown,Unknown,Unknown,Unknown,pharmacy,pharmacy,Unknown,Unknown,Mo-Fr 08:00-20:00; Sa 08:00-18:00; Su 10:00-14:00,43.1546802,19.1208005
Tea Medica,Unknown,Unknown,Unknown,Unknown,Unknown,Unknown,pharmacy,pharmacy,030317848,Unknown,Mo-Su 08:00-22:00,42.0981925,19.0960707
Gradska apoteka,Unknown,Unknown,Unknown,Unknown,Unknown,Unknown,pharmacy,pharmacy,Unknown,Unknown,Unknown,43.5072077,18.7744504
Unknown,Unknown,Unknown,Unknown,Unknown,Unknown,Unknown,pharmacy,pharmacy,Unknown,Unknown,Unknown,42.2831361,18.8657439
Herbora,Unknown,Unknown,Unknown,Unknown,Unknown,Unknown,pharmacy,pharmacy,Unknown,Unknown,Unknown,42.2843927,18.8630188
Univerzitetska bolnica Foča,Unknown,Studentska,Foča,73300,Unknown,BA,hospital,Unknown,Unknown,Unknown,Unknown,43.5273085,18.7822921
Unknown,Unknown,Unknown,Unknown,Unknown,Unknown,Unknown,pharmacy,pharmacy,Unknown,Unknown,Unknown,42.2885641,18.8463214
Unknown,Unknown,Unknown,Unknown,Unknown,Unknown,Unknown,pharmacy,pharmacy,Unknown,Unknown,Unknown,42.823698,19.5201718
Kalina,Unknown,Unknown,Unknown,Unknown,Unknown,Unknown,pharmacy,pharmacy,Unknown,Unknown,Mo-Su 08:00-21:00,42.823867,19.5210991
Institut Dr. Simo Milošević - II Faza,Unknown,Unknown,Unknown,Unknown,Unknown,Unknown,hospital,hospital,Unknown,Unknown,Unknown,42.4573163,18.5089299
"Barnatore ""REMEDIA"" Driton Berisha",Unknown,Unknown,Unknown,Unknown,Unknown,Unknown,pharmacy,Unknown,Unknown,Unknown,Unknown,42.6551749,20.2929283
Unknown,Unknown,Unknown,Unknown,Unknown,Unknown,Unknown,pharmacy,pharmacy,Unknown,Unknown,Unknown,42.205514,18.9424408
Vojna bolnica,Unknown,Unknown,Unknown,Unknown,Unknown,Unknown,hospital,hospital,Unknown,Unknown,Unknown,42.4521485,18.5574348
Unknown,Unknown,Unknown,Unknown,Unknown,Unknown,Unknown,pharmacy,Unknown,Unknown,Unknown,Unknown,43.5830227,19.5246777
Dom zdravlja Ustikolina,Unknown,Unknown,Unknown,Unknown,Unknown,Unknown,clinic,Unknown,Unknown,Unknown,Unknown,43.5819574,18.7904478
Državna,Unknown,Unknown,Unknown,Unknown,Unknown,Unknown,pharmacy,pharmacy,Unknown,Unknown,Unknown,42.5969549,19.9445632
Prima,Unknown,Unknown,Unknown,Unknown,Unknown,Unknown,pharmacy,pharmacy,Unknown,Unknown,Unknown,42.5971602,19.9432507
Dom zdravlja,Unknown,Unknown,Unknown,Unknown,Unknown,Unknown,hospital,Unknown,Unknown,Unknown,Unknown,42.5639161,19.8312484
Qendra e Shendetit Mental,Unknown,Unknown,Unknown,Unknown,Unknown,Unknown,clinic,clinic,Unknown,Unknown,Unknown,42.6618424,20.2742939
Qendra e Mjeksise Familjare,Unknown,Unknown,Unknown,Unknown,Unknown,Unknown,hospital,Unknown,Unknown,Unknown,Unknown,42.6605649,20.2834918
QMF ERENIKU / nr 5,Unknown,Unknown,Unknown,Unknown,Unknown,Unknown,Unknown,yes,Unknown,Unknown,Unknown,42.3923535,20.4297363
QMF BREKOC / nr 3,Unknown,Unknown,Unknown,Unknown,Unknown,Unknown,hospital,Unknown,Unknown,Unknown,Unknown,42.3668081,20.4172308
Unknown,Unknown,Unknown,Unknown,Unknown,Unknown,Unknown,pharmacy,Unknown,Unknown,Unknown,Unknown,42.4592429,18.5159357
Unknown,Unknown,Unknown,Unknown,Unknown,Unknown,Unknown,pharmacy,Unknown,Unknown,Unknown,Unknown,42.4595225,18.5167837
Unknown,Unknown,Unknown,Unknown,Unknown,Unknown,Unknown,pharmacy,pharmacy,Unknown,Unknown,Unknown,42.4513054,18.5727494
Apoteka Veselin,Unknown,Unknown,Unknown,Unknown,Unknown,Unknown,pharmacy,Unknown,Unknown,Unknown,Unknown,42.4537339,18.5313029
Unknown,Unknown,Unknown,Unknown,Unknown,Unknown,Unknown,pharmacy,pharmacy,Unknown,Unknown,Unknown,42.4441054,19.2529493
Vali,Unknown,Unknown,Unknown,Unknown,Unknown,Unknown,pharmacy,Unknown,Unknown,Unknown,Unknown,42.0751484,19.5238646
Unknown,Unknown,Unknown,Unknown,Unknown,Unknown,AL,pharmacy,Unknown,Unknown,Unknown,Unknown,42.0732734,19.5210115
Unknown,Unknown,Unknown,Shkodër,4001,Unknown,AL,pharmacy,Unknown,Unknown,Unknown,Unknown,42.0644616,19.5088019
Barnatore Parruca,Unknown,Unknown,Shkodër,4001,Unknown,AL,pharmacy,Unknown,Unknown,Unknown,Unknown,42.0647374,19.5081711
Dom zdravlja Prof. dr Savo Bumbić Gacko,Unknown,Solunskih dobrovoljaca,Gacko,Unknown,Unknown,BA,clinic,Unknown,Unknown,Unknown,Unknown,43.168869,18.5271844
Tea Medica,Unknown,Unknown,Unknown,Unknown,Unknown,Unknown,pharmacy,pharmacy,Unknown,Unknown,Unknown,42.4549895,18.5592001
Unknown,Unknown,Unknown,Unknown,Unknown,Unknown,Unknown,hospital,hospital,Unknown,Unknown,Unknown,42.43352,18.6977565
Apoteka HELP,Unknown,Unknown,Unknown,Unknown,Unknown,Unknown,pharmacy,pharmacy,Unknown,Unknown,Unknown,42.4309274,18.6989716
Unknown,Unknown,Unknown,Unknown,Unknown,Unknown,Unknown,pharmacy,pharmacy,Unknown,Unknown,Unknown,42.4508902,18.5477048
Unknown,Unknown,Unknown,Unknown,Unknown,Unknown,Unknown,pharmacy,pharmacy,Unknown,Unknown,Unknown,42.4512965,18.5438036
Gradska apoteka,Unknown,Unknown,Unknown,Unknown,Unknown,Unknown,pharmacy,pharmacy,Unknown,Unknown,Unknown,42.3874034,18.9257469
Institut za onkologiju i radioterapiju,Unknown,Ljubljanska,Unknown,Unknown,Unknown,Unknown,Unknown,hospital,Unknown,Unknown,Unknown,42.4365125,19.2473278
"Farmaci ""Temali""",Unknown,Unknown,Unknown,Unknown,Unknown,Unknown,pharmacy,Unknown,Unknown,Unknown,Unknown,42.0754955,19.5154284
"Apoteka ""Petanović""",Unknown,Unknown,Unknown,Unknown,Unknown,Unknown,pharmacy,pharmacy,Unknown,Unknown,Unknown,42.4412203,19.2513893
Porodilište Meljine,Unknown,Unknown,Unknown,Unknown,Unknown,Unknown,hospital,hospital,Unknown,Unknown,Unknown,42.4515472,18.5550552
Asteria,Unknown,Unknown,Unknown,Unknown,Unknown,Unknown,dentist,dentist,Unknown,Unknown,Unknown,42.4431821,19.2494116
Benu Apoteka,Unknown,Moskovska,Unknown,Unknown,Unknown,Unknown,pharmacy,pharmacy,067202984,www.benuapoteka.me,24/7,42.4434001,19.2488327
Sv. Vraći,Unknown,Unknown,Unknown,Unknown,Unknown,Unknown,pharmacy,pharmacy,Unknown,Unknown,Unknown,42.4415982,19.2473095
Unknown,Unknown,Unknown,Unknown,Unknown,Unknown,Unknown,doctors,doctor,Unknown,Unknown,Unknown,42.457104,18.5252114
Unknown,Unknown,Unknown,Unknown,Unknown,Unknown,Unknown,pharmacy,pharmacy,Unknown,Unknown,Unknown,42.4515391,18.536958
Unknown,Unknown,Unknown,Unknown,Unknown,Unknown,Unknown,pharmacy,Unknown,Unknown,Unknown,Unknown,41.9291583,19.2192267
D.Z. Budo Tomovic,Unknown,Unknown,Unknown,Unknown,Unknown,Unknown,hospital,Unknown,Unknown,Unknown,Unknown,41.9291424,19.2193098
Unknown,Unknown,Unknown,Unknown,Unknown,Unknown,Unknown,pharmacy,pharmacy,Unknown,Unknown,Unknown,42.8425007,20.1651568
Unknown,Unknown,Unknown,Unknown,Unknown,Unknown,Unknown,pharmacy,pharmacy,Unknown,Unknown,Unknown,42.4515961,18.5355284
Rizvanolli,Unknown,Unknown,Unknown,Unknown,Unknown,Unknown,pharmacy,Unknown,Unknown,Unknown,Mo-Sa 08:00-20:00,42.3695469,20.4310036
Bima Bli,Unknown,Unknown,Unknown,Unknown,Unknown,Unknown,pharmacy,Unknown,Unknown,Unknown,Unknown,42.3697808,20.4308651
Instituti i Shëndetit Mendor,Unknown,Unknown,Unknown,Unknown,Unknown,Unknown,hospital,Unknown,Unknown,Unknown,Unknown,42.3722023,20.4369482
Apoteka Čukvas,Unknown,Unknown,Unknown,Unknown,Unknown,Unknown,pharmacy,pharmacy,Unknown,Unknown,Mo-Sa 08:00-21:00; Su off,42.4519062,18.5365058
Unknown,Unknown,Unknown,Unknown,Unknown,Unknown,Unknown,pharmacy,pharmacy,Unknown,Unknown,Unknown,42.2078912,18.9419649
Benu,Unknown,Unknown,Unknown,Unknown,Unknown,Unknown,pharmacy,Unknown,Unknown,Unknown,Unknown,42.2080662,18.9421584
Emergency Center,Unknown,Unknown,Unknown,Unknown,Unknown,Unknown,hospital,hospital,Unknown,Unknown,Unknown,42.4456953,19.2626488
Unknown,Unknown,Unknown,Unknown,Unknown,Unknown,Unknown,pharmacy,pharmacy,Unknown,Unknown,Unknown,42.4213376,18.7698238
Holos,Unknown,Unknown,Unknown,Unknown,Unknown,Unknown,pharmacy,pharmacy,Unknown,Unknown,Unknown,42.4353109,19.2766126
Unknown,Unknown,Unknown,Unknown,Unknown,Unknown,Unknown,pharmacy,Unknown,Unknown,Unknown,Unknown,42.3695857,20.4311955
Veselinović,Unknown,Unknown,Unknown,Unknown,Unknown,Unknown,dentist,dentist,Unknown,Unknown,Unknown,42.4573688,18.528894
Unknown,Unknown,Unknown,Unknown,Unknown,Unknown,Unknown,pharmacy,Unknown,Unknown,Unknown,Unknown,42.4577917,18.5277206
Tourist ambulance,Unknown,Unknown,Unknown,Unknown,Unknown,Unknown,hospital,hospital,Unknown,Unknown,Unknown,42.290003,18.8403689
Unknown,Unknown,Unknown,Unknown,Unknown,Unknown,Unknown,pharmacy,Unknown,Unknown,Unknown,Unknown,43.5612066,19.5397285
Institut za javno zdravlje CG,Unknown,Džona Džeksona,Podgorica,81000,Unknown,Unknown,Unknown,hospital,Unknown,Unknown,Unknown,42.437775,19.247165
Unknown,Unknown,Radosava Burića,Podgorica,Unknown,Unknown,Unknown,pharmacy,pharmacy,Unknown,Unknown,Unknown,42.4286836,19.255001
Unknown,Unknown,Unknown,Unknown,Unknown,Unknown,Unknown,pharmacy,pharmacy,Unknown,Unknown,Unknown,42.435204,19.2605311
Unknown,Unknown,Unknown,Unknown,Unknown,Unknown,Unknown,pharmacy,pharmacy,Unknown,Unknown,Unknown,43.0350744,19.7477277
Stanić,Unknown,Voja Lješnjaka,Bijelo Polje,Unknown,Unknown,Unknown,pharmacy,pharmacy,Unknown,Unknown,Unknown,43.0358422,19.7505313
Unknown,Unknown,Unknown,Unknown,Unknown,Unknown,Unknown,pharmacy,pharmacy,Unknown,Unknown,Unknown,43.0333342,19.7483468
Centar,Unknown,Unknown,Unknown,Unknown,Unknown,Unknown,pharmacy,pharmacy,Unknown,Unknown,Unknown,43.0347738,19.7498567
Dom Zdravlja,Unknown,Unknown,Unknown,Unknown,Unknown,Unknown,hospital,hospital,Unknown,Unknown,Unknown,43.0355152,19.7513144
Apoteka Lijek,Unknown,Unknown,Unknown,Unknown,Unknown,Unknown,pharmacy,pharmacy,Unknown,Unknown,Unknown,43.0524597,19.7718382
Unknown,Unknown,Unknown,Unknown,Unknown,Unknown,Unknown,pharmacy,Unknown,Unknown,Unknown,Unknown,42.4749962,20.2761967
Unknown,Unknown,Unknown,Unknown,Unknown,Unknown,Unknown,hospital,hospital,Unknown,Unknown,Unknown,42.7517727,18.9567629
Unknown,Unknown,Unknown,Unknown,Unknown,Unknown,Unknown,clinic,Unknown,Unknown,Unknown,Unknown,41.9087573,19.4095382
Unknown,Unknown,Unknown,Unknown,Unknown,Unknown,Unknown,pharmacy,Unknown,Unknown,Unknown,Unknown,41.9091332,19.4104719
Unknown,Unknown,Unknown,Unknown,Unknown,Unknown,Unknown,pharmacy,Unknown,Unknown,Unknown,Unknown,42.0665696,19.520299
Farmaci,Unknown,Unknown,Unknown,Unknown,Unknown,Unknown,pharmacy,Unknown,Unknown,Unknown,Unknown,42.0666005,19.5126892
Benu,Unknown,Unknown,Unknown,Unknown,Unknown,Unknown,pharmacy,pharmacy,Unknown,Unknown,Unknown,42.27801,18.8377188
Unknown,Unknown,Unknown,Unknown,Unknown,Unknown,Unknown,dentist,dentist,Unknown,Unknown,Unknown,42.0746918,19.5250201
Fizioterapia,Unknown,Unknown,Unknown,Unknown,Unknown,Unknown,Unknown,physiotherapist,Unknown,Unknown,Unknown,42.0737183,19.523797
Obsetri-Gjinekologji,Unknown,Unknown,Unknown,Unknown,Unknown,Unknown,doctors,doctor,Unknown,Unknown,Unknown,42.0749012,19.5247902
Pediatria,Unknown,Unknown,Unknown,Unknown,Unknown,Unknown,doctors,doctor,Unknown,Unknown,Unknown,42.0739724,19.5241977
Sëmundjet e lëkurës,Unknown,Unknown,Unknown,Unknown,Unknown,Unknown,doctors,doctor,Unknown,Unknown,Unknown,42.0747676,19.5249312
Дрзавна апотека,Unknown,Svetozara Markovica,Sjenica,36310,Unknown,Unknown,pharmacy,pharmacy,Unknown,Unknown,Unknown,43.27266,19.9994823
Gušmirović,Unknown,13 Jul,Bijelo Polje,Unknown,Unknown,Unknown,pharmacy,pharmacy,Unknown,Unknown,Unknown,43.0357842,19.7514038
Unknown,Unknown,Unknown,Unknown,Unknown,Unknown,Unknown,pharmacy,pharmacy,Unknown,Unknown,Unknown,43.0363584,19.7475514
Spomenko Zorec,Unknown,Slobode,Bijelo Polje,Unknown,Unknown,Unknown,dentist,dentist,Unknown,Unknown,08:00-17:00,43.033116,19.7468795
Unknown,Unknown,Slobodana Penezića,Bijelo Polje,Unknown,Unknown,Unknown,dentist,dentist,Unknown,Unknown,Unknown,43.0369489,19.7494733
Mrdak,Unknown,Industrijska bb,Bijelo Polje,Unknown,Unknown,Unknown,dentist,dentist,Unknown,Unknown,Unknown,43.0469844,19.7659237
Meditas,Unknown,Unknown,Unknown,Unknown,Unknown,Unknown,pharmacy,Unknown,Unknown,Unknown,Mo-Fr 07:30-21:00; Sa 08:00-20:30,42.096083,19.0947622
Unknown,Unknown,Unknown,Unknown,Unknown,Unknown,Unknown,pharmacy,Unknown,Unknown,Unknown,Unknown,42.045117,19.5732207
Edi Farm,Unknown,Unknown,Unknown,Unknown,Unknown,Unknown,pharmacy,pharmacy,Unknown,Unknown,07:00-20:00,42.3902628,20.4261838
Mena-Med,Unknown,Dëshmorët e Lirisë,Gjakova,50000,Unknown,Unknown,pharmacy,Unknown,Unknown,Unknown,07:00-23:00,42.369829,20.4308265
Gega Farm,Unknown,Unknown,Unknown,Unknown,Unknown,Unknown,pharmacy,Unknown,Unknown,Unknown,Mo-Sa 08:00-21:00,42.3697441,20.4312346
Hygia,Unknown,Unknown,Unknown,Unknown,Unknown,Unknown,pharmacy,pharmacy,Unknown,Unknown,Unknown,42.3698875,20.4308025
Unknown,Unknown,Unknown,Unknown,Unknown,Unknown,Unknown,pharmacy,pharmacy,Unknown,Unknown,Unknown,42.3801813,20.4277115
Dr. Agimi,Unknown,Unknown,Unknown,Unknown,Unknown,Unknown,pharmacy,Unknown,Unknown,Unknown,Unknown,42.3722318,20.4362087
QKMF Gjakovë,Unknown,Vëllezërit Frashëri,Unknown,Unknown,Unknown,Unknown,Unknown,doctor,Unknown,Unknown,Unknown,42.3799704,20.4282039
Instituti i Mjekësis së Punës,Unknown,Unknown,Unknown,Unknown,Unknown,Unknown,hospital,hospital,Unknown,Unknown,Unknown,42.3979405,20.4194589
Diellza pharm,Unknown,Unknown,Unknown,Unknown,Unknown,Unknown,pharmacy,pharmacy,Unknown,Unknown,Unknown,42.3882023,20.4316469
Unknown,Unknown,Unknown,Unknown,Unknown,Unknown,Unknown,pharmacy,Unknown,Unknown,Unknown,Unknown,42.6614342,19.8851005
FARMACI,Unknown,Unknown,Unknown,Unknown,Unknown,Unknown,pharmacy,Unknown,Unknown,Unknown,Unknown,42.072814,19.5150427
Farmaci,Unknown,Unknown,Unknown,Unknown,Unknown,AL,pharmacy,Unknown,Unknown,Unknown,Unknown,42.0754438,19.5180105
Farmaci,Unknown,Unknown,Unknown,Unknown,Unknown,Unknown,pharmacy,Unknown,Unknown,Unknown,Unknown,42.0758849,19.5158769
Benu,Unknown,Unknown,Unknown,Unknown,Unknown,Unknown,pharmacy,pharmacy,Unknown,Unknown,Unknown,43.3558256,19.358953
FARMACI,Unknown,Unknown,Unknown,Unknown,Unknown,AL,pharmacy,Unknown,Unknown,Unknown,Unknown,42.0395465,19.495982
Farmaci,Unknown,Rruga Hoxha Tasim,Shkoder,4001,Unknown,AL,pharmacy,Unknown,Unknown,Unknown,Unknown,42.0760988,19.5029336
FARMACI ANNA,Unknown,Unknown,Shkoder,4001,Unknown,AL,pharmacy,Unknown,Unknown,Unknown,Unknown,42.0558237,19.5007143
Geci,Unknown,Unknown,Shkoder,4001,Unknown,AL,pharmacy,Unknown,Unknown,Unknown,Unknown,42.0663264,19.5151029
Avicena,Unknown,Unknown,Shkoder,4001,Unknown,AL,pharmacy,Unknown,Unknown,Unknown,Unknown,42.0581599,19.5042045
Unknown,Unknown,Unknown,Shkoder,4001,Unknown,AL,pharmacy,Unknown,Unknown,Unknown,Unknown,42.0605816,19.5112945
Unknown,Unknown,Unknown,Shkoder,4001,Unknown,AL,pharmacy,Unknown,Unknown,Unknown,Unknown,42.070834,19.5074617
Zhabjaku,Unknown,Unknown,Shkoder,4001,Unknown,AL,pharmacy,Unknown,Unknown,Unknown,Unknown,42.068846,19.5125402
Unknown,Unknown,Unknown,Shkoder,4001,Unknown,AL,pharmacy,Unknown,Unknown,Unknown,Unknown,42.0688874,19.5125945
Unknown,Unknown,Unknown,Shkodër,4001,Unknown,AL,pharmacy,Unknown,Unknown,Unknown,Unknown,42.0641364,19.5094028
"FARMACI ""Burrja""",Unknown,Unknown,Shkoder,4001,Unknown,AL,pharmacy,Unknown,Unknown,Unknown,Unknown,42.0641551,19.5050239
Unknown,Unknown,Unknown,Shkoder,4001,Unknown,AL,pharmacy,Unknown,Unknown,Unknown,Unknown,42.0617007,19.513182
Unknown,Unknown,Unknown,Unknown,Unknown,Unknown,AL,pharmacy,Unknown,Unknown,Unknown,Unknown,42.0683342,19.509873
ZAMA LABORATORI KLINIK-BIOKIMIK,Unknown,Unknown,Unknown,Unknown,Unknown,Unknown,clinic,Unknown,Unknown,Unknown,Unknown,42.0681674,19.5108082
Klinikë Dentare malvina spahja,Unknown,Unknown,Shkodër,4001,Unknown,AL,dentist,dentist,Unknown,Unknown,Unknown,42.0660147,19.5117759
Klinikë Dentare naim bejko,Unknown,Unknown,Shkodër,4001,Unknown,AL,dentist,dentist,Unknown,Unknown,Unknown,42.0659753,19.5117885
Klinikë Dentare,Unknown,Unknown,Shkodër,4001,Unknown,AL,dentist,dentist,Unknown,Unknown,Unknown,42.0660946,19.5116936
FARMACI,Unknown,Unknown,Unknown,Unknown,Unknown,AL,pharmacy,Unknown,Unknown,Unknown,Unknown,42.0763668,19.5157052
Farmabiocreme,Unknown,Unknown,Unknown,Unknown,Unknown,AL,pharmacy,Unknown,Unknown,Unknown,Unknown,42.0652945,19.5184338
Ujka,Unknown,Unknown,Unknown,Unknown,Unknown,AL,pharmacy,Unknown,Unknown,Unknown,Unknown,42.064972,19.5161332
Unknown,Unknown,Unknown,Unknown,Unknown,Unknown,AL,pharmacy,Unknown,Unknown,Unknown,Unknown,42.0640078,19.5174624
Unknown,Unknown,Unknown,Unknown,Unknown,Unknown,AL,pharmacy,Unknown,Unknown,Unknown,Unknown,42.0643888,19.516986
Unknown,Unknown,Unknown,Unknown,Unknown,Unknown,Unknown,pharmacy,Unknown,Unknown,Unknown,Unknown,42.8412032,19.8720631
Unknown,Unknown,Unknown,Unknown,Unknown,Unknown,AL,pharmacy,Unknown,Unknown,Unknown,Unknown,42.0661307,19.5196327
Rudina,Unknown,Unknown,Unknown,Unknown,Unknown,AL,pharmacy,Unknown,Unknown,Unknown,Unknown,42.0693733,19.5137046
Unknown,Unknown,Unknown,Unknown,Unknown,Unknown,Unknown,Unknown,laboratory,Unknown,Unknown,Unknown,42.0686299,19.5121136
"FARMACI ""Laçej""",Unknown,Unknown,Unknown,Unknown,Unknown,AL,pharmacy,Unknown,Unknown,Unknown,Unknown,42.0682455,19.5127005
Dentist Besnik Llukaçej,Unknown,Unknown,Unknown,Unknown,Unknown,Unknown,dentist,dentist,Unknown,Unknown,Unknown,42.0745926,19.5150194
Vali,Unknown,Unknown,Shkodër,4001,Unknown,AL,pharmacy,Unknown,Unknown,Unknown,Unknown,42.0703282,19.5091665
Meta,Unknown,Unknown,Shkodër,4001,Unknown,AL,pharmacy,Unknown,Unknown,Unknown,Unknown,42.0700041,19.5086235
Unknown,Unknown,Unknown,Unknown,Unknown,Unknown,AL,pharmacy,Unknown,Unknown,Unknown,Unknown,42.0649182,19.5028337
"FARMACI ""BJONI""",Unknown,Unknown,Unknown,Unknown,Unknown,AL,pharmacy,Unknown,Unknown,Unknown,Unknown,42.0600094,19.5039987
Farmaci Xhabijej,Unknown,Unknown,Unknown,Unknown,Unknown,AL,pharmacy,pharmacy,Unknown,Unknown,Unknown,42.0583849,19.5025593
FARMACI,Unknown,Unknown,Unknown,Unknown,Unknown,AL,pharmacy,Unknown,Unknown,Unknown,Unknown,42.061636,19.5026977
Mini Market,Unknown,Unknown,Unknown,Unknown,Unknown,Unknown,pharmacy,Unknown,Unknown,Unknown,Unknown,42.0592736,19.5037179
Qendër Shëndetësore,Unknown,Unknown,Unknown,Unknown,Unknown,Unknown,doctors,doctor,Unknown,Unknown,Unknown,42.0584206,19.5025847
Bar Kafe,Unknown,Unknown,Unknown,Unknown,Unknown,Unknown,pharmacy,Unknown,Unknown,Unknown,Unknown,42.0613015,19.5054903
FARMACI,Unknown,Unknown,Unknown,Unknown,Unknown,AL,pharmacy,Unknown,Unknown,Unknown,Unknown,42.0619509,19.5064449
FARMACI,Unknown,Unknown,Unknown,Unknown,Unknown,AL,pharmacy,Unknown,Unknown,Unknown,Unknown,42.0591316,19.5141726
Gjonej,Unknown,Unknown,Unknown,Unknown,Unknown,AL,pharmacy,Unknown,Unknown,Unknown,Unknown,42.0620729,19.520095
Unknown,Unknown,Unknown,Unknown,Unknown,Unknown,AL,pharmacy,Unknown,Unknown,Unknown,Unknown,42.0637438,19.5183816
"Antullus, dr. Martinovič ORL ordinacija",Unknown,Unknown,Unknown,Unknown,Unknown,Unknown,doctors,doctor,Unknown,Unknown,Unknown,42.0831474,19.1206295
Unknown,Unknown,E65,Unknown,85343,Unknown,Unknown,pharmacy,Unknown,+38268161218,Unknown,Mo-Sa 09:00-18:00,42.4549824,18.6552705
Kirurgu i Fëmijëve,Unknown,Ibrahim Fahmiu,Unknown,Unknown,Unknown,Unknown,doctors,doctor,Unknown,Unknown,Unknown,42.395666,20.4265846
Xhafer Xhiha - Pulmolog,Unknown,Unknown,Unknown,Unknown,Unknown,Unknown,doctors,doctor,Unknown,Unknown,Unknown,42.3956093,20.4266317
Apoteka AL-HANA,Unknown,Unknown,Unknown,Unknown,Unknown,Unknown,pharmacy,Unknown,Unknown,Unknown,Mo-Sa 08:00-16:00,43.5810435,18.7911801
Ginekolog,Unknown,Unknown,Unknown,Unknown,Unknown,Unknown,clinic,clinic,Unknown,Unknown,Unknown,42.289121,18.8439811
BENU,Unknown,Unknown,Unknown,Unknown,Unknown,Unknown,pharmacy,pharmacy,Unknown,Unknown,Unknown,42.2885656,18.8439593
Dental Medika,Unknown,Unknown,Unknown,Unknown,Unknown,Unknown,dentist,dentist,Unknown,Unknown,Unknown,42.2889891,18.8439884
Unknown,Unknown,Unknown,Unknown,Unknown,Unknown,Unknown,pharmacy,Unknown,Unknown,Unknown,Unknown,42.4418308,18.6245109
Unknown,Unknown,Unknown,Unknown,Unknown,Unknown,Unknown,pharmacy,pharmacy,Unknown,Unknown,Unknown,42.4519698,18.5369516
Apoteka,Unknown,Unknown,Unknown,Unknown,Unknown,Unknown,pharmacy,pharmacy,Unknown,Unknown,Unknown,42.7743792,18.9483596
Unknown,Unknown,Unknown,Unknown,Unknown,Unknown,Unknown,pharmacy,pharmacy,Unknown,Unknown,Unknown,42.2802096,18.881303
Tea Medica,Unknown,Unknown,Unknown,Unknown,Unknown,Unknown,pharmacy,pharmacy,030312746,Unknown,Mo-Sa 08:00-21:00,42.0990599,19.0971969
Kina Medika,Unknown,Unknown,Unknown,Unknown,Unknown,Unknown,clinic,Unknown,Unknown,Unknown,Unknown,42.4258239,19.2786044
Unknown,Unknown,Unknown,Unknown,Unknown,Unknown,Unknown,clinic,clinic,Unknown,Unknown,Unknown,42.450802,18.6517368
Risto Vukotić,Unknown,Unknown,Unknown,Unknown,Unknown,Unknown,pharmacy,pharmacy,Unknown,Unknown,Unknown,43.3563534,19.3597601
Meditas,Unknown,Unknown,Unknown,Unknown,Unknown,Unknown,pharmacy,pharmacy,Unknown,Unknown,Unknown,42.4345244,19.2773658
Amblulanta Katerkoll,Unknown,Vladimir Sas bb,Unknown,Unknown,Unknown,Unknown,hospital,Unknown,Unknown,Unknown,Unknown,42.0018429,19.2992616
Unknown,Unknown,Unknown,Unknown,Unknown,Unknown,Unknown,pharmacy,Unknown,Unknown,Unknown,Unknown,42.0025312,19.2987903
Unknown,Unknown,Unknown,Unknown,Unknown,Unknown,Unknown,pharmacy,pharmacy,Unknown,Unknown,Unknown,41.9132288,19.2427476
Unknown,Unknown,Unknown,Unknown,Unknown,Unknown,Unknown,doctors,doctor,Unknown,Unknown,Unknown,41.9132889,19.2427332
Petanović,Unknown,Unknown,Unknown,Unknown,Unknown,Unknown,pharmacy,pharmacy,Unknown,Unknown,Unknown,42.4365092,19.26117
Unknown,Unknown,Unknown,Unknown,Unknown,Unknown,Unknown,hospital,Unknown,Unknown,Unknown,Unknown,42.9625704,19.5841464
Unknown,Unknown,Unknown,Unknown,Unknown,Unknown,Unknown,pharmacy,Unknown,Unknown,Unknown,Unknown,42.9600598,19.5802303
Unknown,Unknown,Unknown,Unknown,Unknown,Unknown,Unknown,pharmacy,Unknown,Unknown,Unknown,Unknown,42.9628341,19.5804372
Unknown,Unknown,Unknown,Unknown,Unknown,Unknown,Unknown,pharmacy,pharmacy,Unknown,Unknown,Unknown,42.4421017,19.2501164
"Farmaci ""Halili""",Unknown,Unknown,Unknown,Unknown,Unknown,Unknown,pharmacy,Unknown,Unknown,Unknown,Unknown,42.0763994,20.4208614
Lijek,Unknown,Unknown,Unknown,Unknown,Unknown,Unknown,pharmacy,pharmacy,Unknown,Unknown,Unknown,42.4405309,19.2638046
Tea Medica,Unknown,Unknown,Unknown,Unknown,Unknown,Unknown,pharmacy,pharmacy,Unknown,Unknown,Unknown,42.4339064,19.2667218
Pharmalife,Unknown,Unknown,Unknown,Unknown,Unknown,Unknown,pharmacy,pharmacy,Unknown,Unknown,Mo-Sa 08:00-21:00,42.4324913,19.2680234
Unknown,Unknown,Unknown,Unknown,Unknown,Unknown,Unknown,pharmacy,pharmacy,Unknown,Unknown,Unknown,42.3875073,18.9263403
Feniks Medika,Unknown,Bulevar Ivana Crnojevića,Podgorica,81000,Unknown,Unknown,hospital,hospital,Unknown,Unknown,Mo-Fr 07:30-20:00; Sa 07:30-14:00,42.4432487,19.2654957
Benu,Unknown,Unknown,Unknown,Unknown,Unknown,Unknown,pharmacy,pharmacy,Unknown,Unknown,Unknown,42.1037885,19.0989772
Unknown,Unknown,Unknown,Unknown,Unknown,Unknown,Unknown,pharmacy,Unknown,Unknown,Unknown,Unknown,42.2073121,18.9419647
Unknown,Unknown,Unknown,Unknown,Unknown,Unknown,Unknown,pharmacy,pharmacy,Unknown,Unknown,Unknown,42.774161,18.9494923
Unknown,Unknown,Unknown,Unknown,Unknown,Unknown,Unknown,pharmacy,pharmacy,Unknown,Unknown,Unknown,42.7718489,18.9481669
Unknown,Unknown,Unknown,Unknown,Unknown,Unknown,Unknown,pharmacy,pharmacy,Unknown,Unknown,Unknown,42.7754329,18.9491896
Unknown,Unknown,Unknown,Unknown,Unknown,Unknown,Unknown,Unknown,pharmacy,Unknown,Unknown,Unknown,42.7679899,18.9495477
Unknown,Unknown,Bulevar Ivana Crnojevića,Unknown,81000,Unknown,Unknown,clinic,clinic,0038220231833,https://www.invitro.com/,Mo-Sa 07:00-21:00,42.4432125,19.2656878
In Vitro Plus,Unknown,Unknown,Podgorica,81000,Unknown,Unknown,clinic,clinic,Unknown,Unknown,Mo-Sa 07:00-21:00,42.4349633,19.2789049
Pavlin,Unknown,Unknown,Unknown,Unknown,Unknown,Unknown,dentist,dentist,+38268859801,https://www.facebook.com/pavlinstomatology/,Unknown,42.1099678,19.099788
Fati im,Unknown,Deshmoret Dervishdana,Unknown,50000,Unknown,Unknown,hospital,Unknown,+383390325353,http://www.fati-im.com,Mo-Sa 07:30-20:00,42.3706195,20.4291145
Leka pharm,Unknown,Unknown,Unknown,Unknown,Unknown,Unknown,pharmacy,pharmacy,Unknown,Unknown,Unknown,42.3820529,20.4305674
Unknown,Unknown,II. Dalmatinske,Unknown,Unknown,Unknown,Unknown,hospital,hospital,Unknown,Unknown,Unknown,42.4308893,18.6991473
Unknown,Unknown,Unknown,Unknown,Unknown,Unknown,Unknown,clinic,Unknown,Unknown,Unknown,Unknown,42.8431543,19.8654523
Unknown,Unknown,Svetog Save,Unknown,Unknown,Unknown,Unknown,dentist,dentist,Unknown,Unknown,Unknown,42.8471221,19.8731908
Unknown,Unknown,Unknown,Unknown,Unknown,Unknown,Unknown,dentist,dentist,Unknown,Unknown,Unknown,42.8468837,19.8737671
"Farmaci ""EVA""",Unknown,Unknown,Shkodër,4001,Unknown,AL,pharmacy,Unknown,Unknown,Unknown,Unknown,42.066284,19.5116096
Unknown,Unknown,Unknown,Shkodër,4001,Unknown,AL,pharmacy,Unknown,Unknown,Unknown,Unknown,42.0645198,19.5087938
Farmaci,Unknown,Unknown,Unknown,Unknown,Unknown,Unknown,pharmacy,Unknown,Unknown,Unknown,Unknown,42.0624407,19.5061403
"Farmaci ""Kopliku""",Unknown,Bulevardi Zogu I,Shkodër,4001,Unknown,AL,pharmacy,Unknown,Unknown,Unknown,Unknown,42.0632002,19.5071975
Unknown,Unknown,Unknown,Unknown,Unknown,Unknown,Unknown,pharmacy,Unknown,Unknown,Unknown,Unknown,42.0699334,19.5166276
Klinike Gjinekologji,Unknown,Unknown,Unknown,Unknown,Unknown,Unknown,clinic,Unknown,Unknown,Unknown,Unknown,42.0690374,19.5125032
Farmaci,Unknown,Unknown,Unknown,Unknown,Unknown,Unknown,pharmacy,Unknown,Unknown,Unknown,Unknown,42.057969,19.525465
Klinike Mjeksore,Unknown,Unknown,Unknown,Unknown,Unknown,Unknown,clinic,Unknown,Unknown,Unknown,Unknown,42.0598911,19.5220274
B&M Pharma,Unknown,Unknown,Unknown,Unknown,Unknown,Unknown,pharmacy,Unknown,Unknown,Unknown,Unknown,42.062985,19.5108442
"Farmaci ""GERI""",Unknown,Unknown,Unknown,Unknown,Unknown,Unknown,pharmacy,Unknown,Unknown,Unknown,Unknown,42.0745204,19.5230951
Laboratori Biokimik Klinik,Unknown,Unknown,Unknown,Unknown,Unknown,Unknown,clinic,Unknown,Unknown,Unknown,Unknown,42.0740212,19.522441
Alda,Unknown,Unknown,Unknown,Unknown,Unknown,Unknown,pharmacy,Unknown,Unknown,Unknown,Unknown,42.0739742,19.5223625
Unknown,Unknown,Unknown,Unknown,Unknown,Unknown,Unknown,pharmacy,Unknown,Unknown,Unknown,24/7,42.0748424,19.5235933
Unknown,Unknown,Unknown,Unknown,Unknown,Unknown,Unknown,pharmacy,Unknown,Unknown,Unknown,Unknown,42.0747937,19.5235249
Klinike Mjeksore,Unknown,Unknown,Unknown,Unknown,Unknown,Unknown,clinic,clinic,Unknown,Unknown,Unknown,42.0746762,19.5233788
Delta Diagnostics,Unknown,Unknown,Unknown,Unknown,Unknown,Unknown,clinic,Unknown,Unknown,Unknown,Unknown,42.074611,19.5232708
Klinike Gjinekologjike,Unknown,Unknown,Unknown,Unknown,Unknown,Unknown,doctors,doctor,Unknown,Unknown,Unknown,42.0737718,19.5221082
MediCare,Unknown,Unknown,Unknown,Unknown,Unknown,Unknown,clinic,Unknown,Unknown,Unknown,Unknown,42.0735854,19.5217662
Ida,Unknown,Unknown,Unknown,Unknown,Unknown,Unknown,Unknown,laboratory,Unknown,Unknown,Unknown,42.0736417,19.5216704
Apoteka Benu,Unknown,Cvijetna,Podgorica,81000,Unknown,Unknown,pharmacy,pharmacy,Unknown,Unknown,Unknown,42.4306208,19.2792361
Unknown,Unknown,Unknown,Unknown,Unknown,Unknown,Unknown,dentist,dentist,Unknown,Unknown,Unknown,42.4265839,18.7719162
Unknown,Unknown,Unknown,Unknown,Unknown,Unknown,Unknown,pharmacy,Unknown,Unknown,Unknown,Unknown,42.6597384,20.3043902
Kastrati,Unknown,Unknown,Unknown,Unknown,Unknown,Unknown,pharmacy,Unknown,Unknown,Unknown,Unknown,42.6564933,20.3061569
Apoteka Stari Grad,Unknown,Unknown,Unknown,Unknown,Unknown,Unknown,pharmacy,pharmacy,Unknown,Unknown,Mo-Su 08:00-20:00,42.0863505,19.1237924
Laboratorija Bona-lab,Unknown,Mirka Banjevića,Podgorica,81000,Unknown,Unknown,clinic,clinic,Unknown,Unknown,Unknown,42.4305562,19.2792107
Unknown,Unknown,Unknown,Unknown,Unknown,Unknown,Unknown,dentist,dentist,Unknown,Unknown,Unknown,42.0764831,19.3385454
Qendra e Mjekesise Familjare - Strellc,Unknown,Unknown,Unknown,51010,Unknown,Unknown,hospital,Unknown,Unknown,Unknown,Mo-Fr 08:30-02:30,42.5793295,20.2937103
Ambulanca Adem Ukehaxhaj,Unknown,Unknown,Unknown,Unknown,Unknown,Unknown,hospital,Unknown,Unknown,Unknown,Unknown,42.5327194,20.2945761
QMF ÇABRATI Nr. 1,Unknown,Unknown,Unknown,Unknown,Unknown,Unknown,hospital,hospital,Unknown,Unknown,Unknown,42.3854964,20.4219991
QMF EMIN DURAKU / Nr 2,Unknown,Unknown,Unknown,Unknown,Unknown,Unknown,hospital,hospital,Unknown,Unknown,Unknown,42.381596,20.4372158
AMF DOLI ,Unknown,Unknown,Unknown,Unknown,Unknown,Unknown,hospital,Unknown,Unknown,Unknown,Unknown,42.3473278,20.4635441
AMF GUSKA / Nr. 03,Unknown,Unknown,Unknown,Unknown,Unknown,Unknown,hospital,Unknown,Unknown,Unknown,Unknown,42.3624504,20.3921906
AMF BABAJ I BOKES / Nr. 04,Unknown,Vëllezërit Bukolla,Unknown,Unknown,Unknown,Unknown,hospital,Unknown,Unknown,Unknown,Unknown,42.3606059,20.3316765
AMF MULLIQ / Nr. 06,Unknown,Unknown,Unknown,Unknown,Unknown,Unknown,hospital,Unknown,Unknown,Unknown,Unknown,42.4365188,20.2675984
QMF CERMJANI / nr 7,Unknown,Unknown,Unknown,Unknown,Unknown,Unknown,hospital,Unknown,Unknown,Unknown,Unknown,42.4737895,20.4752761
AMF BEC / Nr. 07,Unknown,Unknown,Unknown,Unknown,Unknown,Unknown,hospital,Unknown,Unknown,Unknown,Unknown,42.4418743,20.4483588
AMF GERGOC / Nr. 09,Unknown,Unknown,Unknown,Unknown,Unknown,Unknown,hospital,Unknown,Unknown,Unknown,Unknown,42.5092436,20.4557605
AMF SHQIPONJE / Nr. 11,Unknown,Unknown,Unknown,Unknown,Unknown,Unknown,hospital,Unknown,Unknown,Unknown,Unknown,42.5431021,20.4806527
AMF NOVOSELLA / Nr. 13,Unknown,Unknown,Unknown,Unknown,Unknown,Unknown,hospital,Unknown,Unknown,Unknown,Unknown,42.462457,20.3929235
AMF Blinisht / Nr. 14,Unknown,Shaban Lushaj,Gjakova,Unknown,Unknown,Unknown,hospital,doctor,Unknown,Unknown,Unknown,42.3119954,20.478138
"Apoteka ""Hamas""",Unknown,Unknown,Unknown,Unknown,Unknown,Unknown,pharmacy,pharmacy,Unknown,Unknown,Unknown,42.8442305,20.1699839
Zdravstvena stanica Žabljak,Unknown,Unknown,Unknown,Unknown,Unknown,Unknown,hospital,Unknown,Unknown,Unknown,Unknown,43.1557874,19.1247991
Meditas,Unknown,Jerevanska,Podgorica,Unknown,Unknown,Unknown,pharmacy,Unknown,+382 20 642 013,Unknown,Mo-Sa 07:00-21:00; Su 08:00-14:00,42.4228602,19.249394
AMF Korenice - Nr. 02,Unknown,Besëlidhja,Unknown,Unknown,Unknown,Unknown,hospital,Unknown,Unknown,Unknown,Unknown,42.3747414,20.3670976
Dom zdravlja,Unknown,Unknown,Unknown,Unknown,Unknown,Unknown,hospital,Unknown,Unknown,Unknown,Unknown,42.7337004,19.79319
Unknown,Unknown,Unknown,Unknown,Unknown,Unknown,Unknown,hospital,hospital,Unknown,Unknown,Unknown,43.4145924,20.4815821
Unknown,Unknown,Unknown,Unknown,Unknown,Unknown,Unknown,doctors,doctor,Unknown,Unknown,Unknown,42.368105,18.7542498
Unknown,Unknown,Piperska,Unknown,81000,Unknown,Unknown,clinic,Unknown,Unknown,Unknown,Unknown,42.463369,19.2679785
Tea Medica 19,Unknown,Unknown,Unknown,Unknown,Unknown,Unknown,pharmacy,pharmacy,Unknown,Unknown,Unknown,42.4406028,19.269711
Unknown,Unknown,Unknown,Unknown,Unknown,Unknown,Unknown,pharmacy,pharmacy,Unknown,Unknown,Unknown,42.4400048,19.2662081
MIM SPITALI,Unknown,Megzun Boshnjaku,Unknown,50009,Unknown,Unknown,hospital,Unknown,+38344129169,https://www.mim-ks.com/,24/7,42.3667545,20.4638878
Unknown,Unknown,Unknown,Unknown,Unknown,Unknown,Unknown,pharmacy,Unknown,Unknown,Unknown,Unknown,42.9907529,20.338225
Unknown,Unknown,Unknown,Unknown,Unknown,Unknown,Unknown,pharmacy,pharmacy,Unknown,Unknown,Unknown,42.3652951,19.3297003
Hipokrat,Unknown,Unknown,Unknown,Unknown,Unknown,Unknown,hospital,Unknown,Unknown,Unknown,Unknown,42.463232,19.2678298
Theth,Unknown,Unknown,Theth,4009,Unknown,AL,hospital,Unknown,129,Unknown,Unknown,42.3946644,19.7764246
Unknown,Unknown,Unknown,Unknown,Unknown,Unknown,Unknown,pharmacy,Unknown,Unknown,Unknown,Unknown,43.1665633,18.5323628
Klinikë Mjeksore,Unknown,Unknown,Unknown,Unknown,Unknown,Unknown,clinic,clinic,Unknown,Unknown,Unknown,42.0264112,19.5736379
Unknown,Unknown,Atinska,Unknown,81000,Unknown,Unknown,dentist,dentist,+38269021203,https://ortholine.me/,Mo-Sa 09:00-21:00,42.4443981,19.2737709
Apoteka,Unknown,Unknown,Unknown,Unknown,Unknown,Unknown,pharmacy,Unknown,Unknown,Unknown,Unknown,42.7333445,19.7923635
Spital Privat,Unknown,Unknown,Unknown,Unknown,Unknown,Unknown,hospital,Unknown,Unknown,Unknown,Unknown,42.062397,19.5118852
Dent-ES,Unknown,Vojvode Maša Đurovića,Podgorica,81000,Unknown,Unknown,dentist,dentist,+382 67 874 362,https://dent-es.me,Mo-Fr 10:00-20:00,42.4402076,19.2353818
Apoteka Montefarm,Unknown,Ivangradska,Podgorica,81000,Unknown,Unknown,pharmacy,pharmacy,Unknown,Unknown,Unknown,42.4524346,19.2244243
Dom zdravlja Tološi,Unknown,Ivangradska,Podgorica,81000,Unknown,Unknown,hospital,hospital,Unknown,Unknown,Unknown,42.4524364,19.2245577
Benu,Unknown,Đoka Miraševića,Unknown,Unknown,Unknown,Unknown,pharmacy,pharmacy,067203069,Unknown,Mo-Sa 08:00-22:00; Su 08:00-20:00,42.4489464,19.2377998
Unknown,Unknown,Jelene Ćetković,Podgorica,Unknown,Unknown,Unknown,pharmacy,pharmacy,Unknown,Unknown,Unknown,42.4512629,19.2340219
AnadolliDent,Unknown,Lekë Dukagjini,Unknown,30000,Unknown,Unknown,dentist,dentist,+38349664231,Unknown,Mo-Sa 10:00-19:00,42.6591469,20.2849201
Unknown,Unknown,Unknown,Unknown,Unknown,Unknown,Unknown,pharmacy,pharmacy,Unknown,Unknown,Unknown,42.4382478,19.2461002
Hirurški centar,Unknown,Unknown,Unknown,Unknown,Unknown,Unknown,doctors,doctor,Unknown,Unknown,Unknown,42.4348565,19.2790509
Hirurški centar,Unknown,Unknown,Unknown,Unknown,Unknown,Unknown,doctors,doctor,Unknown,Unknown,Unknown,42.4346187,19.2795206
LIKA,Unknown,Mbretëresha Teutë,Unknown,30000,Unknown,Unknown,pharmacy,Unknown,Unknown,Unknown,Unknown,42.6593718,20.2907738
Unknown,Unknown,Unknown,Unknown,Unknown,Unknown,Unknown,pharmacy,pharmacy,Unknown,Unknown,Unknown,42.4240514,18.7706726
Benu,Unknown,Unknown,Kotor,85330,Unknown,Unknown,pharmacy,pharmacy,Unknown,Unknown,Mo-Su 08:00-22:00,42.4257933,18.7712479
Medicus,Unknown,Rruga Qemal Draçini,Unknown,Unknown,Unknown,Unknown,clinic,Unknown,0675878677,Unknown,Mo-Sa 09:00-19:00,42.0684943,19.5126795
Кршенковић,Unknown,Немањина,Priboj,31330,Unknown,Unknown,pharmacy,pharmacy,Unknown,Unknown,Unknown,43.5609565,19.539001
Unknown,Unknown,Unknown,Unknown,Unknown,Unknown,Unknown,pharmacy,Unknown,Unknown,Unknown,Unknown,42.4261567,19.222834
"Apoteka ""Dobrota""",Unknown,Unknown,Unknown,Unknown,Unknown,Unknown,pharmacy,pharmacy,Unknown,Unknown,Unknown,42.4361565,18.7651662
Unknown,Unknown,Unknown,Unknown,Unknown,Unknown,Unknown,pharmacy,Unknown,Unknown,Unknown,Unknown,42.5638539,19.8311854
Remedia,Unknown,Nikole Tesle,Nikšić,81400,Unknown,Unknown,pharmacy,pharmacy,Unknown,Unknown,Mo-Fr 07:30-21:00,42.7771906,18.9506274
Dr Kukoljac,Unknown,Unknown,Unknown,Unknown,Unknown,Unknown,dentist,dentist,0038268444601,Unknown,Mo-Sa 09:00-16:00,42.4521468,18.541782
Unknown,Unknown,Unknown,Unknown,Unknown,Unknown,Unknown,pharmacy,Unknown,Unknown,Unknown,Unknown,42.0719697,19.5149717
Qender Shëndetësore,Unknown,Unknown,Unknown,Unknown,Unknown,Unknown,clinic,Unknown,Unknown,Unknown,Unknown,42.1209036,19.5605795
Unknown,Unknown,Unknown,Unknown,Unknown,Unknown,Unknown,pharmacy,pharmacy,Unknown,Unknown,Unknown,43.2303707,19.718306
Dijab Pharmacy,Unknown,Unknown,Unknown,Unknown,Unknown,Unknown,pharmacy,pharmacy,Unknown,Unknown,Unknown,43.23034,19.7182554
Unknown,Unknown,Unknown,Unknown,Unknown,Unknown,Unknown,dentist,dentist,Unknown,Unknown,Unknown,43.3868168,19.6437527
Dentist+,Unknown,Unknown,Unknown,Unknown,Unknown,Unknown,dentist,dentist,Unknown,Unknown,Unknown,43.3896038,19.6501235
Unknown,Unknown,Unknown,Unknown,Unknown,Unknown,Unknown,pharmacy,pharmacy,Unknown,Unknown,Unknown,43.3895199,19.6499041
Dr Xhevat Kurhasani,Unknown,Tanush Topia,Unknown,Unknown,Unknown,Unknown,clinic,Unknown,+38344189640,Unknown,Unknown,42.6568437,20.2912478
Gastrohep,Unknown,Lidhja e Pejës,Unknown,30000,Unknown,Unknown,doctors,doctor,+38344147281,Unknown,Mo-Sa 16:00-19:00,42.6585675,20.2956579
Unknown,Unknown,m-5,Rožaje,84310,Unknown,Unknown,hospital,hospital,Unknown,Unknown,Unknown,42.8407162,20.1654182
Unknown,Unknown,Unknown,Unknown,Unknown,Unknown,Unknown,pharmacy,pharmacy,Unknown,Unknown,Unknown,42.4443961,19.2530926
Unknown,Unknown,Unknown,Unknown,Unknown,Unknown,Unknown,pharmacy,pharmacy,Unknown,Unknown,Unknown,42.44329,19.2522308
Unknown,Unknown,Unknown,Unknown,Unknown,Unknown,Unknown,doctors,doctor,Unknown,Unknown,Unknown,42.7776709,18.9448051
O.S “Shëndeti Dental”,Unknown,Asim Luzha,Unknown,50000,Unknown,Unknown,dentist,dentist,+38345900096,Unknown,Mo-Sa 09:00-19:00,42.3775439,20.4313871
Family Pharm,Unknown,Unknown,Unknown,Unknown,Unknown,Unknown,pharmacy,Unknown,Unknown,Unknown,Unknown,42.6580615,20.2927466
Benu,Unknown,Unknown,Unknown,Unknown,Unknown,Unknown,pharmacy,pharmacy,Unknown,Unknown,24/7,42.2895125,18.8386169
Qendra e mjekësis familjare,Unknown,Unknown,Unknown,Unknown,Unknown,Unknown,clinic,Unknown,Unknown,Unknown,Unknown,42.6567357,20.2986404
Unknown,Unknown,Unknown,Unknown,Unknown,Unknown,Unknown,pharmacy,pharmacy,Unknown,Unknown,"Mo-Sa 08:00-21:00, Su 09:00-16:00",42.2818703,18.8676321
Klinika Fizioterapi Turke,Unknown,Rruga Kole Heqimi,Unknown,Unknown,Unknown,Unknown,clinic,Unknown,+355693925179,Unknown,Mo-Su 09:00-18:00,42.0747386,19.5231146
Centar za očne bolesti Miljković & Jankov,Unknown,Unknown,Unknown,Unknown,Unknown,Unknown,clinic,clinic,+38233466163,http://www.miljkovicjankov.me,Unknown,42.2915487,18.839063
Barnatore AQUAPHARM,Unknown,Skenderbeu,Unknown,50000,Unknown,Unknown,pharmacy,pharmacy,+38344118317;0038344118317,https://www.facebook.com/aquapharm,Mo-Sa 08:00-22:00,42.3770576,20.4336662
Unknown,Unknown,Unknown,Unknown,Unknown,Unknown,Unknown,pharmacy,Unknown,Unknown,Unknown,Unknown,42.4594908,18.513697
Lendrit Spahiu,Unknown,Unknown,Unknown,Unknown,Unknown,Unknown,doctors,doctor,Unknown,Unknown,Unknown,42.3903366,20.4260424
Help,Unknown,Unknown,Unknown,Unknown,Unknown,Unknown,pharmacy,Unknown,Unknown,Unknown,Mo-Fr 07:00-21:00; Sa 08:00-21:00,42.4617791,19.2939869
Unknown,Unknown,Unknown,Unknown,Unknown,Unknown,Unknown,pharmacy,pharmacy,Unknown,Unknown,Unknown,42.4551465,18.5572986
Dental clinic Kovačević,Unknown,Unknown,Unknown,Unknown,Unknown,Unknown,dentist,dentist,Unknown,Unknown,Unknown,42.4501101,18.5737212
Unknown,Unknown,Unknown,Unknown,Unknown,Unknown,Unknown,pharmacy,pharmacy,Unknown,Unknown,Unknown,43.1524271,19.1301525
Unknown,Unknown,Unknown,Unknown,Unknown,Unknown,Unknown,pharmacy,pharmacy,Unknown,Unknown,Unknown,43.5828107,19.5253078
Unknown,Unknown,Unknown,Unknown,Unknown,Unknown,Unknown,pharmacy,pharmacy,Unknown,Unknown,Unknown,43.5835908,19.5191552
Unknown,Unknown,Unknown,Unknown,Unknown,Unknown,Unknown,dentist,dentist,Unknown,Unknown,Unknown,42.2835261,18.8604938
Unknown,Unknown,Ćamila Sijarića,Peje,30090,Unknown,Unknown,hospital,hospital,Unknown,Unknown,Unknown,42.6951629,20.3386382
Qendra Shendetsore Helshan,Unknown,Vas Pas,Unknown,8660,Unknown,Unknown,hospital,Unknown,Unknown,Unknown,Mo-Sa 00:00-24:00,42.2154933,20.279759
Drifarma,Unknown,Agim Ramadani,Unknown,8702,Unknown,Unknown,pharmacy,Unknown,Unknown,Unknown,Mo-Su 08:00-20:00,42.3572729,20.0747415
"""REMEDIA"" TE Dritoni",Unknown,Eliot L. Engel,Unknown,Unknown,Unknown,Unknown,pharmacy,Unknown,Unknown,Unknown,Unknown,42.6551757,20.2929179
Unknown,Unknown,Unknown,Unknown,Unknown,Unknown,Unknown,pharmacy,pharmacy,Unknown,Unknown,Unknown,42.7783257,18.9451416
Unknown,Unknown,Unknown,Unknown,Unknown,Unknown,Unknown,doctors,doctor,Unknown,Unknown,Unknown,42.7775148,18.9453647
Xhelal Shatri kiropraktikë,Unknown,20 Qershori,Istog,31000,Unknown,Unknown,doctors,doctor,Unknown,Unknown,Unknown,42.7829903,20.4851483
POMIKA DENT,Unknown,Bajram Gashi,Istog,31000,Unknown,Unknown,dentist,dentist,Unknown,Unknown,Unknown,42.7814298,20.4820819
ES-Pharm,Unknown,Fehmi Agani,Istog,31000,Unknown,Unknown,pharmacy,pharmacy,Unknown,Unknown,Mo-Su 08:00-23:00,42.7816024,20.4885758
QMF- Qender e Mjeksisë Familjare,Unknown,Gurra e Kocit,Gjurakufci,Unknown,Unknown,Unknown,hospital,doctor,Unknown,Unknown,Unknown,42.7227603,20.4731788
Poliklinika Diagnostika,Unknown,Ibrahim Rugova,Unknown,Unknown,Unknown,Unknown,clinic,clinic,Unknown,Unknown,Unknown,42.7800077,20.4873238
Healthcare Pharmacy,Unknown,Ibrahim Rugova,Istog,31000,Unknown,Unknown,pharmacy,pharmacy,+38349250834,Unknown,Mo-Su 07:00-23:00,42.7806343,20.4863844
Unknown,Unknown,Nënë Tereze,Istog,31000,Unknown,Unknown,Unknown,physiotherapist,Unknown,Unknown,Unknown,42.7789294,20.4868518
"Dr,Spec.Ilir",Unknown,Nënë Tereze,Unknown,Unknown,Unknown,Unknown,dentist,dentist,Unknown,Unknown,Unknown,42.7789473,20.4876199
AMF- Ambulancë e Mjeksisë Familjare,Unknown,Dervish Syla,Molliq,Unknown,Unknown,Unknown,hospital,hospital,Unknown,Unknown,Unknown,42.4391306,20.2708278
Laboratori Dr.Ekremi,Unknown,Skendërbeu,Istog,31000,Unknown,Unknown,Unknown,laboratory,"044110946,049766644",Unknown,Mo-Fr 07:30-18:00; Sa 07:30-14:00,42.7787253,20.4880996
Dr.Arbnori,Unknown,Skendërbeu,Unknown,Unknown,Unknown,Unknown,dentist,dentist,Unknown,Unknown,Unknown,42.7771516,20.4884364
AMF- Ambulancë e Mjeksisë Familjare,Unknown,Fazli e Kamer Nimani,Gërgoc,Unknown,Unknown,Unknown,hospital,doctor,Unknown,Unknown,Unknown,42.5096477,20.455132
QMF Loxhë,Unknown,Unknown,Unknown,Unknown,Unknown,Unknown,Unknown,hospital,Unknown,Unknown,Unknown,42.6333726,20.3232533
Poliklinika Stomatologjike,Unknown,Nënë Tereza,Pejë,30000,Unknown,Unknown,clinic,clinic,Unknown,Unknown,Unknown,42.6610656,20.272867
QMF Rizniqi,Unknown,Unknown,Decan,Unknown,Unknown,Unknown,hospital,hospital,Unknown,Unknown,Unknown,42.5206026,20.3497764
Hana,Unknown,Nëna Terezë,Unknown,Unknown,Unknown,Unknown,pharmacy,pharmacy,Unknown,Unknown,Unknown,42.3830078,20.4305559
Klinika PREMIUM+,Unknown,Hysni dobruna,Unknown,50000,Unknown,Unknown,clinic,Unknown,+38344385682,Unknown,"Tu-Fr 16:00-19:00; Su,Sa 09:00-18:00",42.3761012,20.4363805
Bosiljak,Unknown,Unknown,Unknown,Unknown,Unknown,Unknown,pharmacy,pharmacy,Unknown,Unknown,Unknown,42.431196,18.6966703
Index Pharm 2,Unknown,Unknown,Unknown,Unknown,Unknown,Unknown,pharmacy,pharmacy,Unknown,Unknown,Unknown,42.6631527,20.2979385
Kea Pharmacy,Unknown,Unknown,Unknown,Unknown,Unknown,Unknown,pharmacy,pharmacy,Unknown,Unknown,Unknown,42.3776133,20.4344767
LeoMed,Unknown,Unknown,Unknown,Unknown,Unknown,Unknown,pharmacy,Unknown,Unknown,Unknown,Unknown,42.6653208,20.3009052
Arsa,Unknown,Unknown,Unknown,Unknown,Unknown,Unknown,pharmacy,Unknown,Unknown,Unknown,Unknown,42.6654859,20.3008754
Edona,Unknown,Unknown,Unknown,Unknown,Unknown,Unknown,pharmacy,Unknown,Unknown,Unknown,Unknown,42.6656668,20.3010899
Bio pharm,Unknown,Unknown,Unknown,Unknown,Unknown,Unknown,pharmacy,Unknown,Unknown,Unknown,Unknown,42.6453137,20.2922777
Palin,Unknown,Unknown,Unknown,Unknown,Unknown,Unknown,pharmacy,Unknown,Unknown,Unknown,Unknown,42.5427619,20.2898915
Alea,Unknown,Unknown,Unknown,Unknown,Unknown,Unknown,pharmacy,Unknown,Unknown,Unknown,Unknown,42.5407536,20.2886775
Melissa,Unknown,Unknown,Unknown,Unknown,Unknown,Unknown,pharmacy,Unknown,Unknown,Unknown,Unknown,42.5340928,20.2932605
Jetoni,Unknown,Unknown,Unknown,Unknown,Unknown,Unknown,pharmacy,Unknown,Unknown,Unknown,Unknown,42.5321713,20.29416
Fati,Unknown,Unknown,Unknown,Unknown,Unknown,Unknown,pharmacy,Unknown,Unknown,Unknown,Unknown,42.5325135,20.2938975
ES Pharm,Unknown,Unknown,Unknown,Unknown,Unknown,Unknown,pharmacy,Unknown,Unknown,Unknown,Unknown,42.7815914,20.4886512
Fati 1,Unknown,Unknown,Unknown,Unknown,Unknown,Unknown,pharmacy,Unknown,Unknown,Unknown,Unknown,42.661005,20.275208
Bio Pharm,Unknown,Unknown,Unknown,Unknown,Unknown,Unknown,pharmacy,Unknown,Unknown,Unknown,Unknown,42.7820075,20.4823349
Lika,Unknown,Unknown,Unknown,Unknown,Unknown,Unknown,pharmacy,pharmacy,Unknown,Unknown,Unknown,42.6627881,20.297134
Edona,Unknown,Unknown,Unknown,Unknown,Unknown,Unknown,pharmacy,Unknown,Unknown,Unknown,Unknown,42.6593913,20.2915875
Roli,Unknown,Unknown,Unknown,Unknown,Unknown,Unknown,pharmacy,pharmacy,Unknown,Unknown,Unknown,42.662736,20.2977441
Begolli,Unknown,Unknown,Unknown,Unknown,Unknown,Unknown,pharmacy,pharmacy,Unknown,Unknown,Mo-Sa 07:00-22:00,42.6602385,20.2907852
Spitali Tropojë,Unknown,Agim Ramadani,Unknown,8701,Unknown,Unknown,hospital,Unknown,Unknown,Unknown,Unknown,42.3634956,20.0747123
Oftalens,Unknown,Bratstva i Jedinstva,Unknown,Unknown,Unknown,Unknown,doctors,doctor,067 323 655,http://www.oftalens.me/,Unknown,42.4354795,19.2636863
Apoteka Zdravlje,Unknown,Sava Čelebića,Unknown,Unknown,Unknown,Unknown,pharmacy,pharmacy,Unknown,Unknown,Unknown,42.4506769,19.2358916
Kardio Lab,Unknown,Unknown,Unknown,Unknown,Unknown,Unknown,doctors,doctor,+382 68 262 262,Unknown,Mo-Fr 08:00-20:00; Sa 08:00-16:00,42.4363161,19.2636929
Kujdesi,Unknown,Unknown,Unknown,Unknown,Unknown,Unknown,pharmacy,pharmacy,Unknown,Unknown,Unknown,42.3756618,20.4401025
Roka,Unknown,Unknown,Unknown,Unknown,Unknown,Unknown,pharmacy,pharmacy,Unknown,Unknown,Unknown,42.3808315,20.4307714
Aloe pharm,Unknown,Unknown,Unknown,Unknown,Unknown,Unknown,pharmacy,pharmacy,Unknown,Unknown,Unknown,42.3782381,20.4310973
Aloe Vera,Unknown,Unknown,Unknown,Unknown,Unknown,Unknown,pharmacy,pharmacy,Unknown,Unknown,Mo-Sa 08:00-21:00,42.3759369,20.4395536
Super pharm,Unknown,Unknown,Unknown,Unknown,Unknown,Unknown,pharmacy,Unknown,Unknown,Unknown,Unknown,42.3721707,20.4358786
Ordiananca Stomatologjike “2G & 2L”,Unknown,Dergut Vokshi,Gjakova,50000,Unknown,Unknown,dentist,dentist,Unknown,https://www.facebook.com/stories/2749220951815429/UzpfSVNDOjQwODk4OTc4MDQ0MTQzOTc=/,9:00-19:00,42.384533,20.4265491
Medicalpharm,Unknown,Beteja e Kosharës,Unknown,30000,Unknown,Unknown,pharmacy,Unknown,Unknown,Unknown,Mo-Sa 08:00-22:00; Su 11:00-20:00,42.6541326,20.2940627
Ludri,Unknown,Unknown,Unknown,Unknown,Unknown,Unknown,pharmacy,Unknown,Unknown,Unknown,Unknown,42.076849,20.4200869
Apoteka Latkovich,Unknown,Peraška,Tivat,Unknown,Unknown,Unknown,pharmacy,pharmacy,+382 32 663 318,Unknown,Mo-Sa 08:00-21:00,42.4390623,18.6948853
Dr. Flamur Marku,Unknown,Gjergj Sokoli,Gjakova,50000,Unknown,Unknown,clinic,clinic,Unknown,Unknown,Mo-Sa 16:00-18:00,42.395247,20.4219903
Arti-MED,Unknown,Faik Konica,Gjakova,50000,Unknown,Unknown,clinic,clinic,Unknown,Unknown,Mo-Fr 15:00-19:00,42.3704162,20.4361667
ORL Medicus,Unknown,Abdurrahim Buza,Gjakovë,50000,Unknown,Unknown,clinic,clinic,Unknown,Unknown,Mo-Sa 16:00-20:00,42.3691781,20.4342456
Dental-B,Unknown,Fehmi Agani,Istog,31000,Unknown,Unknown,dentist,dentist,044 347 702,Unknown,Unknown,42.7798116,20.4925153
Zenel Shatri,Unknown,Selman Shatri,Tomoc,31020,Unknown,Unknown,doctors,doctor,Unknown,Unknown,Unknown,42.7407414,20.4766389
Unknown,Unknown,Bajram Gashi,Istog,Unknown,Unknown,Unknown,dentist,dentist,Unknown,Unknown,Unknown,42.7808315,20.4802781
Endriti,Unknown,Mësuesi Bajram,Banjë/Istog,31010,Unknown,Unknown,Unknown,physiotherapist,Unknown,Unknown,Unknown,42.717457,20.3878671
Unknown,Unknown,Mullinjtë e Istogut,Istog,31000,Unknown,Unknown,pharmacy,pharmacy,Unknown,Unknown,Unknown,42.7821692,20.4824781
Flora,Unknown,Vëllezërit Zeqiraj,Banjë/Istog,31010,Unknown,Unknown,dentist,dentist,Unknown,Unknown,Unknown,42.7269598,20.390406
FIZIO PLUS - Fizioterapi dhe Rehabilitim,Unknown,Nënë Tereza,Unknown,30000,Unknown,Unknown,clinic,Unknown,+38348220928,https://fizioplus.com/,Mo-Fr 14:00-18:00; Sa 10:00-16:00,42.6613998,20.2779447
Unknown,Unknown,Unknown,Unknown,Unknown,Unknown,Unknown,pharmacy,Unknown,Unknown,Unknown,Unknown,42.0700321,19.5019408
Shkodra Biomedicine,Unknown,Unknown,Unknown,Unknown,Unknown,Unknown,pharmacy,Unknown,Unknown,Unknown,Unknown,42.0694636,19.5018321
Unknown,Unknown,Unknown,Unknown,Unknown,Unknown,Unknown,clinic,Unknown,Unknown,https://mojlab.me/,Unknown,42.4307249,18.6961192
Unknown,Unknown,Unknown,Unknown,Unknown,Unknown,Unknown,clinic,laboratory,Unknown,https://mojlab.me/,Mo-Fr 07:00-20:00; Sa 08:00-18:00; PH closed,42.4350904,18.7700815
MojLab Laboratoria 1,Unknown,Unknown,Unknown,Unknown,Unknown,Unknown,clinic,clinic,Unknown,https://mojlab.me/,Mo-Fr 07:00-15:00; Sa 08:00-15:00; Su off,42.4549998,18.5593031
Qendra Terapeutike Kroate e Mjekesise,Unknown,2 Korriku,Istog,31000,Unknown,Unknown,Unknown,physiotherapist,+383 49 627 398,Unknown,08:00-18:00,42.7803993,20.4874911
ISHMAKU Dental,Unknown,Unknown,Unknown,Unknown,Unknown,Unknown,dentist,dentist,Unknown,Unknown,Unknown,42.0576295,19.501183
Unknown,Unknown,Unknown,Unknown,Unknown,Unknown,Unknown,Unknown,physiotherapist,Unknown,Unknown,Unknown,42.0581159,19.505032
Home Dent,Unknown,Unknown,Unknown,Unknown,Unknown,Unknown,dentist,dentist,Unknown,Unknown,Unknown,42.0581821,19.5113486
"Ordinanca e terapisë fizikale 
PHYSIO HEALTH",Unknown,Skenderbeu,Unknown,Unknown,Unknown,Unknown,Unknown,physiotherapist,+38349691251,Unknown,Mo-Sa 15:00-20:00,42.7776336,20.4884691
Moj Lab,Unknown,Dalmatinska,Podgorica,81000,Unknown,Unknown,clinic,clinic,Unknown,Unknown,Mo-Su 08:00-20:00,42.4474412,19.2474091
Unknown,Unknown,Unknown,Unknown,Unknown,Unknown,Unknown,pharmacy,pharmacy,Unknown,Unknown,Unknown,43.5559976,19.0719728
Dental D,Unknown,Unknown,Unknown,Unknown,Unknown,Unknown,dentist,dentist,Unknown,Unknown,Unknown,43.5556192,19.0717878
Unknown,Unknown,Unknown,Unknown,Unknown,Unknown,Unknown,pharmacy,pharmacy,Unknown,Unknown,Unknown,43.555086,19.0719175
Prima,Unknown,Unknown,Unknown,Unknown,Unknown,Unknown,pharmacy,pharmacy,Unknown,Unknown,Unknown,43.3554302,19.3589988
Heba,Unknown,Unknown,Unknown,Unknown,Unknown,Unknown,pharmacy,pharmacy,Unknown,Unknown,Unknown,43.3571018,19.3563136
Orto-Dent,Unknown,Unknown,Unknown,Unknown,Unknown,Unknown,dentist,dentist,Unknown,Unknown,Unknown,43.3579127,19.3577354
ER-dental,Unknown,Unknown,Unknown,Unknown,Unknown,Unknown,dentist,dentist,Unknown,Unknown,Unknown,43.3579957,19.3544729
Unknown,Unknown,Unknown,Unknown,Unknown,Unknown,Unknown,dentist,dentist,Unknown,Unknown,Unknown,42.841839,20.1674886
Royal Dent,Unknown,Unknown,Unknown,Unknown,Unknown,Unknown,dentist,dentist,Unknown,Unknown,Unknown,42.8401779,20.1621088
Dr. Berisha,Unknown,Unknown,Unknown,Unknown,Unknown,Unknown,dentist,dentist,Unknown,Unknown,Unknown,42.6604836,20.2882745
Dental House,Unknown,Unknown,Unknown,Unknown,Unknown,Unknown,dentist,dentist,Unknown,Unknown,Unknown,42.6569837,20.2894142
Dental B,Unknown,Unknown,Unknown,Unknown,Unknown,Unknown,dentist,dentist,Unknown,Unknown,Unknown,42.6823201,20.3171058
B,Unknown,Unknown,Unknown,Unknown,Unknown,Unknown,pharmacy,pharmacy,Unknown,Unknown,Unknown,42.682362,20.3171806
Leo Med,Unknown,Unknown,Unknown,Unknown,Unknown,Unknown,pharmacy,pharmacy,Unknown,Unknown,Unknown,42.6657664,20.3012592
Siar,Unknown,Unknown,Unknown,Unknown,Unknown,Unknown,pharmacy,pharmacy,Unknown,Unknown,Unknown,42.6654684,20.3003735
Veprim R. Tigani,Unknown,Unknown,Unknown,Unknown,Unknown,Unknown,Unknown,physiotherapist,Unknown,Unknown,Unknown,42.6593382,20.2842106
Salihaj,Unknown,Unknown,Unknown,Unknown,Unknown,Unknown,pharmacy,pharmacy,Unknown,Unknown,Unknown,42.6582755,20.2862273
Dr. Jahir I. Lajqi,Unknown,Unknown,Unknown,Unknown,Unknown,Unknown,doctors,doctor,Unknown,Unknown,Unknown,42.6610267,20.2838815
Unknown,Unknown,Unknown,Unknown,Unknown,Unknown,Unknown,Unknown,laboratory,Unknown,Unknown,Unknown,42.6613874,20.2845219
Vali Dent,Unknown,Unknown,Unknown,Unknown,Unknown,Unknown,dentist,dentist,Unknown,Unknown,Unknown,42.6615609,20.2852091
Rea Pharm,Unknown,Unknown,Unknown,Unknown,Unknown,Unknown,pharmacy,pharmacy,Unknown,Unknown,Unknown,42.6580676,20.2863907
Unknown,Unknown,Unknown,Unknown,Unknown,Unknown,Unknown,pharmacy,pharmacy,Unknown,Unknown,Unknown,42.6608497,20.2866956
Kushtrim,Unknown,Unknown,Unknown,Unknown,Unknown,Unknown,pharmacy,pharmacy,Unknown,Unknown,Unknown,42.6612547,20.2838466
Dr. Iliriana,Unknown,Unknown,Unknown,Unknown,Unknown,Unknown,doctors,doctor,Unknown,Unknown,Unknown,42.6607778,20.2946425
Dr Shaqir E. Myftari,Unknown,Unknown,Unknown,Unknown,Unknown,Unknown,dentist,dentist,Unknown,Unknown,Unknown,42.6621177,20.2955696
Unknown,Unknown,Unknown,Unknown,Unknown,Unknown,Unknown,doctors,doctor,Unknown,Unknown,Unknown,42.65593,20.2874678
Dr. Noli,Unknown,Unknown,Unknown,Unknown,Unknown,Unknown,dentist,dentist,+38349487483,Unknown,Unknown,42.6610132,20.2918886
Dr. Afërdita Selmanaj,Unknown,Unknown,Unknown,Unknown,Unknown,Unknown,doctors,doctor,Unknown,Unknown,Unknown,42.6571534,20.2906257
Avicena KS,Unknown,Unknown,Unknown,Unknown,Unknown,Unknown,Unknown,laboratory,Unknown,Unknown,Unknown,42.6604524,20.2723128
Berisha,Unknown,Unknown,Unknown,Unknown,Unknown,Unknown,dentist,dentist,Unknown,Unknown,Unknown,42.6579046,20.2897462
Physio Spine Dafina Elizi,Unknown,Unknown,Unknown,Unknown,Unknown,Unknown,Unknown,physiotherapist,+38649766018,Unknown,Unknown,42.6598061,20.2765401
Vita-Dent,Unknown,Unknown,Unknown,Unknown,Unknown,Unknown,dentist,dentist,Unknown,Unknown,Unknown,42.5402283,20.2871843
Unknown,Unknown,Unknown,Unknown,Unknown,Unknown,Unknown,doctors,doctor,Unknown,Unknown,Unknown,42.3956928,18.6708587
Unknown,Unknown,Unknown,Unknown,Unknown,Unknown,Unknown,dentist,dentist,Unknown,Unknown,Unknown,42.3957186,18.670879
Nezaj,Unknown,Unknown,Unknown,Unknown,Unknown,Unknown,pharmacy,pharmacy,Unknown,Unknown,Unknown,42.3577326,20.0735221
Flori,Unknown,Unknown,Unknown,Unknown,Unknown,Unknown,Unknown,physiotherapist,Unknown,Unknown,Unknown,42.3563092,20.0753464
Elif Dent,Unknown,Unknown,Unknown,Unknown,Unknown,Unknown,dentist,dentist,Unknown,Unknown,Unknown,42.0075178,19.6393589
Lleshi,Unknown,Unknown,Unknown,Unknown,Unknown,Unknown,pharmacy,pharmacy,Unknown,Unknown,Unknown,42.0072293,19.6375669
Martini,Unknown,Unknown,Unknown,Unknown,Unknown,Unknown,pharmacy,pharmacy,Unknown,Unknown,Unknown,42.0075187,19.6392414
Te Stadiumi,Unknown,Unknown,Unknown,Unknown,Unknown,Unknown,pharmacy,pharmacy,Unknown,Unknown,Unknown,42.0710971,19.5075738
Maxima,Unknown,Unknown,Unknown,Unknown,Unknown,Unknown,pharmacy,pharmacy,Unknown,Unknown,Unknown,42.4481771,19.2888093
Unknown,Unknown,Unknown,Unknown,Unknown,Unknown,Unknown,dentist,dentist,Unknown,Unknown,Unknown,42.0035462,19.6134657
Unknown,Unknown,Unknown,Unknown,Unknown,Unknown,Unknown,pharmacy,pharmacy,Unknown,Unknown,Unknown,42.4348638,19.2793194
"PZU ""VALDENT""",Unknown,Nënë Tereza / Boško Strugar,Ulcinj,85360,Unknown,Unknown,dentist,dentist,+38269730666,Unknown,Mo-Fr 09:00-17:00,41.9291779,19.2191363
Unknown,Unknown,Unknown,Unknown,Unknown,Unknown,Unknown,pharmacy,Unknown,Unknown,Unknown,Unknown,42.6612061,20.2768092
Unknown,Unknown,Unknown,Unknown,Unknown,Unknown,Unknown,pharmacy,Unknown,Unknown,Unknown,Unknown,42.6613101,20.2838312
Unknown,Unknown,Unknown,Unknown,Unknown,Unknown,Unknown,pharmacy,Unknown,Unknown,Unknown,Unknown,42.6614327,20.2997857
Unknown,Unknown,Unknown,Unknown,Unknown,Unknown,Unknown,pharmacy,Unknown,Unknown,Unknown,Unknown,42.6607658,20.2745368
Unknown,Unknown,Unknown,Unknown,Unknown,Unknown,Unknown,pharmacy,Unknown,Unknown,Unknown,Unknown,42.6611083,20.3021961
Unknown,Unknown,Unknown,Unknown,Unknown,Unknown,Unknown,pharmacy,Unknown,Unknown,Unknown,Unknown,42.6608507,20.2748063
Unknown,Unknown,Unknown,Unknown,Unknown,Unknown,Unknown,pharmacy,Unknown,Unknown,Unknown,Unknown,42.6613062,20.2783009
Unknown,Unknown,Unknown,Unknown,Unknown,Unknown,Unknown,pharmacy,Unknown,Unknown,Unknown,Unknown,42.660814,20.2746624
Unknown,Unknown,Unknown,Unknown,Unknown,Unknown,Unknown,pharmacy,Unknown,Unknown,Unknown,Unknown,42.6581121,20.2863155
Unknown,Unknown,Unknown,Unknown,Unknown,Unknown,Unknown,pharmacy,Unknown,Unknown,Unknown,Unknown,42.6556381,20.2927534
Unknown,Unknown,Unknown,Unknown,Unknown,Unknown,Unknown,pharmacy,Unknown,Unknown,Unknown,Unknown,42.6558181,20.292515
Unknown,Unknown,Unknown,Unknown,Unknown,Unknown,Unknown,pharmacy,Unknown,Unknown,Unknown,Unknown,42.6615917,20.2989524
Unknown,Unknown,Unknown,Unknown,Unknown,Unknown,Unknown,pharmacy,Unknown,Unknown,Unknown,Unknown,42.3803495,20.4277854
Unknown,Unknown,Unknown,Unknown,Unknown,Unknown,Unknown,pharmacy,Unknown,Unknown,Unknown,Unknown,42.3755915,20.4263105
Unknown,Unknown,Unknown,Unknown,Unknown,Unknown,Unknown,hospital,hospital,Unknown,Unknown,Unknown,42.3832001,20.4345813
Unknown,Unknown,Unknown,Unknown,Unknown,Unknown,Unknown,pharmacy,Unknown,Unknown,Unknown,Unknown,42.3703432,20.4196686
Unknown,Unknown,Unknown,Unknown,Unknown,Unknown,Unknown,pharmacy,pharmacy,Unknown,Unknown,Unknown,42.3824002,20.4349236
Unknown,Unknown,Unknown,Unknown,Unknown,Unknown,Unknown,pharmacy,pharmacy,Unknown,Unknown,Unknown,42.3826726,20.4343172
Unknown,Unknown,Unknown,Unknown,Unknown,Unknown,Unknown,pharmacy,pharmacy,Unknown,Unknown,Unknown,42.386595,20.4284611
Unknown,Unknown,Unknown,Unknown,Unknown,Unknown,Unknown,pharmacy,Unknown,Unknown,Unknown,Unknown,42.3754765,20.4265875
Unknown,Unknown,Unknown,Unknown,Unknown,Unknown,Unknown,pharmacy,pharmacy,Unknown,Unknown,Unknown,42.0424878,19.9002155
Farmaci Mira,Unknown,Unknown,Unknown,Unknown,Unknown,Unknown,pharmacy,pharmacy,Unknown,Unknown,Unknown,42.0436281,19.9000011
Unknown,Unknown,Unknown,Unknown,Unknown,Unknown,Unknown,pharmacy,Unknown,Unknown,Unknown,Unknown,42.0625864,19.5066848
Unknown,Unknown,Unknown,Unknown,Unknown,Unknown,Unknown,pharmacy,Unknown,Unknown,Unknown,Unknown,42.0679629,19.5222819
Unknown,Unknown,Unknown,Unknown,Unknown,Unknown,Unknown,pharmacy,Unknown,Unknown,Unknown,Unknown,42.0743195,19.5228245
Apoteka Maxima,Unknown,Unknown,Unknown,Unknown,Unknown,Unknown,pharmacy,Unknown,Unknown,Unknown,Mo-Su 09:00-21:00,42.4424687,19.2449222
Unknown,Unknown,Unknown,Unknown,Unknown,Unknown,Unknown,pharmacy,Unknown,Unknown,Unknown,Unknown,42.43201,18.6943375
Unknown,Unknown,Unknown,Unknown,Unknown,Unknown,Unknown,pharmacy,Unknown,Unknown,Unknown,Unknown,42.4324183,19.2670605
QMF,Unknown,Unknown,Unknown,Unknown,Unknown,Unknown,hospital,hospital,Unknown,Unknown,Unknown,42.6167218,20.3047689
Дом здравља Пријепоље,Unknown,Unknown,Unknown,Unknown,Unknown,Unknown,clinic,clinic,+38133711186,Unknown,Unknown,43.3890244,19.6630584
Klinika Life,Unknown,Bulevar Crnogorskih serdara,Unknown,Unknown,Unknown,Unknown,clinic,clinic,Unknown,https://www.klinikalife.com/,Mo-Sa 09:00-15:00,42.4333523,19.2556311
Benu,Unknown,Bulevar Save Kovačevića,Unknown,Unknown,Unknown,Unknown,pharmacy,Unknown,Unknown,Unknown,Mo-Sa 07:00-21:00; Su 08:00-20:00,42.4311836,19.2619276
Poliklinika Filipović,Unknown,Unknown,Unknown,Unknown,Unknown,Unknown,clinic,clinic,Unknown,https://poliklinikafilipovic.com/,Mo-Fr 09:00-21:00; Sa 09:00-16:00,42.4418857,19.2743768
Poliklinika Diagnostica,Unknown,Bulevar Save Kovačevića,Unknown,Unknown,Unknown,Unknown,clinic,clinic,Unknown,Unknown,Unknown,42.430578,19.265115
Dr. Zejnilović,Unknown,Unknown,Unknown,Unknown,Unknown,Unknown,clinic,clinic,+382 30 315 989,https://drzejnilovic.me,Mo-Sa 07:00-21:00; Su 08:00-12:00,42.0966001,19.0988116
Dr Masoničić,Unknown,Unknown,Unknown,Unknown,Unknown,Unknown,doctors,doctor,Unknown,Unknown,Unknown,42.0962954,19.0968399
Unknown,Unknown,Unknown,Unknown,Unknown,Unknown,Unknown,pharmacy,pharmacy,Unknown,Unknown,Unknown,42.0963627,19.0967669
Deniment Plus,Unknown,Unknown,Unknown,Unknown,Unknown,Unknown,pharmacy,pharmacy,Unknown,Unknown,Unknown,43.3920144,19.6555053
Unknown,Unknown,Unknown,Unknown,Unknown,Unknown,Unknown,doctors,doctor,Unknown,Unknown,Unknown,42.0993587,19.0947304
Tea Medica,Unknown,Unknown,Unknown,Unknown,Unknown,Unknown,pharmacy,pharmacy,Unknown,Unknown,Mo-Sa 08:00-21:30,42.0931123,19.0978958
Vital Diagnostika,Unknown,Nënë Tereza,Unknown,30000,Unknown,Unknown,clinic,Unknown,+38346888778,Unknown,Mo-Sa 08:00-22:00,42.6612601,20.276075
Dr. Zejak,Unknown,Unknown,Unknown,Unknown,Unknown,Unknown,dentist,dentist,Unknown,Unknown,Unknown,42.0973639,19.0948424
Beladonna,Unknown,ulica Muftije Murtezira Karađuzovića,Unknown,Unknown,Unknown,Unknown,pharmacy,pharmacy,Unknown,http://belladonna.bar,Mo-Su 07:00-23:00,42.0993243,19.1011185
BENU,Unknown,Unknown,Unknown,Unknown,Unknown,Unknown,pharmacy,pharmacy,Unknown,Unknown,Unknown,42.0999009,19.0941555
Unknown,Unknown,Unknown,Unknown,Unknown,Unknown,Unknown,pharmacy,pharmacy,Unknown,Unknown,Unknown,42.0982505,19.0944411
Poliklinika DaVinci,Unknown,Unknown,Unknown,Unknown,Unknown,Unknown,Unknown,hospital,Unknown,Unknown,Unknown,42.4261677,19.2569442
Iva Pharm,Unknown,Unknown,Unknown,Unknown,Unknown,Unknown,pharmacy,pharmacy,Unknown,Unknown,Mo-Sa 08:00-21:00,42.1005767,19.1008906
European Clinic Kosova,Unknown,Mic Sokoli,Gjakova,50000,Unknown,Unknown,hospital,hospital,Unknown,Unknown,Mo-Sa 07:30-19:00,42.3701039,20.4335593
Cosmetics,Unknown,Unknown,Unknown,Unknown,Unknown,Unknown,pharmacy,pharmacy,Unknown,Unknown,Unknown,42.3890577,18.7398406
Unknown,Unknown,Ulica Crvenih Košulja,Stari Bar,Unknown,Unknown,Unknown,pharmacy,pharmacy,Unknown,Unknown,Unknown,42.0880834,19.1306285
Apoteka Higija,Unknown,Unknown,Unknown,Unknown,Unknown,Unknown,pharmacy,Unknown,Unknown,Unknown,Unknown,42.5518234,19.1053094
Kuca hemije,Unknown,Unknown,Unknown,Unknown,Unknown,Unknown,pharmacy,Unknown,Unknown,Unknown,Unknown,42.5517674,19.1053103
Poliklinika Vital Diagnostika,Unknown,Nëna Tereza,Unknown,30000,Unknown,Unknown,clinic,Unknown,+38346888778,https://www.vitalpeje.com/,Mo-Fr 08:00-20:00; Sa 10:00-17:00,42.6612715,20.2760381
Unknown,Unknown,Vlada Ćetkovića,Podgorica,Unknown,Unknown,Unknown,pharmacy,pharmacy,Unknown,Unknown,Unknown,42.4521952,19.234557
Uniprom Pharm,Unknown,Unknown,Unknown,Unknown,Unknown,Unknown,pharmacy,pharmacy,Unknown,Unknown,Mo-Su 08:00-20:00,42.2830755,18.8386003
Cicmil,Unknown,Unknown,Unknown,Unknown,Unknown,Unknown,dentist,dentist,Unknown,Unknown,Unknown,42.0997884,19.0993809
Doktorica Mica,Unknown,Bulevar Svetog Petra Cetinjskog,Podgorica,81000,Unknown,Unknown,doctors,doctor,+38267322228,https://doktoricamica.com/,Mo-Sa 08:00-20:00; Su 9:00-12:00,42.4429705,19.250144
Unknown,Unknown,Unknown,Unknown,Unknown,Unknown,Unknown,pharmacy,Unknown,Unknown,Unknown,Unknown,42.4447243,19.2509646
Tea Medica,Unknown,Unknown,Unknown,Unknown,Unknown,Unknown,pharmacy,pharmacy,Unknown,Unknown,Unknown,42.4540974,19.2854929
Mojlab,Unknown,Unknown,Unknown,Unknown,Unknown,Unknown,Unknown,laboratory,Unknown,Unknown,"Mo-Fr 07:00-20:00; Sa,Su 08:00-20:00",42.4402356,19.2470388
Tea Medica,Unknown,Unknown,Unknown,Unknown,Unknown,Unknown,pharmacy,pharmacy,Unknown,Unknown,Unknown,42.4401895,19.2470113
Smartlab,Unknown,Ankarski bulevar,Podgorica,81000,Unknown,Unknown,Unknown,laboratory,068 493 493,https://www.poliklinikasmartmed.me,Mo-Fr 07:00-20:00; Sa-Su 07:00-15:00,42.4396648,19.2409488
Unknown,Unknown,Unknown,Unknown,Unknown,Unknown,Unknown,Unknown,yes,Unknown,Unknown,Unknown,42.4258305,19.2598055
Apoteka Help,Unknown,Unknown,Unknown,Unknown,Unknown,Unknown,pharmacy,pharmacy,Unknown,Unknown,Unknown,42.425356,19.263306
Dr. Mahmutović,Unknown,Unknown,Unknown,Unknown,Unknown,Unknown,dentist,dentist,Unknown,Unknown,Unknown,43.2718754,20.0009767
Unknown,Unknown,Unknown,Unknown,Unknown,Unknown,Unknown,pharmacy,pharmacy,Unknown,Unknown,Unknown,43.2728477,20.0033702
Unknown,Unknown,Unknown,Unknown,Unknown,Unknown,Unknown,pharmacy,pharmacy,Unknown,Unknown,Unknown,43.275605,19.9938487
Unknown,Unknown,Unknown,Unknown,Unknown,Unknown,Unknown,pharmacy,pharmacy,Unknown,Unknown,Unknown,43.2754996,19.9943664
Unknown,Unknown,Unknown,Unknown,Unknown,Unknown,Unknown,pharmacy,pharmacy,Unknown,Unknown,Unknown,43.2729898,20.003944
Dia Medical Plus,Unknown,Unknown,Unknown,Unknown,Unknown,Unknown,Unknown,laboratory,Unknown,Unknown,Unknown,43.2757357,19.9934597
Unknown,Unknown,Unknown,Unknown,Unknown,Unknown,Unknown,dentist,dentist,Unknown,Unknown,"Mo-Sa 10:00-14:00, 16:00-21:00",42.4342276,19.2805748
Smartdoctor,Unknown,Unknown,Unknown,Unknown,Unknown,Unknown,doctors,doctor,Unknown,https://www.poliklinikasmartmed.me,Mo-Sa 08:00-20:00,42.1034023,19.0965297
Smartlab,Unknown,Unknown,Unknown,Unknown,Unknown,Unknown,Unknown,laboratory,Unknown,https://www.poliklinikasmartmed.me,Mo-Sa 07:00-20:00; Su 08:00-12:00,42.1034288,19.0964982
Klinika za psihijatriju,Unknown,Unknown,Unknown,Unknown,Unknown,Unknown,clinic,clinic,Unknown,Unknown,Unknown,42.4361698,19.2473574
Maxima Pharmacy,Unknown,Unknown,Unknown,Unknown,Unknown,Unknown,pharmacy,pharmacy,Unknown,Unknown,Unknown,42.4350107,18.6016191
Dr Xhevat Kurhasani,Unknown,Unknown,Unknown,Unknown,Unknown,Unknown,clinic,Unknown,Unknown,Unknown,Unknown,42.6568264,20.2911848
Fizio Plus,Unknown,Nënë Tereza,Unknown,30000,Unknown,Unknown,clinic,Unknown,+38348220928,https://www.fizioplus.com/,Mo-Sa 15:00-19:00,42.6614061,20.2776168
Dukley,Unknown,Unknown,Unknown,Unknown,Unknown,Unknown,dentist,dentist,+382 67 805 080,Unknown,Unknown,42.2814902,18.8591844
Moj Lab,Unknown,Unknown,Unknown,Unknown,Unknown,Unknown,pharmacy,pharmacy,Unknown,Unknown,Mo-Su 08:00-22:00,42.2903494,18.8398211
Moj Lab,Unknown,Unknown,Unknown,Unknown,Unknown,Unknown,Unknown,laboratory,Unknown,Unknown,Mo-Su 08:00-21:00,42.2904005,18.8398499
Unknown,Unknown,Unknown,Unknown,Unknown,Unknown,Unknown,pharmacy,pharmacy,Unknown,Unknown,Unknown,42.3922305,20.4291672
Unknown,Unknown,Unknown,Unknown,Unknown,Unknown,Unknown,pharmacy,pharmacy,Unknown,Unknown,Unknown,42.3924457,20.4241394
Unknown,Unknown,Unknown,Unknown,Unknown,Unknown,Unknown,pharmacy,pharmacy,Unknown,Unknown,Unknown,42.3919071,20.4246444
Dental Plaza,Unknown,Unknown,Unknown,Unknown,Unknown,Unknown,dentist,dentist,Unknown,Unknown,Unknown,42.366766,20.4355792
Villa,Unknown,Unknown,Unknown,Unknown,Unknown,Unknown,pharmacy,pharmacy,Unknown,Unknown,Mo-Sa 08:00-22:00; Su 08:00-21:00,42.2929981,18.840804
SmartLab S,Unknown,Unknown,Unknown,Unknown,Unknown,Unknown,Unknown,laboratory,Unknown,Unknown,Mo-Sa 08:00-20:00,42.2928348,18.840584
Koshimed,Unknown,Unknown,Unknown,Unknown,Unknown,Unknown,clinic,clinic,Unknown,Unknown,Unknown,42.3705756,20.4349512
Klinika Lege Artis,Unknown,Unknown,Unknown,Unknown,Unknown,Unknown,clinic,clinic,Unknown,Unknown,Unknown,42.3707975,20.4348935
Humana Reprodukcija,Unknown,Unknown,Unknown,Unknown,Unknown,Unknown,clinic,clinic,Unknown,Unknown,"Mo,We,Fr 08:00-16:00; Tu,Th 12:00-20:00",42.2928195,18.8406467
Mogren,Unknown,Unknown,Unknown,Unknown,Unknown,Unknown,pharmacy,pharmacy,Unknown,Unknown,Mo-Fr 07:00-21:00; Sa 07:00-14:00; Su 08:00-12:00,42.2897319,18.8400212
Pedijatrijska ambulanta „Simonović“,Unknown,Unknown,Unknown,Unknown,Unknown,Unknown,doctors,doctor,Unknown,Unknown,Unknown,42.4305221,19.2653659
Unknown,Unknown,Unknown,Unknown,Unknown,Unknown,Unknown,pharmacy,Unknown,Unknown,Unknown,Unknown,42.4477887,19.2571011
Tea Medica,Unknown,Unknown,Unknown,Unknown,Unknown,Unknown,pharmacy,Unknown,Unknown,Unknown,Mo-Sa 08:00-16:00,42.8240896,19.5211506
Unknown,Unknown,Unknown,Unknown,Unknown,Unknown,Unknown,pharmacy,Unknown,Unknown,Unknown,Unknown,42.7764522,18.944115
Unknown,Unknown,Unknown,Unknown,Unknown,Unknown,Unknown,pharmacy,pharmacy,Unknown,Unknown,Unknown,42.4219936,19.2542906
Unknown,Unknown,Unknown,Unknown,Unknown,Unknown,Unknown,pharmacy,pharmacy,Unknown,Unknown,Unknown,42.2940563,18.8401013
Vitamin+,Unknown,Unknown,Unknown,Unknown,Unknown,Unknown,pharmacy,Unknown,Unknown,Unknown,Mo-Sa 08:00-21:00,42.101767,19.0961287
Holos Apoteka,Unknown,Radoja Dakića,Unknown,Unknown,Unknown,Unknown,pharmacy,Unknown,020450503,https://www.holos.me/,Mo-Su 08:00-00:00,42.4388991,19.2344211
Unknown,Unknown,Unknown,Unknown,Unknown,Unknown,Unknown,pharmacy,pharmacy,Unknown,Unknown,Unknown,42.3959109,18.9173765
Diagnost,Unknown,Unknown,Unknown,Unknown,Unknown,Unknown,Unknown,centre,+382 68 555 595,https://ultrazvuk.me,"Mo-Fr 10:00-12:00, 17:00-19:00; Sa 10:00-12:00",42.2890179,18.8491689
Krapović Medical,Unknown,Unknown,Unknown,Unknown,Unknown,Unknown,Unknown,laboratory,Unknown,https://www.instagram.com/krapovicmedical/,Mo-Fr 07:00-16:00; Sa 07:00-15:00,42.2906059,18.8411192
Apoteka Help,Unknown,Studentska,Unknown,Unknown,Unknown,Unknown,pharmacy,Unknown,Unknown,Unknown,Mo-Sa 08:00-22:00,42.4392715,19.2366668
Поповић,Unknown,Unknown,Unknown,Unknown,Unknown,Unknown,pharmacy,pharmacy,Unknown,Unknown,Mo-Sa 08:00-23:00,42.2849605,18.8379352
Klinika Premium+,Unknown,Hysni dobruna,Unknown,50000,Unknown,Unknown,clinic,Unknown,+38344385682,Unknown,Mo-Fr 16:00-19:00,42.3760883,20.4363766
Klinika Premium+,Unknown,Hysni dobruna,Unknown,50000,Unknown,Unknown,clinic,Unknown,+38344385682,Unknown,Mo-Fr 16:00-19:00,42.3761222,20.4363708
Unknown,Unknown,Unknown,Unknown,Unknown,Unknown,Unknown,pharmacy,Unknown,Unknown,Unknown,Unknown,43.154919,18.8458736
Ak Turk Dental,Unknown,Rruga Studenti,Shkodër,4001,Unknown,Unknown,dentist,dentist,Unknown,Unknown,Unknown,42.0671523,19.5114049
Apoteka Tea Medica 28,Unknown,Put Prvoboraca,Unknown,Unknown,Unknown,Unknown,pharmacy,pharmacy,Unknown,Unknown,Mo-Su 08:00-22:00,42.4208358,18.7700407
BENU Apoteka,Unknown,Unknown,Unknown,Unknown,Unknown,Unknown,pharmacy,Unknown,Unknown,Unknown,Unknown,41.929742,19.2181749
Apoteka Tea Medica,Unknown,Unknown,Unknown,Unknown,Unknown,Unknown,pharmacy,Unknown,Unknown,Unknown,Unknown,41.9299081,19.2165758
Expera Pharmacy,Unknown,Unknown,Unknown,Unknown,Unknown,Unknown,pharmacy,pharmacy,Unknown,Unknown,Mo-Fr 07:00-21:00; Sa 08:00-18:00,43.5066514,18.7794883
Unknown,Unknown,Unknown,Unknown,Unknown,Unknown,Unknown,pharmacy,pharmacy,Unknown,Unknown,Unknown,43.5069471,18.780073
Unknown,Unknown,Unknown,Unknown,Unknown,Unknown,Unknown,pharmacy,Unknown,Unknown,Unknown,Unknown,42.4412949,19.264493
Shkumbini SB - Dr. Selajdin Boshnajku,Unknown,Unknown,Unknown,Unknown,Unknown,Unknown,clinic,clinic,Unknown,Unknown,Mo-Fr 15:00-18:30,42.3733054,20.4340904
Dental Care,Unknown,Unknown,Unknown,Unknown,Unknown,Unknown,dentist,dentist,Unknown,Unknown,Unknown,42.3734723,20.4340564
Dental LS Xharra,Unknown,Unknown,Unknown,Unknown,Unknown,Unknown,dentist,dentist,Unknown,Unknown,Unknown,42.3736516,20.4340356
European Clinic Lab,Unknown,Unknown,Unknown,Unknown,Unknown,Unknown,Unknown,laboratory,Unknown,Unknown,Mo-Fr 07:00-17:30; Sa 08:00-14:30,42.3737355,20.4339878
Unknown,Unknown,Unknown,Unknown,Unknown,Unknown,Unknown,Unknown,laboratory,19989,https://mojlab.me/,Mo-Fr 07:00-20:00; Sa-Su 08:00-18:00,42.4308615,18.6963365
Unknown,Unknown,Unknown,Unknown,Unknown,Unknown,Unknown,pharmacy,pharmacy,Unknown,Unknown,Unknown,43.3902351,19.6474446
Unknown,Unknown,Unknown,Unknown,Unknown,Unknown,Unknown,pharmacy,pharmacy,Unknown,Unknown,Unknown,43.3899903,19.6487103
Leta,Unknown,Unknown,Unknown,Unknown,Unknown,Unknown,clinic,clinic,Unknown,Unknown,"Mo-Fr 16:00-19:00; Sa 10:00-14:00,16:00-19:00",42.3704925,20.4303663
Ideal,Unknown,Unknown,Unknown,Unknown,Unknown,Unknown,pharmacy,pharmacy,Unknown,Unknown,08:00-22:00,42.3699134,20.4336679
Jonilab,Unknown,Unknown,Unknown,Unknown,Unknown,Unknown,clinic,clinic,Unknown,Unknown,Mo-Fr 08:00-20:00; Sa 08:00-16:00,42.3697481,20.4324072
Elda Pharmacy,Unknown,Unknown,Unknown,Unknown,Unknown,Unknown,pharmacy,pharmacy,Unknown,Unknown,08:00-22:00,42.3697379,20.4323246
Joni,Unknown,Unknown,Unknown,Unknown,Unknown,Unknown,clinic,clinic,Unknown,Unknown,Unknown,42.3703291,20.4317784
Shala Physio,Unknown,Unknown,Unknown,Unknown,Unknown,Unknown,Unknown,physiotherapist,Unknown,Unknown,Mo-Fr 09:00-18:00; Sa 10:00-16:00,42.3701582,20.4341073
Shehu Pharm,Unknown,Unknown,Unknown,Unknown,Unknown,Unknown,pharmacy,pharmacy,Unknown,Unknown,Unknown,42.3701291,20.4340231
Infermeria,Unknown,Unknown,Unknown,Unknown,Unknown,Unknown,clinic,clinic,Unknown,Unknown,Mo-Sa 08:00-20:00,42.3701859,20.4338385
Besi,Unknown,Unknown,Unknown,Unknown,Unknown,Unknown,clinic,clinic,Unknown,Unknown,Unknown,42.3700396,20.4316984
Femina,Unknown,Unknown,Unknown,Unknown,Unknown,Unknown,clinic,clinic,Unknown,Unknown,Unknown,42.3705634,20.4316861
3L,Unknown,Unknown,Unknown,Unknown,Unknown,Unknown,clinic,clinic,Unknown,Unknown,Unknown,42.3699134,20.4314176
Xiri-Lab,Unknown,Unknown,Unknown,Unknown,Unknown,Unknown,Unknown,laboratory,Unknown,Unknown,Mo-Sa 07:00-18:00,42.3697759,20.4310204
Tilia-2,Unknown,Unknown,Unknown,Unknown,Unknown,Unknown,pharmacy,pharmacy,Unknown,Unknown,08:00-22:00,42.3699386,20.4306838
Biohem,Unknown,Unknown,Unknown,Unknown,Unknown,Unknown,Unknown,laboratory,Unknown,Unknown,Unknown,42.3700243,20.4306433
B/Med,Unknown,Unknown,Unknown,Unknown,Unknown,Unknown,clinic,clinic,Unknown,Unknown,Unknown,42.3717749,20.4297486
Avicena,Unknown,Unknown,Unknown,Unknown,Unknown,Unknown,Unknown,laboratory,Unknown,Unknown,Mo-Fr 07:30-20:00; Sa-Su 08:00-20:00,42.371443,20.4298335
Ordinanaca Infermierike Ylli,Unknown,Unknown,Unknown,Unknown,Unknown,Unknown,clinic,clinic,Unknown,Unknown,24/7,42.3710074,20.4299918
Fla-Med,Unknown,Unknown,Unknown,Unknown,Unknown,Unknown,clinic,clinic,Unknown,Unknown,Mo-Sa 08:00-20:00,42.3709139,20.4300171
Shëndeti,Unknown,Unknown,Unknown,Unknown,Unknown,Unknown,clinic,clinic,Unknown,Unknown,Unknown,42.3706749,20.4301537
Labochem,Unknown,Unknown,Unknown,Unknown,Unknown,Unknown,clinic,clinic,Unknown,Unknown,Mo-Fr 08:00-15:00,42.3702842,20.4300535
DLD-Labor,Unknown,Unknown,Unknown,Unknown,Unknown,Unknown,clinic,clinic,Unknown,Unknown,Unknown,42.3702437,20.4299796
Alma Med,Unknown,Unknown,Unknown,Unknown,Unknown,Unknown,clinic,clinic,Unknown,Unknown,Unknown,42.3696341,20.4313425
Unknown,Unknown,Unknown,Unknown,Unknown,Unknown,Unknown,pharmacy,Unknown,Unknown,Unknown,Mo-Sa 08:00-21:00,42.4576929,18.5252673
Unknown,Unknown,Unknown,Unknown,Unknown,Unknown,Unknown,pharmacy,Unknown,Unknown,Unknown,Unknown,42.4587629,18.5272778
Roentgeni,Unknown,Unknown,Unknown,Unknown,Unknown,Unknown,Unknown,laboratory,Unknown,Unknown,Mo-Fr 09:00-19:00; Sa 09:00-17:00,42.3769527,20.4356632
Blendi Farm,Unknown,Unknown,Unknown,Unknown,Unknown,Unknown,pharmacy,pharmacy,Unknown,Unknown,Mo-Sa 08:00-21:00,42.3767521,20.4365527
Mini Dental,Unknown,Unknown,Unknown,Unknown,Unknown,Unknown,dentist,dentist,Unknown,Unknown,Unknown,42.3776527,20.4347043
Dentisti AG,Unknown,Unknown,Unknown,Unknown,Unknown,Unknown,dentist,dentist,Unknown,Unknown,Unknown,42.3766804,20.4375424
Hoxhe Musli Zymberi,Unknown,Kasim Shala,Unknown,Unknown,Unknown,Unknown,clinic,Unknown,+383 44 159 517,Unknown,Unknown,42.6792412,20.4360788
Diva Pharmacy,Unknown,Unknown,Unknown,Unknown,Unknown,Unknown,pharmacy,pharmacy,Unknown,Unknown,Unknown,42.1024671,19.1024249
Milja,Unknown,Unknown,Unknown,Unknown,Unknown,Unknown,pharmacy,pharmacy,Unknown,Unknown,Unknown,42.4504133,18.6475327
Unknown,Unknown,Unknown,Unknown,Unknown,Unknown,Unknown,pharmacy,Unknown,Unknown,Unknown,Unknown,42.0888768,19.5070074
Tea Medica,Unknown,Unknown,Unknown,Unknown,Unknown,Unknown,pharmacy,pharmacy,Unknown,Unknown,Unknown,42.1399542,19.0480615
Apoteka Benu,Unknown,Unknown,Unknown,Unknown,Unknown,Unknown,pharmacy,pharmacy,Unknown,Unknown,Unknown,42.1402664,19.0483314
Medicor,Unknown,Unknown,Unknown,Unknown,Unknown,Unknown,pharmacy,pharmacy,Unknown,Unknown,Mo-Su 07:00-22:00,42.2899983,18.850919
Tea Medica,Unknown,Unknown,Unknown,Unknown,Unknown,Unknown,pharmacy,Unknown,+38220256289,Unknown,Mo-Su 08:00-22:00,42.4397621,19.2336739
Cali Pharm,Unknown,Studentska,Unknown,Unknown,Unknown,Unknown,pharmacy,Unknown,Unknown,Unknown,Mo-Sa 07:30-21:30,42.4400477,19.2361065
Romatem,Unknown,Unknown,Unknown,Unknown,Unknown,Unknown,Unknown,rehabilitation,Unknown,https://romatem.com,Mo-Fr 08:00-21:00; Sa 08:00-17:00,42.4404208,19.2421693
Pana Dental Clinic,Unknown,Myrvete Maksutaj,Peje,30000,Unknown,Unknown,dentist,dentist,Unknown,Unknown,Unknown,42.6690423,20.3080683
Rendgen i laboratorija Milmedika,Unknown,Vojvode Maša Đurovića,Unknown,Unknown,Unknown,Unknown,Unknown,yes,+38220220190,Unknown,Mo-Fr 07:30-20:00; Sa 07:30-17:00,42.4405075,19.2357221
Poliklinika Milmedika,Unknown,Vojvode Maša Đurovića,Unknown,Unknown,Unknown,Unknown,clinic,Unknown,Unknown,www.milmedika.com,Mo-Su 08:00-20:00,42.4404593,19.2355967
Benu,Unknown,Branka Deletića,Podgorica,81000,Unknown,Unknown,pharmacy,pharmacy,Unknown,Unknown,Mo-Sa 08:00-22:00,42.4380909,19.2261905
Fizio Centar Endorfin,Unknown,Đoka Miraševića,Podgorica,81000,Unknown,Unknown,Unknown,physiotherapist,+382 69 183 272,https://fizio-endorfin.me/,Unknown,42.4512093,19.2393982
Poliklinika Filipović,Unknown,Unknown,Unknown,Unknown,Unknown,Unknown,clinic,Unknown,+38220618050,Unknown,Mo-Fr 08:00-21:00; Sa 08:00-15:00,42.4406231,19.2389425
Apoteka Maxima,Unknown,Unknown,Unknown,Unknown,Unknown,Unknown,pharmacy,Unknown,Unknown,Unknown,Mo-Sa 08:00-21:00,42.4402285,19.2378025
Dr. Fatić Medical,Unknown,Unknown,Unknown,Unknown,Unknown,Unknown,clinic,Unknown,Unknown,Unknown,"Mo-Fr 10:00-14:00, 16:00-20:00; Sa 09:00-14:00",42.435995,19.2403568
MojLab,Unknown,Unknown,Unknown,Unknown,Unknown,Unknown,Unknown,laboratory,Unknown,Unknown,Mo-Fr 07:00-18:30; Sa 08:00-15:00,42.389733,18.9267442
Apoteka Benu,Unknown,Unknown,Unknown,Unknown,Unknown,Unknown,pharmacy,pharmacy,Unknown,Unknown,Mo-Sa 08:00-21:00,42.390014,18.9247526
Dental Care,Unknown,Unknown,Unknown,Unknown,Unknown,Unknown,dentist,dentist,Unknown,Unknown,Unknown,42.395869,18.9174737
Omnidental,Unknown,Unknown,Unknown,Unknown,Unknown,Unknown,dentist,dentist,Unknown,Unknown,Unknown,42.0942145,19.0988141
Unknown,Unknown,Gavrila Principa,Unknown,85000,Unknown,Unknown,pharmacy,Unknown,+38269758444,https://www.apoteka-lenapharm.me/,"Mo-Sa 09:00-13:00, 17:00-20:00",42.112756,19.0919109
Fridija,Unknown,Unknown,Unknown,Unknown,Unknown,Unknown,pharmacy,pharmacy,Unknown,Unknown,Unknown,43.4602244,19.8104262
Benu,Unknown,Unknown,Unknown,Unknown,Unknown,Unknown,pharmacy,pharmacy,Unknown,Unknown,24/7,42.0993846,19.0945803
Tea Medica,Unknown,Unknown,Unknown,Unknown,Unknown,Unknown,pharmacy,pharmacy,Unknown,Unknown,Mo-Su 07:00-21:00,42.0993388,19.0944688
Unknown,Unknown,Unknown,Unknown,Unknown,Unknown,Unknown,pharmacy,pharmacy,Unknown,Unknown,Unknown,42.4508783,18.5470993
Caninus,Unknown,Save Kovačevića,Herceg Novi,85340,Unknown,Unknown,dentist,dentist,+38231345555,Unknown,"Mo-Fr 09:00-12:00,16:00-20:00; Sa 08:00-13:00; Su off",42.4511959,18.5400106
Unknown,Unknown,Unknown,Unknown,Unknown,Unknown,Unknown,pharmacy,Unknown,Unknown,Unknown,Unknown,42.7755826,18.9481343
Unknown,Unknown,Unknown,Unknown,Unknown,Unknown,Unknown,pharmacy,Unknown,Unknown,Unknown,Unknown,42.776626,18.9459177
Unknown,Unknown,Unknown,Unknown,Unknown,Unknown,Unknown,pharmacy,Unknown,Unknown,Unknown,Unknown,42.7768373,18.9442203
DafotaDent,Unknown,Unknown,Unknown,Unknown,Unknown,Unknown,dentist,dentist,Unknown,Unknown,Unknown,42.3866192,20.4289349
Belldent,Unknown,Unknown,Unknown,Unknown,Unknown,Unknown,dentist,dentist,+382 69 059 550; +382 32 611 122; +382 69 644 654; +382 69 829 691,https://www.belldent-tivat.com,Unknown,42.4400785,18.6894436
Apoteka Riva,Unknown,Unknown,Unknown,Unknown,Unknown,Unknown,pharmacy,pharmacy,Unknown,Unknown,Unknown,42.4308029,18.6954018
Zavod Za Hitnu Medicinsku Pomoć Crne Gore,Unknown,Dunje Đokić,Unknown,Unknown,Unknown,Unknown,hospital,Unknown,Unknown,Unknown,Unknown,42.8241278,19.5263135
Unknown,Unknown,Unknown,Unknown,Unknown,Unknown,Unknown,Unknown,pharmacy,Unknown,Unknown,Unknown,42.4419543,18.690917
Achillea,Unknown,Unknown,Unknown,Unknown,Unknown,Unknown,pharmacy,pharmacy,Unknown,Unknown,Mo-Sa 08:00-21:00,42.4544441,18.6539582
PZU Medikid,Unknown,Unknown,Unknown,Unknown,Unknown,Unknown,doctors,doctor,Unknown,Unknown,Mo-Sa 08:00-20:00; Su 08:00-12:00,42.438841,19.2322776
Tea Media 9,Unknown,Unknown,Unknown,Unknown,Unknown,Unknown,pharmacy,pharmacy,Unknown,Unknown,Mo-Sa 08:00-21:30; Su off,42.4382063,19.2321388
Expera Pharmacy,Unknown,Unknown,Unknown,Unknown,Unknown,Unknown,pharmacy,pharmacy,Unknown,Unknown,Mo-Sa 08:00-18:00,43.5061517,18.7764519
Jzu Apoteka Foča,Unknown,Unknown,Unknown,Unknown,Unknown,Unknown,pharmacy,pharmacy,Unknown,Unknown,Mo-Fr 08:00-19:00; Sa 09:00-14:00,43.5070766,18.7743595
Apoteka Betty,Unknown,Unknown,Unknown,Unknown,Unknown,Unknown,pharmacy,pharmacy,Unknown,Unknown,Mo-Fr 07:00-21:00; Sa 08:00-18:00,43.5067184,18.7744525
Crvena Apoteka,Unknown,Unknown,Unknown,Unknown,Unknown,Unknown,pharmacy,pharmacy,Unknown,Unknown,Mo-Sa 08:00-21:00,43.5081357,18.7760449
Unknown,Unknown,Unknown,Unknown,Unknown,Unknown,Unknown,pharmacy,Unknown,Unknown,Unknown,Unknown,42.4506868,18.6517288
Unknown,Unknown,Unknown,Unknown,Unknown,Unknown,Unknown,pharmacy,pharmacy,Unknown,Unknown,Unknown,42.3893039,18.7390401
Tea Medica 27,Unknown,Unknown,Unknown,Unknown,Unknown,Unknown,pharmacy,Unknown,Unknown,Unknown,Mo-Su 08:00-22:00,42.2927835,18.8484319
Unknown,Unknown,Unknown,Unknown,Unknown,Unknown,Unknown,pharmacy,Unknown,Unknown,Unknown,Unknown,42.2919244,18.8428536
Ars Medica,Unknown,Unknown,Unknown,Unknown,Unknown,Unknown,clinic,clinic,Unknown,https://arsmedica.co.me/,Unknown,42.4361701,18.5985446
Meditas,Unknown,Unknown,Unknown,Unknown,Unknown,Unknown,pharmacy,pharmacy,Unknown,Unknown,Unknown,42.2838025,18.8366615
Unknown,Unknown,Unknown,Unknown,Unknown,Unknown,Unknown,pharmacy,pharmacy,Unknown,Unknown,Unknown,42.286058,18.8423889
Help,Unknown,Unknown,Unknown,Unknown,Unknown,Unknown,pharmacy,pharmacy,Unknown,Unknown,Mo-Fr 07:00-20:00; Sa 08:00-20:00,42.4373765,19.2824761
Belladonna,Unknown,Unknown,Unknown,Unknown,Unknown,Unknown,pharmacy,pharmacy,Unknown,Unknown,Unknown,42.0859603,19.1240877
Infektivna klinika,Unknown,Unknown,Unknown,Unknown,Unknown,Unknown,clinic,clinic,Unknown,Unknown,Unknown,42.4359615,19.2449409
TNT Dent,Unknown,Unknown,Unknown,Unknown,Unknown,Unknown,dentist,dentist,Unknown,Unknown,Unknown,43.3602967,19.3628515
Andi Farm,Unknown,Unknown,Unknown,Unknown,Unknown,Unknown,pharmacy,pharmacy,Unknown,Unknown,Mo-Sa 08:00-21:00,42.1105723,19.0888213
Pharmalife,Unknown,Unknown,Unknown,Unknown,Unknown,Unknown,pharmacy,pharmacy,Unknown,Unknown,08:00-22:00,42.1116868,19.0858423
