Name,Full Address,Street,City,Postcode,State,Country,Amenity,Healthcare,Phone,Website,Opening Hours,Latitude,Longitude
Centro de Salud Familiar Dr. Julio Palmieri Ferri,Calle Morse Esqina Valentina Arroyo,Calle Samuel Morse,Arroyo,Unknown,Unknown,Unknown,clinic,clinic,+1 787 839 4150,https://csfapr.com/,Unknown,17.9688019,-66.060166
Naguabo Medical Mall,Unknown,Unknown,Unknown,Unknown,Unknown,Unknown,clinic,clinic,Unknown,Unknown,Unknown,18.2138239,-65.7409995
Clinica Dr Rovira,"Calle Luis Munos Marin 2, Carr. 103 Hormiguero",Unknown,Hormigueros,Unknown,Unknown,Unknown,clinic,Unknown,Unknown,Unknown,Unknown,18.1391436,-67.1286786
San Juan Medical Imaging LLP,"Ave. De Diego , Esq. Baldorioty, Santurce San Juan",Avenida de Diego,San Juan,00907,PR,Unknown,clinic,Unknown,Unknown,https://sanjuanhealthcentre.com/,Unknown,18.4503418,-66.0658003
Centro de Salud,Unknown,Calle Dr. Santos Defendini,Adjuntas,00601,Unknown,Unknown,clinic,clinic,Unknown,Unknown,Unknown,18.1633945,-66.7209526
Centro Ambulatorio Pavía,Munoz Rivera A-1 Caguas,Unknown,Caguas,Unknown,Unknown,Unknown,clinic,clinic,Unknown,Unknown,Unknown,18.2378653,-66.0348803
Hospital Perea,Calle Dr Basora 15 Mayaguez 00680,Calle Dr. Basora,Mayagüez,00681,Unknown,Unknown,hospital,hospital,1-787-834-0101,https://hospitalperea.com/,24/7,18.2027516,-67.1400334
Hospital San Antonio Inc,Calle Post 18 Norte Mayaguez 00681,Calle Ramón Emeterio Betances,Norte Mayagüez,00680,Unknown,Unknown,hospital,hospital,1-787-834-0050,http://www.hsaipr.com/,24/7,18.203175,-67.1409668
Clínica San Francisco de Aguada,Calle Colon 106 Aguada,Unknown,Unknown,Unknown,Unknown,Unknown,clinic,Unknown,Unknown,Unknown,Unknown,18.3806746,-67.1841248
Professional Hospital,Pr-2 Km 49.5 Interseccion 685 Manati 00674,Unknown,Manatí,00674,Unknown,Unknown,clinic,clinic,1-787-884-0505,http://professionalhospital.org/,Unknown,18.4299585,-66.4938641
Costa Salud Community Health Centers,"Calle Munoz Rivera #28, Rincon",Unknown,Unknown,Unknown,Unknown,Unknown,clinic,clinic,+1-787-823-0909,Unknown,Unknown,18.3387611,-67.2517794
Farmacia Candelero,Unknown,Unknown,Unknown,Unknown,Unknown,Unknown,pharmacy,pharmacy,Unknown,Unknown,Unknown,18.1138972,-65.8216634
Farmacia Caridad,Unknown,Paseo Dr. Gilberto Concepción de Gracia,San Juan,00901,PR,Unknown,pharmacy,pharmacy,Unknown,Unknown,Unknown,18.463681,-66.1134747
Unknown,Unknown,Unknown,Unknown,Unknown,Unknown,Unknown,pharmacy,pharmacy,Unknown,Unknown,Unknown,17.9646293,-66.0617571
MultiMed,Unknown,Unknown,Unknown,Unknown,Unknown,Unknown,doctors,doctor,Unknown,Unknown,Unknown,17.9933779,-66.6194569
Walgreens,Unknown,Unknown,Unknown,Unknown,Unknown,Unknown,pharmacy,pharmacy,Unknown,Unknown,Unknown,18.3550089,-66.0024522
CDT De Quebradillas,Munoz Rivera Esq. San Justo Quebradill,Unknown,Unknown,Unknown,Unknown,Unknown,clinic,Unknown,Unknown,Unknown,Unknown,18.4754449,-66.9376297
Clinica Expreso Auxilio Mutuo (CDT),"Carr. PR-199 Este, Km. 14.6, Ave. Las Cum San Juan",Unknown,Unknown,Unknown,Unknown,Unknown,clinic,Unknown,Unknown,Unknown,"PH,Mo-Su 00:00-24:00",18.3569189,-66.0458568
Best Pharma,Unknown,Unknown,Unknown,Unknown,Unknown,Unknown,pharmacy,pharmacy,Unknown,Unknown,Unknown,18.392448,-67.1040138
Walgreens,Unknown,2706 AVE MARUCA,PONCE,00728,Unknown,PR,pharmacy,pharmacy,787-812-5978,Unknown,Unknown,17.9961084,-66.6356904
Walgreens Store Number 12598,Unknown,Ponce Bypass,Ponce,00716,PR,PR,pharmacy,pharmacy,787-841-7791,Unknown,Unknown,17.9951619,-66.6151464
Walgreens,Unknown,379 AVE LOS PATRIOTAS,LARES,00669,Unknown,PR,pharmacy,pharmacy,787-897-2290,Unknown,Unknown,18.2896044,-66.8888734
Walgreens,Unknown,"615 Carr 152 #11, Mercado Plaza",Naranijito,00719,Unknown,PR,pharmacy,pharmacy,787-869-0110,Unknown,Unknown,18.2722557,-66.2736454
Walgreens,Unknown,Carretera Toa Alta - Corozal,Toa Alta,00953,PR,PR,pharmacy,pharmacy,787-870-4776,Unknown,Unknown,18.3442461,-66.2777584
Walgreens Store Number 183,Unknown,4210 CARR 693,DORADO,00646,Unknown,PR,pharmacy,pharmacy,787-278-5811,Unknown,Unknown,18.4639816,-66.2735271
Walgreens,Unknown,"AVE. FD ROOSEVELT. 3ER PISO LOCAL 609, PLAZA LAS AMERICAS",SAN JUAN,00919,PR,PR,pharmacy,pharmacy,787-771-1644,Unknown,Unknown,18.4231169,-66.0746864
Walgreens,Unknown,80 CARRETERA 308,CABO ROJO,00623,Unknown,PR,pharmacy,pharmacy,787-851-3363,Unknown,Unknown,18.0801204,-67.1565168
Walgreens,Unknown,CARR. #2 KM 129.6,AGUADILLA,00603,Unknown,PR,pharmacy,pharmacy,787-882-8044,https://www.walgreens.com/,24/7,18.4090104,-67.1533029
Walgreens,Unknown,35 AVE LOS DOMINICOS,TOA BAJA,00949,Unknown,PR,pharmacy,pharmacy,787-795-2083,Unknown,Unknown,18.4380838,-66.1796552
Walgreens,Unknown,2505 CARR 841,GUAYNABO,00969,Unknown,PR,pharmacy,pharmacy,787-287-0528,Unknown,Unknown,18.375268,-66.0939998
Walgreens,Unknown,Avenida San Patricio,Guaynabo,00968,PR,PR,pharmacy,pharmacy,787-792-2144,Unknown,Unknown,18.4091973,-66.1046949
Walgreens,Unknown,Avenida José de Diego,San Juan,00921,PR,PR,pharmacy,pharmacy,787-708-6176,Unknown,Unknown,18.3925693,-66.0834584
Walgreens,Unknown,400 AVE MUNOZ RIVERA,SAN JUAN,00918,Unknown,PR,pharmacy,pharmacy,787-296-8460,Unknown,Unknown,18.420649,-66.0579316
Walgreens,Unknown,Calle San Francisco,Viejo San Juan,00901,PR,PR,pharmacy,pharmacy,787-722-6290,Unknown,Unknown,18.4655997,-66.1162421
Walgreens,Unknown,Boulevard Los Prados,CAGUAS,00727,Unknown,PR,pharmacy,pharmacy,787-744-2347,Unknown,Unknown,18.2357664,-66.057332
Walgreens,Unknown,Calle Loíza,San Juan,00911,Unknown,PR,pharmacy,pharmacy,+1-787-728-0033,Unknown,Unknown,18.451635,-66.0549794
Walgreens,Unknown,65 INFANTERIA SHOPPING CTR SUITE 101,SAN JUAN,00925,Unknown,PR,pharmacy,pharmacy,787-777-1120,Unknown,Unknown,18.3965643,-66.0403211
Walgreens,Unknown,Avenida Regimiento 65 de Infantería,San Juan,00925,PR,PR,pharmacy,pharmacy,787-767-1636,Unknown,Unknown,18.3960418,-66.0418078
Walgreens,Unknown,Boulevard de la Fuente,RIO PIEDRAS,00926,PR,PR,pharmacy,pharmacy,787-283-2555,Unknown,Unknown,18.3566264,-66.064133
Walgreens,Unknown,"CARR 1. 1000 AVE. J.T. PINERO, CAYEY SHOPPING CENTER",CAYEY,00736,Unknown,PR,pharmacy,pharmacy,787-738-2977,Unknown,Unknown,18.1086475,-66.1576859
Walgreens,Unknown,643 YAUCO PLAZA II,YAUCO,00698,Unknown,PR,pharmacy,pharmacy,787-267-5727,Unknown,Unknown,18.0264094,-66.8532305
Walgreens Store Number 15325,Unknown,NEC OF 2979 AVE EMILIO FAGOT. #1 & (TEMP RX TRAILER),PONCE,00716,Unknown,PR,pharmacy,pharmacy,787-841-2135,Unknown,Unknown,18.0181004,-66.6000379
Farmacia San José,Unknown,Unknown,Unknown,Unknown,Unknown,Unknown,pharmacy,pharmacy,Unknown,Unknown,Unknown,18.4206999,-66.2394636
Emergency Care Dentist,Unknown,Unknown,Unknown,Unknown,Unknown,Unknown,dentist,dentist,7877293366,Unknown,Unknown,18.4648303,-66.1170729
Walgreens,Unknown,"AVE. WINSTON CHURCHILL. ESQ. PARANA, EL SENORIAL S/C",RIO PIEDRAS,00925,Unknown,PR,pharmacy,pharmacy,787-751-7219,Unknown,Unknown,18.3709329,-66.0678175
Puerto Rico Drug,Unknown,Unknown,Unknown,Unknown,Unknown,Unknown,pharmacy,pharmacy,Unknown,Unknown,Unknown,18.4655478,-66.1163993
Farmacia Luma,Unknown,Unknown,Unknown,Unknown,Unknown,Unknown,pharmacy,pharmacy,Unknown,Unknown,Unknown,18.4659109,-66.1149425
Walgreens,Unknown,Unknown,Yabucoa,Unknown,Unknown,Unknown,pharmacy,pharmacy,Unknown,Unknown,Unknown,18.045806,-65.8699602
Farmacia El Combate,Unknown,Unknown,Unknown,Unknown,Unknown,Unknown,pharmacy,pharmacy,Unknown,Unknown,Unknown,17.9792056,-67.2036922
Superfarmacia Villa Toledo,Unknown,Unknown,Unknown,Unknown,Unknown,Unknown,pharmacy,pharmacy,Unknown,Unknown,Unknown,18.4382521,-66.758378
Farmacia Victoria,Unknown,Unknown,Unknown,Unknown,Unknown,Unknown,pharmacy,pharmacy,Unknown,Unknown,Unknown,18.438212,-66.7592033
San Juan Caperstrano Ambulatory Clinic,Unknown,Unknown,Unknown,Unknown,Unknown,Unknown,clinic,Unknown,Unknown,Unknown,Unknown,18.4546995,-66.0727394
Bianca Pucchi,Unknown,Unknown,Unknown,Unknown,Unknown,Unknown,clinic,Unknown,Unknown,Unknown,Unknown,18.4543566,-66.0726912
Colorectal Clinic,Unknown,Unknown,Unknown,Unknown,Unknown,Unknown,clinic,Unknown,Unknown,Unknown,Unknown,18.4546315,-66.0659217
Condado MRI,Unknown,Unknown,Unknown,Unknown,Unknown,Unknown,clinic,Unknown,Unknown,Unknown,Unknown,18.454621,-66.0660363
Farmacia Mercier,Unknown,Calle Loíza,San Juan,00911,Unknown,Unknown,pharmacy,pharmacy,Unknown,Unknown,Unknown,18.4520109,-66.0625566
Pedro Castro Pavia D.M.D. Dentista,Unknown,Avenida de Diego,San Juan,00911,PR,Unknown,dentist,dentist,Unknown,Unknown,Unknown,18.4529231,-66.06352
Caribbean Pharmacy,Unknown,Unknown,Unknown,Unknown,Unknown,Unknown,pharmacy,pharmacy,7877252390,Unknown,8:00-22:00,18.4557516,-66.0834047
El Verde Dental,Unknown,Unknown,Unknown,Unknown,Unknown,Unknown,dentist,dentist,Unknown,Unknown,Unknown,18.2341841,-66.0336512
Farmacia Olympia,Unknown,Unknown,Unknown,Unknown,Unknown,Unknown,pharmacy,pharmacy,Unknown,Unknown,Unknown,18.2343117,-66.0334454
Farmacia Rimari,Unknown,Unknown,Unknown,Unknown,Unknown,Unknown,pharmacy,pharmacy,Unknown,Unknown,Unknown,18.2345823,-66.0341754
Caguas X Ray,Unknown,Unknown,Unknown,Unknown,Unknown,Unknown,doctors,doctor,Unknown,Unknown,Unknown,18.2352879,-66.0337442
Dr. Guillermo R. Mulero,Unknown,Unknown,Unknown,Unknown,Unknown,Unknown,doctors,doctor,Unknown,Unknown,Unknown,18.2353361,-66.0338761
Dr. Lozada Rivera,Unknown,Unknown,Unknown,Unknown,Unknown,Unknown,doctors,doctor,Unknown,Unknown,Unknown,18.2352205,-66.0335748
Dr. Alfredo Vargas,Unknown,Unknown,Unknown,Unknown,Unknown,Unknown,dentist,dentist,Unknown,Unknown,Unknown,18.2351124,-66.0333248
Dr. Emsor Díaz,Unknown,Unknown,Unknown,Unknown,Unknown,Unknown,dentist,dentist,Unknown,Unknown,Unknown,18.2348667,-66.0333836
Turabo Medical Primary Group,Unknown,Unknown,Unknown,Unknown,Unknown,Unknown,doctors,doctor,Unknown,Unknown,Unknown,18.2352135,-66.0332426
Dr. Amado García,Unknown,Unknown,Unknown,Unknown,Unknown,Unknown,dentist,dentist,Unknown,Unknown,Unknown,18.235517,-66.0340378
Dr. Jorge Fortuño Buxo,Unknown,Unknown,Unknown,Unknown,Unknown,Unknown,dentist,dentist,Unknown,Unknown,Unknown,18.2352867,-66.0332071
Dr. Eric J. Ruiz Delgado,Unknown,Unknown,Unknown,Unknown,Unknown,Unknown,doctors,doctor,Unknown,Unknown,Unknown,18.2342795,-66.0329397
El Botiquín de la 26,Unknown,Calle Sagrado Corazón de Jesús,Unknown,Unknown,Unknown,Unknown,pharmacy,pharmacy,787-982-2323,Unknown,Mo-Fr 7:30-19:00; Sa 9:00-18:00,18.4383873,-66.0601687
Centro Radiológico Edmarie,Unknown,PR-164,Naranjito,Unknown,Unknown,Unknown,clinic,Unknown,Unknown,Unknown,Unknown,18.3068537,-66.2581682
Fondita de Jesús,Unknown,Calle Monserrate,Santurce,00907,PR,Unknown,clinic,clinic,Unknown,Unknown,Unknown,18.4504921,-66.0791634
Laboratorio Clínico Las Colinas,Unknown,Unknown,Unknown,Unknown,Unknown,Unknown,clinic,Unknown,Unknown,Unknown,Unknown,18.3625549,-66.1188287
Farmacia Luis,Unknown,Avenida José de Diego,San Juan,00909,PR,Unknown,pharmacy,pharmacy,787-722-1590,http://goodneighborpharmacy.com,Mo-Fr 08:00-19:00; Sa 08:30-18:00,18.4461648,-66.0681475
Express Care Pharmacy,Unknown,Avenida Fernández Juncos,San Juan,00909,PR,Unknown,pharmacy,pharmacy,17877219154,Unknown,Unknown,18.4497206,-66.0773901
Doctors' Cancer Center,Unknown,Unknown,Unknown,Unknown,Unknown,Unknown,clinic,clinic,Unknown,Unknown,Unknown,18.4334893,-66.4751061
Doctor Jordan Cardiology Center,Unknown,Avenida Fernández Juncos,San Juan,00910,PR,Unknown,doctors,doctor,Unknown,Unknown,Mo-Fr 08:00-17:00,18.4396204,-66.0621387
First Pharmacy,Unknown,Calle Dr. Manuel Fernández Pavía,San Juan,Unknown,PR,Unknown,pharmacy,pharmacy,+1-787-722-3600,Unknown,Mo-Fr 7:00-18:00; Sa 8:00-14:00,18.4451314,-66.0689246
Laboratiorio Borinquen,Unknown,Calle Américo Salas,San Juan,00912,PR,Unknown,clinic,laboratory,+1-787-722-0840,Unknown,Mo-Fr 6:00-16:00; Sa 6:00-12:00,18.4453697,-66.0691044
Laboratorio Borinquen,Unknown,Calle Dr. Manuel Fernández Pavía,San Juan,00912,PR,Unknown,clinic,clinic,Unknown,Unknown,Unknown,18.4449059,-66.0690777
Pavía Breast & Imaging Center,Unknown,Calle Dr. Manuel Fernández Pavía,San Juan,00912,PR,Unknown,clinic,clinic,Unknown,https://metropavia.com/,Mo-Fr 06:30-17:00; Sa 08:00-12:00,18.4450097,-66.0689746
Pavía Medical Plaza,Unknown,Unknown,Unknown,Unknown,Unknown,Unknown,clinic,clinic,Unknown,Unknown,Unknown,18.44534,-66.0688073
Centro Oftalmológico de Arecibo,Unknown,Unknown,Unknown,Unknown,Unknown,Unknown,Unknown,centre,Unknown,https://oftalmologicodearecibo.com/,Unknown,18.4724325,-66.7244207
Farmacia Los Maestros,Unknown,Unknown,Unknown,Unknown,Unknown,Unknown,pharmacy,pharmacy,Unknown,Unknown,Unknown,18.4046635,-66.0345926
Farmacia Caridad,Unknown,Avenida Jesús Toribio Piñero / Avenida Central,San Juan,00927,PR,Unknown,pharmacy,pharmacy,Unknown,Unknown,Unknown,18.4072394,-66.0653464
Farmacia Ideal,Unknown,Unknown,Unknown,Unknown,Unknown,Unknown,pharmacy,pharmacy,Unknown,Unknown,Unknown,18.398693,-65.9873124
Farmacia Medianía,Unknown,Carretera 187,Unknown,Unknown,Unknown,Unknown,pharmacy,pharmacy,+1-787-876-1927;+1-787-256-2777,Unknown,Unknown,18.4265413,-65.8469369
Cirujano Dental,Unknown,Calle Loíza,Unknown,Unknown,Unknown,Unknown,dentist,dentist,787-727-7131,Unknown,Unknown,18.4511958,-66.0562687
Farmacia Profesional Ashford,Unknown,Unknown,Unknown,Unknown,Unknown,Unknown,pharmacy,pharmacy,Unknown,Unknown,Unknown,18.4550027,-66.0660679
Walgreens,Unknown,Unknown,Unknown,Unknown,Unknown,Unknown,pharmacy,pharmacy,Unknown,Unknown,Unknown,18.2966429,-65.6422687
Walgreens,Unknown,Unknown,Unknown,Unknown,Unknown,Unknown,pharmacy,pharmacy,Unknown,Unknown,Unknown,18.3820388,-65.9765085
CVS Pharmacy,Unknown,Unknown,Unknown,Unknown,Unknown,Unknown,pharmacy,pharmacy,Unknown,Unknown,Unknown,18.017689,-66.6016919
CVS Pharmacy,Unknown,Unknown,Unknown,Unknown,Unknown,Unknown,pharmacy,pharmacy,Unknown,Unknown,Unknown,18.0101828,-66.6330938
CVS Pharmacy,Unknown,Unknown,Unknown,Unknown,Unknown,Unknown,pharmacy,pharmacy,Unknown,https://www.cvs.com/store-locator/ponce-pr-pharmacies/2511-ponce-byp-ponce-pr-00717/storeid=10110,Unknown,17.9969685,-66.6314127
Farmacia Caridad,Unknown,Avenida Dr. Ashford,San Juan,00907,PR,Unknown,pharmacy,pharmacy,Unknown,https://farmaciacaridad.com/,Mo-Su 00:00-24:00,18.4559812,-66.0711728
Farmacia Yarimar,Unknown,Calle 31 S O,San Juan,Unknown,PR,Unknown,pharmacy,pharmacy,Unknown,Unknown,Unknown,18.3911948,-66.094901
Unknown,Unknown,Unknown,Unknown,Unknown,Unknown,Unknown,pharmacy,pharmacy,Unknown,Unknown,Unknown,18.1498951,-65.4416025
ABC Pharmacy,Unknown,Unknown,Unknown,Unknown,Unknown,Unknown,pharmacy,pharmacy,Unknown,Unknown,Unknown,18.386325,-66.0818881
Dentista Dra. Elba Oliveras,Unknown,Calle Brumbaugh,San Juan,Unknown,Unknown,Unknown,dentist,dentist,1-787-751-2112,Unknown,Unknown,18.3995401,-66.0510527
Laboratorio Clínico Dr. Córdova Río Piedras II,Unknown,Calle Brumbaugh,San Juan,Unknown,PR,Unknown,Unknown,laboratory,1-787-765-3735,Unknown,Unknown,18.3995985,-66.051093
Raúl Rosado Figueroa MD Generalista,Unknown,Calle Brumbaugh,San Juan,Unknown,PR,Unknown,doctors,doctor,1-787-282-6214,Unknown,Unknown,18.3995896,-66.0510433
Laboratorio Borges,Unknown,Calle Arzuaga,San Juan,00925,PR,Unknown,Unknown,laboratory,7877516373,Unknown,Unknown,18.3975411,-66.0461934
Dr. José Disla Peña,Unknown,Unknown,Unknown,Unknown,Unknown,Unknown,dentist,dentist,1 787 725-1703,Unknown,Unknown,18.4486237,-66.0609355
Unknown,Unknown,Unknown,Unknown,Unknown,Unknown,Unknown,dentist,dentist,Unknown,Unknown,Unknown,18.4505416,-66.0590345
Farmacia Caridad,Unknown,Avenida Esmeralda,Guaynabo,00969,PR,Unknown,pharmacy,pharmacy,+1-787- 720-4035,Unknown,Unknown,18.3710823,-66.1006719
"Ortodoncistas Dr. C. méndez Villamil, Dr. M. Torres Díaz",Unknown,Unknown,Unknown,Unknown,Unknown,Unknown,dentist,dentist,+1-787-7201409,Unknown,Unknown,18.3721098,-66.102066
Laboratorio Clínico Muñoz Rivera,Unknown,Unknown,Unknown,Unknown,Unknown,Unknown,clinic,Unknown,+1-787-7205462,Unknown,Unknown,18.372156,-66.1024239
Farmacia Alimar,Unknown,Unknown,Unknown,Unknown,Unknown,Unknown,pharmacy,pharmacy,Unknown,Unknown,Unknown,18.3721783,-66.1026226
Guaynabo OB-Gyn,Unknown,Unknown,Unknown,Unknown,Unknown,Unknown,doctors,doctor,+1-787-7201667,Unknown,Unknown,18.3722127,-66.103887
Centro Clínico Serrano,Unknown,Unknown,Unknown,Unknown,Unknown,Unknown,clinic,Unknown,+1-787-2872690,Unknown,Unknown,18.372263,-66.1053969
"MRC, Dr. María R. Corretjer",Unknown,Unknown,Unknown,Unknown,Unknown,Unknown,dentist,dentist,+1-787-7201323,Unknown,Unknown,18.372266,-66.1055224
Gastroenterología,Unknown,Unknown,Unknown,Unknown,Unknown,Unknown,doctors,doctor,+1-787-7900080,Unknown,Unknown,18.3722744,-66.1057915
Prescription Health Resources,Unknown,Unknown,Unknown,Unknown,Unknown,Unknown,dentist,dentist,+1-787-7896400,Unknown,Unknown,18.3723026,-66.1066265
Mayo Health Dental Cleaning,Unknown,Unknown,Unknown,Unknown,Unknown,Unknown,dentist,dentist,Unknown,Unknown,Unknown,18.4514933,-66.0585985
Laboratorio Clinico Adamar,Unknown,Calle Loíza,San Juan,00911,PR,Unknown,clinic,laboratory,+1-787-728-5085,Unknown,Mo-Fr 7:00-16:00; Sa 8:00-12:00,18.4508623,-66.0548543
Renuderm,Unknown,Unknown,Unknown,Unknown,Unknown,Unknown,doctors,doctor,Unknown,Unknown,Unknown,18.4515675,-66.0604898
Phatology Lab,Unknown,Unknown,Unknown,Unknown,Unknown,Unknown,Unknown,phatologylab,Unknown,Unknown,Unknown,18.451488,-66.0601444
Farmacia Jardines,Unknown,Carretera 187,Unknown,Unknown,Unknown,Unknown,pharmacy,pharmacy,Unknown,Unknown,"Mo-Sa 08:00-21:00, Su 11:00-17:00",18.4299717,-65.8770134
Farmacia Chardón,Unknown,Unknown,Unknown,Unknown,Unknown,Unknown,pharmacy,pharmacy,Unknown,Unknown,Unknown,18.4243302,-66.0665615
Laboratorio Miramar,Unknown,Unknown,Unknown,Unknown,Unknown,Unknown,clinic,clinic,7877228144,Unknown,Mo-Th,18.455765,-66.0834672
Farmacia Breñas,Unknown,Unknown,Unknown,Unknown,Unknown,Unknown,pharmacy,pharmacy,Unknown,Unknown,Unknown,18.4663308,-66.3378369
Arleen Pharmacy - Allied Pharmacies,Unknown,Calle Asturias,Unknown,00725,Unknown,Unknown,pharmacy,pharmacy,(787)-746-5952,Unknown,Mo-Fr 19:30-09:00; Sa 20:00-09:00; Su 08:30-21:00,18.2154159,-66.0495867
CDT TMG Medical Group CSP,Calle Tomas Davila Num. 1 Barcelonet,Calle Tomás Dávila Martínez,Unknown,00617,Unknown,Unknown,clinic,clinic,1-787-846-6890,Unknown,Mo-Sa 07:30-20:00,18.4523607,-66.5394615
Dra. Maritza Correa Agosto,Unknown,Calle la Paz,San Juan,00907,PR,Unknown,dentist,dentist,Unknown,Unknown,Unknown,18.4523307,-66.0830803
Dr. Carlos Muñoz-Riera,Unknown,Calle del Parque,San Juan,00911,PR,Unknown,dentist,dentist,787-725-5985,Unknown,Unknown,18.4492829,-66.0631182
Unknown,Unknown,Unknown,Unknown,Unknown,Unknown,Unknown,pharmacy,pharmacy,Unknown,Unknown,Unknown,18.1813602,-66.9799794
Farmacia Royal,Unknown,Avenida Borinquen,San Juan,00915,PR,Unknown,pharmacy,pharmacy,787-727-2221,Unknown,09:00-18:00,18.4380065,-66.0574914
Farmacia Fátima,Unknown,Unknown,Unknown,Unknown,Unknown,Unknown,pharmacy,pharmacy,Unknown,Unknown,Unknown,18.414636,-66.0611997
Laboratorio Clínico Lecord,Unknown,Unknown,Unknown,Unknown,Unknown,Unknown,Unknown,laboratory,Unknown,Unknown,Unknown,18.4652082,-66.099159
Nueva Borinquen,Unknown,Avenida Borinquen,San Juan,00915,PR,Unknown,pharmacy,pharmacy,787726-7558,Unknown,Unknown,18.4377034,-66.0550957
Clínica Medicina Preventiva,Unknown,Avenida Borinquen,San Juan,00915,PR,Unknown,clinic,Unknown,787-728-6093,Unknown,Unknown,18.4372936,-66.0537491
Quality Dental Care,Unknown,Avenida Borinquen,San Juan,00915,PR,Unknown,clinic,Unknown,787-727-0075,www.qualitydentalcarepr.com,Unknown,18.4371931,-66.0535419
Bayamon Health Center Dr. Jose Ramón Selva,"Calle Manuel F. Rossy, Esq. Isabel II Bayamon",Unknown,Unknown,Unknown,Unknown,Unknown,clinic,clinic,Unknown,Unknown,Unknown,18.3971633,-66.1546503
Unknown,Unknown,Unknown,Unknown,Unknown,Unknown,Unknown,dentist,dentist,Unknown,Unknown,Unknown,18.3976016,-66.1555041
Unknown,Unknown,Unknown,Unknown,Unknown,Unknown,Unknown,doctors,doctor,Unknown,Unknown,Unknown,18.3976269,-66.1553201
Pranic Healing,Unknown,Avenida Juan Ponce de León,San Juan,00909,PR,Unknown,clinic,Unknown,787-312-7272,Unknown,Unknown,18.4420379,-66.0632602
Santurce Medical Mall,Unknown,Avenida Juan Ponce de León,San Juan,00910,PR,Unknown,clinic,Unknown,+1-787-207-7315,Unknown,Unknown,18.4407068,-66.0615147
Unknown,Unknown,Unknown,Unknown,Unknown,Unknown,Unknown,pharmacy,pharmacy,Unknown,Unknown,Unknown,18.3975947,-66.0493351
Montebrisas Pharmacy,Unknown,Unknown,Unknown,Unknown,Unknown,Unknown,pharmacy,pharmacy,+1 787 863 4445,Unknown,Unknown,18.342214,-65.6567013
Alicia,Unknown,Avenida Borinquen,Unknown,Unknown,Unknown,Unknown,pharmacy,pharmacy,7877260939,Unknown,Mo-Sa 08:00-18:00,18.4356751,-66.0497089
Medical Pharmacy,Unknown,Unknown,Unknown,Unknown,Unknown,Unknown,pharmacy,pharmacy,Unknown,Unknown,Unknown,18.409063,-66.0532695
San Jorge Chiropractic Place,Unknown,Calle San Jorge,San Juan,00912,PR,Unknown,clinic,Unknown,+1-787-946-0011,Unknown,Unknown,18.4439978,-66.0633694
Laboratorio Metabólico,Unknown,Calle Hipódromo,San Juan,00910,PR,Unknown,clinic,Unknown,+1-787-723-2807,Unknown,Unknown,18.4454058,-66.0733656
Ojos Day Surgery Center,Unknown,Calle Hipódromo,San Juan,00910,PR,Unknown,clinic,Unknown,Unknown,Unknown,Unknown,18.4447725,-66.0739071
Farmacia Daryan,Unknown,Unknown,Unknown,Unknown,Unknown,Unknown,pharmacy,pharmacy,Unknown,Unknown,Unknown,18.3964662,-66.232812
Farmacia San Rafael,Unknown,Calle Lafayette,San Juan,00909,PR,Unknown,pharmacy,pharmacy,+1-787-722-4803;+1-787-919-7055;+1-787-724-3333,Unknown,Unknown,18.4441088,-66.0723281
Natural Health Clinic,Unknown,Avenida Juan Ponce de León,San Juan,00909,PR,Unknown,clinic,Unknown,Unknown,Unknown,Unknown,18.4445313,-66.0664606
Laboratorio Borinquen,Unknown,Unknown,Unknown,Unknown,Unknown,Unknown,clinic,Unknown,+1-787-725-5484,Unknown,Mo-Fr 6:00-14:00,18.4462022,-66.0687946
Laboratorio Clínico del Parque,Unknown,Calle del Parque,San Juan,00909,PR,Unknown,clinic,Unknown,1-787-724-4161,Unknown,Unknown,18.4462401,-66.065556
MedChic,Unknown,Calle Barranquitas,Unknown,00907,Unknown,Unknown,clinic,Unknown,Unknown,Unknown,Unknown,18.458451,-66.0765551
Farmacia Maricel II,Unknown,Unknown,Unknown,Unknown,Unknown,Unknown,pharmacy,pharmacy,Unknown,Unknown,Unknown,18.1502776,-65.8243297
Farmacias Plaza,Unknown,Unknown,Unknown,Unknown,Unknown,Unknown,pharmacy,pharmacy,Unknown,Unknown,Unknown,18.4128346,-66.0680677
Centro de Vacunación Hospital San Jorge,Unknown,Calle Convento,San Juan,00909,PR,Unknown,clinic,Unknown,Unknown,Unknown,Unknown,18.4462369,-66.0634454
Instituto de Rehabilitación del Caribe,Unknown,Calle Convento,San Juan,00909,PR,Unknown,clinic,Unknown,+1-787-723-7554,Unknown,Unknown,18.4467774,-66.063535
Farmacia San Jorge,Unknown,Calle Convento,San Juan,00909,PR,Unknown,pharmacy,pharmacy,"+1-787-727-1000 Ext. 4487, 4488, 4359",Unknown,Mo-Fr 7:00-16:30; Sa 9:00-13:00,18.447057,-66.0634288
Farmacia Vázques,Unknown,Unknown,Unknown,Unknown,Unknown,Unknown,pharmacy,pharmacy,Unknown,Unknown,Unknown,18.1171351,-66.1451016
Farmacia San Jose,Unknown,Unknown,Unknown,Unknown,Unknown,Unknown,pharmacy,pharmacy,Unknown,Unknown,Unknown,18.1402594,-66.2605797
Banco de Sangre,Unknown,Unknown,Unknown,Unknown,Unknown,Unknown,clinic,Unknown,Unknown,Unknown,Unknown,18.4109939,-66.0540815
Centro AYANI,Unknown,Calle Monseñor Jose Torres,Moca,00680,Unknown,Unknown,hospital,hospital,Unknown,Unknown,Unknown,18.3906511,-67.1129009
CDT Atencion Medica Inmediata,Ave. Rafael Cordero Final Esq. Troche Caguas,Unknown,Caguas,00725,PR,Unknown,clinic,clinic,Unknown,Unknown,Unknown,18.233762,-66.030175
Policlínica Dr. Salvador Ribot Ruiz,"RD 857, Km. 0 Hm. 4, Bo. Canovanilla Carolina",Unknown,Carolina,Unknown,Unknown,Unknown,clinic,Unknown,Unknown,Unknown,Unknown,18.373989,-65.93275
CSF De Maunabo,"Ave. Kennedy, Apt. 8 Maunabo",Unknown,Unknown,Unknown,Unknown,Unknown,clinic,Unknown,Unknown,Unknown,Unknown,18.006361,-65.9007561
Centro de Salud Susana Centeno - Vieques,Pr-997 Km H .1 Calle Antonio G Mellado Final Vieques 00765,Unknown,Unknown,00765,Unknown,Unknown,clinic,clinic,1-787-741-0392,Unknown,24/7,18.142129,-65.439635
Dispensario Medico Fondo Seguro Estado,"Ave. Marcelito Gotay, Carr. 195, Km. 2 Fajardo",Unknown,Unknown,Unknown,Unknown,Unknown,clinic,Unknown,Unknown,Unknown,Unknown,18.32699,-65.64792
CDT de Juncos,Calle Munoz Rivera Final Juncos,Unknown,Unknown,Unknown,Unknown,Unknown,clinic,Unknown,Unknown,Unknown,Unknown,18.23003,-65.92009
CDT Centro Medico Las Piedras,Calle Jose C Barbosa #68 Las Piedra,Unknown,Unknown,Unknown,Unknown,Unknown,clinic,Unknown,Unknown,Unknown,Unknown,18.1824162,-65.8726752
Hospital Psiquiatria Forense De Ponce,Pr-14 Km 4.2 Ponce 00731,Unknown,Ponce,00731,Unknown,Unknown,hospital,hospital,1-787-844-0101,Unknown,Unknown,18.034394,-66.594542
Hospital Andres Grillasca Inc (Centro De Oncologica Avanzada),Pr-14 Km 4.2 Ave Tito Castro Ponce 00733-1324,Unknown,Unknown,00733-1324,Unknown,Unknown,clinic,clinic,1-787-848-0800,Unknown,Unknown,18.032879,-66.596343
Clinica Santa Rosa,Pr-3 Km 135 Ave Los Veteranos H.7 Guayama 00785,Unknown,Unknown,00785,Unknown,Unknown,clinic,clinic,1-787-864-0101,Unknown,Unknown,17.981751,-66.104453
Dispensario Corporación del Fondo de Seguro del Estado,"Ave Pedro Albizu Campos, Km. 3 Hm. 0 Desv Guayama",Unknown,Unknown,Unknown,Unknown,Unknown,clinic,Unknown,Unknown,Unknown,Unknown,17.97472,-66.11308
Corp Fondo Seguro Estado Dispens Reg De Pon,Ave. Santiago de los Caballeros 2136 Ponce,Unknown,Unknown,Unknown,Unknown,Unknown,clinic,clinic,Unknown,Unknown,Unknown,17.994406,-66.603909
Corp Fondo Seguro Estado - CDT,"Edificio1, Carr. 14, Km. 723, Bo. Montell Cayey",Unknown,Unknown,Unknown,Unknown,Unknown,clinic,clinic,Unknown,Unknown,Unknown,18.120299,-66.147424
Centro San Cristobal Juana Diaz,Luis Munoz Rivera Num 6 Juana Diaz,Unknown,Unknown,Unknown,Unknown,Unknown,clinic,clinic,Unknown,Unknown,Unknown,18.04784,-66.50507
CDT - Policlínica San Pedro,Calle Morse # 211 Arroyo,Unknown,Unknown,Unknown,Unknown,Unknown,clinic,Unknown,Unknown,Unknown,Unknown,17.973708,-66.05889
CDT De Coamo,"Ave Luis Munoz Marin, Carr. 138 Coamo",Unknown,Unknown,Unknown,Unknown,Unknown,clinic,Unknown,Unknown,Unknown,Unknown,18.0742764,-66.3681157
CDT De Cayey,Calle Luis Barreras Num. 174 Cayey,Calle Luis Barreras,Cayey,Unknown,Unknown,Unknown,clinic,clinic,Unknown,Unknown,Unknown,18.110404,-66.168517
CDT De La Playa De Ponce,Ave. Hostos 1034 Ponce,Unknown,Ponce,Unknown,Unknown,Unknown,clinic,clinic,Unknown,Unknown,Unknown,17.991706,-66.6151889
Caribbean Diagnostic And Treatment Center,Carr. Estatal 385 Km. 0.5 Bo Cuevas Penuelas,Unknown,Penuelas,Unknown,Unknown,Unknown,clinic,Unknown,Unknown,Unknown,Unknown,18.0460041,-66.7176448
CDT Metropolitano De Cabo Rojo,Calle Munos Rivera #108 (ROT NO-NEC AUTO Cabo Rojo,Calle Muñoz Rivera,Cabo Rojo,Unknown,Unknown,Unknown,clinic,Unknown,Unknown,Unknown,Unknown,18.0816387,-67.1457356
CDT Guayanilla Isaias Rodriguez Lopez,Calle Jose de Diego 13 Guayanilla,Calle José de Diego,Guayanilla,Unknown,Unknown,Unknown,clinic,Unknown,Unknown,Unknown,Unknown,18.0165088,-66.7918113
CSS Juan Santiago,"Carr. 116, Km. 27.7 Ramal 1116 Guanica",Unknown,Guanica,00653,PR,Unknown,clinic,clinic,Unknown,Unknown,Unknown,17.9734253,-66.9110113
Centro de Salud Familiar De Lajas,Ave. Flamboyan 237 Lajas,Avenída Flamboyán,Lajas,Unknown,Unknown,Unknown,clinic,clinic,Unknown,Unknown,Unknown,18.03926,-67.055691
CDT Dr Caparros Inc,"Calle Betances Num. 2, Esq. Morel Utuado",Unknown,Utuado,Unknown,Unknown,Unknown,clinic,Unknown,Unknown,Unknown,Unknown,18.265014,-66.6986517
Dispensario Medicina Ocupacional Nivel Local,"Carr. 111 Km 2.0, Ave Rivas Dominicci Utuado",Unknown,Utuado,Unknown,Unknown,Unknown,clinic,clinic,Unknown,Unknown,Unknown,18.2686323,-66.6971363
Lares Medical Center - CDT,Carr. 111 Km. 2.9 Lares,Unknown,Lares,Unknown,Unknown,Unknown,clinic,Unknown,1-787-648-5909,Unknown,Unknown,18.2970452,-66.8816606
"Centro De Salud De Lares, Inc.",Carr. 111 Km.1.9 Lares,Unknown,Lares,Unknown,Unknown,Unknown,clinic,Unknown,1-787-897-2727,Unknown,Unknown,18.290436,-66.8852988
Servicios Medicos Las Marias,"Carr. 119, Km 27.4 Las Marias",PR-119,Las Marias,Unknown,Unknown,Unknown,clinic,Unknown,Unknown,Unknown,Unknown,18.258452,-66.9857383
Corp Fondo Seguro Estado - Dispens Reg Maya,"Ave. Los Corazones, Carr. Num. 2, Bo. Sab Mayaguez",Unknown,Mayagüez,Unknown,Unknown,Unknown,clinic,Unknown,Unknown,Unknown,Unknown,18.1732358,-67.1472537
Policlínica Bella Vista,"Carr. 12 Km.158.3, Profesional Plaza Buil Mayaguez",Unknown,Mayagüez,Unknown,Unknown,Unknown,clinic,clinic,Unknown,Unknown,Unknown,18.165508,-67.148884
Clinica Yaguez,Calle McKinley Num 114 Mayaguez,Unknown,Mayagüez,Unknown,Unknown,Unknown,clinic,clinic,Unknown,Unknown,Unknown,18.20322,-67.14659
CDT Asociacion De Maestros De Puerto Rico,"Ramos Antonini 158, Mayaguez",Unknown,Mayagüez,Unknown,Unknown,Unknown,clinic,clinic,Unknown,Unknown,Unknown,18.2006306,-67.1361895
Farmacia Ferrari,Unknown,Unknown,Unknown,Unknown,Unknown,Unknown,pharmacy,pharmacy,Unknown,Unknown,Unknown,18.429546,-67.1542954
CS Integral en Barranquitas,"Calle Barcelo Num. 53, Carr. 156, Barranquitas",Unknown,Barranquitas,Unknown,Unknown,Unknown,clinic,Unknown,Unknown,Unknown,Unknown,18.185897,-66.302978
Cs Integral En Naranjito,"Carr. 167, Bo. Achiote, Sector El Desvio Naranjito",Unknown,Naranjito,Unknown,Unknown,Unknown,clinic,Unknown,Unknown,Unknown,Unknown,18.3031247,-66.2434762
Centro de Salud Integral En Comerio,Carr. 167 Calle Georgetti Num. 18 Int. 77 Comerio,Calle Georgetti,Comerio,Unknown,Unknown,Unknown,clinic,clinic,Unknown,Unknown,Unknown,18.2214965,-66.2259636
Comerio Medical Center,Carretera Estatal #778 Km. 0.9 Comerio,Unknown,Comerio,Unknown,Unknown,Unknown,clinic,clinic,Unknown,Unknown,Unknown,18.22306,-66.2229265
Centro De Medicina Especializada,"Calle Barcelo, Esq. Carretera 173 Cidra",Unknown,Cidra,Unknown,Unknown,Unknown,clinic,clinic,Unknown,Unknown,Unknown,18.176797,-66.161379
CSF Dr Luis Aramburu,"Ave. El Jibaro, Bo. Bayamon Cidra",Unknown,Cidra,Unknown,Unknown,Unknown,clinic,Unknown,Unknown,Unknown,Unknown,18.1856185,-66.1583828
Corp De Servicios De Salud Y Medicina Avanz,Carr. 172 Km 13.5 Ave. Industrial Cidra,Unknown,Cidra,Unknown,Unknown,Unknown,clinic,clinic,Unknown,Unknown,Unknown,18.1786624,-66.154403
CDT De Aguas Buenas,Calle Munoz Rivera Final Aguas Buenas,Unknown,Aguas Buenas,Unknown,Unknown,Unknown,clinic,Unknown,Unknown,Unknown,Unknown,18.2558771,-66.1071195
CMF Jaime Serrano Dávila,Carr. 941 Km. 0 Hm. 3 Gurabo,Unknown,Gurabo,Unknown,Unknown,Unknown,clinic,Unknown,Unknown,Unknown,Unknown,18.257839,-65.97516
Corp Fondo Seguro Estado,Ave.. Munoz Marin (al lado Urb. Santa Jua Caguas,Unknown,Caguas,Unknown,Unknown,Unknown,clinic,clinic,Unknown,Unknown,Unknown,18.2503944,-66.0307889
Dispensario de la Corporación del Fondo de Seguro del Estado,Carr. # 2 Ave. Miramar km. 78.7 Arecibo,Unknown,Unknown,Unknown,Unknown,Unknown,clinic,Unknown,1-787-878-5757,Unknown,Unknown,18.472759,-66.7434513
CDT Policlínica Familiar Factor,"Carr. 2, Km. 65.6, Bo. Factor I",Unknown,Unknown,Unknown,Unknown,Unknown,clinic,Unknown,1-787-881-9788,Unknown,Unknown,18.4423725,-66.6353869
CDT Pepino Health Group Inc,Calle Pavia Fernandez #120 San Sebast,Unknown,Unknown,Unknown,Unknown,Unknown,clinic,Unknown,Unknown,Unknown,Unknown,18.3402866,-66.9961167
CDT Dr Jose A. Marrero Nieves,C 4 # 53 y 54 Urb Arecibo Gardens 00612 Arecibo,Unknown,Unknown,Unknown,Unknown,Unknown,clinic,Unknown,Unknown,Unknown,Unknown,18.4635415,-66.7236009
CDT Dr Ferdinando Maldonado,"Carr. PR 129, Km 15.0 Bo. Bayaney Hatillo",Unknown,Unknown,Unknown,Unknown,Unknown,clinic,Unknown,Unknown,Unknown,Unknown,18.4876654,-66.8251413
CDT De Villa De Los Santos,"Calle 16 V-1, Villa Los Santos Arecibo",Unknown,Unknown,Unknown,Unknown,Unknown,clinic,Unknown,Unknown,Unknown,Unknown,18.4656309,-66.7403682
CDT De San Sebastián,Calle Jose Mendez Cardona Num. 3 San Sebast,Calle J. Andrés Méndez Cardona,San Sebastián,Unknown,Unknown,Unknown,clinic,clinic,Unknown,Unknown,Unknown,18.3373145,-66.9941914
Health South Rehabilitation Of PR,3er Piso Hosp Universitario De Adultos - Centro Medico San Juan 00936-8344,Unknown,Unknown,00936-8344,Unknown,Unknown,clinic,clinic,1-787-274-5100,Unknown,Unknown,18.3971838,-66.0735602
Administracion De Servicios Medicos De Puerto Rico,Centro Medico San Juan 00922-2129,Unknown,San Juan,00935,Unknown,Unknown,hospital,hospital,1-787-777-3535,https://www.asempr.org/,24/7,18.3955783,-66.0736403
Policlínica Familiar Florida - CDT,Arizmendi Num. 72 Florida,Unknown,Unknown,Unknown,Unknown,Unknown,clinic,Unknown,Unknown,Unknown,Unknown,18.363099,-66.565072
Metropolitan Community Clinic,"Calle Agueybana 426, Urb. El Vedado, Hato San Juan",Unknown,Unknown,Unknown,Unknown,Unknown,clinic,Unknown,Unknown,Unknown,Unknown,18.4182516,-66.0572664
Integrated Community Health System,Calle Garcia Num. 8 y 9 Bayamon,Unknown,Unknown,Unknown,Unknown,Unknown,clinic,clinic,Unknown,Unknown,Unknown,18.397181,-66.148662
Hoffa Medical Center,Calle del Parque Num. 352 Piso 1 San Juan,Unknown,Unknown,Unknown,Unknown,Unknown,clinic,Unknown,Unknown,Unknown,Unknown,18.4461662,-66.0654426
Dispensario Medico Intermedio De Manati,"Carr. #2 Km. 48.3 Interior, Urb. Félix Córdova Dávila, Bo. Cotto Norte",Unknown,Unknown,Unknown,Unknown,Unknown,clinic,Unknown,1-787-854-6843,Unknown,Unknown,18.4338845,-66.4850273
Dispensario de la Corporación del Fondo de Seguro del Estado,Carr. Estatal 159 Km. 13.9 detras Cuartel Corozal,Unknown,Unknown,Unknown,Unknown,Unknown,clinic,Unknown,Unknown,Unknown,Unknown,18.3436466,-66.3220106
CSM Integrados CDT,Calle Santa Cruz #59 Bayamon,Unknown,Unknown,Unknown,Unknown,Unknown,clinic,Unknown,Unknown,Unknown,Unknown,18.3976747,-66.1501214
CPF Celeste Zalduondo,"Calla Padre Las Casa 117, El Vedado, Hato San Juan",Unknown,Unknown,Unknown,Unknown,Unknown,clinic,Unknown,Unknown,Unknown,Unknown,18.419809,-66.058392
Corporación del Fondo de Seguro del Estado - Dispensario Regiónal de San Juan,"Carr. Estatal Puerto Rico 838 Km. 6.3, Se San Juan",Unknown,Unknown,Unknown,Unknown,Unknown,clinic,Unknown,Unknown,Unknown,Unknown,18.3817093,-66.0663604
Corporación del Fondo de Seguro del Estado,"Carr. Estatal Num. 2, Km. 8.5, Bo. Juan Bayamon",Unknown,Unknown,Unknown,Unknown,Unknown,clinic,Unknown,Unknown,Unknown,Unknown,18.3997535,-66.1317393
Clinicas De Cuidado Medico Inc,Calle Hospital 4 Ciales,Unknown,Unknown,Unknown,Unknown,Unknown,clinic,Unknown,Unknown,Unknown,Unknown,18.33357,-66.46904
Clinica Externas Administracion De Servicio,"Edif. Central, Centro Medico, San Juan",Unknown,Unknown,Unknown,Unknown,Unknown,clinic,Unknown,Unknown,Unknown,Unknown,18.3953864,-66.0742321
Ciales Primary Health Care Services,"Carr. 149, Km. 12, Hm. 3 Ciales",Unknown,Unknown,Unknown,Unknown,Unknown,clinic,Unknown,1-787-871-0601,Unknown,Unknown,18.3412,-66.468802
Centro Integral de Salud de Vega Alta,Carr. #2 - Km. 31.9 Vega Alta,Unknown,Unknown,Unknown,Unknown,Unknown,clinic,Unknown,1-787-270-2330,Unknown,Unknown,18.4208221,-66.3360662
CDT Toa Alta Cura,Calle Barcelo Num. 16 Toa Alta,Unknown,Unknown,Unknown,Unknown,Unknown,clinic,Unknown,Unknown,Unknown,Unknown,18.389429,-66.24811
CDT Programa SIDA de San Juan,"Ave. Fernandez Juncos 1306, Parada 19, Sa San Juan",Unknown,Unknown,Unknown,Unknown,Unknown,clinic,clinic,Unknown,Unknown,Unknown,18.447642,-66.074286
CDT Medicina Familiar Minillas,Ave. Laurel Z-22 Urbanizacion Lomas Verde Bayamon,Unknown,Unknown,Unknown,Unknown,Unknown,clinic,Unknown,Unknown,Unknown,Unknown,18.3765433,-66.1469457
"CDT GMSP, Inc.",Calle Santa Cruz B-7 Bayamon,Unknown,Unknown,Unknown,Unknown,Unknown,clinic,clinic,Unknown,Unknown,Unknown,18.3967338,-66.1473424
Centro De Diagnostico Y Tratamiento Eulalia Kuilan - Cataño -,"Carretera PR 5, Km. 2.8;Carretera 869 Bo. Palmas Catano",Unknown,Unknown,Unknown,Unknown,Unknown,clinic,Unknown,1-787-788-0404,Unknown,Unknown,18.436202,-66.153956
CDT Dorado Medical Complex,Calle Mendez Vigo 349 Dorado,Unknown,Unknown,Unknown,Unknown,Unknown,clinic,clinic,Unknown,Unknown,Unknown,18.4604922,-66.2662817
CDT Doctores Villalobos,Edif. Jesus T. Pineiro Piso 3 Ave. Fernan Carolina,Unknown,Unknown,Unknown,Unknown,Unknown,clinic,clinic,Unknown,Unknown,Unknown,18.3802079,-65.9560303
CDT De Toa Alta Bo Pinas,"Carr. 861, Int. 829, Km. 5.8, Bo. Pinas Toa Alta",Unknown,Unknown,Unknown,Unknown,Unknown,clinic,Unknown,Unknown,Unknown,Unknown,18.367908,-66.216833
CDT Caribbean Medical Testing Center (Cmt),"Calle Clemson #300, Extension University San Juan",Unknown,Unknown,Unknown,Unknown,Unknown,clinic,Unknown,Unknown,Unknown,Unknown,18.4066478,-66.0653561
CDT Asociacion De Maestros De Puerto Rico,Sergio Cuevas Bustamante #550 Ave Domenec San Juan,Unknown,Unknown,Unknown,Unknown,Unknown,clinic,Unknown,Unknown,Unknown,Unknown,18.411961,-66.06811
Unknown,Unknown,Unknown,Unknown,Unknown,Unknown,Unknown,pharmacy,pharmacy,Unknown,Unknown,Unknown,18.0784998,-66.9627089
Unknown,Unknown,Unknown,Unknown,Unknown,Unknown,Unknown,pharmacy,pharmacy,Unknown,Unknown,Unknown,18.0766224,-66.9607261
Unknown,Unknown,Unknown,Unknown,Unknown,Unknown,Unknown,pharmacy,pharmacy,Unknown,Unknown,Unknown,18.0758929,-66.9601038
Unknown,Unknown,Unknown,Unknown,Unknown,Unknown,Unknown,pharmacy,pharmacy,Unknown,Unknown,Unknown,18.0786827,-66.9659234
"Ramey Medical Group, C.S.P.","Carr. #110, Km. 9.4, Bo. Maleza Alta",Unknown,Unknown,Unknown,Unknown,Unknown,clinic,Unknown,1-787-484-7228,Unknown,Unknown,18.4539544,-67.088584
Dispensario de Medicina Ocupacional Nivel Local,"Carr. 111 Km 2.0, Ave Rivas Dominicci",Unknown,Unknown,Unknown,Unknown,Unknown,clinic,Unknown,1-787-894-8332,Unknown,Unknown,18.2902587,-66.885632
CDT Policlínica Shalom,Carr. # 2 KM 101.6BO. TERRANOVA,Unknown,Unknown,Unknown,Unknown,Unknown,clinic,Unknown,1-787-895-0914,Unknown,Unknown,18.4789875,-66.9383922
Quebradillas Medical Center,"Carr. PR-2, Km. 96.8, Bo. Cocos",Unknown,Unknown,Unknown,Unknown,Unknown,clinic,Unknown,1-787-895-2895,Unknown,Unknown,18.4587527,-66.9018843
Centro Renal De Arecibo,"Carr. Núm. 2, Km. 78.5, 1072 Ave. Miramar",Unknown,Unknown,Unknown,Unknown,Unknown,clinic,Unknown,1-787-815-1640,Unknown,Unknown,18.4721541,-66.7380052
"Bio-Medical Applications Of Aguadilla, Inc.","Carr. 459, Km. 0.7, Bo. Camaseyes",PR-459,Aguadilla,00603,PR,Unknown,clinic,Unknown,1-787-834-5335,Unknown,Unknown,18.4495296,-67.1397309
CDT Policlínica del Atlántico,Carr. 2 Km. 111.3Bo. Mora,Unknown,Unknown,Unknown,Unknown,Unknown,clinic,Unknown,1-787-830-7737,Unknown,Unknown,18.4732488,-67.0162744
Renal Centre Of Lares,"Carr. 129, Km. 25.6, Bo. Piletas",Unknown,Unknown,Unknown,Unknown,Unknown,clinic,Unknown,1-787-726-5111,Unknown,Unknown,18.3120768,-66.8759402
FMC Dialysis Services North Mayaguez Renal Center,"Carr. 64, Km. 0.5, Bo. Sabanetas",Unknown,Unknown,Unknown,Unknown,Unknown,clinic,Unknown,1-787-834-5335,Unknown,Unknown,18.2473085,-67.1671779
Canas Medical Center,"Carretera Estatal 132, Km. 22.1",Unknown,Unknown,Unknown,Unknown,Unknown,clinic,Unknown,Unknown,Unknown,Unknown,18.0259067,-66.6573588
The Renal Centre Of San Germán - Sub-Región De San Germán -,"Centro Comercial Las LomasAve. Castro Pérez, Carretera 122, km. 0, hm. 6",Unknown,Unknown,Unknown,Unknown,Unknown,clinic,Unknown,Unknown,Unknown,Unknown,18.0848501,-67.0316355
Sala de Urgencia Psiquiátrica Sala Estabilización,Ponce By Pass Carr. PR 2 Km. 23.8,Unknown,Unknown,Unknown,Unknown,Unknown,clinic,clinic,1-787-689-6012,Unknown,Unknown,17.996568,-66.6185699
Medical Oftalmic Laser,Carr. #2 Km. 11.9,Unknown,Unknown,Unknown,Unknown,Unknown,clinic,clinic,1-787-765-1478,Unknown,Unknown,18.3973037,-66.1634651
Instituto De Ojos Y Piel - Cirugia Ambulatoria,"Carr. Núm. 3, Km. 12.7",Unknown,Unknown,Unknown,Unknown,Unknown,clinic,Unknown,1-787-769-2477,Unknown,Unknown,18.374846,-65.9455753
The Renal Center Of Manati,"Hospital Doctors Center, Carr. 2 Km. 47.7, Sector Cabo Sur",Unknown,Unknown,Unknown,Unknown,Unknown,clinic,dialysis,1-787-854-3322,Unknown,Unknown,18.4344191,-66.4720291
Healthsouth Rehabilitation Hospital Of Manatí,"Hospital Doctors Center, Carr. Estatal PR 2, Km. 47.7",Unknown,Manatí,00674-1142,Unknown,Unknown,hospital,hospital,+1-787-621-3800,http://www.healthsouthmanati.com/,Unknown,18.4343529,-66.472485
Fresenius Medical Care - Guayama Dialysis -,"Carr. Estatal 54, Km. 2.1, Esq. Calle Arnaldo Bristol",Unknown,Unknown,Unknown,Unknown,Unknown,clinic,Unknown,1-809-844-6050,Unknown,Unknown,17.9753243,-66.1203697
"Guaynabo ASG, Inc.","Lobby, Suite 117, City View Plaza, Carr. 165, Km. 1.2 #48",Unknown,Unknown,Unknown,Unknown,Unknown,clinic,Unknown,1-787-775-2020,Unknown,Unknown,18.4168823,-66.1084321
Centro De Diálisis San Miguel Arcangel,Carr. P.R. 164 Km. 6.9,Unknown,Unknown,Unknown,Unknown,Unknown,clinic,Unknown,1-787-227-4604,Unknown,Unknown,18.3118415,-66.269537
Comerio Medical Center,Carretera Estatal #778 Km. 0.9,Unknown,Unknown,Unknown,Unknown,Unknown,clinic,clinic,1-787-875-3136,Unknown,Unknown,18.218755,-66.2230103
Centro De Diagnóstico y Tratamiento en Hato Nuevo,"Carr. num 834, Km. 1.3, Barrio Hato Nuevo",Unknown,Unknown,Unknown,Unknown,Unknown,clinic,clinic,1-787-731-5353,Unknown,Unknown,18.313846,-66.102582
Neomed Center,"Carretera PR-941, Km. 0.3",Unknown,Unknown,Unknown,Unknown,Unknown,clinic,Unknown,Unknown,Unknown,Unknown,18.2575849,-65.9746072
FMC Dialysis Services of Canovanas,"Antiguo Edif. Casa Febos, Carr. Estatal 3, Km. 19.9,",Unknown,Unknown,Unknown,Unknown,Unknown,clinic,Unknown,Unknown,Unknown,Unknown,18.3779099,-65.8737087
Sala De Emergencia - CDT Loiza,"Carr. 188, Km. 5, Hm. 6",Unknown,Unknown,Unknown,Unknown,Unknown,clinic,Unknown,1-876-2245,Unknown,Unknown,18.426303,-65.8799502
Unidad De Dialisis Municipio De Vieques,"Carr. PR 997, Km. 1.0, Bo. Destino",Unknown,Unknown,Unknown,Unknown,Unknown,clinic,Unknown,Unknown,Unknown,Unknown,18.1408048,-65.439196
Centro de Medicina Familiar,Unknown,Calle Herminio Miranda,Unknown,Unknown,Unknown,Unknown,doctors,doctor,Unknown,Unknown,Mo-Th 06:00-16:00; Fr 06:00-12:00,18.3263699,-66.4072904
Farmacia Rey,Unknown,Unknown,Unknown,Unknown,Unknown,Unknown,pharmacy,pharmacy,Unknown,Unknown,Unknown,18.4449976,-66.053554
Farmacia Yomar,Unknown,Calle Ramón Emeterio Betances,Mayaguez,00680,PR,Unknown,pharmacy,pharmacy,787-832-4104,Unknown,Unknown,18.1964658,-67.1421803
Farmacias Plaza,Unknown,Unknown,Unknown,Unknown,Unknown,Unknown,pharmacy,pharmacy,Unknown,Unknown,Unknown,18.343649,-66.1931909
Walgreens,Unknown,Unknown,Unknown,Unknown,Unknown,Unknown,pharmacy,pharmacy,Unknown,Unknown,Unknown,18.3410157,-66.2034077
La Rampla,Unknown,Unknown,Unknown,Unknown,Unknown,Unknown,pharmacy,pharmacy,Unknown,Unknown,Unknown,18.0474703,-65.8791961
Dentista,Unknown,Unknown,Unknown,Unknown,Unknown,Unknown,dentist,dentist,Unknown,Unknown,Unknown,18.3416391,-65.8916097
Farmacia del Carmen,Unknown,Calle Ramirez,Lares,00669,PR,Unknown,pharmacy,pharmacy,787-897-2900,Unknown,Unknown,18.2946192,-66.8778241
Farmacia Brisas del Mar,Unknown,Calle A,Luquillo,00773,Unknown,Unknown,pharmacy,pharmacy,Unknown,Unknown,Unknown,18.3787104,-65.7214479
Reumatología Dra. Noelia Rodríguez Pérez,Unknown,Carretera Canóvanas - Juncos,Canóvanas,00729,PR,Unknown,doctors,doctor,Unknown,Unknown,Unknown,18.3705867,-65.9004322
Therapy Zone,Unknown,Unknown,Unknown,Unknown,Unknown,Unknown,Unknown,speech_therapist,Unknown,http://therapyzone-pr.com,Unknown,18.3763291,-66.1089012
Dr. A. M. Reyes Alicea,Unknown,Unknown,Unknown,Unknown,Unknown,Unknown,doctors,doctor,787-720-9190,Unknown,Unknown,18.3764219,-66.1088942
Farmacia del Carmen,Unknown,Calle 4 de Julio,Orocovis,Unknown,PR,Unknown,pharmacy,pharmacy,+1-787-867-2380,Unknown,Mo-Sa 08:00-16:00,18.2270945,-66.3920077
Farmacia Orocovis,Unknown,Calle 4 de Julio,Orocovis,Unknown,PR,Unknown,pharmacy,pharmacy,+1-787-867-2450,Unknown,"Mo-Tu 08:00-18:00, We 08:00-19:00, Th-Fr 08:00-18:00, Sa 08:00-17:00",18.2275521,-66.3914066
Laboratorio Clínico Orocovis,Unknown,Calle Pedro Arroyo,Orocovis,Unknown,PR,Unknown,clinic,clinic,+1-787-867-2907,Unknown,Unknown,18.2270801,-66.3911108
Orocovis Medical Center,Unknown,Calle Pedro Arroyo,Orocovis,Unknown,PR,Unknown,doctors,doctor,+1-787-867-0272,Unknown,Unknown,18.227026,-66.3911188
Farmacia Ofelia,Unknown,Calle Pedro Arroyo,Orocovis,Unknown,PR,Unknown,pharmacy,pharmacy,+1-787-867-2820,Unknown,Mo-Sa 08:00-17:00,18.226812,-66.3911242
Farmacia Santa Mónica,Unknown,Unknown,Unknown,Unknown,Unknown,Unknown,pharmacy,pharmacy,Unknown,Unknown,Unknown,18.3915302,-66.1756192
Farmacia Guisti,Unknown,Unknown,Unknown,Unknown,Unknown,Unknown,pharmacy,pharmacy,Unknown,Unknown,Unknown,18.3952218,-66.1707678
MetroAid Ambulance,Unknown,Unknown,Unknown,Unknown,Unknown,Unknown,clinic,Unknown,Unknown,Unknown,Unknown,18.4054803,-66.1725206
Walgreens,Unknown,Unknown,Unknown,Unknown,Unknown,Unknown,pharmacy,pharmacy,Unknown,Unknown,Unknown,18.4640524,-66.1121345
Unknown,Unknown,Unknown,Unknown,Unknown,Unknown,Unknown,clinic,clinic,Unknown,Unknown,Unknown,18.0825504,-67.0417664
Farmacias Plaza,Unknown,Unknown,Unknown,Unknown,Unknown,Unknown,pharmacy,pharmacy,Unknown,Unknown,Unknown,18.4353187,-66.0473129
Walgreens,Unknown,Unknown,Unknown,Unknown,Unknown,Unknown,pharmacy,pharmacy,Unknown,Unknown,Unknown,18.2138065,-65.7381085
Farmacia,Unknown,14 Carr. #123,Unknown,Unknown,Unknown,Unknown,pharmacy,pharmacy,7878421314,http://www.FarmaciaLourdesPR.com,Mo-Fr 08:00-21:00; Sa 08:00-20:00,18.0115435,-66.6333801
Farmacia Guayabal,Unknown,PR-149,Unknown,00795,Unknown,Unknown,pharmacy,pharmacy,7878375445,https://www.farmaciaguayabal.com/,Mo-Sa 08:00-20:00,18.0779986,-66.4977253
Farmacia Reyes,Unknown,Avenida Paraná,Unknown,00926,Unknown,Unknown,pharmacy,pharmacy,7877642899,http://www.farmaciareyes.com,Unknown,18.374646,-66.0660144
Farmacia Las Monjas,Unknown,Unknown,Unknown,Unknown,Unknown,Unknown,pharmacy,pharmacy,Unknown,Unknown,Unknown,18.4268893,-66.0565312
Laboratorios Borinquen,Unknown,Unknown,Unknown,Unknown,Unknown,Unknown,Unknown,laboratory,Unknown,Unknown,Unknown,18.4271394,-66.0582222
Doctor Center Nestor Clinic,Unknown,Unknown,Unknown,Unknown,Unknown,Unknown,hospital,Unknown,Unknown,Unknown,Unknown,18.4347232,-66.47376
Farmacia Porta del Sol,Unknown,Avenida Dr. Pedro Albizu Campos,Aguadilla,00603,PR,Unknown,pharmacy,pharmacy,Unknown,Unknown,Unknown,18.4456016,-67.1476257
Clínica Visual Dr. Jorge Luis Malavé Pérez,Unknown,Avenida Dr. Pedro Albizu Campos,Aguadilla,00603,PR,Unknown,clinic,clinic,Unknown,Unknown,"Mo-Fr 09:00-16:00, Sa 09:00-13:00, Su closed",18.4458754,-67.1477273
Aguadilla Vet Clinic,Unknown,Unknown,Aguadilla,00603,PR,Unknown,hospital,hospital,Unknown,Unknown,Unknown,18.4705829,-67.1533401
Farmacia Borinquen,Unknown,Unknown,Aguadilla,00603,PR,Unknown,pharmacy,pharmacy,(787) 891-5479,Unknown,"Mo-Sa 08:00-21:00, Su 09:00-17:00",18.4721546,-67.1528468
"Metro Pavia Clinic, Aguadilla",Unknown,Unknown,Aguadilla,00603,PR,Unknown,clinic,clinic,(787) 772-9850,Unknown,Unknown,18.4482368,-67.1493932
Laboratorio Clínico y Bacteriológico Borinquen,Unknown,Puerto Rico 460,AGUADILLA,00603,PR,Unknown,Unknown,laboratory,(787) 882-4700,Unknown,Mo-Sa 06:00-16:20,18.4452738,-67.1471274
Farmacia Mi Sueno,Unknown,Carretera 2,Aguadilla,00603,PR,Unknown,pharmacy,pharmacy,(787) 891-6969,Unknown,Mo-Sa 08:30-21:00,18.4393193,-67.132431
Farmacia Jireh,Unknown,Unknown,Aguadilla,00603,PR,Unknown,pharmacy,pharmacy,"(787) 882-7900, (787)882-4916",jirehfarmacia.com,Mo-Su 08:00-19:00,18.4405801,-67.1238854
Farmacia Sagrado Corazón,Unknown,Unknown,Aguadilla,00603,PR,Unknown,pharmacy,pharmacy,(787) 882-0135,Unknown,"Mo-Sa 08:00-08:00, Su closed",18.444687,-67.1173484
BET-El LABORATORIO CLINICO,Unknown,Unknown,Aguadilla,00603,PR,Unknown,Unknown,laboratory,(787) 658-0260,Unknown,"Mo 06:00-05:00, Tu-We closed, Th 06:00-05:00, Fr 06:00-04:00, Sa closed, Su 07:00-12:00",18.4393401,-67.1318659
Clínica San Francisco,Unknown,Unknown,Aguadilla,00603,PR,Unknown,clinic,clinic,(787) 658-6502,Unknown,Mo-Su 08:00-23:59,18.4516758,-67.0923526
Laboratorio Irizarry Guasch,Unknown,Avenida Victoria,Aguadilla,00603,PR,Unknown,Unknown,laboratory,(787) 882-5050,https://milaboratoriopr.com/,"Mo-Fr 06:00-17:00, Sa 07:00-12:00; Su closed",18.4097143,-67.1548375
Alivius,Unknown,Carretera 2,AGUADILLA,00603,PR,Unknown,Unknown,physiotherapist,(787) 882-6677,http://www.alivius.com/,Unknown,18.4415608,-67.1411683
Dr. José Badillo Hernández,Unknown,Carretera 2,AGUADILLA,00603,PR,Unknown,doctors,doctor,(787) 658-7098,Unknown,Unknown,18.4414683,-67.1410967
Optical Supercenter,Unknown,Avenida Dr. Pedro Albizu Campos (PR-107),Aguadilla,00603,PR,Unknown,Unknown,optometrist,(787) 882-8365,opticalsupercenter.com,"Mo-Sa 09:00-18:00, Su closed",18.4550446,-67.1539875
Farmacia San Carlos,Unknown,Calle José Acevedo Rivera,AGUADILLA,00603,PR,Unknown,pharmacy,pharmacy,(787) 891-1830,https://mygnp.com/,Unknown,18.4513046,-67.1515801
Farmacia El Palmar,Unknown,PR-111,Aguadilla,00676,PR,Unknown,pharmacy,pharmacy,Unknown,Unknown,Unknown,18.3986005,-67.1346611
Unknown,Unknown,Unknown,Unknown,Unknown,Unknown,Unknown,pharmacy,pharmacy,Unknown,Unknown,Unknown,18.4227203,-67.1542871
Hogar CREA Inc.,Unknown,Unknown,Aguadilla,00603,PR,Unknown,Unknown,rehabilitation,(787) 882-2133,Unknown,Unknown,18.4547111,-67.0817845
Farmacia El Edén,Unknown,PR-464,Unknown,Unknown,Unknown,Unknown,pharmacy,pharmacy,(787) 882-2000,Unknown,"Mo-Sa 08:00-21:30, Su 09:30-18:00",18.4531804,-67.0812497
Farmacity,Unknown,PR-471,Aguadilla,00603,PR,Unknown,pharmacy,pharmacy,(787) 890-3340,Unknown,"Mo-Fr 08:00-19:00, Sa 08:00-16:00, Su closed",18.4913982,-67.0983454
Farmacia San Antonio,Unknown,PR-110,Aguadilla,00690,PR,Unknown,pharmacy,pharmacy,(787) 890-3535,Unknown,"Mo-Sa 09:00-21:00, Su 11:00-21:00",18.4970631,-67.1001033
Farmacia Jayleen,Unknown,PR-110,Aguadilla,00603,PR,Unknown,pharmacy,pharmacy,(787) 882-1956,Unknown,Unknown,18.4538851,-67.0930465
Laboratorio Sahimar 2,Unknown,PR-110,Aguadilla,00603,PR,Unknown,Unknown,laboratory,(787) 891-2154,Unknown,"Mo-Fr 06:30-16:00, Sa 07:00-12:00, Su closed",18.4541494,-67.0926285
Audiology Clinics of Puerto Rico,Unknown,Medicos DeDiego Este #14,Mayaguez,00680,PR,Unknown,Unknown,audiologist,+1 787-834-0660,https://audiologyclinicspr.com,"Mo,Fr,Sa,Su closed; Tu 08:30-17:00; We,Th 09:00-17:00",18.2022544,-67.1397388
Farmacia Caridad,Unknown,Calle Tartak,Carolina,00979,PR,Unknown,pharmacy,pharmacy,Unknown,Unknown,Unknown,18.4421496,-66.0215482
Farmacia San Martín,Unknown,Carretera Militar,Vega Baja,Unknown,PR,Unknown,pharmacy,pharmacy,Unknown,Unknown,Unknown,18.447085,-66.3874269
Farmacia Ruiz Belvis,Unknown,Unknown,Unknown,Unknown,Unknown,Unknown,pharmacy,pharmacy,Unknown,Unknown,Unknown,18.1832814,-65.9749703
Diaz Correa Dental,Unknown,Unknown,Unknown,Unknown,Unknown,Unknown,dentist,dentist,Unknown,Unknown,Unknown,18.1126431,-66.1672782
Antonio Dent y Farmacia Cidra,Unknown,Unknown,Unknown,Unknown,Unknown,Unknown,dentist,dentist,Unknown,Unknown,Unknown,18.1754369,-66.160941
Dr Lizatte Morales ave blvd 3227 Levittown,Unknown,Unknown,Unknown,Unknown,Unknown,Unknown,doctors,doctor,Unknown,Unknown,Unknown,18.4533729,-66.1855023
"Farmacia del Carmen, Cidra",Unknown,Unknown,Unknown,Unknown,Unknown,Unknown,pharmacy,pharmacy,Unknown,Unknown,Unknown,18.1753385,-66.1609826
Farmacia Expreso Cidra,Unknown,Unknown,Unknown,Unknown,Unknown,Unknown,pharmacy,pharmacy,Unknown,Unknown,Unknown,18.1980253,-66.1128166
New Eyes Optical Center,Unknown,Unknown,Unknown,Unknown,Unknown,Unknown,Unknown,optometrist,Unknown,Unknown,Unknown,18.3444742,-65.6745518
Walgreens,Unknown,Unknown,Unknown,Unknown,Unknown,Unknown,pharmacy,pharmacy,Unknown,Unknown,Unknown,18.4159614,-65.9922464
Walgreens,Unknown,Unknown,Unknown,Unknown,Unknown,Unknown,pharmacy,pharmacy,Unknown,Unknown,Unknown,18.4036426,-66.1172031
Centro Pediatrico Dr. Berdecia,Unknown,Unknown,Unknown,Unknown,Unknown,Unknown,clinic,clinic,Unknown,Unknown,Unknown,18.2509175,-65.9802156
Tesla Radiology;Amapola Salon,Unknown,Unknown,Unknown,Unknown,Unknown,Unknown,clinic,clinic,7879377676,Unknown,Mo-We 09:00-18:00; Th-Sa 09:00-19:00,18.2496855,-65.9814394
Walgreens,Unknown,Unknown,Unknown,Unknown,Unknown,Unknown,pharmacy,pharmacy,Unknown,Unknown,Unknown,18.4163606,-65.9835798
Better Health Chiropractic,Unknown,Unknown,Unknown,Unknown,Unknown,Unknown,Unknown,alternative,Unknown,Unknown,Unknown,18.4261285,-66.0705133
Laboratorio Clínico Corozal II,Unknown,Carretera Corozal - Toa Alta,Corozal,Unknown,PR,Unknown,Unknown,laboratory,Unknown,Unknown,Unknown,18.3413012,-66.3095442
Laboratorio Clínico Aquarium,Unknown,Carretera Naranjito - Toa Alta,Toa Alta,00953,PR,Unknown,Unknown,laboratory,Unknown,Unknown,Unknown,18.3424802,-66.2770124
Farmacia Rubio,Unknown,Carretera Corozal - Morovis,Morovis,00687,PR,Unknown,pharmacy,pharmacy,Unknown,Unknown,Unknown,18.3262949,-66.4054594
Clínica Dental Nueva Imagen,Unknown,Carretera Militar,Vega Baja,00693,PR,Unknown,dentist,dentist,Unknown,Unknown,Unknown,18.4457162,-66.3958285
Farmacia Caridad,Unknown,Carretera Militar,Vega Baja,00693,PR,Unknown,pharmacy,pharmacy,Unknown,Unknown,Unknown,18.4450165,-66.3978375
Active Eyes,Unknown,Av. Ramón Luis Rivera (Av. Comerío),Bayamón,00961,PR,Unknown,Unknown,optometrist,Unknown,Unknown,Unknown,18.4074647,-66.1620732
Farmacia Caridad,Unknown,Boulevard Premium Outlets,Barceloneta,00617,PR,Unknown,pharmacy,pharmacy,Unknown,Unknown,Unknown,18.436786,-66.5420514
Cohen's Fashion Optical,Unknown,Avenida Franklin D. Roosevelt,San Juan,00918,PR,Unknown,Unknown,optometrist,+1(787)777-0990;+1(787)274-0747,Unknown,Mo-Sa 09:00-21:00; Su 11:00-18:00,18.4221115,-66.0745381
Puerto Rico Community Network for Clinical Research on AIDS,Unknown,Calle Brumbaugh,Río Piedras,00925,PR,Unknown,Unknown,yes,Unknown,Unknown,Unknown,18.3967375,-66.0521706
Consultorio Médico Guillermo Cruz,Unknown,Calle Piñero,San Juan,00925,PR,Unknown,Unknown,doctor,Unknown,Unknown,Unknown,18.3962441,-66.0500358
Dra. Glorivivi Pérez,Unknown,Calle Arzuaga,San Juan,00925,PR,Unknown,dentist,dentist,Unknown,Unknown,Unknown,18.3974715,-66.0478392
LDG Medical Group,Unknown,Calle Monseñor William Jones,San Juan,Unknown,PR,Unknown,doctors,doctor,Unknown,Unknown,Unknown,18.3977993,-66.045912
Firts Clinical Lab,Unknown,Avenida Luis Muñoz Rivera,San Juan,00925,PR,Unknown,Unknown,laboratory,Unknown,Unknown,Mo-Fr 09:00-17:00,18.4010997,-66.055865
Recetas por Menos,Unknown,Avenida Luis Muñoz Rivera,San Juan,00925,PR,Unknown,pharmacy,pharmacy,Unknown,Unknown,Mo-Fr 09:00-17:00,18.4010488,-66.0558623
Negmer Dental Group,Unknown,Calle Georgetti,San Juan,00925,PR,Unknown,dentist,dentist,Unknown,Unknown,Unknown,18.3972821,-66.0511765
Dr. Franciaco Ojeda,Unknown,Calle Georgetti,San Juan,00925,PR,Unknown,dentist,dentist,Unknown,Unknown,Unknown,18.3969842,-66.0503866
First Pharmacy,Unknown,Calle Georgetti,San Juan,00925,PR,Unknown,pharmacy,pharmacy,Unknown,Unknown,Unknown,18.396764,-66.0497482
Darlington Medical Associates,Unknown,Avenida Luis Muñoz Rivera,San Juan,00925,PR,Unknown,doctors,doctor,Unknown,Unknown,Unknown,18.4004054,-66.0558067
Servicios Psicológicos Armonizando Nuestro Interior,Unknown,Avenida Luis Muñoz Rivera,San Juan,00925,PR,Unknown,Unknown,psychotherapist,Unknown,Unknown,Unknown,18.4005123,-66.0558174
Caridad,Unknown,Calle 625,Unknown,00985,Unknown,Unknown,pharmacy,pharmacy,(787) 752-9644,Unknown,Unknown,18.4139264,-65.9575068
Puerta de La Carolina,Unknown,Avenida Monserrate,Unknown,Unknown,Unknown,Unknown,pharmacy,pharmacy,Unknown,Unknown,Unknown,18.4060071,-65.9683368
Puerta de La Carolina,Unknown,Avenida Calderón,Unknown,00985,Unknown,Unknown,pharmacy,pharmacy,Unknown,Unknown,Unknown,18.4059517,-65.959549
Fresenius Kidney Care Carolina,Unknown,Calle B,Unknown,Unknown,Unknown,Unknown,clinic,Unknown,Unknown,Unknown,Unknown,18.422398,-65.9904962
Farmacia Denirka,Unknown,Avenida General Antonio Valero de Bernabé,Unknown,00738,Unknown,Unknown,pharmacy,pharmacy,7878637788,Unknown,"Mo-Su 08:00-09:00, 18:00-21:00",18.3303024,-65.651241
Nova Pharmacy,Unknown,Calle Higuero,Santa Isabel,00757,PR,Unknown,pharmacy,pharmacy,Unknown,Unknown,Unknown,18.0102846,-66.3825783
Centro Fisiatrico de Sur,Unknown,Unknown,Unknown,Unknown,Unknown,Unknown,Unknown,physiotherapist,Unknown,Unknown,Unknown,18.013042,-66.3856669
Highway Pharmacy,Unknown,Unknown,Unknown,Unknown,Unknown,Unknown,pharmacy,pharmacy,Unknown,Unknown,Unknown,18.0133072,-66.3845015
Walmart Pharmacy,Unknown,Unknown,Unknown,Unknown,Unknown,Unknown,pharmacy,pharmacy,Unknown,https://www.walmart.com/store/3693-santa-isabel-pr/pharmacy,Unknown,18.0169701,-66.3807383
Laboratorio Clínico Millennium,Unknown,Calle Marginal,Humacao,Unknown,PR,Unknown,Unknown,laboratory,Unknown,Unknown,Unknown,18.1452695,-65.810596
Fresenius Kidney Care,Unknown,Boulevard Nicanor Vázquez,Humacao,Unknown,PR,Unknown,clinic,dialysis,Unknown,Unknown,Unknown,18.1480279,-65.8188505
Laboratorio Clínico Villa Ana,Unknown,Calle Dr. Vidal,Humacao,Unknown,PR,Unknown,Unknown,laboratory,Unknown,Unknown,Unknown,18.1490424,-65.8180631
Farmacia One Stop Prescription,Unknown,Unknown,Unknown,Unknown,Unknown,Unknown,pharmacy,pharmacy,Unknown,Unknown,Unknown,18.1409606,-65.8294259
Farmacias Savia,Unknown,Unknown,Unknown,Unknown,Unknown,Unknown,pharmacy,pharmacy,Unknown,Unknown,Unknown,18.3695645,-66.0163494
Centro de Rayos-X  y Open MRI,Unknown,Unknown,Unknown,Unknown,Unknown,Unknown,clinic,clinic,Unknown,Unknown,Unknown,18.3705577,-66.0145111
Fresenius Kidney Care,Unknown,Unknown,Unknown,Unknown,Unknown,Unknown,clinic,dialysis,Unknown,Unknown,Unknown,18.3570686,-66.0614417
Farmacia Apolo,Unknown,Unknown,Unknown,Unknown,Unknown,Unknown,pharmacy,pharmacy,Unknown,Unknown,Unknown,18.3633007,-66.0911116
Laboratorio Clínico Landrón V,Unknown,Unknown,Unknown,Unknown,Unknown,Unknown,Unknown,laboratory,Unknown,Unknown,Unknown,18.4312484,-66.0165258
Farmacia Caridad,Unknown,Unknown,Unknown,Unknown,Unknown,Unknown,pharmacy,pharmacy,Unknown,Unknown,Unknown,18.3946822,-66.1465632
Quest Diagnostics,Unknown,Unknown,Unknown,Unknown,Unknown,Unknown,Unknown,laboratory,Unknown,Unknown,Unknown,18.3937685,-66.1457639
Beautiful Body Esthetic & Spa,Unknown,Unknown,Unknown,Unknown,Unknown,Unknown,clinic,clinic,Unknown,Unknown,Unknown,18.3943004,-66.1450022
Farmacia Caridad,Unknown,Unknown,Unknown,Unknown,Unknown,Unknown,pharmacy,pharmacy,Unknown,Unknown,Unknown,18.3758369,-65.9290568
Laboratorio Clínico Los Colobos,Unknown,Unknown,Unknown,Unknown,Unknown,Unknown,Unknown,laboratory,Unknown,Unknown,Unknown,18.375548,-65.9290045
Optometry World Carolina,Unknown,Unknown,Unknown,Unknown,Unknown,Unknown,Unknown,optometrist,Unknown,Unknown,Unknown,18.381863,-65.962763
Laboratorio Clínico Doramar,Unknown,Unknown,Unknown,Unknown,Unknown,Unknown,Unknown,laboratory,Unknown,Unknown,Unknown,18.4229108,-66.2673666
Looks Brow Bar,Unknown,Unknown,Unknown,Unknown,Unknown,Unknown,Unknown,optometrist,Unknown,Unknown,Unknown,18.3692115,-66.0655452
True Colon Hydrotherapy,Unknown,Unknown,Unknown,Unknown,Unknown,Unknown,clinic,clinic,Unknown,Unknown,Unknown,18.3673462,-66.0634383
Navitas Medical Boutique,Unknown,Unknown,Unknown,Unknown,Unknown,Unknown,clinic,clinic,Unknown,Unknown,Unknown,18.3672234,-66.0636817
Laboratorios Borinquen - Winston Churchill,Unknown,Avenida Winston Churchill,San Juan,Unknown,PR,Unknown,Unknown,laboratory,Unknown,Unknown,Unknown,18.367163,-66.0636395
Fresenius Kidney Care,Unknown,Unknown,Unknown,Unknown,Unknown,Unknown,clinic,dialysis,Unknown,Unknown,Unknown,18.3570808,-66.0457826
Laboratorios Borinquen,Unknown,Unknown,Unknown,Unknown,Unknown,Unknown,Unknown,laboratory,Unknown,Unknown,Unknown,18.4038237,-66.1809072
Farmacia Gabriela,Unknown,"Carr. 14, Km 11.1 Bo. Cayabo",Juana Diaz,00780,Unknown,Unknown,pharmacy,pharmacy,Unknown,Unknown,Mo-Sa 08:00-20:30; Su 10:00-20:30,18.0529075,-66.5354508
Wilda Vicente y David Barbier,Unknown,Unknown,Unknown,Unknown,Unknown,Unknown,doctors,doctor,Unknown,Unknown,Unknown,18.2175239,-66.0457546
David Bernier,Unknown,Unknown,Unknown,Unknown,Unknown,Unknown,dentist,dentist,Unknown,Unknown,Unknown,18.2174377,-66.0437239
Clinica Veterinaria 172,Unknown,Unknown,Unknown,Unknown,Unknown,Unknown,clinic,clinic,Unknown,Unknown,Unknown,18.2084676,-66.1051484
Audio Salud,Unknown,Unknown,Unknown,Unknown,Unknown,Unknown,clinic,Unknown,Unknown,Unknown,Unknown,18.3955376,-65.9694488
Dra. Wilmarie Rivera Morales,Unknown,Unknown,Unknown,Unknown,Unknown,Unknown,doctors,doctor,Unknown,Unknown,Unknown,18.1203024,-66.1466545
Med-Elite Clinic by Dra. Wilmarie Rivera,Unknown,Unknown,Unknown,Unknown,Unknown,Unknown,clinic,clinic,Unknown,Unknown,Unknown,18.1203244,-66.1466754
Shaddai Pharmacy #2,Unknown,Unknown,Unknown,Unknown,Unknown,Unknown,pharmacy,pharmacy,Unknown,Unknown,Unknown,18.1699157,-65.8142679
Unknown,Unknown,Unknown,Unknown,Unknown,Unknown,Unknown,clinic,clinic,Unknown,Unknown,Unknown,18.0068204,-66.6133903
Farmacia AMIGA,Unknown,Avenida Felipe Sánchez Osorio,Unknown,00983,Unknown,Unknown,pharmacy,pharmacy,7877526246,Unknown,Unknown,18.4035279,-65.9783733
Laboratorio Caguas Norte,Unknown,Unknown,Caguas,00725,PR,Unknown,Unknown,laboratory,Unknown,Unknown,Unknown,18.2372066,-66.0348336
Laboratorio Clínico Turabo Myrna Trinidad,Unknown,Unknown,Unknown,Unknown,Unknown,Unknown,Unknown,laboratory,Unknown,Unknown,Unknown,18.2163732,-66.0433317
Clinica Veterinaria,Unknown,Unknown,Unknown,Unknown,Unknown,Unknown,clinic,Unknown,Unknown,Unknown,Unknown,18.3819395,-66.0682862
Chucherías & tereques,Unknown,Unknown,Unknown,Unknown,Unknown,Unknown,dentist,dentist,Unknown,Unknown,Unknown,18.4066824,-66.0944796
Unknown,Unknown,Unknown,Unknown,Unknown,Unknown,Unknown,dentist,dentist,Unknown,Unknown,Unknown,18.4434524,-66.0289486
Unknown,Unknown,Unknown,Unknown,Unknown,Unknown,Unknown,pharmacy,pharmacy,Unknown,Unknown,Unknown,18.4445301,-66.0320311
Walmart Pharmacy,Unknown,Unknown,Unknown,Unknown,Unknown,Unknown,pharmacy,pharmacy,Unknown,https://www.walmart.com/store/5802-canovanas-pr/pharmacy,Unknown,18.3808521,-65.8897362
Integral Therapy Center,Unknown,"Urb. Flamboyan, Calle Mckinley D15, Edificio Oharriz",Manati,00674,PR,Unknown,Unknown,speech_therapist,787-308-0508,Unknown,Unknown,18.4313356,-66.482277
First Aid,Unknown,Unknown,Unknown,Unknown,Unknown,Unknown,clinic,clinic,Unknown,Unknown,Unknown,18.3680148,-66.9203118
Walgreens,Unknown,Unknown,Caguas,00725,PR,Unknown,pharmacy,pharmacy,"787-704-6555, 787-704-6500, 787-755-7850, 787-704-6464, 787-704-6550,",https://www.walgreens.com/locator/walgreens-221+calle+gautier+benitez-caguas-pr-00725/id=403,Unknown,18.2218294,-66.0392047
Laboratorio Borinquen,Unknown,Unknown,Caguas,00725,PR,Unknown,Unknown,laboratory,Unknown,Unknown,Unknown,18.234412,-66.0587403
Western Clinical Laboratory,Unknown,Unknown,Unknown,Unknown,Unknown,Unknown,Unknown,laboratory,+1-787-823-6060,Unknown,Unknown,18.323496,-67.2430441
Terapia Física La Monserrate,Unknown,Unknown,Unknown,Unknown,Unknown,Unknown,Unknown,physiotherapist,+1-787-823-5999,Unknown,Unknown,18.3275361,-67.245673
Doctor José R. Illanas Camacho,Unknown,Unknown,Unknown,Unknown,Unknown,Unknown,doctors,doctor,+1-787-823-1730;+1-787-609-7634,Unknown,Unknown,18.3234737,-67.2430154
Vital Care Clinic,Unknown,Unknown,Unknown,Unknown,Unknown,Unknown,clinic,Unknown,Unknown,Unknown,Unknown,18.431021,-66.0160108
GastroSpa,Unknown,Avenida Lomas Verdes,Guaynabo,Unknown,PR,Unknown,doctors,doctor,Unknown,Unknown,Unknown,18.3776363,-66.0960169
Clínica Dental Altamesa Dra. Linette Maldonado Lugo,Unknown,Avenida San Ignacio,San Juan,Unknown,PR,Unknown,dentist,dentist,Unknown,Unknown,Unknown,18.3808148,-66.0932368
Pediatra Dra. Ana I. Arroyo Díaz,Unknown,Avenida San Ignacio,San Juan,00921,PR,Unknown,doctors,doctor,Unknown,Unknown,Unknown,18.3790229,-66.0942373
Clínica Dental Dr. Raúl A. Fontané Maldonado,Unknown,Avenida Francisco Paz Granela,Guaynabo,Unknown,PR,Unknown,dentist,dentist,787-920-9007,Unknown,Unknown,18.3796834,-66.1007108
"RMC Orthopedic & Surgical, Inc",Unknown,Unknown,Guaynabo,Unknown,PR,Unknown,doctors,doctor,Unknown,Unknown,Unknown,18.3883527,-66.1067862
Farmacia Karla,Unknown,Avenida Roberto Clemente Walker,San Juan,Unknown,PR,Unknown,pharmacy,pharmacy,Unknown,Unknown,Unknown,18.3893857,-66.0982526
Dermatología Dra. Damaris Torres,Unknown,Avenida Roberto Clemente Walker,San Juan,Unknown,PR,Unknown,doctors,doctor,Unknown,Unknown,Unknown,18.3898019,-66.0970711
Farmacia Caridad,Unknown,Avenida Ramírez de Arellano,Guaynabo,Unknown,PR,Unknown,pharmacy,pharmacy,Unknown,Unknown,Unknown,18.3906339,-66.1180269
Torrimar Orthodontics,Unknown,Avenida Ramírez de Arellano,Guaynabo,00966,PR,Unknown,dentist,dentist,Unknown,Unknown,Unknown,18.3910528,-66.1181938
Clínica Dental Dra. Milena Carcache Mena,Unknown,Calle El Buen Samaritano,Guaynabo,Unknown,PR,Unknown,dentist,dentist,+1 787-781-2500,Unknown,Unknown,18.391706,-66.1199003
Laboratorios Borinquen,Unknown,Avenida José de Diego,San Juan,00921,PR,Unknown,Unknown,laboratory,Unknown,Unknown,Unknown,18.3859101,-66.0819128
San Francisco Nuclear Imaging,Unknown,Avenida José de Diego,San Juan,00927,PR,Unknown,doctors,doctor,+1 787-622-7333,http://www.sanfrancisconuclear.com/contacto.html,Unknown,18.393817,-66.0838273
Torrimar Pediatrics,Unknown,Avenida Santa Ana,Bayamón,00969,PR,Unknown,doctors,doctor,+1 787-708-6610,Unknown,Mo-Fr 08:00-17:00,18.3793139,-66.1205696
Farmacias Plaza,Unknown,Avenida Santa Ana,Bayamón,00969,PR,Unknown,pharmacy,pharmacy,+1 787-620-9605,https://www.farmaciasplaza.com/,Mo-Fr 07:00-21:00; Sa-Su 08:00-21:00,18.3794568,-66.1202529
Laboratorio Santa Ana,Unknown,Avenida Santa Ana,Bayamón,00969,PR,Unknown,Unknown,laboratory,+1 787-272-2345,https://www.labsantaana.com/,Mo-Fr 06:00-16:30; Sa 07:00-13:00,18.3795469,-66.120053
Super Farmacia Gardenville,Unknown,Calle El Buen Samaritano,Guaynabo,00966,PR,Unknown,pharmacy,pharmacy,Unknown,Unknown,Unknown,18.394984,-66.1204461
Clínica Taboas,Unknown,Unknown,Unknown,Unknown,Unknown,Unknown,Unknown,optometrist,Unknown,Unknown,Unknown,18.4237673,-66.0750369
Dentista General Dra. Rosalie Quiñones,Unknown,Unknown,Unknown,Unknown,Unknown,Unknown,dentist,dentist,Unknown,Unknown,Unknown,18.428068,-66.0643859
Laboratorio de Patología Dr. Noy,Unknown,Avenida Licenciado Eugenio María de Hostos,San Juan,Unknown,PR,Unknown,Unknown,laboratory,Unknown,Unknown,Unknown,18.426769,-66.0640721
Eden Esthetics,Unknown,Unknown,Unknown,Unknown,Unknown,Unknown,clinic,clinic,Unknown,Unknown,Unknown,18.4264051,-66.0638467
Oftalmología Dra. Lilia Rivera,Unknown,Avenida Licenciado Eugenio María de Hostos,San Juan,Unknown,PR,Unknown,Unknown,optometrist,Unknown,Unknown,Unknown,18.4265298,-66.0640037
Dental Excellence,Unknown,Avenida Licenciado Eugenio María de Hostos,San Juan,Unknown,PR,Unknown,dentist,dentist,Unknown,Unknown,Unknown,18.4263046,-66.063954
Dentista Dra. Liana I. Boada Rodríguez,Unknown,Avenida Licenciado Eugenio María de Hostos,San Juan,Unknown,PR,Unknown,dentist,dentist,Unknown,Unknown,Unknown,18.4263644,-66.0639701
Vidaurre - Dra. Vilma Ortega,Unknown,Avenida Licenciado Eugenio María de Hostos,San Juan,Unknown,PR,Unknown,clinic,clinic,Unknown,Unknown,Unknown,18.4264522,-66.0639876
Genetic Science Laboratory,Unknown,Unknown,Unknown,Unknown,Unknown,Unknown,Unknown,laboratory,Unknown,Unknown,Unknown,18.369014,-66.1125379
Gastro-Centro Norte,Unknown,Unknown,Unknown,Unknown,Unknown,Unknown,clinic,clinic,Unknown,Unknown,Unknown,18.4634812,-66.7214802
Sonrisas Radiantes,Unknown,Unknown,Unknown,Unknown,Unknown,Unknown,dentist,dentist,Unknown,Unknown,Unknown,18.4123528,-66.3216865
Laboratorio Clínico Emanuel,Unknown,Unknown,Unknown,Unknown,Unknown,Unknown,Unknown,laboratory,Unknown,Unknown,Unknown,18.412709,-66.3215712
First Pharmacy & Supermarket,Unknown,Unknown,Unknown,Unknown,Unknown,Unknown,pharmacy,pharmacy,Unknown,Unknown,Unknown,18.4125576,-66.3204728
Pequeñas Sonrisas,Unknown,Unknown,Unknown,Unknown,Unknown,Unknown,dentist,dentist,Unknown,Unknown,Unknown,18.4104632,-66.319691
Laboratorio Clínico Olympic Plaza,Unknown,Unknown,Unknown,Unknown,Unknown,Unknown,Unknown,laboratory,Unknown,Unknown,Unknown,18.187061,-65.888192
Olympic Dental Center,Unknown,Unknown,Unknown,Unknown,Unknown,Unknown,dentist,dentist,Unknown,Unknown,Unknown,18.1869393,-65.8882621
Eye Medical Center,Unknown,Unknown,Unknown,Unknown,Unknown,Unknown,Unknown,optometrist,Unknown,Unknown,Unknown,18.1868035,-65.8883404
Laboratorio Clínico San Miguel,Unknown,Unknown,Unknown,Unknown,Unknown,Unknown,Unknown,laboratory,Unknown,Unknown,Unknown,18.3664402,-66.0091814
Costco Pharmacy,Unknown,Unknown,Unknown,Unknown,Unknown,Unknown,pharmacy,pharmacy,Unknown,Unknown,Unknown,18.3844824,-66.1386777
Laboratorio Borinquen,Unknown,Unknown,Unknown,Unknown,Unknown,Unknown,Unknown,laboratory,Unknown,Unknown,Unknown,18.3876317,-66.1637825
Farmacia Caridad,Unknown,Unknown,Unknown,Unknown,Unknown,Unknown,pharmacy,pharmacy,Unknown,Unknown,Unknown,18.3791367,-66.173598
Farmacia Caridad,Unknown,Avenida Las Cumbres,Bayamón,00957,PR,Unknown,pharmacy,pharmacy,Unknown,Unknown,Unknown,18.3655306,-66.1894218
Laboratorios Borinquen,Unknown,Unknown,Unknown,Unknown,Unknown,Unknown,Unknown,laboratory,Unknown,Unknown,Unknown,18.3979102,-66.0037852
Costco Pharmacy,Unknown,Unknown,Unknown,Unknown,Unknown,Unknown,pharmacy,pharmacy,Unknown,Unknown,Unknown,18.3997659,-65.9980359
Beleza Naturali's,Unknown,Unknown,Unknown,Unknown,Unknown,Unknown,clinic,clinic,Unknown,Unknown,Unknown,18.3794778,-65.8718908
Farmacia Caribe,Unknown,PR-955R,Río Grande,Unknown,PR,Unknown,pharmacy,pharmacy,Unknown,Unknown,Unknown,18.3755953,-65.8088219
Provanna Clinic,Unknown,Unknown,Unknown,Unknown,Unknown,Unknown,clinic,clinic,Unknown,Unknown,Unknown,18.3302447,-65.6626068
Centro Dental Pediático,Unknown,Unknown,Unknown,Unknown,Unknown,Unknown,dentist,dentist,Unknown,Unknown,Unknown,18.3320906,-65.6633525
Farmacia Caridad,Unknown,Unknown,Unknown,Unknown,Unknown,Unknown,pharmacy,pharmacy,Unknown,Unknown,Unknown,18.2176597,-66.0440969
Farmacia del Valle,Unknown,Calle Guillermo Riefkohl,Patillas,00723,PR,Unknown,pharmacy,pharmacy,Unknown,Unknown,Unknown,18.0033821,-66.0133588
Tetra,Unknown,Unknown,Unknown,Unknown,Unknown,Unknown,hospital,Unknown,Unknown,Unknown,Unknown,18.3648884,-66.1969894
Sam's Club Pharmacy,Unknown,Unknown,Unknown,Unknown,Unknown,Unknown,pharmacy,pharmacy,Unknown,Unknown,Unknown,18.4314205,-66.0878041
Salus,Unknown,Carretera 190,Unknown,Unknown,Unknown,Unknown,clinic,Unknown,Unknown,https://saluspr.com,Unknown,18.4135436,-65.9828317
Dorado Breast & Radiology Center,Unknown,Unknown,Unknown,Unknown,Unknown,Unknown,clinic,clinic,Unknown,Unknown,Unknown,18.4587376,-66.2826093
Walmart Pharmacy,Unknown,Unknown,Unknown,Unknown,Unknown,Unknown,pharmacy,pharmacy,Unknown,https://www.walmart.com/store/5793-ponce-pr/pharmacy,Unknown,18.0449198,-66.5778294
Precision Hearing & Balance Center,Unknown,Unknown,Unknown,Unknown,Unknown,Unknown,clinic,clinic,Unknown,Unknown,Unknown,18.4831237,-66.7679829
Walmart Pharmacy,Unknown,Unknown,Unknown,Unknown,Unknown,Unknown,pharmacy,pharmacy,Unknown,https://www.walmart.com/store/1854-hatillo-pr/pharmacy,Unknown,18.4843235,-66.795804
Walmart Pharmacy,Unknown,Unknown,Unknown,Unknown,Unknown,Unknown,pharmacy,pharmacy,Unknown,Unknown,Unknown,18.4814301,-66.7714865
Optika Juncos,Unknown,Unknown,Unknown,Unknown,Unknown,Unknown,Unknown,optometrist,Unknown,Unknown,Unknown,18.2309088,-65.9062147
Laboratorio Clínico Valenciano,Unknown,Unknown,Unknown,Unknown,Unknown,Unknown,Unknown,laboratory,Unknown,Unknown,Unknown,18.2306782,-65.9061074
Atlantis Renal Center,Unknown,Unknown,Unknown,Unknown,Unknown,Unknown,clinic,clinic,Unknown,Unknown,Unknown,18.230454,-65.9060081
Laboratorio Clínico Borinquen,Unknown,Unknown,Unknown,Unknown,Unknown,Unknown,Unknown,laboratory,Unknown,Unknown,Unknown,18.3363561,-66.06961
Cirujanos - Dentistas Dr. Rodríguez Arrillaga & Dra. D'Acosta de Rodríguez,Unknown,Unknown,Unknown,Unknown,Unknown,Unknown,dentist,dentist,Unknown,Unknown,Unknown,18.4090908,-66.1050182
Laboratorios Borinquen,Unknown,Unknown,Unknown,Unknown,Unknown,Unknown,Unknown,laboratory,Unknown,Unknown,Unknown,18.412862,-66.0963891
Farmacia Caridad,Unknown,Unknown,Unknown,Unknown,Unknown,Unknown,pharmacy,pharmacy,Unknown,Unknown,Unknown,18.410466,-66.1007329
Laboratorio Clínico Jireh,Unknown,Unknown,Unknown,Unknown,Unknown,Unknown,Unknown,laboratory,Unknown,Unknown,Unknown,18.3963696,-66.2330507
Dra. Magali Ortiz Ortiz,Unknown,Unknown,Unknown,Unknown,Unknown,Unknown,dentist,dentist,Unknown,Unknown,Unknown,18.1846479,-66.2998781
Walmart Pharmacy,Unknown,Unknown,Unknown,Unknown,Unknown,Unknown,pharmacy,pharmacy,Unknown,https://www.walmart.com/store/2085-isabela-pr/pharmacy,Unknown,18.4681546,-67.0223964
Eye Zone,Unknown,Unknown,Unknown,Unknown,Unknown,Unknown,Unknown,optometrist,Unknown,Unknown,Unknown,18.3435553,-66.9954205
Pharmamax,Unknown,Unknown,Unknown,Unknown,Unknown,Unknown,pharmacy,pharmacy,Unknown,Unknown,Unknown,18.3430843,-66.9950745
Ortodoncistas González,Unknown,Unknown,Unknown,Unknown,Unknown,Unknown,dentist,dentist,Unknown,Unknown,Unknown,18.3423052,-66.994581
Emergencias Medicas Bo Espino,Unknown,Unknown,Unknown,Unknown,Unknown,Unknown,hospital,hospital,Unknown,Unknown,Unknown,18.1215126,-65.9941442
Laser Vision of Puerto Rico,Unknown,Avenida de la Constitución,San Juan,00901,PR,Unknown,Unknown,optometrist,787-289-6600,https://www.laservisionpr.com/,"Mo,We,Fr 07:00-16:00",18.4650806,-66.0962165
Laboratorio Clínico Plaza Encantada,Unknown,Unknown,Unknown,Unknown,Unknown,Unknown,Unknown,laboratory,Unknown,Unknown,Unknown,18.3550299,-66.0026762
Metro Pavia Clinic Humacao,Unknown,Carr 924,Humacao,00791,PR,Unknown,clinic,clinic,Unknown,Unknown,Unknown,18.1540235,-65.8199834
NaturalSlim Inc.,Unknown,Avenida Eugenio María de Hostos,Mayagüez,00680,PR,Unknown,Unknown,counselling,+1 787-763-2527,https://www.naturalslim.com/,Mo-Fr 09:00-17:00; Sa 10:00-17:00,18.2415211,-67.159541
NaturalSlim Inc.,Unknown,Carretera Ceiba - Humacao,Humacao,00791,PR,Unknown,Unknown,counselling,+1 787-763-2527,https://www.naturalslim.com/,Unknown,18.1471509,-65.799948
Farmacia Los Angeles,Unknown,Unknown,Unknown,Unknown,Unknown,Unknown,pharmacy,pharmacy,Unknown,Unknown,Unknown,18.4726116,-67.0069286
Laboratorios Borinquen,Unknown,Unknown,Unknown,Unknown,Unknown,Unknown,Unknown,laboratory,Unknown,Unknown,Unknown,18.3718542,-66.1110162
Walmart Pharmacy,Unknown,Unknown,Unknown,Unknown,Unknown,Unknown,pharmacy,pharmacy,Unknown,https://www.walmart.com/store/2302-barceloneta-pr/pharmacy,Unknown,18.4323557,-66.5511551
Farmacia Gabriela,Unknown,Avenida Pedro Albizu Campos,Guayama,00784,PR,Unknown,pharmacy,pharmacy,Unknown,Unknown,Unknown,17.9761375,-66.1193389
Precision Health Center,Unknown,Avenida Pedro Albizu Campos,Guayama,00784,PR,Unknown,clinic,clinic,Unknown,Unknown,Unknown,17.9767898,-66.1185753
Laboratorio Clínico Porta Caribe,Unknown,Unknown,Unknown,Unknown,Unknown,Unknown,Unknown,laboratory,7879717086,Unknown,6:30-16:00,18.0158809,-66.3816437
Gastro Sur,Unknown,Unknown,Unknown,Unknown,Unknown,Unknown,doctors,doctor,​(787) 239-7739,https://www.gastrosurpr.com/,"Mo-We 07:00-16:00, Th 07:00-15:00, Fr 07:00-16:00",17.9739792,-66.2930463
Numed Medical Aesthetics Center,Unknown,C. Marginal Villamar,Carolina,00979,Unknown,PR,doctors,doctor,Unknown,https://numed.com.pr,Mo-Sa 08:00-18:00,18.442657,-66.0275891
Clinica Borinquen Medical Services,Unknown,Unknown,Unknown,Unknown,Unknown,Unknown,clinic,clinic,Unknown,Unknown,Mo-Fr 14:00-19:00,18.4472136,-66.0354669
Farmacias Aliadas - Castro,Unknown,Unknown,Unknown,Unknown,Unknown,Unknown,pharmacy,pharmacy,Unknown,Unknown,Mo-Sa 08:00-19:00,17.9642023,-66.2980237
Vida Imaging & Breast Center,Unknown,Santa Cruz,Bayamón,00961,PR,Unknown,doctors,doctor,Unknown,Unknown,Mo-Fr 07:00-16:00,18.3970419,-66.1493682
Centro Medicina de Familia,Unknown,Marginal Villamar,Carolina,00979,PR,Unknown,doctors,doctor,1-787-268-5838,Unknown,Unknown,18.4446338,-66.0323132
Icala Medical Aesthetics,Unknown,Unknown,Unknown,Unknown,Unknown,Unknown,clinic,clinic,Unknown,Unknown,Unknown,18.4672551,-67.1529611
Dra. Johanna Recart Schroeder,Unknown,Unknown,Unknown,Unknown,Unknown,Unknown,doctors,doctor,Unknown,Unknown,Unknown,18.4671762,-67.1529571
Ashford Prebyterian Community Hospital Pharmacy,Unknown,Avenida Dr. Ashford,San Juan,00907,PR,Unknown,pharmacy,pharmacy,787-721-2160 x1067,Unknown,Unknown,18.4559147,-66.0654897
Laboratorios Borinquen,Unknown,Avenida Dr. Ashford,San Juan,00907,PR,Unknown,Unknown,laboratory,787-721-0331,https://www.laboratoriosborinquen.com/,Unknown,18.454982,-66.0663087
Ashford Medical Laboratory,Unknown,Calle Washington,San Juan,00907,PR,Unknown,Unknown,laboratory,787-724-6816,Unknown,Unknown,18.4551447,-66.066052
Dr. Victor M. Roman Ortiz / Clinica Dental Muniz,Unknown,PR-865R,Toa Baja,00949-9786,PR,Unknown,dentist,dentist,+17879954700,Unknown,"Mo-Fr 08:00-17:00, Sa 08:00-13:00",18.4116772,-66.2332206
Unknown,Unknown,Unknown,Vega Baja,Unknown,PR,Unknown,doctors,doctor,Unknown,Unknown,Unknown,18.4823229,-66.4044515
Farmacia Caridad,Unknown,Unknown,Unknown,Unknown,Unknown,Unknown,pharmacy,pharmacy,Unknown,Unknown,Unknown,18.3813393,-65.9623095
Farmacia Rincón,Unknown,Unknown,Unknown,Unknown,Unknown,Unknown,pharmacy,Unknown,Unknown,Unknown,Unknown,18.3399113,-67.2500822
Ileana Irvine,Unknown,Avenida Luis Vigoreaux Rivera,Guaynabo,00966,PR,Unknown,doctors,doctor,Unknown,Unknown,Monday-Thursday 9am-6:30pm Friday 9am-5pm Saturday & Sunday CLOSED,18.4000701,-66.1079929
Laboratorios Borinquen,Unknown,Avenida Luis Vigoreaux Rivera,Guaynabo,00966,PR,Unknown,Unknown,laboratory,+17877060535,https://www.laboratoriosborinquen.com/,Monday-Friday 5:30am-8pm  Satudar 6am-12pm Sunday CLOSED,18.3995644,-66.1084689
SIGA PR,Unknown,Calle Acuarela,Guaynabo,00969,PR,Unknown,Unknown,occupational_therapist,+17879983788,http://www.sigapr.com/,Unknown,18.3705563,-66.1083
Dr Jose Cordero Casillas,Unknown,calle 3 Flamboyan,Manatí,00674,PR,Unknown,doctors,doctor,7878545831,Unknown,Mo-Th 09:00-17:00,18.4318324,-66.4805876
Laboratorio La Lomas,Unknown,Ave. Jesús T. Piñeiro,San Juan,00926,PR,Unknown,Unknown,laboratory,(787) 792-1824,https://laboratoriolaslomas.com/,Mo-Fr 06:00-17:00,18.398752,-66.0971467
Hope Women's Clinic,Unknown,Avenida Luis Muñoz Rivera,San Juan,00925,PR,Unknown,clinic,clinic,+1 939-336-6836,https://www.hopewomensclinicpr.com/,Mo-Fr 08:00-15:00,18.4010054,-66.0559088
Hope Women's Clinic,Unknown,Calle Marginal,Bayamón,00959,PR,Unknown,clinic,clinic,+1 787-545-2750,https://www.hopewomensclinicpr.com/,Mo-Fr 07:30-14:30,18.3950999,-66.1425328
Farmacia Caridad,Unknown,Avenida Roberto Sánchez Vilella / Avenida Campo Rico,Unknown,00985,Unknown,Unknown,pharmacy,Unknown,Unknown,https://farmaciacaridad.com/,Mo-Su 07:00-21:00,18.4191777,-65.9576777
Farmacia Mía,Unknown,Unknown,Unknown,Unknown,Unknown,Unknown,pharmacy,pharmacy,Unknown,Unknown,Unknown,18.38276,-66.133325
Numed,Unknown,Unknown,Unknown,Unknown,Unknown,Unknown,clinic,clinic,Unknown,Unknown,Unknown,18.3919683,-66.1045166
"Farmacia Caridad, Condado",Unknown,Ashford,Unknown,Unknown,Unknown,Unknown,pharmacy,Unknown,Unknown,https://farmaciacaridad.com/,Mo-Su 09:00-09:00,18.4561272,-66.0714173
Walmart Pharmacy,Unknown,Unknown,Unknown,Unknown,Unknown,Unknown,pharmacy,pharmacy,Unknown,https://www.walmart.com/store/2072-guayama-pr/pharmacy,Unknown,17.9807384,-66.0948604
