Name,Full Address,Street,City,Postcode,State,Country,Amenity,Healthcare,Phone,Website,Opening Hours,Latitude,Longitude
Clínica del Parque,Unknown,Unknown,Unknown,Unknown,Unknown,Armenia,hospital,Healthcare Services,Unknown,Unknown,24/7,4.5446278,-75.6629953
Clínica La Sagrada Familia,Unknown,Unknown,Unknown,Unknown,Unknown,Armenia,hospital,hospital,Unknown,Unknown,Unknown,4.5386628,-75.668135
Cruz Verde,Unknown,Unknown,Unknown,Unknown,Unknown,Armenia,pharmacy,pharmacy,Unknown,Unknown,Mo-Sa 07:30-21:00; Su 08:00-21:00,4.5387958,-75.6676413
Centro de Hemodinamia,Unknown,Unknown,Unknown,Unknown,Unknown,Armenia,hospital,Healthcare Services,Unknown,Unknown,Unknown,4.544315,-75.6615597
Clínica Gómez Arbeláez,Unknown,Unknown,Unknown,Unknown,Unknown,Armenia,clinic,Healthcare Services,Unknown,Unknown,Unknown,4.5450631,-75.6608457
Profamiliar,Unknown,Unknown,Unknown,Unknown,Unknown,Armenia,pharmacy,Healthcare Services,Unknown,Unknown,Unknown,4.5446245,-75.6613987
Droguería Comfenalco,Unknown,Unknown,Unknown,Unknown,Unknown,Armenia,pharmacy,Healthcare Services,Unknown,Unknown,Unknown,4.5447686,-75.6607337
Nueva EPS,Unknown,Calle 2da. Norte,Armenia,Unknown,Unknown,Armenia,hospital,hospital,Unknown,https://nuevaeps.com.co/,Unknown,4.5452383,-75.6629231
La rebaja plus,Unknown,Unknown,Unknown,Unknown,Unknown,Armenia,pharmacy,pharmacy,Unknown,Unknown,Mo-Su 08:00-21:00,4.5474007,-75.6619084
Droguería del Norte,Unknown,Unknown,Unknown,Unknown,Unknown,Armenia,pharmacy,Healthcare Services,Unknown,Unknown,Unknown,4.548564,-75.6612863
Clínica La Providencia,Unknown,Unknown,Unknown,Unknown,Unknown,Armenia,hospital,Healthcare Services,Unknown,Unknown,Unknown,4.5514053,-75.6593265
La Rebaja - Mini Market,Unknown,Unknown,Unknown,Unknown,Unknown,Armenia,pharmacy,pharmacy,Unknown,Unknown,Unknown,4.5522846,-75.6581008
Profamiliar,Unknown,Unknown,Unknown,Unknown,Unknown,Armenia,pharmacy,Healthcare Services,Unknown,Unknown,Unknown,4.5565183,-75.656995
Farmacenter,Unknown,Unknown,Unknown,Unknown,Unknown,Armenia,pharmacy,pharmacy,Unknown,Unknown,Unknown,4.524526,-75.6448117
PAU Salud Total,Unknown,Carrera 14,Armenia,Unknown,Unknown,Armenia,hospital,Healthcare Services,Unknown,Unknown,Unknown,4.5523544,-75.6580656
AsmetSalud,Unknown,Carrera 14,Armenia,Unknown,Unknown,Armenia,hospital,Healthcare Services,Unknown,Unknown,Unknown,4.5522056,-75.6581342
Neuroconexión,Unknown,Unknown,Unknown,Unknown,Unknown,Armenia,doctors,doctor,Unknown,Unknown,Unknown,4.5569903,-75.6567774
Audifarma,Unknown,Avenida Bolívar,Unknown,Unknown,Unknown,Armenia,pharmacy,Healthcare Services,Unknown,Unknown,Unknown,4.5493846,-75.6601974
Cruz Verde,Unknown,Unknown,Armenia,Unknown,Unknown,Armenia,pharmacy,pharmacy,Unknown,Unknown,Unknown,4.5598837,-75.6551159
Don Saludero,Unknown,Unknown,Unknown,Unknown,Unknown,Armenia,pharmacy,Healthcare Services,Unknown,Unknown,Mo-Sa 08:30-20:00; Su 08:00-15:00; PH off,4.5426755,-75.6589545
Alemana,Unknown,Unknown,Unknown,Unknown,Unknown,Armenia,pharmacy,Healthcare Services,Unknown,Unknown,Mo-Sa 08:30-20:00; Su 08:00-15:00; PH off,4.5532222,-75.6580887
Cruz Verde,Unknown,Unknown,Unknown,Unknown,Unknown,Armenia,pharmacy,pharmacy,Unknown,Unknown,Mo-Sa 08:30-20:00; Su 08:00-15:00; PH off,4.5452545,-75.6619141
Municipal Droguerías 3,Unknown,Unknown,Unknown,Unknown,Unknown,Armenia,pharmacy,Healthcare Services,Unknown,Unknown,24/7,4.5371532,-75.6703936
Drogas Armenia,Unknown,Unknown,Unknown,Unknown,Unknown,Armenia,pharmacy,Healthcare Services,Unknown,Unknown,Mo-Sa 08:30-20:00; Su 08:00-15:00; PH off,4.5206039,-75.6980333
Drogas La Economía,Unknown,Unknown,Unknown,Unknown,Unknown,Armenia,pharmacy,pharmacy,+57 6 7450772,Unknown,Mo-Sa 08:30-20:00; Su 08:00-15:00,4.5344775,-75.6751533
Drogas La Milagrosa,Unknown,Unknown,Unknown,Unknown,Unknown,Armenia,pharmacy,Healthcare Services,Unknown,Unknown,Mo-Sa 08:30-20:00; Su 08:00-15:00,4.538008,-75.6675241
La Rebaja,Unknown,Unknown,Unknown,Unknown,Unknown,Armenia,pharmacy,pharmacy,Unknown,Unknown,Mo-Su 08:00-21:00,4.5338329,-75.6748206
Farmacia 13-13,Unknown,Unknown,Unknown,Unknown,Unknown,Armenia,pharmacy,Healthcare Services,Unknown,Unknown,Mo-Sa 08:30-20:00; Su 08:00-15:00,4.5365499,-75.6698566
Droguería Colsubsidio,Unknown,Unknown,Unknown,Unknown,Unknown,Armenia,pharmacy,Healthcare Services,Unknown,Unknown,Mo-Sa 08:30-20:00; Su 08:00-15:00,4.5320005,-75.6731591
Comfenalco,Unknown,Carrera 15,Armenia,Unknown,Unknown,Armenia,pharmacy,pharmacy,Unknown,Unknown,Mo-Sa 08:30-20:00; Su 09:00-13:00,4.5349795,-75.6715829
Consulta externa,Unknown,Unknown,Unknown,Unknown,Unknown,Armenia,doctors,doctor,Unknown,Unknown,24/7,4.538741,-75.6683392
Profamiliar,Unknown,Unknown,Unknown,Unknown,Unknown,Armenia,pharmacy,pharmacy,Unknown,Unknown,Unknown,4.5554727,-75.6571704
Droguería Eje Cafetero,Unknown,Unknown,Unknown,Unknown,Unknown,Armenia,pharmacy,Healthcare Services,Unknown,Unknown,Mo-Sa 08:30-20:00; Su 08:00-15:00,4.5359668,-75.6737714
Droguería El Hogar,Unknown,Unknown,Unknown,Unknown,Unknown,Armenia,pharmacy,Healthcare Services,Unknown,Unknown,Mo-Sa 08:30-20:00; Su 08:00-15:00,4.5447578,-75.6727086
Droguería La 23,Unknown,Unknown,Unknown,Unknown,Unknown,Armenia,pharmacy,pharmacy,Unknown,Unknown,Mo-Sa 08:30-20:00; Su 08:00-15:00,4.542716,-75.6717698
Municipal Droguerías 2,Unknown,Unknown,Unknown,Unknown,Unknown,Armenia,pharmacy,Healthcare Services,Unknown,Unknown,Mo-Su 07:00-20:00,4.53613,-75.6705589
Drosalud del Café,Unknown,Unknown,Unknown,Unknown,Unknown,Armenia,pharmacy,pharmacy,Unknown,Unknown,Unknown,4.5382627,-75.6679165
Droservimos,Unknown,Unknown,Unknown,Unknown,Unknown,Armenia,pharmacy,pharmacy,Unknown,Unknown,Mo-Sa 08:30-20:00; Su 08:00-15:00; PH off,4.519515,-75.7057816
La Botica del Eje,Unknown,Unknown,Unknown,Unknown,Unknown,Armenia,pharmacy,Healthcare Services,Unknown,Unknown,Mo-Sa 08:30-20:00; Su 08:00-15:00,4.5375441,-75.6689403
Multidrogas,Unknown,Unknown,Unknown,Unknown,Unknown,Armenia,pharmacy,Healthcare Services,Unknown,Unknown,Mo-Sa 08:30-20:00; Su 08:00-15:00; PH off,4.5539796,-75.6576412
Niza Bulevar,Unknown,Unknown,Unknown,Unknown,Unknown,Armenia,pharmacy,Healthcare Services,Unknown,Unknown,Mo-Sa 08:30-20:00; Su 08:00-15:00,4.5449774,-75.6664233
Profamiliar,Unknown,Unknown,Armenia,Unknown,Unknown,Armenia,pharmacy,pharmacy,Unknown,Unknown,Mo-Sa 08:30-20:00; Su 08:00-15:00,4.5329626,-75.6740204
Profamiliar,Unknown,Unknown,Unknown,Unknown,Unknown,Armenia,pharmacy,Healthcare Services,Unknown,Unknown,Mo-Sa 08:30-20:00; Su 08:00-15:00,4.5351605,-75.6723822
Profamiliar,Unknown,Unknown,Unknown,Unknown,Unknown,Armenia,pharmacy,pharmacy,Unknown,Unknown,Mo-Sa 08:30-20:00; Su 08:00-15:00,4.5356658,-75.6728352
Profamiliar,Unknown,Unknown,Unknown,Unknown,Unknown,Armenia,pharmacy,Healthcare Services,Unknown,Unknown,Mo-Sa 08:30-20:00; Su 08:00-15:00,4.5356982,-75.6717974
Super Droguerías Andez,Unknown,Unknown,Unknown,Unknown,Unknown,Armenia,pharmacy,Healthcare Services,Unknown,Unknown,Mo-Sa 08:30-20:00; Su 08:00-15:00,4.5407509,-75.6736719
Clínica SaludCoop EPS,Unknown,Unknown,Unknown,Unknown,Unknown,Armenia,clinic,Healthcare Services,Unknown,Unknown,Unknown,4.5452443,-75.6608907
Drogas La Economía,Unknown,Unknown,Unknown,Unknown,Unknown,Armenia,pharmacy,Healthcare Services,Unknown,Unknown,Unknown,4.5467306,-75.6621787
Multidrogas,Unknown,Calle 30 - Camellón del Cauca,Armenia,630004,Unknown,Armenia,pharmacy,pharmacy,Unknown,Unknown,Mo-Sa 08:30-20:00; Su 08:00-15:00,4.5310034,-75.6804471
Droguería Armenia Plaza,Unknown,Unknown,Unknown,Unknown,Unknown,Armenia,pharmacy,Healthcare Services,Unknown,Unknown,Mo-Sa 08:30-20:00; Su 08:00-15:00,4.531741,-75.6732143
Mil Drogas,Unknown,Unknown,Unknown,Unknown,Unknown,Armenia,pharmacy,pharmacy,Unknown,Unknown,Unknown,4.5349435,-75.6746514
Comfenalco,Unknown,Unknown,Unknown,Unknown,Unknown,Armenia,pharmacy,pharmacy,Unknown,Unknown,Mo-Sa 08:30-20:00; Su 08:00-15:00,4.5355287,-75.6715384
Drogas Superdescuentos,Unknown,Unknown,Unknown,Unknown,Unknown,Armenia,pharmacy,Healthcare Services,Unknown,Unknown,Unknown,4.5297598,-75.6773625
Municipal Droguerías 1,Unknown,Unknown,Unknown,Unknown,Unknown,Armenia,pharmacy,pharmacy,Unknown,Unknown,Mo-Su 07:00-20:00,4.5363925,-75.6714825
Quindimag - Paramedicos,Unknown,Unknown,Unknown,Unknown,Unknown,Armenia,doctors,Healthcare Services,Unknown,Unknown,Mo-Fr 07:00-18:30; Sa 08:00-12:00,4.5434379,-75.6662128
La Rebaja,Unknown,Unknown,Armenia,Unknown,Unknown,Armenia,pharmacy,pharmacy,Unknown,Unknown,"Mo-Sa 07:30-21:00; Su,PH 09:00-20:00",4.5332826,-75.6724965
Drogueria Comfenalco,Unknown,Unknown,Unknown,Unknown,Unknown,Armenia,pharmacy,Healthcare Services,Unknown,Unknown,Unknown,4.5539849,-75.6640353
Clínica Veterinaria Bull Jovi,Unknown,Unknown,Unknown,Unknown,Unknown,Armenia,veterinary,Healthcare Services,Unknown,Unknown,Unknown,4.5449491,-75.6696078
Fundación Alejandro Londoño,Unknown,Unknown,Unknown,Unknown,Unknown,Armenia,doctors,Healthcare Services,+57 6 7455566,http://www.fundacionalejandrolondono.com,Mo-Fr 07:00-19:00; Sa 08:00-13:00,4.5461913,-75.6626841
La Rebaja,Unknown,Unknown,Unknown,Unknown,Unknown,Armenia,pharmacy,Healthcare Services,Unknown,Unknown,Mo-Su 08:00-21:00,4.5342171,-75.6734316
Cruz Verde,Unknown,Unknown,Unknown,Unknown,Unknown,Armenia,pharmacy,pharmacy,Unknown,Unknown,Unknown,4.5480593,-75.667148
Droguería La 21,Unknown,Unknown,Unknown,Unknown,Unknown,Armenia,pharmacy,Healthcare Services,Unknown,Unknown,Unknown,4.5380146,-75.6782299
Droguería Luz,Unknown,Unknown,Unknown,Unknown,Unknown,Armenia,pharmacy,Healthcare Services,Unknown,Unknown,Unknown,4.5382212,-75.6772795
Clínica Veterinaria El Bosque,Unknown,Unknown,Unknown,Unknown,Unknown,Armenia,veterinary,Healthcare Services,Unknown,Unknown,24/7,4.5388344,-75.6766094
La Rebaja,Unknown,Unknown,Unknown,Unknown,Unknown,Armenia,pharmacy,pharmacy,Unknown,Unknown,Mo-Su 8:00-21:00,4.5376423,-75.6779114
Droguería,Unknown,Unknown,Unknown,Unknown,Unknown,Armenia,pharmacy,Healthcare Services,Unknown,Unknown,Unknown,4.526697,-75.6827124
Laboratorio Clínico M.L.H.,Unknown,Unknown,Unknown,Unknown,Unknown,Armenia,doctors,Healthcare Services,Unknown,Unknown,Unknown,4.521748,-75.6870019
Fundación Cancerológica del Quindío,Unknown,Unknown,Unknown,Unknown,Unknown,Armenia,doctors,Healthcare Services,Unknown,Unknown,Unknown,4.556376,-75.6575067
Fundación Cardiometcequin,Unknown,Unknown,Unknown,Unknown,Unknown,Armenia,doctors,Healthcare Services,Unknown,Unknown,Unknown,4.5563957,-75.6572358
Fundación Latinoamericana de Medicina Alternativa - OMEFA,Unknown,Unknown,Unknown,Unknown,Unknown,Armenia,doctors,Healthcare Services,Unknown,Unknown,Unknown,4.5566067,-75.6570637
Laboratorio Clínico MLH,Unknown,Unknown,Unknown,Unknown,Unknown,Armenia,doctors,Healthcare Services,Unknown,Unknown,Unknown,4.5560592,-75.657585
Odonto Profesional,Unknown,Unknown,Unknown,Unknown,Unknown,Armenia,dentist,Healthcare Services,Unknown,Unknown,Unknown,4.556522,-75.6573683
Cruz Verde,Unknown,Unknown,Armenia,Unknown,Unknown,Armenia,pharmacy,pharmacy,Unknown,Unknown,Mo-Sa 07:30-21:30; Su 09:00-21:00,4.5639336,-75.6557091
Can y Kat - Centro Veterinario,Unknown,Unknown,Unknown,Unknown,Unknown,Armenia,veterinary,Healthcare Services,Unknown,Unknown,Mo-Fr 08:00-21:00; Sa 08:00-16:00,4.5506684,-75.6624341
Cimev,Unknown,Unknown,Unknown,Unknown,Unknown,Armenia,veterinary,Healthcare Services,Unknown,Unknown,24/7,4.5482844,-75.6646449
Unknown,Unknown,Unknown,Unknown,Unknown,Unknown,Armenia,veterinary,Healthcare Services,Unknown,Unknown,Unknown,4.5574678,-75.6529728
Drogas La Rebaja,Unknown,Unknown,Unknown,Unknown,Unknown,Armenia,pharmacy,Healthcare Services,Unknown,Unknown,Unknown,4.5222865,-75.6907644
Droguería Las Acacias,Unknown,Unknown,Unknown,Unknown,Unknown,Armenia,pharmacy,Healthcare Services,Unknown,Unknown,Unknown,4.5219737,-75.6893592
Satelital,Unknown,Unknown,Unknown,Unknown,Unknown,Armenia,pharmacy,Healthcare Services,Unknown,Unknown,Unknown,4.5215629,-75.6934309
OdontoCentro Norte,Unknown,Unknown,Armenia,Unknown,Unknown,Armenia,dentist,dentist,Unknown,Unknown,Unknown,4.5471134,-75.6609018
Drogas La Economía,Unknown,Unknown,Unknown,Unknown,Unknown,Armenia,pharmacy,Healthcare Services,Unknown,Unknown,Unknown,4.5344685,-75.6721459
Farmadrogas de Occidente,Unknown,Unknown,Unknown,Unknown,Unknown,Armenia,pharmacy,pharmacy,Unknown,Unknown,Unknown,4.5348488,-75.6736704
Laboratorio Clínico Andino,Unknown,Unknown,Unknown,Unknown,Unknown,Armenia,doctors,Healthcare Services,Unknown,Unknown,Unknown,4.5342354,-75.6733403
Dra María José Vélez,Unknown,Carrera 13,Armenia,Unknown,Unknown,Armenia,dentist,dentist,Unknown,Unknown,Unknown,4.5490559,-75.659484
Laboratorio Luisa Vallejo,Unknown,Calle 2 Norte,Unknown,Unknown,Unknown,Armenia,dentist,Healthcare Services,Unknown,Unknown,Unknown,4.5467463,-75.6633046
Clínica de Endodoncia Jeannette Aljure,Unknown,Carrera 13,Armenia,Unknown,Unknown,Armenia,dentist,dentist,Unknown,Unknown,Unknown,4.5490005,-75.6595441
Quintas de la Fachada,Unknown,Unknown,Unknown,Unknown,Unknown,Armenia,pharmacy,Healthcare Services,Unknown,Unknown,Unknown,4.5203832,-75.7133611
Colmédica,Unknown,Calle 15 Norte,Unknown,Unknown,Unknown,Armenia,clinic,Healthcare Services,Unknown,Unknown,Unknown,4.5545644,-75.6578545
El Negrito,Unknown,Unknown,Unknown,Unknown,Unknown,Armenia,pharmacy,pharmacy,Unknown,Unknown,Unknown,4.5313288,-75.6406135
Alta estética oral,Unknown,Unknown,Unknown,Unknown,Unknown,Armenia,dentist,Healthcare Services,Unknown,Unknown,Unknown,4.5325151,-75.6410351
Juan Pablo Mejía,Unknown,Unknown,Unknown,Unknown,Unknown,Armenia,dentist,dentist,Unknown,Unknown,Unknown,4.5541086,-75.6580245
Prosalud,Unknown,Unknown,Unknown,Unknown,Unknown,Armenia,pharmacy,Healthcare Services,Unknown,Unknown,Unknown,4.5276085,-75.6421282
Amigos y Mascotas,Unknown,Barrio Los Quindos Mz 13 casa 1,Unknown,Unknown,Unknown,Armenia,veterinary,Healthcare Services,Unknown,Unknown,Unknown,4.5227717,-75.702675
Lemon Dental,Unknown,Calle 17,Armenia,630004,Unknown,Armenia,dentist,Healthcare Services,+57 606 7416644,https://www.facebook.com/LemonDental/,Unknown,4.534424,-75.6717535
Salud Animal,Unknown,Unknown,Unknown,Unknown,Unknown,Armenia,veterinary,Healthcare Services,Unknown,Unknown,Unknown,4.5253815,-75.6429497
Drogas Napolitana,Unknown,Unknown,Unknown,Unknown,Unknown,Armenia,pharmacy,pharmacy,Unknown,Unknown,Unknown,4.5284969,-75.6409261
Conexión Animal,Unknown,Unknown,Unknown,Unknown,Unknown,Armenia,veterinary,Healthcare Services,Unknown,Unknown,Unknown,4.5318158,-75.6404267
Dra. Natalia Ramírez,Unknown,Unknown,Unknown,Unknown,Unknown,Armenia,dentist,dentist,Unknown,Unknown,Unknown,4.5319882,-75.6396505
Clínica odontológica,Unknown,Unknown,Unknown,Unknown,Unknown,Armenia,dentist,dentist,Unknown,Unknown,Unknown,4.520599,-75.6492168
Droguería todo en 1,Unknown,Carrera 14,Armenia,Unknown,Unknown,Armenia,pharmacy,Healthcare Services,+57 3147075341,Unknown,Unknown,4.5323624,-75.6735485
Orthoplan,Unknown,Unknown,Unknown,Unknown,Unknown,Armenia,dentist,Healthcare Services,Unknown,Unknown,Unknown,4.5516261,-75.6587948
Farmadepósito,Unknown,Unknown,Unknown,Unknown,Unknown,Armenia,pharmacy,pharmacy,Unknown,Unknown,Unknown,4.5308338,-75.6400817
MaxiFarma,Unknown,Unknown,Unknown,Unknown,Unknown,Armenia,pharmacy,pharmacy,Unknown,Unknown,Unknown,4.533017,-75.6399936
Unknown,Unknown,Unknown,Unknown,Unknown,Unknown,Armenia,pharmacy,pharmacy,Unknown,Unknown,Unknown,4.5322161,-75.6402829
Animal Home,Unknown,Unknown,Unknown,Unknown,Unknown,Armenia,veterinary,Healthcare Services,Unknown,Unknown,Unknown,4.5295538,-75.6398163
Unknown,Unknown,Unknown,Unknown,Unknown,Unknown,Armenia,clinic,Healthcare Services,Unknown,Unknown,Unknown,4.5606238,-75.657082
Proenso,Unknown,Unknown,Unknown,Unknown,Unknown,Armenia,clinic,clinic,Unknown,Unknown,Unknown,4.5381062,-75.6674787
veterinaria mi hacienda,Unknown,Calle 14,Armenia,630004,Unknown,Armenia,veterinary,Healthcare Services,+57 3117195765,https://mi-hacienda-veterinaria.negocio.site/,24/7,4.5362927,-75.6706888
Unknown,Unknown,Unknown,Unknown,Unknown,Unknown,Armenia,pharmacy,pharmacy,Unknown,Unknown,Unknown,4.526698,-75.6423046
Unknown,Unknown,Unknown,Unknown,Unknown,Unknown,Armenia,veterinary,Healthcare Services,Unknown,Unknown,Unknown,4.5208554,-75.6980973
Fundavet,Unknown,Unknown,Unknown,Unknown,Unknown,Armenia,veterinary,Healthcare Services,Unknown,Unknown,Unknown,4.5312951,-75.6412047
Unknown,Unknown,Unknown,Unknown,Unknown,Unknown,Armenia,pharmacy,pharmacy,Unknown,Unknown,Mo-Su 08:00-21:00,4.5339447,-75.674686
El Descuento,Unknown,Unknown,Unknown,Unknown,Unknown,Armenia,pharmacy,pharmacy,Unknown,Unknown,Unknown,4.5204647,-75.6497712
Unknown,Unknown,Unknown,Unknown,Unknown,Unknown,Armenia,pharmacy,pharmacy,Unknown,Unknown,Unknown,4.5308471,-75.642042
Idime,Unknown,Unknown,Unknown,Unknown,Unknown,Armenia,clinic,clinic,Unknown,Unknown,Unknown,4.5472625,-75.6667884
Urgencias,Unknown,Unknown,Unknown,Unknown,Unknown,Armenia,doctors,doctor,Unknown,Unknown,Unknown,4.5558205,-75.6561722
Comfenalco,Unknown,Unknown,Unknown,Unknown,Unknown,Armenia,pharmacy,pharmacy,Unknown,Unknown,Unknown,4.5288187,-75.6415394
Droguería 360,Unknown,Unknown,Unknown,Unknown,Unknown,Armenia,pharmacy,pharmacy,Unknown,Unknown,Unknown,4.5382246,-75.6679586
Urgencias,Unknown,Unknown,Unknown,Unknown,Unknown,Armenia,doctors,doctor,Unknown,Unknown,Unknown,4.538469,-75.66805
Alvdent,Unknown,Unknown,Unknown,Unknown,Unknown,Armenia,dentist,dentist,Unknown,Unknown,Unknown,4.5383762,-75.6686288
Quindipharma,Unknown,Unknown,Unknown,Unknown,Unknown,Armenia,pharmacy,pharmacy,Unknown,Unknown,Unknown,4.542039,-75.7001693
Cruz Verde,Unknown,Unknown,Unknown,Unknown,Unknown,Armenia,pharmacy,pharmacy,Unknown,Unknown,Unknown,4.5424312,-75.6903979
Droguería Cuellar,Unknown,Unknown,Unknown,Unknown,Unknown,Armenia,pharmacy,pharmacy,Unknown,Unknown,Unknown,4.540892,-75.7016292
Unknown,Unknown,Unknown,Unknown,Unknown,Unknown,Armenia,pharmacy,pharmacy,Unknown,Unknown,Unknown,4.5398937,-75.7037295
Unknown,Unknown,Unknown,Unknown,Unknown,Unknown,Armenia,pharmacy,pharmacy,Unknown,Unknown,Unknown,4.5387884,-75.6668185
Centro Radiológico del Quindío,Unknown,Unknown,Unknown,Unknown,Unknown,Armenia,doctors,doctor,Unknown,Unknown,Unknown,4.5605814,-75.6550181
Unknown,Unknown,Unknown,Unknown,Unknown,Unknown,Armenia,pharmacy,pharmacy,Unknown,Unknown,Unknown,4.5409432,-75.7008782
Droguería Occidental,Unknown,Unknown,Unknown,Unknown,Unknown,Armenia,pharmacy,pharmacy,Unknown,Unknown,Mo-Sa 08:00-20:00,4.5385089,-75.6973641
Unknown,Unknown,Unknown,Unknown,Unknown,Unknown,Armenia,pharmacy,pharmacy,Unknown,Unknown,Unknown,4.5421341,-75.6912921
Cruz Verde,Unknown,Unknown,Unknown,Unknown,Unknown,Armenia,pharmacy,pharmacy,Unknown,Unknown,Unknown,4.5328343,-75.6739318
La Última Curva,Unknown,Unknown,Unknown,Unknown,Unknown,Armenia,pharmacy,pharmacy,Unknown,Unknown,Unknown,4.5193194,-75.7043352
Neuromédica,Unknown,Unknown,Unknown,Unknown,Unknown,Armenia,doctors,doctor,Unknown,Unknown,Unknown,4.5501793,-75.6598325
Drogueria Alemana,Unknown,Unknown,Unknown,Unknown,Unknown,Armenia,pharmacy,pharmacy,Unknown,Unknown,Unknown,4.5581846,-75.6603442
Cruz Verde,Unknown,Unknown,Unknown,Unknown,Unknown,Armenia,pharmacy,pharmacy,Unknown,Unknown,Unknown,4.5194189,-75.6892552
Las Argantes,Unknown,Unknown,Unknown,Unknown,Unknown,Armenia,pharmacy,pharmacy,Unknown,Unknown,Unknown,4.5674792,-75.6512101
Cruz Verde,Unknown,Unknown,Unknown,Unknown,Unknown,Armenia,pharmacy,pharmacy,Unknown,Unknown,Unknown,4.5438478,-75.6727352
Odóntica,Unknown,Unknown,Unknown,Unknown,Unknown,Armenia,dentist,dentist,Unknown,Unknown,Unknown,4.5437798,-75.6727498
Efifarma,Unknown,Unknown,Unknown,Unknown,Unknown,Armenia,pharmacy,pharmacy,Unknown,Unknown,Unknown,4.5435106,-75.673068
Droguería San Judas,Unknown,Unknown,Unknown,Unknown,Unknown,Armenia,pharmacy,pharmacy,Unknown,Unknown,Unknown,4.5428475,-75.67316
Cruz Verde,Unknown,Unknown,Unknown,Unknown,Unknown,Armenia,pharmacy,pharmacy,Unknown,Unknown,Unknown,4.5443215,-75.6575272
Cruz Verde,Unknown,Unknown,Unknown,Unknown,Unknown,Armenia,pharmacy,pharmacy,Unknown,Unknown,Unknown,4.5597339,-75.6548455
Fomat,Unknown,Unknown,Unknown,Unknown,Unknown,Armenia,pharmacy,pharmacy,Unknown,Unknown,Unknown,4.5505172,-75.660383
Casa Odontologica Johana Acevedo Sede,Unknown,Unknown,Unknown,Unknown,Unknown,Armenia,dentist,dentist,Unknown,Unknown,Unknown,4.550679,-75.6591714
Portal del café,Unknown,Unknown,Unknown,Unknown,Unknown,Armenia,pharmacy,pharmacy,Unknown,Unknown,Unknown,4.5583513,-75.6560803
Cruz Verde,Unknown,Unknown,Unknown,Unknown,Unknown,Armenia,pharmacy,pharmacy,Unknown,Unknown,Unknown,4.5529998,-75.657768
Unknown,Unknown,Unknown,Unknown,Unknown,Unknown,Armenia,pharmacy,pharmacy,Unknown,Unknown,Unknown,4.5346452,-75.6871557
Unknown,Unknown,Unknown,Unknown,Unknown,Unknown,Armenia,veterinary,Healthcare Services,Unknown,Unknown,Unknown,4.5553298,-75.657175
Unknown,Unknown,Unknown,Unknown,Unknown,Unknown,Armenia,pharmacy,Healthcare Services,Unknown,Unknown,Unknown,4.5505222,-75.6607006
Colsubsidio,Unknown,Unknown,Unknown,Unknown,Unknown,Armenia,pharmacy,Healthcare Services,Unknown,Unknown,Unknown,4.5460561,-75.6624558
Droguería La 14,Unknown,Unknown,Unknown,Unknown,Unknown,Armenia,pharmacy,pharmacy,Unknown,Unknown,Unknown,4.5368327,-75.6685588
Colsubsidio,Unknown,Unknown,Unknown,Unknown,Unknown,Armenia,pharmacy,pharmacy,Unknown,Unknown,Unknown,4.5407898,-75.6604699
Droguería Profamiliar del pueblo,Unknown,Unknown,Unknown,Unknown,Unknown,Armenia,pharmacy,pharmacy,Unknown,Unknown,Unknown,4.5364553,-75.6732204
Drogas la economia,Unknown,Unknown,Unknown,Unknown,Unknown,Armenia,pharmacy,pharmacy,Unknown,Unknown,Unknown,4.532956,-75.6730708
Famivida,Unknown,Unknown,Unknown,Unknown,Unknown,Armenia,pharmacy,Healthcare Services,Unknown,Unknown,Unknown,4.5367237,-75.670881
El negrito,Unknown,Unknown,Unknown,Unknown,Unknown,Armenia,pharmacy,Healthcare Services,Unknown,Unknown,Unknown,4.5310108,-75.6425837
La droguería caldas,Unknown,Unknown,Unknown,Unknown,Unknown,Armenia,pharmacy,Healthcare Services,Unknown,Unknown,Unknown,4.5237993,-75.6433855
Unknown,Unknown,Unknown,Unknown,Unknown,Unknown,Armenia,dentist,dentist,Unknown,Unknown,Unknown,4.5384091,-75.6686642
C.R.C. Eje Seguro,Unknown,Unknown,Unknown,Unknown,Unknown,Armenia,doctors,Healthcare Services,Unknown,Unknown,Unknown,4.5322063,-75.6395881
Pasteur,Unknown,Unknown,Unknown,Unknown,Unknown,Armenia,pharmacy,pharmacy,Unknown,Unknown,Unknown,4.5610341,-75.6525932
Jeremías García,Unknown,Unknown,Unknown,Unknown,Unknown,Armenia,dentist,dentist,Unknown,Unknown,Unknown,4.525539,-75.6414732
Unknown,Unknown,Unknown,Unknown,Unknown,Unknown,Armenia,pharmacy,pharmacy,Unknown,Unknown,Unknown,4.5262135,-75.6417661
