Name,Full Address,Street,City,Postcode,State,Country,Amenity,Healthcare,Phone,Website,Opening Hours,Latitude,Longitude
St Bernard's Hospital,Unknown,Unknown,Gibraltar,Unknown,Unknown,Gibraltar,hospital,hospital,Unknown,Unknown,Unknown,36.1432246,-5.3594905
Gibraltar Vets,Unknown,Unknown,Unknown,Unknown,Unknown,Gibraltar,veterinary,Healthcare Services,Unknown,Unknown,Unknown,36.1209091,-5.3518327
Farmacia Coello Fdez.,Unknown,Avenida del Ejército,La Línea de la Concepción,11300,Unknown,Gibraltar,pharmacy,pharmacy,+34 956 17 09 70,Unknown,Unknown,36.1594776,-5.349078
Clínica Mir,Unknown,Unknown,La Línea de la Concepción,Unknown,Unknown,Gibraltar,clinic,clinic,Unknown,Unknown,Unknown,36.1617673,-5.3557871
Farmacia G. Duarte,Unknown,Unknown,Unknown,Unknown,Unknown,Gibraltar,pharmacy,pharmacy,Unknown,Unknown,Unknown,36.1629897,-5.3547579
Farmacia Delgado Luque,Unknown,Unknown,La Línea de la Concepción,11300,Unknown,Gibraltar,pharmacy,pharmacy,Unknown,Unknown,Unknown,36.1644744,-5.3565482
Clínica Campos,Unknown,Unknown,Unknown,Unknown,Unknown,Gibraltar,clinic,clinic,Unknown,Unknown,Unknown,36.1610521,-5.3520505
Dr. Mateos,Unknown,Calle Moreno de Mora,La Línea de la Concepción,11300,Unknown,Gibraltar,dentist,dentist,Unknown,Unknown,Unknown,36.1617577,-5.353703
Gibraltar Orthopaedic & Medical Clinic,Unknown,Unknown,Unknown,Unknown,Unknown,Gibraltar,doctors,doctor,Unknown,Unknown,Unknown,36.1426066,-5.3538844
Valmar Pharmacy Europort,Unknown,Europort Road,Gibraltar,GX11 1AA,Unknown,Gibraltar,pharmacy,pharmacy,Unknown,Unknown,Unknown,36.1434097,-5.3577767
The Chiropractic and Laser Clinic,Unknown,Main Street,Unknown,Unknown,Unknown,Gibraltar,clinic,clinic,+35020044226,https://gibraltarbackdoctor.com/,"Mo, We 08:15-16:00; Tu 13:30-15:30; Fr 08:30-10:30; Th 08:15-14:00",36.1442342,-5.3535718
Ocean Pharmacy,Unknown,Ocean Village Avenue,Gibraltar,GX11 1AA,Unknown,Gibraltar,pharmacy,pharmacy,Unknown,Unknown,Unknown,36.1460967,-5.3542091
Trafalgar Pharmacy (Europort),Unknown,Unknown,Unknown,Unknown,Unknown,Gibraltar,pharmacy,pharmacy,Unknown,Unknown,Unknown,36.1424013,-5.3580741
Morrisons Pharmacy,Unknown,Unknown,Unknown,Unknown,Unknown,Gibraltar,pharmacy,pharmacy,Unknown,Unknown,Unknown,36.1443956,-5.3602119
Waterport Pharmacy,Unknown,Unknown,Unknown,Unknown,Unknown,Gibraltar,pharmacy,pharmacy,Unknown,Unknown,Unknown,36.1480412,-5.3585538
Crown Pharmacy,Unknown,Unknown,Unknown,Unknown,Unknown,Gibraltar,pharmacy,pharmacy,Unknown,Unknown,Unknown,36.1445255,-5.3527329
Calpe Pharmacy,Unknown,Unknown,Unknown,Unknown,Unknown,Gibraltar,pharmacy,pharmacy,Unknown,Unknown,Unknown,36.1444301,-5.3532616
Valmar Pharmacy,Unknown,Unknown,Unknown,Unknown,Unknown,Gibraltar,pharmacy,pharmacy,Unknown,Unknown,Unknown,36.1440026,-5.3529355
Omega Pharmacy,Unknown,Unknown,Unknown,Unknown,Unknown,Gibraltar,pharmacy,pharmacy,Unknown,Unknown,Unknown,36.143775,-5.3537025
New Chemist,Unknown,Unknown,Unknown,Unknown,Unknown,Gibraltar,pharmacy,pharmacy,Unknown,Unknown,Unknown,36.143788,-5.3530704
Calpe Pharmacy,Unknown,Unknown,Unknown,Unknown,Unknown,Gibraltar,pharmacy,pharmacy,Unknown,Unknown,Unknown,36.1425021,-5.3531207
Bell Lane,Unknown,Unknown,Unknown,Unknown,Unknown,Gibraltar,pharmacy,pharmacy,Unknown,Unknown,Unknown,36.1417429,-5.3526013
Family Pharmacy,Unknown,Unknown,Unknown,Unknown,Unknown,Gibraltar,pharmacy,pharmacy,Unknown,Unknown,Unknown,36.1414276,-5.3533719
Mill Pharmacy,Unknown,Unknown,Unknown,Unknown,Unknown,Gibraltar,pharmacy,pharmacy,Unknown,Unknown,Unknown,36.140664,-5.3528553
Duty Chemist,Unknown,Unknown,Unknown,Unknown,Unknown,Gibraltar,pharmacy,pharmacy,Unknown,Unknown,Unknown,36.13913,-5.353729
Wesley Pharmacy,Unknown,Unknown,Unknown,Unknown,Unknown,Gibraltar,pharmacy,pharmacy,Unknown,Unknown,Unknown,36.1365906,-5.3530154
Cumberland Pharmacy,Unknown,Unknown,Unknown,Unknown,Unknown,Gibraltar,pharmacy,pharmacy,Unknown,Unknown,Unknown,36.1255892,-5.3528683
Eroski Pharmacy,Unknown,Unknown,Unknown,Unknown,Unknown,Gibraltar,pharmacy,pharmacy,Unknown,Unknown,Unknown,36.1527885,-5.3493495
Trafalgar Pharmacy,Unknown,Unknown,Unknown,Unknown,Unknown,Gibraltar,pharmacy,pharmacy,Unknown,Unknown,Unknown,36.1432435,-5.3532901
Midtown Clinic,Unknown,Queensway,Unknown,Unknown,Unknown,Gibraltar,clinic,clinic,+350 200 62222,https://midtownclinic.gi/,Mo-Fr 08:00-20:00,36.1415202,-5.3557224
Clínica Veterinaria Albatros,Unknown,Calle del Sol,La Línea de la Concepción,11300,Unknown,Gibraltar,veterinary,Healthcare Services,Unknown,Unknown,Unknown,36.1628203,-5.3538946
Clínica Universal,Unknown,Pasaje Universal,La Línea de la Concepción,11300,Unknown,Gibraltar,clinic,clinic,Unknown,Unknown,Unknown,36.1651376,-5.3478953
Doctor Rodríguez Comino,Unknown,Calle Luxemburgo,La Línea de la Concepción,11300,Unknown,Gibraltar,dentist,dentist,Unknown,Unknown,Unknown,36.1701169,-5.3447379
Farmacia Orozco,Unknown,Calle Calderón de la Barca,La Línea de la Concepción,11300,Unknown,Gibraltar,pharmacy,pharmacy,Unknown,Unknown,Unknown,36.1720354,-5.3469837
Sara Rato,Unknown,Calle Méndez Núñez,La Línea de la Concepción,11300,Unknown,Gibraltar,dentist,dentist,Unknown,Unknown,Unknown,36.1617539,-5.3533579
Farmacia Las Flores,Unknown,Calle Aurora,La Línea de la Concepción,11300,Unknown,Gibraltar,pharmacy,pharmacy,+34 956 17 28 37,Unknown,"Mo-Fr 09:00-13:30,16:30-20:00; Sa 09:00-13:30",36.163432,-5.3500599
Cínica Dental Febrero,Unknown,Unknown,Unknown,Unknown,Unknown,Gibraltar,dentist,dentist,Unknown,Unknown,Unknown,36.1607725,-5.3507707
Farmacia Calvo Vadayo,Unknown,Calle Doctor Villar,La Línea de la Concepción,11300,Unknown,Gibraltar,pharmacy,pharmacy,Unknown,Unknown,Unknown,36.1608536,-5.3508722
Farmacia E. Orozco,Unknown,Avenida Menéndez Pelayo,La Línea de la Concepción,11300,Unknown,Gibraltar,pharmacy,pharmacy,+34 956 76 33 77,https://www.farmaciaorozco.com,Unknown,36.1625704,-5.3442563
Policlínica Europa,Unknown,Avenida de España,La Línea de la Concepción,11300,Unknown,Gibraltar,clinic,clinic,Unknown,Unknown,Unknown,36.1608562,-5.3513393
Clínica Dental Centro,Unknown,Calle Real,La Línea de la Concepción,11300,Unknown,Gibraltar,dentist,dentist,Unknown,Unknown,Unknown,36.1618128,-5.3509294
Clínica Dental Crooke,Unknown,Plaza de la Iglesia esquina Calle Real,La Línea de la Concepción,11300,Unknown,Gibraltar,dentist,dentist,Unknown,Unknown,Unknown,36.1619758,-5.3512563
Farmacia Nestares,Unknown,Calle Real,La Línea de la Concepción,11300,Unknown,Gibraltar,pharmacy,pharmacy,Unknown,Unknown,Unknown,36.1615617,-5.3488091
Vivanta Dental,Unknown,Calle Feria,La Línea de la Concepción,11300,Unknown,Gibraltar,dentist,dentist,Unknown,Unknown,Unknown,36.1664127,-5.3475902
Farmacia La Velada,Unknown,Calle Feria,La Línea de la Concepción,11300,Unknown,Gibraltar,pharmacy,pharmacy,Unknown,Unknown,Unknown,36.1662484,-5.3476026
Doctor Espinell,Unknown,Calle Real,La Línea de la Concepción,11300,Unknown,Gibraltar,dentist,dentist,+34 956 17 42 25,Unknown,Unknown,36.1613013,-5.3487769
Reconocimiento de Conductores Inmaculada,Unknown,Avenida Príncipe de Asturias,La Línea de la Concepción,11300,Unknown,Gibraltar,doctors,doctor,+34 956 17 34 77,Unknown,Unknown,36.1563375,-5.3504651
DragoFarmacia,Unknown,Avenida del Ejército,La Línea de la Concepción,11300,Unknown,Gibraltar,pharmacy,pharmacy,Unknown,Unknown,Unknown,36.1599532,-5.3464558
Resonancia La Inmaculada,Unknown,Paseo Andrés Viñas,La Línea de la Concepción,11300,Unknown,Gibraltar,doctors,doctor,Unknown,Unknown,Unknown,36.1611934,-5.3546707
Farmacia Luis Braile,Unknown,Unknown,La Línea de la Concepción,11300,Unknown,Gibraltar,pharmacy,pharmacy,Unknown,Unknown,Unknown,36.1656033,-5.3518379
Farmacia San Pablo,Unknown,Calle San Pablo,La Línea de la Concepción,11300,Unknown,Gibraltar,pharmacy,pharmacy,Unknown,Unknown,Unknown,36.1640107,-5.3492437
Vitaldent,Unknown,Calle San Pablo,La Línea de la Concepción,11300,Unknown,Gibraltar,dentist,dentist,Unknown,Unknown,Unknown,36.1642025,-5.3492238
Farmacia Arredondo,Unknown,Calle Jardines,La Línea de la Concepción,11300,Unknown,Gibraltar,pharmacy,pharmacy,+34 956 76 62 05,https://farmaciaslalinea.com/,Unknown,36.1620527,-5.3465206
Nigury Centre,Unknown,Avenida del Ejército,La Línea de la Concepción,11300,Unknown,Gibraltar,veterinary,Healthcare Services,Unknown,Unknown,Unknown,36.1594668,-5.3487899
Clínica Veterinaria Zoolínea,Unknown,Unknown,Unknown,Unknown,Unknown,Gibraltar,veterinary,Healthcare Services,Unknown,Unknown,Unknown,36.1648335,-5.3475662
Farmacia Clavel,Unknown,Unknown,Unknown,Unknown,Unknown,Gibraltar,pharmacy,pharmacy,Unknown,Unknown,Unknown,36.1629262,-5.3481891
Centro Dental Jardines,Unknown,Calle Jardines,La Línea de la Concepción,11300,Unknown,Gibraltar,dentist,dentist,Unknown,https://www.dentaljardines.es/,Unknown,36.1621365,-5.3467992
Hugo Conza,Unknown,Calle Rafael de León,La Línea de la Concepción,11300,Unknown,Gibraltar,dentist,dentist,Unknown,Unknown,Unknown,36.1612462,-5.3519538
Clínica Dental Creador de Sonrisas,Unknown,Calle del Teatro,La Línea de la Concepción,11300,Unknown,Gibraltar,dentist,dentist,Unknown,Unknown,Unknown,36.1637501,-5.3484466
Clínica Dental Dr. Ramiro,Unknown,Calle del Ángel,La Línea de la Concepción,11300,Unknown,Gibraltar,dentist,dentist,Unknown,Unknown,Unknown,36.1637859,-5.3495031
