Name,Full Address,Street,City,Postcode,State,Country,Amenity,Healthcare,Phone,Website,Opening Hours,Latitude,Longitude
Orient,Unknown,Strada Vasile Alecsandri,Chișinău,Unknown,Unknown,"Moldova, Republic of",pharmacy,pharmacy,Unknown,Unknown,Mo-Su 08:00-20:30,47.018782,28.8353987
Iuta,Unknown,Bulevardul Dacia,Chișinău,MD-2043,Unknown,"Moldova, Republic of",pharmacy,pharmacy,Unknown,Unknown,Unknown,46.9873165,28.8547879
Unknown,Unknown,Unknown,Chișinău,Unknown,Unknown,"Moldova, Republic of",veterinary,Healthcare Services,Unknown,Unknown,Unknown,46.9846291,28.8561827
Felicia,Unknown,Șoseaua Hâncești,Chișinău,Unknown,Unknown,"Moldova, Republic of",pharmacy,pharmacy,Unknown,Unknown,24/7,47.0020588,28.8158199
Farmacia mea,Unknown,Unknown,Unknown,Unknown,Unknown,"Moldova, Republic of",pharmacy,pharmacy,Unknown,Unknown,Unknown,46.9990757,28.8086476
Panax-Ginseng,Unknown,Șoseaua Hâncești,Chișinău,MD-2021,Unknown,"Moldova, Republic of",pharmacy,pharmacy,Unknown,Unknown,Unknown,46.999042,28.8041772
Elody,Unknown,Strada Lech Kaczynski,Chișinău,MD-2028,Unknown,"Moldova, Republic of",pharmacy,pharmacy,Unknown,Unknown,Mo-Fr 08:00-20:30; Sa-Su 09:00-20:30,47.000576,28.8118433
Orient,Unknown,Bulevardul Traian,Chișinău,Unknown,Unknown,"Moldova, Republic of",pharmacy,pharmacy,Unknown,Unknown,Unknown,46.9851798,28.8568278
Orient,Unknown,Bulevardul Traian,Chișinău,Unknown,Unknown,"Moldova, Republic of",pharmacy,pharmacy,Unknown,Unknown,Unknown,46.981716,28.8518319
Farmacia Felicia,Unknown,Strada Alexandr Pușkin,Chișinău,MD-2012,Unknown,"Moldova, Republic of",pharmacy,pharmacy,Unknown,Unknown,Unknown,47.0268946,28.8380609
Felicia,Unknown,Strada Kiev,Chișinău,Unknown,Unknown,"Moldova, Republic of",pharmacy,pharmacy,Unknown,Unknown,Unknown,47.0437626,28.8608191
Hippocrates,Unknown,Strada Tiraspol,Chișinău,Unknown,Unknown,"Moldova, Republic of",pharmacy,pharmacy,Unknown,https://hippocrates.md/,Mo-Su 09:00-22:00,47.0134405,28.8560996
Elody,Unknown,Strada Petru Zadnipru,Chișinău,Unknown,Unknown,"Moldova, Republic of",pharmacy,pharmacy,Unknown,Unknown,Unknown,47.0438018,28.8831676
Unknown,Unknown,Unknown,Chișinău,Unknown,Unknown,"Moldova, Republic of",dentist,dentist,Unknown,Unknown,Unknown,47.0435873,28.8835552
Hippocrates,Unknown,Strada Vasile Lupu,Chișinău,MD-2008,Unknown,"Moldova, Republic of",pharmacy,pharmacy,Unknown,Unknown,Unknown,47.0217921,28.8053602
Elody,Unknown,Bulevardul Moscova,Chișinău,Unknown,Unknown,"Moldova, Republic of",pharmacy,pharmacy,+373 22 446264,https://elody.md,Mo-Su 08:00-22:00,47.0466259,28.8618769
Apoteka,Unknown,Strada Miron Costin,Chișinău,Unknown,Unknown,"Moldova, Republic of",pharmacy,pharmacy,Unknown,Unknown,Unknown,47.0495382,28.8617287
Hippocrates,Unknown,Bulevardul Moscova,Chișinău,MD-2068,Unknown,"Moldova, Republic of",pharmacy,pharmacy,Unknown,Unknown,Unknown,47.0492933,28.8639615
Farmacia Familiei,Unknown,Bulevardul Moscova,Chișinău,MD-2068,Unknown,"Moldova, Republic of",pharmacy,pharmacy,+373 22 329 665,https://ff.md/,Mo-Su 08:00-22:00,47.0539001,28.8656065
Elody,Unknown,Bulevardul Moscova,Chișinău,Unknown,Unknown,"Moldova, Republic of",pharmacy,pharmacy,+373 22 027 563,https://elody.md,08:00-22:00,47.0558969,28.8647093
Orient,Unknown,Strada Matei Basarab,Chișinău,MD-2045,Unknown,"Moldova, Republic of",pharmacy,pharmacy,Unknown,https://orient.md,Unknown,47.0548134,28.8692619
Peon,Unknown,Strada Studenților,Chișinău,MD-2045,Unknown,"Moldova, Republic of",pharmacy,pharmacy,Unknown,Unknown,Unknown,47.060778,28.8651335
Unknown,Unknown,Unknown,Chișinău,Unknown,Unknown,"Moldova, Republic of",pharmacy,pharmacy,Unknown,Unknown,Unknown,47.0561009,28.8660971
Felicia,Unknown,Bulevardul Moscova,Chișinău,Unknown,Unknown,"Moldova, Republic of",pharmacy,pharmacy,+373 22 322 799,https://felicia.md/,08:00-22:00,47.0547981,28.8650464
Dispensarul Municipal Dermato-Venerologic,Unknown,Strada Columna,Chișinău,MD-2001,Unknown,"Moldova, Republic of",hospital,hospital,Unknown,Unknown,Unknown,47.0182462,28.848198
Comisia medicală a conducătorilor mijloacelor de transport,Unknown,Strada Ismail,Chișinău,MD-2001,Unknown,"Moldova, Republic of",hospital,hospital,Unknown,https://www.comisieauto.md/,Unknown,47.0180662,28.8484489
Felicia,Unknown,Strada Ion Creangă,Chișinău,Unknown,Unknown,"Moldova, Republic of",pharmacy,pharmacy,+373 22 716 068,https://felicia.md/,24/7,47.0270085,28.7937834
Farmacia Familiei,Unknown,Bulevardul Moscova,Chișinău,MD-2068,Unknown,"Moldova, Republic of",pharmacy,pharmacy,Unknown,Unknown,Unknown,47.0454498,28.8614111
Orient,Unknown,Unknown,Chișinău,Unknown,Unknown,"Moldova, Republic of",pharmacy,pharmacy,Unknown,Unknown,Mo-Su 08:00-20:30,46.99059,28.8274509
Lazarus,Unknown,Unknown,Chișinău,Unknown,Unknown,"Moldova, Republic of",pharmacy,pharmacy,Unknown,Unknown,Unknown,47.0556188,28.8661491
Felicia,Unknown,Strada Alexei Șciusev,Chișinău,Unknown,Unknown,"Moldova, Republic of",pharmacy,pharmacy,Unknown,https://felicia.md/,Mo-Su 08:00-20:00,47.0188,28.8292476
Farmacia Felicia,Unknown,Bulevardul Ștefan cel Mare și Sfânt,Chișinău,Unknown,Unknown,"Moldova, Republic of",pharmacy,pharmacy,Unknown,Unknown,Unknown,47.021181,28.8379598
Valincea,Unknown,Strada Bulgară,Chișinău,Unknown,Unknown,"Moldova, Republic of",clinic,clinic,Unknown,Unknown,Unknown,47.0175026,28.8398045
Felicia,Unknown,Unknown,Chișinău,Unknown,Unknown,"Moldova, Republic of",pharmacy,pharmacy,Unknown,Unknown,Unknown,46.992089,28.8664684
Hippocrates,Unknown,Strada Socoleni,Chișinău,Unknown,Unknown,"Moldova, Republic of",pharmacy,pharmacy,Unknown,Unknown,Unknown,47.0624083,28.8493122
Farmacia Familiei,Unknown,Strada Miorița,Chișinău,Unknown,Unknown,"Moldova, Republic of",pharmacy,pharmacy,Unknown,Unknown,Unknown,46.9926626,28.819657
Felicia,Unknown,Strada Gheorghe Asachi,Chișinău,Unknown,Unknown,"Moldova, Republic of",pharmacy,pharmacy,Unknown,Unknown,Mo-Su 08:00-22:00,46.9932899,28.8201813
Elody,Unknown,Unknown,Chișinău,Unknown,Unknown,"Moldova, Republic of",pharmacy,pharmacy,Unknown,Unknown,Unknown,47.0171904,28.8472628
Hippocrates,Unknown,Strada Ismail,Chișinău,Unknown,Unknown,"Moldova, Republic of",pharmacy,pharmacy,Unknown,https://www.hippocrates.md/,Mo-Su 08:00-21:00,47.0168026,28.8480208
Elody,Unknown,Strada Ismail,Chișinău,Unknown,Unknown,"Moldova, Republic of",pharmacy,pharmacy,Unknown,Unknown,Unknown,47.0182278,28.8500647
Orient,Unknown,Unknown,Chișinău,MD-2028,Unknown,"Moldova, Republic of",pharmacy,pharmacy,Unknown,Unknown,Mo-Su 08:00-21:30,47.0022086,28.8192272
Clinica Veterinară „Nicoleta-Lux”,Unknown,Strada Mihai Eminescu,Chișinău,Unknown,Unknown,"Moldova, Republic of",veterinary,Healthcare Services,Unknown,Unknown,Unknown,47.0173904,28.8301978
Centrul Medical „Fluid“,Unknown,Strada București,Chișinău,MD-2012,Unknown,"Moldova, Republic of",hospital,hospital,+373 22 226 186,https://fluid.md/,Mo-Fr 09:00-18:00; Sa 09:00-14:00,47.0207911,28.8307281
Unknown,Unknown,Unknown,Unknown,Unknown,Unknown,"Moldova, Republic of",pharmacy,Healthcare Services,Unknown,Unknown,Unknown,47.0531378,28.8469822
Farmacia Familiei,Unknown,Strada Gheorghe Asachi,Chișinău,Unknown,Unknown,"Moldova, Republic of",pharmacy,pharmacy,Unknown,Unknown,Mo-Fr 08:00-22:00; Sa-Su 09:00-21:00,47.0016106,28.8219732
Orient,Unknown,Strada Melestiu,Chișinău,Unknown,Unknown,"Moldova, Republic of",pharmacy,pharmacy,Unknown,Unknown,Mo-Su 08:00-20:30,47.0049219,28.8421327
Felicia,Unknown,Unknown,Chișinău,Unknown,Unknown,"Moldova, Republic of",pharmacy,pharmacy,Unknown,Unknown,Unknown,47.0623035,28.8461339
Fala-Dental Srl,Unknown,Unknown,Chișinău,Unknown,Unknown,"Moldova, Republic of",dentist,dentist,+37322270536,Unknown,Unknown,47.0144499,28.838498
Felicia,Unknown,Unknown,Chișinău,Unknown,Unknown,"Moldova, Republic of",pharmacy,pharmacy,Unknown,https://felicia.md/,Unknown,47.0109202,28.8422136
Orient,Unknown,Strada Aleksandr Pușkin,Chișinău,Unknown,Unknown,"Moldova, Republic of",pharmacy,pharmacy,Unknown,Unknown,Unknown,47.027666,28.8399988
Orient,Unknown,Unknown,Chișinău,Unknown,Unknown,"Moldova, Republic of",pharmacy,pharmacy,Unknown,Unknown,Unknown,46.9944185,28.8682769
Felicia,Unknown,Bulevardul Dacia,Chișinău,Unknown,Unknown,"Moldova, Republic of",pharmacy,pharmacy,Unknown,Unknown,Mo-Su 09:00-21:00,46.9872553,28.8564188
Farmacia Familiei,Unknown,Strada Alba Iulia,Chișinău,Unknown,Unknown,"Moldova, Republic of",pharmacy,pharmacy,+373 22 592 315,https://ff.md/,Mo-Su 08:00-23:00,47.035923,28.7758596
Apoteka,Unknown,Strada Ion Creangă,Chișinău,MD-2064,Unknown,"Moldova, Republic of",pharmacy,pharmacy,Unknown,Unknown,Unknown,47.032501,28.8051214
Orient,Unknown,Strada Ion Creangă,Chișinău,Unknown,Unknown,"Moldova, Republic of",pharmacy,pharmacy,Unknown,Unknown,Unknown,47.0320815,28.8050042
Felicia,Unknown,Strada Calea Orheiului,Chișinău,Unknown,Unknown,"Moldova, Republic of",pharmacy,pharmacy,Unknown,Unknown,Unknown,47.0552735,28.848991
Centrul de Diagnostic German,Unknown,Bulevardul Constantin Negruzzi,Chișinău,Unknown,Unknown,"Moldova, Republic of",hospital,hospital,Unknown,Unknown,Mo-Fr 08:00-22:00; Sa 08:00-16:00,47.0139232,28.8518596
Orient,Unknown,Strada Mitropolit Gavriil Bănulescu-Bodoni,Chișinău,MD-2012,Unknown,"Moldova, Republic of",pharmacy,pharmacy,Unknown,https://www.orient.md,Mo-Su 08:00-20:30,47.0273046,28.8332205
Felicia,Unknown,Bulevardul Grigore Vieru,Chișinău,Unknown,Unknown,"Moldova, Republic of",pharmacy,pharmacy,+373 22 202 600,https://felicia.md/,Mo-Su 08:00-20:00,47.0295876,28.8391042
Hippocrates,Unknown,Strada Alba-Iulia,Chișinău,Unknown,Unknown,"Moldova, Republic of",pharmacy,pharmacy,Unknown,Unknown,Unknown,47.0380573,28.7700688
Farmacia Balkan,Unknown,Strada Nicolae Testemițanu,Chișinău,Unknown,Unknown,"Moldova, Republic of",pharmacy,pharmacy,Unknown,Unknown,Unknown,46.9936198,28.8308585
Farmacia Familiei,Unknown,Bulevardul Dacia,Chișinău,Unknown,Unknown,"Moldova, Republic of",pharmacy,pharmacy,Unknown,https://farmaciafamiliei.md/ro/,Unknown,46.9915863,28.8517867
Hippocrates,Unknown,Strada Nikolai Zelinski,Chișinău,Unknown,Unknown,"Moldova, Republic of",pharmacy,pharmacy,022 52-21-13,Unknown,Mo-Fr 08:00-21:00; Sa-Su 09:00-18:00,46.993781,28.8502224
Felicia,Unknown,Bulevardul Dacia,Chișinău,Unknown,Unknown,"Moldova, Republic of",pharmacy,pharmacy,Unknown,https://felicia.md/,Unknown,46.9900549,28.8505204
Orient,Unknown,Bulevardul Ștefan cel Mare și Sfânt,Chișinău,MD-2001,Unknown,"Moldova, Republic of",pharmacy,pharmacy,Unknown,Unknown,Mo-Su 08:00-20:30,47.0168177,28.843264
Apoteka,Unknown,Strada Armenească,Chișinău,Unknown,Unknown,"Moldova, Republic of",pharmacy,pharmacy,+373 22 277 387,Unknown,Unknown,47.019063,28.8380843
Mama,Unknown,Unknown,Chișinău,Unknown,Unknown,"Moldova, Republic of",pharmacy,pharmacy,Unknown,Unknown,Mo-Su 07:00-21:00,47.0122679,28.857581
Orient,Unknown,Unknown,Chișinău,Unknown,Unknown,"Moldova, Republic of",pharmacy,pharmacy,Unknown,Unknown,Unknown,47.0084105,28.828254
Felicia,Unknown,Bulevardul Grigore Vieru,Chișinău,MD-2005,Unknown,"Moldova, Republic of",pharmacy,pharmacy,Unknown,Unknown,Unknown,47.0313207,28.8416307
Farmacia Familiei,Unknown,Bulevardul Ștefan cel Mare și Sfânt,Chișinău,MD-2012,Unknown,"Moldova, Republic of",pharmacy,pharmacy,Unknown,https://farmaciafamiliei.md,Mo-Su 08:00-22:00,47.0261678,28.8305502
Felicia,Unknown,Strada Nicolae Testemițanu,Chișinău,MD-2025,Unknown,"Moldova, Republic of",pharmacy,pharmacy,+37322739783,https://felicia.md/,Unknown,46.9950708,28.8322721
Hippocrates,Unknown,Strada Vasili Dokuceaev,Chișinau,MD-2028,Unknown,"Moldova, Republic of",pharmacy,pharmacy,Unknown,https://www.hippocrates.md/,Mo-Su 08:00-22:00,47.0027144,28.8177006
Felicia,Unknown,Unknown,Chișinău,Unknown,Unknown,"Moldova, Republic of",pharmacy,pharmacy,Unknown,Unknown,Unknown,46.9933273,28.8645522
Elody,Unknown,Strada Ion Creangă,Chișinău,MD-2064,Unknown,"Moldova, Republic of",pharmacy,pharmacy,+373 22 358 453,https://farmacie.md,Mo-Fr 08:00-20:00; Sa-Su 08:00-17:00,47.0370655,28.8121108
Elody,Unknown,Strada Romană,Chișinău,Unknown,Unknown,"Moldova, Republic of",pharmacy,pharmacy,Unknown,https://www.elody.md,Unknown,47.0315186,28.8444365
Apoteka,Unknown,Unknown,Chișinău,Unknown,Unknown,"Moldova, Republic of",pharmacy,Healthcare Services,Unknown,Unknown,Mo-Su 08:00-21:00,47.0111559,28.8588276
Orient,Unknown,Bulevardul Iuri Gagarin,Chișinău,Unknown,Unknown,"Moldova, Republic of",pharmacy,pharmacy,Unknown,https://www.orient.md,Mo-Su 08:00-20:30,47.0130586,28.8562475
Centrul Sănătății Familiei „Galaxia”,Unknown,Strada Alexandru cel Bun,Chișinău,Unknown,Unknown,"Moldova, Republic of",clinic,clinic,+373 22 858 500,https://galaxia.md/,Mo-Fr 08:00-19:00; Sa 08:00-13:00,47.0246151,28.8416094
Hippocrates,Unknown,Strada Nicolai Zelinski,Chișinău,Unknown,Unknown,"Moldova, Republic of",pharmacy,pharmacy,Unknown,Unknown,Unknown,46.9924887,28.8652221
Orient,Unknown,Strada Ion Creangă,Chișinău,Unknown,Unknown,"Moldova, Republic of",pharmacy,pharmacy,Unknown,https://www.orient.md,Unknown,47.0288042,28.7982095
Mama,Unknown,Strada Alexandr Pușkin,Chișinău,MD-2012,Unknown,"Moldova, Republic of",pharmacy,pharmacy,Unknown,Unknown,Unknown,47.0228078,28.8329083
Hippocrates,Unknown,Strada Calea Orheiului,Chișinău,MD-2059,Unknown,"Moldova, Republic of",pharmacy,pharmacy,Unknown,https://www.hippocrates.md/,08:00-20:00,47.0537983,28.8499934
Unknown,Unknown,Unknown,Chișinău,Unknown,Unknown,"Moldova, Republic of",pharmacy,pharmacy,Unknown,Unknown,Unknown,47.0191908,28.852498
Felicia,Unknown,Strada Iazului,Chișinău,MD-2020,Unknown,"Moldova, Republic of",pharmacy,pharmacy,Unknown,https://felicia.md/,Unknown,47.0574117,28.8472151
Felicia,Unknown,Bulevardul Moscova,Chișinău,Unknown,Unknown,"Moldova, Republic of",pharmacy,pharmacy,Unknown,Unknown,Unknown,47.0492896,28.8628024
Elody,Unknown,Strada Constantin Brâncuși,Chișinău,Unknown,Unknown,"Moldova, Republic of",pharmacy,pharmacy,Unknown,Unknown,Unknown,46.9892361,28.8591239
Farmacia Familiei,Unknown,Bulevardul Dacia,Chișinău,MD-2038,Unknown,"Moldova, Republic of",pharmacy,pharmacy,Unknown,Unknown,Unknown,46.991604,28.8527155
Unknown,Unknown,Bulevardul Dacia,Chișinău,Unknown,Unknown,"Moldova, Republic of",pharmacy,pharmacy,Unknown,Unknown,Unknown,46.9912487,28.851088
Orient,Unknown,Unknown,Chișinău,Unknown,Unknown,"Moldova, Republic of",pharmacy,pharmacy,Unknown,Unknown,Unknown,47.0442037,28.8597121
Felicia,Unknown,Șoseaua Hâncești,Chișinău,Unknown,Unknown,"Moldova, Republic of",pharmacy,pharmacy,Unknown,Unknown,Mo-Su 08:00-22:00,47.0049223,28.8212403
Orient,Unknown,Strada Mitropolit Gavriil Bănulescu-Bodoni,Chișinău,Unknown,Unknown,"Moldova, Republic of",pharmacy,pharmacy,+373 22 225 722,https://www.orient.md,Mo-Su 08:00-20:30,47.0222713,28.8259624
Felicia,Unknown,Strada Alexei Șciusev,Chișinău,Unknown,Unknown,"Moldova, Republic of",pharmacy,pharmacy,Unknown,Unknown,Mo-Su 08:00-22:00,47.0244627,28.8213376
Mama,Unknown,Strada Vasili Dokuceaev,Chișinău,MD-2028,Unknown,"Moldova, Republic of",pharmacy,pharmacy,Unknown,Unknown,Unknown,47.0021557,28.8183217
Casa Farm,Unknown,Strada Gheorghe Asachi,Chișinău,Unknown,Unknown,"Moldova, Republic of",pharmacy,pharmacy,Unknown,Unknown,Unknown,47.0062334,28.8262057
Felicia,Unknown,Unknown,Unknown,Unknown,Unknown,"Moldova, Republic of",pharmacy,pharmacy,Unknown,Unknown,Mo-Su 08:00-21:00,47.0092219,28.8361751
Felicia,Unknown,Unknown,Chișinău,Unknown,Unknown,"Moldova, Republic of",pharmacy,pharmacy,+373 22 443 999;+373 30 000 442,https://felicia.md/,Mo-Su 08:00-21:00,47.0503457,28.8654411
Hippocrates,Unknown,Strada Miron Costin,Chișinău,MD-2068,Unknown,"Moldova, Republic of",pharmacy,pharmacy,Unknown,https://www.hippocrates.md/,Mo-Su 08:00-21:00,47.0505466,28.8643753
Farmacia Universitară,Unknown,Unknown,Chișinău,Unknown,Unknown,"Moldova, Republic of",pharmacy,pharmacy,Unknown,Unknown,Unknown,46.9946152,28.8312078
Orient,Unknown,Strada Nicolae Testemițanu,Chișinău,Unknown,Unknown,"Moldova, Republic of",pharmacy,pharmacy,Unknown,Unknown,Mo-Su 08:00-20:30,46.9951563,28.8318237
Farmacia Familiei,Unknown,Unknown,Chișinău,Unknown,Unknown,"Moldova, Republic of",pharmacy,pharmacy,Unknown,Unknown,Unknown,47.0374327,28.8878747
Galodent-M,Unknown,Strada Maria Cebotari,Chișinău,Unknown,Unknown,"Moldova, Republic of",dentist,dentist,Unknown,http://www.galodent.md,Unknown,47.0239196,28.8225864
Famacia Familiei,Unknown,Strada Mitropolit Gavriil Bănulescu-Bodoni,Chișinău,Unknown,Unknown,"Moldova, Republic of",pharmacy,pharmacy,Unknown,https://farmaciafamiliei.md,Mo-Su 08:00-22:00,47.0291683,28.8356573
Farmacia Familiei,Unknown,Strada Grenoble,Chișinău,Unknown,Unknown,"Moldova, Republic of",pharmacy,pharmacy,Unknown,https://ff.md/,Mo-Su 08:00-22:00,46.979675,28.8372671
Elody,Unknown,Strada Alexandru cel Bun,Chișinău,Unknown,Unknown,"Moldova, Republic of",pharmacy,pharmacy,Unknown,Unknown,Unknown,47.0251826,28.8407275
Farmacia Familiei,Unknown,Strada Calea Ieșilor,Chișinău,Unknown,Unknown,"Moldova, Republic of",pharmacy,pharmacy,Unknown,Unknown,Unknown,47.0429853,28.7940308
Felicia,Unknown,Strada Gheorghe Asachi,Chișinău,Unknown,Unknown,"Moldova, Republic of",pharmacy,pharmacy,Unknown,Unknown,Mo-Su 08:00-22:00,47.0011492,28.8220197
Felicia,Unknown,Bulevardul Renașterii Naționale,Chișinău,Unknown,Unknown,"Moldova, Republic of",pharmacy,pharmacy,Unknown,Unknown,Unknown,47.0358554,28.8496842
Felicia,Unknown,Strada Tighina,Chișinău,Unknown,Unknown,"Moldova, Republic of",pharmacy,pharmacy,Unknown,Unknown,Unknown,47.0194263,28.8469583
Felicia,Unknown,Strada Vasile Lupu,Chișinău,Unknown,Unknown,"Moldova, Republic of",pharmacy,pharmacy,Unknown,Unknown,Unknown,47.0217263,28.8007989
VetAsist,Unknown,Strada Vasile Lupu,Chișinău,MD-2008,Unknown,"Moldova, Republic of",veterinary,Healthcare Services,Unknown,https://www.vetasist.com.md,Unknown,47.0217009,28.8003994
Mama,Unknown,Strada Cornului,Chișinău,MD-2008,Unknown,"Moldova, Republic of",pharmacy,pharmacy,Unknown,Unknown,Unknown,47.019806,28.7958383
Gedeon Richter,Unknown,Unknown,Chișinău,Unknown,Unknown,"Moldova, Republic of",pharmacy,pharmacy,Unknown,Unknown,Mo-Su 08:00-20:00,47.0016807,28.816208
Beethoven,Unknown,Unknown,Chișinău,Unknown,Unknown,"Moldova, Republic of",veterinary,Healthcare Services,Unknown,Unknown,09:00-19:00,47.0026539,28.8146547
Drumul Viilor,Unknown,Unknown,Chișinău,Unknown,Unknown,"Moldova, Republic of",pharmacy,pharmacy,Unknown,Unknown,Mo-Fr 08:00-19:00; Sa 08:00-16:00,47.0080824,28.817039
Hippocrates,Unknown,Unknown,Chișinău,Unknown,Unknown,"Moldova, Republic of",pharmacy,pharmacy,Unknown,Unknown,08:00-20:00,47.0022747,28.815091
Felicia,Unknown,Strada Drumul Viilor,Chișinău,Unknown,Unknown,"Moldova, Republic of",pharmacy,pharmacy,Unknown,Unknown,08:00-22:00,47.0101823,28.8205791
Felicia,Unknown,Unknown,Chișinău,Unknown,Unknown,"Moldova, Republic of",pharmacy,pharmacy,Unknown,Unknown,Unknown,47.0315349,28.8226877
Farmacia Rom-Farm,Unknown,Bulevardul Ștefan cel Mare și Sfânt,Chișinău,Unknown,Unknown,"Moldova, Republic of",pharmacy,pharmacy,Unknown,Unknown,Unknown,47.0320094,28.8217864
Farmacia Familiei,Unknown,Strada Columna,Chișinău,Unknown,Unknown,"Moldova, Republic of",pharmacy,pharmacy,Unknown,Unknown,Unknown,47.0183761,28.8485147
Hippocrates,Unknown,Strada Mitropolit Varlaam,Chișinău,Unknown,Unknown,"Moldova, Republic of",pharmacy,pharmacy,Unknown,https://www.hippocrates.md/,Mo-Su 07:00-19:00,47.0174154,28.8475983
Salutaris Farm,Unknown,Strada Tighina,Chișinău,Unknown,Unknown,"Moldova, Republic of",pharmacy,pharmacy,Unknown,Unknown,Unknown,47.0202141,28.84579
Elody,Unknown,Strada Aerodromului,Chișinău,Unknown,Unknown,"Moldova, Republic of",pharmacy,pharmacy,Unknown,Unknown,Unknown,47.0365809,28.8569122
Farmacia Mama,Unknown,Strada Miron Costin,Chișinău,Unknown,Unknown,"Moldova, Republic of",pharmacy,pharmacy,Unknown,Unknown,Unknown,47.0505166,28.8678189
Zâmbet 32,Unknown,Strada București,Chișinău,MD-2012,Unknown,"Moldova, Republic of",dentist,dentist,+37322220709,https://zimbet32.md/,Unknown,47.0195228,28.8315629
Felicia,Unknown,Strada Tudor Vladimirescu,Durlești,Unknown,Unknown,"Moldova, Republic of",pharmacy,pharmacy,+373 22 322 799,https://felicia.md/,Unknown,47.0270607,28.7733425
Timox-Dent,Unknown,Strada Aleksandr Pușkin,Chișinău,Unknown,Unknown,"Moldova, Republic of",dentist,dentist,Unknown,Unknown,Unknown,47.0192977,28.8274356
3D Diagnostic,Unknown,Strada Aleksandr Pușkin,Chișinău,Unknown,Unknown,"Moldova, Republic of",clinic,clinic,Unknown,Unknown,Unknown,47.018914,28.8273874
Farmacia Mama,Unknown,Strada Vasile Alecsandri,Chișinău,Unknown,Unknown,"Moldova, Republic of",pharmacy,pharmacy,Unknown,Unknown,Unknown,47.0215529,28.8388913
Orient,Unknown,Strada 31 August 1989,Chișinău,MD-2001,Unknown,"Moldova, Republic of",pharmacy,pharmacy,Unknown,Unknown,Unknown,47.0164444,28.8390303
Farmacia Ginseng,Unknown,Strada Socoleni,Chișinău,MD-2020,Unknown,"Moldova, Republic of",pharmacy,pharmacy,Unknown,Unknown,Mo-Su 08:00-21:00,47.062423,28.8453038
Farmacia Familiei,Unknown,Strada Socoleni,Chișinău,MD-2020,Unknown,"Moldova, Republic of",pharmacy,pharmacy,Unknown,Unknown,8:00-22:00,47.0617903,28.8444387
Ladona,Unknown,Strada Ceucari,Chișinău,Unknown,Unknown,"Moldova, Republic of",pharmacy,pharmacy,Unknown,Unknown,8:00-21:00,47.0596603,28.8477533
Elody,Unknown,str. Calea Orheiului,Unknown,Unknown,Unknown,"Moldova, Republic of",pharmacy,Healthcare Services,Unknown,https://farmacie.md/,"Mo-Fr 08:00-20:00; Sa,Su 09:00-18:00",47.0560171,28.8517747
Felicia,Unknown,Strada Aleksandr Pușkin,Chișinău,Unknown,Unknown,"Moldova, Republic of",pharmacy,pharmacy,Unknown,https://felicia.md/,Unknown,47.0244029,28.8352225
Orient,Unknown,Unknown,Chișinău,Unknown,Unknown,"Moldova, Republic of",pharmacy,pharmacy,Unknown,Unknown,Unknown,47.021934,28.8427099
Orient,Unknown,Strada Aleksandr Pușkin,Chișinău,Unknown,Unknown,"Moldova, Republic of",pharmacy,pharmacy,Unknown,https://www.orient.md,Mo-Su 08:00-20:30,47.0248947,28.836031
Farmacia Familiei,Unknown,Strada Calea Ieșilor,Chișinău,MD-2069,Unknown,"Moldova, Republic of",pharmacy,pharmacy,Unknown,Unknown,Unknown,47.0384575,28.8085853
Felicia,Unknown,Strada Calea Ieșilor,Chișinău,Unknown,Unknown,"Moldova, Republic of",pharmacy,pharmacy,Unknown,Unknown,Unknown,47.0377013,28.8107437
Simplu Dental,Unknown,Strada Mitropolit Petru Movilă,Chișinău,Unknown,Unknown,"Moldova, Republic of",dentist,dentist,079282586,Unknown,Mo-Fr 09:00-19:00,47.0303187,28.8212909
Centrul Curativ-Diagnostic „Podiac”,Unknown,Strada Columna,Chișinău,Unknown,Unknown,"Moldova, Republic of",clinic,clinic,+373 22 222 282,Unknown,Mo-Fr 08:00-19:00,47.024492,28.8388288
Estetic-Sana,Unknown,Strada Alexandru cel Bun,Chișinău,Unknown,Unknown,"Moldova, Republic of",clinic,clinic,+37369263873,https://estetic-sana.md/,Mo-Fr 09:00-18:00,47.0299954,28.8337381
Oculus Prim,Unknown,Strada Alexandru cel Bun,Chișinău,Unknown,Unknown,"Moldova, Republic of",clinic,clinic,+37322837063,https://www.oculusprim.md/,Mo-Fr 08:00-20:00,47.0297031,28.8338942
Farmacie,Unknown,Strada Nicolae H. Costin,Chișinău,MD-2071,Unknown,"Moldova, Republic of",pharmacy,pharmacy,Unknown,Unknown,Unknown,47.0425872,28.7709132
Felicia,Unknown,Șoseaua Muncești,Chișinău,Unknown,Unknown,"Moldova, Republic of",pharmacy,pharmacy,022527177,Unknown,Unknown,47.0001503,28.8713623
Laboratorul Central Synevo,Unknown,Strada Nicolae Testemițanu,Chișinău,MD-2025,Unknown,"Moldova, Republic of",doctors,doctor,+37360592224,https://www.synevo.md/,Mo-Fr 07:30-18:00; Sa 08:00-14:00; Su 08:00-13:00,46.9903312,28.8279423
Demi Dent,Unknown,Strada Trandafirilor,Chișinău,Unknown,Unknown,"Moldova, Republic of",dentist,dentist,068313131,Unknown,Mo-Su 09:00-21:00,46.9952644,28.8465868
Orient,Unknown,Strada Andrei Doga,Chișinău,Unknown,Unknown,"Moldova, Republic of",pharmacy,pharmacy,+373 22 311153,https://www.orient.md,Mo-Su 08:00-20:30,47.0345802,28.8618832
Farmacia Familiei,Unknown,Strada Tudor Vladimirescu,Chișinău,Unknown,Unknown,"Moldova, Republic of",pharmacy,pharmacy,+373 22 444363,https://www.farmaciafamiliei.md/,24/7,47.0347919,28.8624089
Farmacia Familiei,Unknown,Strada Andrei Doga,Chișinău,MD-2024,Unknown,"Moldova, Republic of",pharmacy,pharmacy,Unknown,Unknown,Unknown,47.033571,28.8545902
Felicia,Unknown,Strada Alecu Russo,Chișinău,MD-2068,Unknown,"Moldova, Republic of",pharmacy,pharmacy,Unknown,https://felicia.md/,Unknown,47.0434326,28.8678164
SG Dent,Unknown,Strada Tudor Vladimirescu,Chișinău,Unknown,Unknown,"Moldova, Republic of",dentist,dentist,+373 22 311131,http://sg-dent.md,Mo-Fr 9:00-19:00; Sa 9:00-14:00; Su off,47.0357467,28.8615465
Centrul Stomatologic „Dr. Buta”,Unknown,Strada Studenților,Chișinău,Unknown,Unknown,"Moldova, Republic of",dentist,dentist,Unknown,Unknown,Unknown,47.0607539,28.8639949
CardioPrima,Unknown,Strada Trandafirilor,Chișinău,MD-2038,Unknown,"Moldova, Republic of",clinic,clinic,Unknown,Unknown,Unknown,46.9965138,28.8474047
Centrul Medical Consultativ „Lacteia”,Unknown,Strada Vlaicu Pîrcălab,Chișinău,MD-2009,Unknown,"Moldova, Republic of",clinic,hospital,Unknown,Unknown,Mo-Fr 08:00-19:00; Sa 08:00-14:00,47.0159654,28.8261494
Invitro,Unknown,Strada Nicolae Testemițanu,Chișinău,MD-2025,Unknown,"Moldova, Republic of",clinic,laboratory,Unknown,Unknown,Mo-Fr 07:30-18:00; Sa 07:30-14:00,46.9971949,28.8349316
MedExpert,Unknown,Strada Gheorghe Asachi,Chișinău,Unknown,Unknown,"Moldova, Republic of",clinic,clinic,Unknown,Unknown,Unknown,46.9964106,28.8174262
Orient,Unknown,Strada Nicolae Costin,Chișinău,Unknown,Unknown,"Moldova, Republic of",pharmacy,pharmacy,Unknown,Unknown,Unknown,47.0412891,28.7704434
Sky Dent,Unknown,Strada Nicolae Costin,Chișinău,Unknown,Unknown,"Moldova, Republic of",dentist,dentist,Unknown,Unknown,Unknown,47.0412033,28.7704357
VogueDent,Unknown,Bulevardul Grigore Vieru,Chișinău,Unknown,Unknown,"Moldova, Republic of",doctors,doctor,Unknown,Unknown,Unknown,47.0317775,28.8435195
Elody,Unknown,Strada Miron Costin,Chișinău,MD-2068,Unknown,"Moldova, Republic of",pharmacy,pharmacy,Unknown,Unknown,Unknown,47.0502607,28.8681409
Unknown,Unknown,Strada Trandafirilor,Chișinău,Unknown,Unknown,"Moldova, Republic of",dentist,dentist,Unknown,Unknown,Unknown,46.9986178,28.8495318
Guțuțui Dental Clinic,Unknown,Strada Lev Tolstoi,Chișinău,MD-2001,Unknown,"Moldova, Republic of",clinic,clinic,+373 790 77 555,Unknown,Unknown,47.0102706,28.8423334
Мануальная терапия,Unknown,Unknown,Chișinău,Unknown,Unknown,"Moldova, Republic of",doctors,doctor,Unknown,Unknown,Unknown,47.040965,28.8815259
Farmina,Unknown,Strada Maria Drăgan,Chișinău,Unknown,Unknown,"Moldova, Republic of",pharmacy,Healthcare Services,Unknown,Unknown,Mo-Sa 08:00-17:00; Su 08:00-16:00,47.0194589,28.882877
Farmacie,Unknown,Strada Ciocana,Chișinău,Unknown,Unknown,"Moldova, Republic of",pharmacy,pharmacy,Unknown,Unknown,Mo-Su 08:00-20:00,47.0184665,28.8801142
Hub Ortopedie - Magazin Ortopedic,Unknown,Strada Ion Creangă,Chișinău,MD-2051,Unknown,"Moldova, Republic of",doctors,doctor,068225522,https://hub.ortopedie.md/,Mo-Fr 09:00-19:00; Sa 09:00-15:00,47.0248869,28.7877606
Dentalia,Unknown,Strada Constituției,Chișinău,MD-2064,Unknown,"Moldova, Republic of",dentist,dentist,Unknown,Unknown,Mo-Sa 09:00-18:00,47.0258594,28.7932703
Centrul Stomatologic „Dr. Grossu”,Unknown,Piața Unirea Principatelor,Chișinău,Unknown,Unknown,"Moldova, Republic of",dentist,dentist,+373 792 58 186,http://www.drgrossu.md,Mo-Fr 09:00-19:00; Sa 9:00-14:30,47.0264174,28.7959583
Centrul de Consultanță Familială „Regina Pacis”,Unknown,Unknown,Chișinău,Unknown,Unknown,"Moldova, Republic of",doctors,doctor,+373923180,https://reginapacis.org/,Mo-Fr 09:00-18:00,47.0191291,28.8522972
Felicia,Unknown,Strada Nicolae Testemițanu,Chișinău,Unknown,Unknown,"Moldova, Republic of",pharmacy,pharmacy,Unknown,Unknown,Mo-Su 08:00-21:00,46.990736,28.8277266
Mama,Unknown,Strada Suceava,Chișinău,Unknown,Unknown,"Moldova, Republic of",pharmacy,pharmacy,Unknown,Unknown,Unknown,47.0316214,28.789375
Centrul Medical „Ana Maria”,Unknown,Bulevardul Ștefan cel Mare și Sfânt,Chișinău,MD-2004,Unknown,"Moldova, Republic of",doctors,doctor,+373060885885,http://www.anamaria.md,Mo-Fr 08:00-18:00; Sa 08:00-14:00,47.0375539,28.8150442
Esthetic Factory,Unknown,Strada Ion Creangă,Chișinău,Unknown,Unknown,"Moldova, Republic of",clinic,clinic,Unknown,https://estheticfactory.md/,Su-Fr,47.0344922,28.8080698
Hippocrates,Unknown,Unknown,Chișinău,Unknown,Unknown,"Moldova, Republic of",pharmacy,pharmacy,Unknown,https://www.hippocrates.md/,"Mo-Sa 08:30-22:00, Su 09:00-22:00",46.9895482,28.8590268
Unknown,Unknown,Unknown,Chișinău,Unknown,Unknown,"Moldova, Republic of",pharmacy,pharmacy,Unknown,Unknown,Unknown,46.9915464,28.8591779
Policlinica Spitalul Clinic Republican,Unknown,Unknown,Chișinău,Unknown,Unknown,"Moldova, Republic of",clinic,clinic,Unknown,Unknown,Unknown,46.9946946,28.8312339
Felicia,Unknown,Bulevardul Ștefan cel Mare și Sfânt,Chișinău,Unknown,Unknown,"Moldova, Republic of",pharmacy,pharmacy,Unknown,https://felicia.md,Unknown,47.0175513,28.8438174
VEF-Dent,Unknown,Strada Ion Creangă,Chișinău,Unknown,Unknown,"Moldova, Republic of",dentist,dentist,Unknown,Unknown,Unknown,47.031915,28.8047376
Unknown,Unknown,Strada Bernardazzi,Unknown,Unknown,Unknown,"Moldova, Republic of",clinic,Healthcare Services,Unknown,Unknown,Unknown,47.0143473,28.8301941
Farmacia Familiei,Unknown,Bulevardul Mircea cel Bătrân,Chișinău,Unknown,Unknown,"Moldova, Republic of",pharmacy,pharmacy,Unknown,Unknown,Unknown,47.0383114,28.8904833
Farmacia Orient,Unknown,Unknown,Chișinău,Unknown,Unknown,"Moldova, Republic of",pharmacy,pharmacy,Unknown,Unknown,Unknown,47.0606824,28.8403238
Clinica de chirurgie estetică „Neogen”,Unknown,Strada Mihail Lomonosov,Chișinău,MD-2009,Unknown,"Moldova, Republic of",hospital,hospital,Unknown,Unknown,Unknown,47.0032377,28.8274365
Orient,Unknown,Strada Alecu Russo,Chișinău,Unknown,Unknown,"Moldova, Republic of",pharmacy,pharmacy,Unknown,Unknown,Unknown,47.0365275,28.8881614
Orient,Unknown,Strada Alecu Russo,Chișinău,MD-2044,Unknown,"Moldova, Republic of",pharmacy,pharmacy,Unknown,Unknown,Unknown,47.0378911,28.8849371
Hippocrates,Unknown,Strada Alecu Russo,Chișinău,Unknown,Unknown,"Moldova, Republic of",pharmacy,pharmacy,Unknown,Unknown,Unknown,47.0369648,28.886746
Felicia,Unknown,Strada Calea Ieșilor,Chișinău,Unknown,Unknown,"Moldova, Republic of",pharmacy,pharmacy,Unknown,Unknown,Unknown,47.0444669,28.787037
Farmacia Familiei,Unknown,Strada Dumitru Rîșcanu,Chișinău,MD-2068,Unknown,"Moldova, Republic of",pharmacy,pharmacy,Unknown,Unknown,Unknown,47.0367205,28.8656482
Sancos,Unknown,Bulevardul Moscova,Chișinău,MD-2068,Unknown,"Moldova, Republic of",clinic,clinic,+373 22 909 909,https://www.sancos.md/,Mo-Fr 08:00-20:00; Sa 08:00-14:00,47.0546129,28.8657947
Dentlux,Unknown,Strada I. Nistor,Unknown,Unknown,Unknown,"Moldova, Republic of",dentist,dentist,+37379484848,Unknown,Mo-Sa 09:00-20:00,47.0081337,28.8340958
Clinica Stomatologică „Osteomed”,Unknown,Strada Mitropolit Petru Movilă,Chișinău,MD-2004,Unknown,"Moldova, Republic of",dentist,dentist,Unknown,Unknown,Unknown,47.0304069,28.8204508
Farmacia Orient,Unknown,Strada Ion Creangă,Chișinău,Unknown,Unknown,"Moldova, Republic of",pharmacy,pharmacy,Unknown,https://www.orient.md,Unknown,47.0290186,28.7949664
Clinica veterinară Esculap-Vet,Unknown,Unknown,Chișinău,Unknown,Unknown,"Moldova, Republic of",veterinary,Healthcare Services,Unknown,Unknown,Unknown,47.0374893,28.8558674
Natural Smile,Unknown,Strada Valea Trandafirilor,Chișinău,Unknown,Unknown,"Moldova, Republic of",dentist,dentist,Unknown,Unknown,Mo-Fr 19:00-20:00; Sa 08:00-12:00,47.0081406,28.848679
Apoteka,Unknown,Strada Vasile Alecsandri,Chișinău,Unknown,Unknown,"Moldova, Republic of",pharmacy,pharmacy,Unknown,Unknown,Unknown,47.0084255,28.8271484
Clinica Veterinară „Nicoleta-Lux”,Unknown,Strada Calea Orheiului,Chișinău,Unknown,Unknown,"Moldova, Republic of",veterinary,Healthcare Services,Unknown,Unknown,Mo-Sa 00:00-24:00,47.0458529,28.8479992
Veterinărie,Unknown,Unknown,Chișinău,Unknown,Unknown,"Moldova, Republic of",veterinary,Healthcare Services,Unknown,Unknown,Unknown,47.0493817,28.8468461
Salut,Unknown,Bulevardul Dacia,Chișinău,MD-2038,Unknown,"Moldova, Republic of",pharmacy,pharmacy,Unknown,Unknown,Unknown,46.9898215,28.8533294
Gedeon Richter,Unknown,Strada Nikolai Zelinski,Chișinău,Unknown,Unknown,"Moldova, Republic of",pharmacy,pharmacy,Unknown,Unknown,Mo-Su 08:00-20:00,46.9913228,28.867331
Oftalmo Correct,Unknown,Strada Miron Costin,Chișinău,Unknown,Unknown,"Moldova, Republic of",doctors,doctor,Unknown,Unknown,Unknown,47.0505869,28.8655368
Farmacia Familiei,Unknown,Strada Hristo Botev,Chișinău,MD-2043,Unknown,"Moldova, Republic of",pharmacy,pharmacy,Unknown,Unknown,Unknown,46.9878736,28.8446735
FamilyDent,Unknown,Bulevardul Iuri Gagarin,Chișinău,MD-2001,Unknown,"Moldova, Republic of",doctors,doctor,Unknown,Unknown,Unknown,47.0095849,28.8581717
Elody,Unknown,Strada Nicolai Zelinski,Chișinău,Unknown,Unknown,"Moldova, Republic of",pharmacy,pharmacy,Unknown,Unknown,09:00-21:00,46.9931634,28.8585909
Felicia,Unknown,Bulevardul Decebal,Chisinau,Unknown,Unknown,"Moldova, Republic of",pharmacy,pharmacy,Unknown,Unknown,Unknown,46.9929026,28.8594705
Ceradent,Unknown,Strada Mihail Kogălniceanu,Chișinău,Unknown,Unknown,"Moldova, Republic of",dentist,dentist,Unknown,https://www.ceradent.md/,Unknown,47.0158704,28.8307295
Dental.md,Unknown,Strada Miorița,Chișinău,Unknown,Unknown,"Moldova, Republic of",dentist,dentist,Unknown,http://dental.md,Unknown,46.9934413,28.8166006
Mama,Unknown,Strada Armenească,Chișinău,Unknown,Unknown,"Moldova, Republic of",pharmacy,pharmacy,Unknown,Unknown,Mo-Fr 08:00-20:00,47.0173031,28.8355239
Felicia,Unknown,Strada 31 August 1989,Chișinău,Unknown,Unknown,"Moldova, Republic of",pharmacy,pharmacy,Unknown,Unknown,Unknown,47.017328,28.8367921
Sanfarm-Prim,Unknown,Strada 31 August 1989,Chișinău,Unknown,Unknown,"Moldova, Republic of",pharmacy,pharmacy,Unknown,Unknown,Unknown,47.0169459,28.8373294
Hippocrates,Unknown,Strada 31 August 1989,Chișinău,Unknown,Unknown,"Moldova, Republic of",pharmacy,pharmacy,Unknown,https://hippocrates.md/,Mo-Fr 08:00-20:00; Sa-Su 09:00-19:00,47.0180064,28.8365382
Farmacia Familiei,Unknown,Bulevardul Dacia,Chișinău,MD-2043,Unknown,"Moldova, Republic of",pharmacy,pharmacy,Unknown,Unknown,Unknown,46.9931169,28.8473188
Ronadental,Unknown,Strada București,Chișinău,Unknown,Unknown,"Moldova, Republic of",dentist,dentist,+37369246148,Unknown,Mo-Fr 09:00-18:00; Sa 09:00-14:00,47.0132694,28.8408014
Punto Bianco,Unknown,Strada 31 August 1989,Chișinău,Unknown,Unknown,"Moldova, Republic of",dentist,dentist,Unknown,https://puntobianco.md/,Unknown,47.0143762,28.8414962
Farmacia Familiei,Unknown,Bulevardul Moscova,Chișinău,Unknown,Unknown,"Moldova, Republic of",pharmacy,pharmacy,Unknown,Unknown,Unknown,47.0570276,28.866776
Farmacia Familiei,Unknown,Bulevardul Grigore Vieru,Chișinău,Unknown,Unknown,"Moldova, Republic of",pharmacy,pharmacy,Unknown,Unknown,Unknown,47.0328407,28.8438734
Felicia,Unknown,Strada Independenței,Chișinău,MD-2043,Unknown,"Moldova, Republic of",pharmacy,pharmacy,Unknown,Unknown,Mo-Su 08:00-20:00,46.9855352,28.8445791
Centrul Medical „Neurogen”,Unknown,Bulevardul Mircea cel Bătrân,Chișinău,MD-2044,Unknown,"Moldova, Republic of",hospital,hospital,Unknown,Unknown,Mo-Fr 08:30-19:00; Sa 08:30-13:00; Su off,47.0401086,28.8891076
Felicia,Unknown,Bulevardul Mircea cel Bătrân,Chișinău,MD-2044,Unknown,"Moldova, Republic of",pharmacy,pharmacy,Unknown,Unknown,Unknown,47.0375905,28.8903623
Felicia,Unknown,Strada Nicolae Costin,Chișinău,Unknown,Unknown,"Moldova, Republic of",pharmacy,pharmacy,+37322025177,https://felicia.md/ro/,Unknown,47.0348631,28.7885898
Felicia,Unknown,Strada Maria Drăgan,Chișinău,MD-2044,Unknown,"Moldova, Republic of",pharmacy,pharmacy,Unknown,Unknown,Unknown,47.0235419,28.883603
Apoteka,Unknown,Strada Nicolae Dimo,Chișinău,Unknown,Unknown,"Moldova, Republic of",pharmacy,pharmacy,Unknown,Unknown,Unknown,47.0430365,28.8669789
Orient,Unknown,Strada Nicolae Dimo,Chișinău,Unknown,Unknown,"Moldova, Republic of",pharmacy,pharmacy,Unknown,https://www.orient.md,Mo-Su 08:00-20:30,47.0431531,28.8664016
Centrul Medical “Medeferent P”,Unknown,Unknown,Chișinău,MD-2068,Unknown,"Moldova, Republic of",doctors,doctor,022438884,Unknown,Unknown,47.0488415,28.8660251
ZooFarmAgro,Unknown,Strada Mitropolit Varlaam,Chișinău,Unknown,Unknown,"Moldova, Republic of",veterinary,Healthcare Services,Unknown,Unknown,Unknown,47.0216845,28.8412504
Farmacie,Unknown,Unknown,Chișinău,MD-2060,Unknown,"Moldova, Republic of",pharmacy,pharmacy,Unknown,Unknown,Mo-Su 08:00-21:00,46.9855406,28.8562489
Farmacia Familiei,Unknown,Bulevardul Dacia,Chișinău,MD-2060,Unknown,"Moldova, Republic of",pharmacy,pharmacy,Unknown,Unknown,Unknown,46.9870126,28.8579867
Elody,Unknown,Strada Ion Pelivan,Chișinău,Unknown,Unknown,"Moldova, Republic of",pharmacy,pharmacy,+373 22 716 342,https://farmacie.md,Mo-Su 08:00-20:00,47.0284851,28.7883206
Hippocrates,Unknown,Bulevardul Moscova,Chișinău,Unknown,Unknown,"Moldova, Republic of",pharmacy,pharmacy,+373 (022) 31-07-40,https://hippocrates.md/,Mo-Su 08:00-21:00,47.0550026,28.8659819
Farmacia ta,Unknown,Strada Matei Basarab,Chișinău,Unknown,Unknown,"Moldova, Republic of",pharmacy,pharmacy,Unknown,Unknown,Mo-Su 08:00-20:00,47.0555261,28.862455
Centru Medical „Ivilius”,Unknown,Strada Albișoara,Chișinău,Unknown,Unknown,"Moldova, Republic of",dentist,dentist,069977553,https://m.facebook.com/Centru-Medical-Ivilius-1042327875846840,Mo-Fr 09:00-19:00; Sa 09:00-14:00,47.0382009,28.8375963
Hipocrates,Unknown,Strada Ginta Latină,Chișinău,MD-2044,Unknown,"Moldova, Republic of",pharmacy,pharmacy,Unknown,Unknown,Mo-Su 08:00-21:00,47.0344967,28.8853243
Apoteka,Unknown,Strada Ginta Latină,Chișinău,MD-2044,Unknown,"Moldova, Republic of",pharmacy,pharmacy,Unknown,Unknown,Unknown,47.0340097,28.8840498
Homeofarm - Farmacie homeopatică,Unknown,Strada Miorița,Chișinău,Unknown,Unknown,"Moldova, Republic of",pharmacy,pharmacy,+373 22 222 411,http://www.homeofarm.md,Mo-Fr 09:00-19:00; Sa 09:00-15:00,46.992728,28.8184586
Help,Unknown,Strada Calea Ieșilor,Chișinău,MD-2069,Unknown,"Moldova, Republic of",clinic,clinic,Unknown,Unknown,Unknown,47.0400336,28.7995417
Orient,Unknown,Strada Calea Ieșilor,Chișinău,Unknown,Unknown,"Moldova, Republic of",pharmacy,pharmacy,Unknown,Unknown,Unknown,47.0422036,28.7945926
SanioDent,Unknown,Strada Calea Ieșilor,Chișinău,MD-2004,Unknown,"Moldova, Republic of",dentist,dentist,Unknown,Unknown,Unknown,47.0379654,28.8076823
Felicia,Unknown,Strada 31 August 1989,Chișinău,Unknown,Unknown,"Moldova, Republic of",pharmacy,pharmacy,Unknown,https://felicia.md,Unknown,47.0300971,28.8185654
Orient,Unknown,Bulevardul Ștefan cel Mare și Sfânt,Chișinău,MD-2012,Unknown,"Moldova, Republic of",pharmacy,pharmacy,Unknown,Unknown,Unknown,47.0228805,28.8357731
Unknown,Unknown,Unknown,Chișinău,Unknown,Unknown,"Moldova, Republic of",dentist,dentist,Unknown,Unknown,24/7,47.0623408,28.8484171
Alexandr Russu,Unknown,Strada Vasile Alecsandri,Chișinău,Unknown,Unknown,"Moldova, Republic of",veterinary,Healthcare Services,+37378744252,Unknown,Mo-Su 09:00-21:00,47.0127705,28.8282393
Hippocrates,Unknown,Bulevardul Dimitrie Cantemir,Chișinău,MD-2001,Unknown,"Moldova, Republic of",pharmacy,pharmacy,Unknown,Unknown,Unknown,47.0156,28.8552572
Stomatologie „DentUs“,Unknown,Unknown,Unknown,Unknown,Unknown,"Moldova, Republic of",dentist,Healthcare Services,Unknown,Unknown,Mo-Fr 09:00-18:00,47.0124602,28.8278419
Hippocrates,Unknown,Strada Armenească,Chișinău,Unknown,Unknown,"Moldova, Republic of",pharmacy,pharmacy,Unknown,https://www.hippocrates.md/,Mo-Fr 08:00-20:00; Sa-Su 09:00-19:00,47.0192328,28.8388265
Felicia,Unknown,Strada Armenească,Chișinău,Unknown,Unknown,"Moldova, Republic of",pharmacy,pharmacy,Unknown,Unknown,Unknown,47.0194205,28.8391248
Elody,Unknown,Bulevardul Ștefan cel Mare și Sfânt,Chișinău,Unknown,Unknown,"Moldova, Republic of",pharmacy,pharmacy,Unknown,https://elody.md,Unknown,47.0180939,28.841638
Centrul Medicilor de Familie,Unknown,Strada Costiujeni,Codru,MD-2019,Unknown,"Moldova, Republic of",clinic,clinic,Unknown,Unknown,Unknown,46.9784413,28.8371747
Farmacia Familiei,Unknown,Strada Valea Trandafirilor,Chișinău,Unknown,Unknown,"Moldova, Republic of",pharmacy,pharmacy,Unknown,Unknown,8:00-22:00,47.008157,28.8485438
Gedeon Richter,Unknown,улица Албишоара,Chișinău,Unknown,Unknown,"Moldova, Republic of",pharmacy,pharmacy,Unknown,Unknown,Unknown,47.038189,28.8295294
Felicia,Unknown,Strada Albișoara,Chișinău,Unknown,Unknown,"Moldova, Republic of",pharmacy,pharmacy,Unknown,Unknown,Unknown,47.0366835,28.8279892
Farmacia Familiei,Unknown,Strada Albișoara,Chișinău,Unknown,Unknown,"Moldova, Republic of",pharmacy,pharmacy,Unknown,Unknown,Unknown,47.0365018,28.8281913
Farmacia Famileii,Unknown,Unknown,Chișinău,Unknown,Unknown,"Moldova, Republic of",pharmacy,pharmacy,Unknown,Unknown,Unknown,47.0335639,28.8826899
Felicia,Unknown,Strada Calea Ieșilor,Chișinău,Unknown,Unknown,"Moldova, Republic of",pharmacy,pharmacy,Unknown,Unknown,Mo-Su 08:00-22:00,47.0433388,28.7931756
Diplomat Med,Unknown,Strada Grigore Alexandrescu,Chișinău,Unknown,Unknown,"Moldova, Republic of",dentist,dentist,022123193,https://diplomatmed.md/,Mo-Sa 09:00-18:00,47.0214412,28.810846
Farmacie,Unknown,Strada Calea Ieșilor,Chișinău,Unknown,Unknown,"Moldova, Republic of",pharmacy,pharmacy,+37322741383,Unknown,Unknown,47.0390389,28.8025791
Cristi Dent,Unknown,Strada Andrei Doga,Chișinău,MD-2024,Unknown,"Moldova, Republic of",dentist,dentist,Unknown,Unknown,Mo-Fr 09:00-18:00,47.0326301,28.8573082
Hippocrates,Unknown,Strada Miorița,Chișinău,MD-2028,Unknown,"Moldova, Republic of",pharmacy,pharmacy,Unknown,Unknown,Unknown,46.9970743,28.8084985
Dog Club,Unknown,Strada Mitropolit Dosoftei,Chișinău,MD-2004,Unknown,"Moldova, Republic of",veterinary,Healthcare Services,+373 222 95 648,Unknown,Unknown,47.0328529,28.8245601
MiniDent,Unknown,Strada Andrei Doga,Chișinău,MD-2024,Unknown,"Moldova, Republic of",dentist,dentist,Unknown,Unknown,Unknown,47.0345423,28.8611547
Maxident-Plus,Unknown,Strada Columna,Chișinău,Unknown,Unknown,"Moldova, Republic of",dentist,dentist,Unknown,Unknown,Unknown,47.0240321,28.8396553
Farmacie Veterinară „Nicoleta-Lux”,Unknown,Strada Calea Orheiului,Chișinău,Unknown,Unknown,"Moldova, Republic of",pharmacy,pharmacy,Unknown,Unknown,Unknown,47.0458158,28.8479411
Hippocrates,Unknown,Bulevardul Ștefan cel Mare și Sfânt,Chișinău,MD-2012,Unknown,"Moldova, Republic of",pharmacy,pharmacy,Unknown,Unknown,Mo-Su 09:00-21:00,47.0259331,28.8312156
Invitro,Unknown,Strada Ion Creangă,Chișinău,MD-2064,Unknown,"Moldova, Republic of",clinic,laboratory,Unknown,Unknown,Mo-Fr 07:30-16:00; Sa 07:30-12:00,47.0327302,28.8063068
Albero Dental Lounge,Unknown,Strada Ion Creangă,Chișinău,MD-2064,Unknown,"Moldova, Republic of",dentist,dentist,+373 22 997 650,Unknown,Unknown,47.0324544,28.8057383
ProMed,Unknown,Strada Ion Creangă,Chișinău,MD-2064,Unknown,"Moldova, Republic of",clinic,clinic,Unknown,Unknown,Unknown,47.0326953,28.8052197
Centrul Comunitar de Sănătate Mintală,Unknown,Strada Ion Creangă,Chișinău,MD-2064,Unknown,"Moldova, Republic of",clinic,clinic,Unknown,Unknown,Unknown,47.0325699,28.8045968
BioDent,Unknown,Strada Eugen Coca,Chișinău,Unknown,Unknown,"Moldova, Republic of",dentist,dentist,Unknown,Unknown,Unknown,47.0304655,28.8073759
Centrul de Osteopatie Dr. Celancov,Unknown,Bulevardul Ștefan cel Mare și Sfânt,Chișinău,MD-2001,Unknown,"Moldova, Republic of",doctors,doctor,Unknown,Unknown,Unknown,47.0178134,28.8410672
Gedeon Richter,Unknown,Bulevardul Ștefan cel Mare și Sfânt,Chișinău,MD-2004,Unknown,"Moldova, Republic of",pharmacy,pharmacy,Unknown,Unknown,Unknown,47.0294722,28.8246525
Apoteka,Unknown,Bulevardul Ștefan cel Mare și Sfânt,Chișinău,MD-2004,Unknown,"Moldova, Republic of",pharmacy,pharmacy,Unknown,Unknown,Unknown,47.0313693,28.8217645
Ortopan,Unknown,Strada Alexei Șciusev,Chișinău,Unknown,Unknown,"Moldova, Republic of",dentist,dentist,Unknown,Unknown,Unknown,47.0185894,28.830108
Pro Sano,Unknown,Strada Alba Iulia,Chișinău,MD-2071,Unknown,"Moldova, Republic of",clinic,clinic,Unknown,Unknown,Unknown,47.035714,28.7743433
Babii-Ortoped,Unknown,Strada Romană,Chișinău,Unknown,Unknown,"Moldova, Republic of",clinic,clinic,Unknown,Unknown,Unknown,47.0282337,28.8470472
Peon,Unknown,Strada Vasile Alecsandri,Chișinău,MD-2005,Unknown,"Moldova, Republic of",pharmacy,pharmacy,Unknown,Unknown,Unknown,47.0272424,28.8468268
Neuroscan,Unknown,Strada Eugen Doga,Chișinău,MD-2005,Unknown,"Moldova, Republic of",clinic,clinic,+373 22 238 342,https://neuroscan.md/,Unknown,47.0271654,28.8366461
Farmacia Felicia,Unknown,Strada Vasili Dokuceaev,Chișinău,MD-2028,Unknown,"Moldova, Republic of",pharmacy,pharmacy,Unknown,Unknown,Unknown,47.0028086,28.8180391
Farmacia Familiei,Unknown,Șoseaua Hâncești,Chișinău,MD-2028,Unknown,"Moldova, Republic of",pharmacy,pharmacy,Unknown,Unknown,Unknown,47.0024259,28.8157861
Farmacia Familiei,Unknown,Șoseaua Hâncești,Chișinău,MD-2028,Unknown,"Moldova, Republic of",pharmacy,pharmacy,Unknown,Unknown,Unknown,47.0030745,28.8170779
Centrul Diagnostic și Reabilitare,Unknown,Strada Veronica Micle,Chișinău,Unknown,Unknown,"Moldova, Republic of",doctors,doctor,Unknown,Unknown,Unknown,47.0195866,28.8370955
Ciavdar Grup,Unknown,Strada Independenței,Chișinău,MD-2043,Unknown,"Moldova, Republic of",veterinary,Healthcare Services,Unknown,Unknown,Unknown,46.9838913,28.845615
Nobel İlaç Moldova,Unknown,Bulevardul Moscova,Chișinău,MD-2068,Unknown,"Moldova, Republic of",clinic,clinic,Unknown,Unknown,Unknown,47.0471256,28.8634903
CviaDent,Unknown,Strada Tighina,Chișinău,MD-2001,Unknown,"Moldova, Republic of",dentist,dentist,Unknown,Unknown,Unknown,47.0167123,28.8420294
Sirexton,Unknown,Strada 31 August 1989,Chișinău,MD-2001,Unknown,"Moldova, Republic of",clinic,clinic,Unknown,Unknown,Unknown,47.0161837,28.8387601
Invitro,Unknown,Strada 31 August 1989,Chișinău,MD-2001,Unknown,"Moldova, Republic of",clinic,laboratory,Unknown,Unknown,Mo-Fr 07:30-16:00; Sa 07:30-12:00,47.0162924,28.8386101
Jorge Dental Studio,Unknown,Strada Ismail,Chișinău,Unknown,Unknown,"Moldova, Republic of",dentist,dentist,Unknown,Unknown,Unknown,47.014287,28.8429848
Salonul Ortopedic „Osteomed”,Unknown,Strada Mitropolit Petru Movilă,Chișinău,MD-2004,Unknown,"Moldova, Republic of",clinic,clinic,Unknown,Unknown,Unknown,47.0304424,28.8203923
Școala Spatelui,Unknown,Strada Nicolae Dimo,Chișinău,MD-2068,Unknown,"Moldova, Republic of",clinic,clinic,Unknown,Unknown,Unknown,47.0379848,28.8607604
Clinica Profesorului D. Șcerbatiuc,Unknown,Strada Mitropolit Petru Movilă,Chișinău,MD-2004,Unknown,"Moldova, Republic of",dentist,dentist,Unknown,Unknown,Unknown,47.0305184,28.8211071
UniDentArt,Unknown,Bulevardul Ștefan cel Mare și Sfânt,Chișinău,Unknown,Unknown,"Moldova, Republic of",dentist,dentist,Unknown,Unknown,Unknown,47.0345955,28.8167191
Elody,Unknown,Strada Dumitru Râșcanu,Chișinău,Unknown,Unknown,"Moldova, Republic of",pharmacy,pharmacy,Unknown,Unknown,Unknown,47.0358126,28.8621254
Farmacia Felicia,Unknown,Strada Trandafirilor,Chișinău,Unknown,Unknown,"Moldova, Republic of",pharmacy,pharmacy,Unknown,Unknown,Unknown,46.9981142,28.8525768
RaDen,Unknown,Strada București,Chișinău,Unknown,Unknown,"Moldova, Republic of",dentist,dentist,Unknown,Unknown,Unknown,47.0212686,28.8283969
Bisous Santé,Unknown,Strada București,Chișinău,Unknown,Unknown,"Moldova, Republic of",dentist,dentist,Unknown,Unknown,Unknown,47.0213969,28.8281616
Denta Vita,Unknown,Strada Alexei Șciusev,Chișinău,MD-2012,Unknown,"Moldova, Republic of",dentist,dentist,Unknown,Unknown,Unknown,47.0196328,28.8285708
TibetMed,Unknown,Strada Vlaicu Pârcălab,Chișinău,MD-2012,Unknown,"Moldova, Republic of",clinic,clinic,+373 22 001 122,https://tibetmed.md,Mo-Sa 08:00-21:00; Su 08:00-18:00,47.0190442,28.8303884
Centrul Consultativ Diagnostic (CCD),Unknown,Strada 31 August 1989,Chișinău,Unknown,Unknown,"Moldova, Republic of",clinic,clinic,Unknown,Unknown,Unknown,47.0174151,28.8364598
Lucent Dent,Unknown,Strada București,Chișinău,MD-2001,Unknown,"Moldova, Republic of",dentist,dentist,Unknown,Unknown,Unknown,47.0135021,28.8404562
UntilaDent,Unknown,Strada Hristo Botev,Chișinău,MD-2043,Unknown,"Moldova, Republic of",dentist,dentist,Unknown,Unknown,Unknown,46.9862818,28.8453491
Farmacia Ginseng,Unknown,Strada Hristo Botev,Chișinău,MD-2043,Unknown,"Moldova, Republic of",pharmacy,pharmacy,Unknown,Unknown,Unknown,46.9870048,28.8453331
ClasicDent,Unknown,Strada Gheorghe Asachi,Chișinău,MD-2028,Unknown,"Moldova, Republic of",dentist,dentist,Unknown,Unknown,Unknown,47.0007933,28.8218441
BiDent,Unknown,Strada Gheorghe Asachi,Chișinău,Unknown,Unknown,"Moldova, Republic of",dentist,dentist,Unknown,Unknown,Unknown,46.9998914,28.8213236
Orto-Class,Unknown,Strada Gheorghe Asachi,Chișinău,MD-2028,Unknown,"Moldova, Republic of",dentist,dentist,Unknown,Unknown,Unknown,46.9998803,28.8207699
Farmacia Felicia,Unknown,Strada Vasile Lupu,Chișinău,Unknown,Unknown,"Moldova, Republic of",pharmacy,pharmacy,Unknown,Unknown,Unknown,47.0223399,28.8088312
Centrul de Chirurgie Oro-Maxilo-Facială „Chirurgomf”,Unknown,Strada Toma Ciorbă,Chișinău,MD-2004,Unknown,"Moldova, Republic of",clinic,clinic,Unknown,Unknown,Unknown,47.0292957,28.8177989
MedExpert,Unknown,Strada Bulgară,Chișinău,MD-2001,Unknown,"Moldova, Republic of",clinic,clinic,Unknown,Unknown,Unknown,47.0166984,28.8385803
Clinica Stomatologică Dr. Ungureanu,Unknown,Bulevardul Decebal,Chișinău,Unknown,Unknown,"Moldova, Republic of",dentist,dentist,Unknown,Unknown,Unknown,46.9934127,28.8595109
Farmacia Familiei,Unknown,Bulevardul Moscova,Chișinău,MD-2068,Unknown,"Moldova, Republic of",pharmacy,pharmacy,Unknown,Unknown,Unknown,47.0518877,28.8648614
Apollonia,Unknown,Strada Nikolai Zelinski,Chișinău,MD-2015,Unknown,"Moldova, Republic of",dentist,dentist,Unknown,Unknown,Unknown,46.9928314,28.8646091
OrtoDental,Unknown,Bulevardul Dacia,Chișinău,MD-2001,Unknown,"Moldova, Republic of",dentist,dentist,Unknown,Unknown,Unknown,47.0102728,28.8422512
SanaDent,Unknown,Strada Kiev,Chișinău,MD-2068,Unknown,"Moldova, Republic of",dentist,dentist,Unknown,Unknown,Unknown,47.0394768,28.8607476
ProClinic,Unknown,Strada Nikolai Zelinski,Chișinău,Unknown,Unknown,"Moldova, Republic of",dentist,dentist,Unknown,Unknown,Unknown,46.9918305,28.8553542
Doctor Coropceanu,Unknown,Strada Armenească,Chișinău,Unknown,Unknown,"Moldova, Republic of",clinic,clinic,Unknown,Unknown,Unknown,47.0242875,28.8455723
Hippocrates,Unknown,Strada Ion Creangă,Chișinău,MD-2064,Unknown,"Moldova, Republic of",pharmacy,pharmacy,Unknown,Unknown,Unknown,47.0287428,28.7970048
Farmacia Familiei,Unknown,Strada Ion Creangă,Chișinău,Unknown,Unknown,"Moldova, Republic of",pharmacy,pharmacy,Unknown,Unknown,Unknown,47.0285705,28.7963443
AsiDent,Unknown,Strada Vasile Lupu,Chișinău,Unknown,Unknown,"Moldova, Republic of",dentist,dentist,Unknown,Unknown,Unknown,47.0220041,28.808633
Neo Stomatologie,Unknown,Strada Vasile Lupu,Chișinău,Unknown,Unknown,"Moldova, Republic of",dentist,dentist,+373 22 715 317,Unknown,Unknown,47.021636,28.8107394
VitoDent-Prim,Unknown,Strada Vasile Lupu,Chișinău,MD-2008,Unknown,"Moldova, Republic of",dentist,dentist,Unknown,Unknown,Unknown,47.0218601,28.8062429
Orient,Unknown,Bulevardul Decebal,Chișinău,Unknown,Unknown,"Moldova, Republic of",pharmacy,pharmacy,Unknown,Unknown,Unknown,46.9999406,28.8603071
Felicia,Unknown,Bulevardul Decebal,Chișinău,Unknown,Unknown,"Moldova, Republic of",pharmacy,pharmacy,Unknown,Unknown,Unknown,47.0004363,28.8603433
Odonto-Med,Unknown,Strada Alba-Iulia,Chișinău,MD-2064,Unknown,"Moldova, Republic of",dentist,dentist,Unknown,Unknown,Unknown,47.0283276,28.7893784
Parodent-Prim,Unknown,Strada Ion Pelivan,Chișinău,MD-2051,Unknown,"Moldova, Republic of",dentist,dentist,+37322716490,Unknown,Mo-Fr 09:00-19:00,47.0284484,28.7882754
Odontos,Unknown,Strada București,Chișinău,Unknown,Unknown,"Moldova, Republic of",dentist,dentist,Unknown,Unknown,Unknown,47.0183162,28.8333051
Dr. Romaniuc,Unknown,Strada Ginta Latină,Chișinău,MD-2044,Unknown,"Moldova, Republic of",dentist,dentist,Unknown,Unknown,Unknown,47.0336272,28.8828793
Aesthetic Dental Clinic,Unknown,Strada Ginta Latină,Chișinău,MD-2044,Unknown,"Moldova, Republic of",dentist,dentist,Unknown,Unknown,Unknown,47.0347223,28.8859592
Orient,Unknown,Bulevardul Ștefan cel Mare și Sfânt,Chișinău,Unknown,Unknown,"Moldova, Republic of",pharmacy,pharmacy,Unknown,Unknown,Unknown,47.0174121,28.8435459
Farmacia Familiei,Unknown,Bulevardul Ștefan cel Mare și Sfânt,Chișinău,Unknown,Unknown,"Moldova, Republic of",pharmacy,pharmacy,Unknown,Unknown,Unknown,47.0201916,28.8394688
Farmacia Mama,Unknown,Bulevardul Ștefan cel Mare și Sfânt,Chișinău,Unknown,Unknown,"Moldova, Republic of",pharmacy,pharmacy,Unknown,Unknown,Unknown,47.0202953,28.839864
Farmacia Mama,Unknown,Strada Armenească,Chișinău,Unknown,Unknown,"Moldova, Republic of",pharmacy,pharmacy,Unknown,Unknown,Unknown,47.020808,28.8406058
Farmacia Familiei,Unknown,Strada Tudor Vladimirescu,Durlești,Unknown,Unknown,"Moldova, Republic of",pharmacy,pharmacy,Unknown,Unknown,Unknown,47.0267141,28.7741164
Hippocrates,Unknown,Bulevardul Moscova,Chișinău,MD-2068,Unknown,"Moldova, Republic of",pharmacy,pharmacy,Unknown,Unknown,Mo-Su 08:00-21:00,47.0452041,28.8612597
StudioDent,Unknown,Bulevardul Decebal,Chișinău,Unknown,Unknown,"Moldova, Republic of",dentist,dentist,Unknown,Unknown,Unknown,46.9949894,28.8589322
Aspiro-Med,Unknown,Strada Aleksandr Pușkin,Chișinău,MD-2005,Unknown,"Moldova, Republic of",clinic,clinic,Unknown,Unknown,Unknown,47.028243,28.8408882
Art-Dent,Unknown,Strada Bogdan Voievod,Chișinău,Unknown,Unknown,"Moldova, Republic of",dentist,dentist,Unknown,Unknown,Unknown,47.0444469,28.859493
Gesundheit,Unknown,Strada Mihail Kogălniceanu,Chișinău,MD-2009,Unknown,"Moldova, Republic of",clinic,clinic,Unknown,Unknown,Unknown,47.0162193,28.8301929
Farmacia Familiei,Unknown,Strada Bogdan Voievod,Chișinău,Unknown,Unknown,"Moldova, Republic of",pharmacy,pharmacy,Unknown,Unknown,Unknown,47.0437902,28.8574667
Nags-Vet,Unknown,Strada Florilor,Chișinău,MD-2068,Unknown,"Moldova, Republic of",veterinary,Healthcare Services,Unknown,Unknown,Unknown,47.0489323,28.8561606
Lupașcu Orl,Unknown,Strada Florilor,Chișinău,MD-2068,Unknown,"Moldova, Republic of",doctors,doctor,Unknown,Unknown,Unknown,47.053073,28.8580324
EuroDent,Unknown,Strada Nicolae Anestiade,Chișinău,MD-2001,Unknown,"Moldova, Republic of",dentist,dentist,Unknown,Unknown,Unknown,47.0164605,28.8495717
Doctor White,Unknown,Strada Serghei Lazo,Chișinău,MD-2004,Unknown,"Moldova, Republic of",dentist,dentist,Unknown,Unknown,Unknown,47.0254738,28.8197534
DentPark,Unknown,Strada Vasile Alecsandri,Chișinău,Unknown,Unknown,"Moldova, Republic of",dentist,dentist,Unknown,Unknown,Unknown,47.0235842,28.842394
Hippocrates,Unknown,Strada Vasile Alecsandri,Chișinău,Unknown,Unknown,"Moldova, Republic of",pharmacy,pharmacy,Unknown,Unknown,Unknown,47.0234983,28.8422843
Dent Euro,Unknown,Strada Kiev,Chișinău,MD-2068,Unknown,"Moldova, Republic of",dentist,dentist,Unknown,Unknown,Unknown,47.0407705,28.8604024
Hippocrates,Unknown,Strada Calea Ieșilor,Chișinău,MD-2069,Unknown,"Moldova, Republic of",pharmacy,pharmacy,Unknown,Unknown,Unknown,47.037824,28.8097696
Sante,Unknown,Strada Nicolae H. Costin,Chișinău,MD-2051,Unknown,"Moldova, Republic of",clinic,clinic,Unknown,Unknown,Mo-Fr 07:00-18:00; Sa 08:00-14:00,47.0353251,28.7875682
Farmacia Familiei,Unknown,Unknown,Chișinău,Unknown,Unknown,"Moldova, Republic of",pharmacy,pharmacy,Unknown,https://farmaciafamiliei.md/,Mo-Su 08:00-22:00,47.0044742,28.8338557
Amaterra Dental Clinic,Unknown,Strada Vasile Lupu,Chișinău,MD-2008,Unknown,"Moldova, Republic of",dentist,dentist,Unknown,Unknown,Unknown,47.0227092,28.7969832
Farmacia Mama,Unknown,Strada Vasile Lupu,Chișinău,MD-2008,Unknown,"Moldova, Republic of",pharmacy,pharmacy,Unknown,Unknown,Unknown,47.0219915,28.7988766
Centrul Medical de Reabilitare „Aramă Maria”,Unknown,Strada Vissarion Belinski,Chișinău,MD-2064,Unknown,"Moldova, Republic of",doctors,doctor,Unknown,Unknown,Unknown,47.0289343,28.8016761
Elite Dent,Unknown,Strada Sfatul Țării,Chișinău,Unknown,Unknown,"Moldova, Republic of",dentist,dentist,Unknown,Unknown,Unknown,47.0303209,28.8292727
Centrul Medical Specializat pentru Imigranți și Emigranți,Unknown,Unknown,Chișinău,Unknown,Unknown,"Moldova, Republic of",clinic,clinic,Unknown,Unknown,Unknown,47.0309309,28.8461174
ArtDental Studio,Unknown,Strada Mihail Sadoveanu,Chișinău,MD-2044,Unknown,"Moldova, Republic of",dentist,dentist,Unknown,Unknown,Unknown,47.04514,28.8817259
Farmacia Familiei,Unknown,Strada Sarmizegetusa,Chișinău,Unknown,Unknown,"Moldova, Republic of",pharmacy,pharmacy,Unknown,Unknown,Unknown,46.9978919,28.8607348
Orto-Class,Unknown,Strada Sarmizegetusa,Chișinău,Unknown,Unknown,"Moldova, Republic of",dentist,dentist,Unknown,Unknown,Unknown,46.9982168,28.8604833
Ridicon,Unknown,Strada Columna,Chișinău,Unknown,Unknown,"Moldova, Republic of",clinic,clinic,Unknown,Unknown,Unknown,47.0290561,28.8326303
Felicia,Unknown,Strada Paris,Chișinău,Unknown,Unknown,"Moldova, Republic of",pharmacy,pharmacy,Unknown,Unknown,Unknown,47.0309125,28.7811497
Hippocrates,Unknown,Strada Paris,Chișinău,Unknown,Unknown,"Moldova, Republic of",pharmacy,pharmacy,Unknown,Unknown,Mo-Fr 08:00-22:00; Sa-Su 09:00-16:00,47.0313697,28.7811008
ZooMama,Unknown,Strada Alexandru Marinescu,Chișinău,Unknown,Unknown,"Moldova, Republic of",veterinary,Healthcare Services,Unknown,Unknown,Unknown,47.029594,28.7843706
Farmacia Mama,Unknown,Strada Alba-Iulia,Chișinău,MD-2064,Unknown,"Moldova, Republic of",pharmacy,pharmacy,+373 22 755 460,Unknown,Mo-Su 08:00-20:00,47.0286826,28.7886629
Phoenix-Vet,Unknown,Strada Maria Drăgan,Chișinău,MD-2052,Unknown,"Moldova, Republic of",veterinary,Healthcare Services,Unknown,Unknown,Unknown,47.0307751,28.8834376
IanisDent,Unknown,Strada Vadul lui Vodă,Chișinău,MD-2044,Unknown,"Moldova, Republic of",dentist,dentist,Unknown,Unknown,Unknown,47.0305871,28.8829188
Occident,Unknown,Strada Mihai Viteazul,Chișinău,MD-2004,Unknown,"Moldova, Republic of",dentist,dentist,Unknown,Unknown,Unknown,47.0375861,28.8259686
Dent á Dent,Unknown,Strada Ion Creangă,Chișinău,MD-2064,Unknown,"Moldova, Republic of",dentist,dentist,Unknown,Unknown,Unknown,47.0300344,28.8002414
Centrul Medical „Renaștere”,Unknown,Bulevardul Decebal,Chișinău,MD-2002,Unknown,"Moldova, Republic of",clinic,clinic,+373 22 773 535,Unknown,Unknown,47.002648,28.86021
EcoDent,Unknown,Bulevardul Decebal,Chișinău,MD-2015,Unknown,"Moldova, Republic of",dentist,dentist,Unknown,Unknown,Unknown,47.0032969,28.8601942
Elody,Unknown,Strada Grenoble,Chișinău,Unknown,Unknown,"Moldova, Republic of",pharmacy,pharmacy,Unknown,Unknown,Unknown,46.9810563,28.8398113
Neodent,Unknown,Strada Constituției,Chișinău,Unknown,Unknown,"Moldova, Republic of",dentist,dentist,Unknown,Unknown,Unknown,47.0255491,28.7932365
Veterinary Services EV,Unknown,Strada Ion Creangă,Chișinău,Unknown,Unknown,"Moldova, Republic of",veterinary,Healthcare Services,Unknown,Unknown,Unknown,47.0306657,28.8020145
Med Plus Medical Center,Unknown,Strada Ion Creangă,Chișinău,MD-2069,Unknown,"Moldova, Republic of",clinic,clinic,Unknown,Unknown,Unknown,47.0329952,28.8067598
Level Dental Clinic,Unknown,Strada Ion Creangă,Chișinău,Unknown,Unknown,"Moldova, Republic of",dentist,dentist,Unknown,Unknown,Unknown,47.0327596,28.8069472
Sante,Unknown,Strada Ismail,Chișinău,Unknown,Unknown,"Moldova, Republic of",clinic,clinic,Unknown,Unknown,Mo-Fr 07:00-20:00; Sa 08:00-19:00,47.0158853,28.8469712
Felicia,Unknown,Bulevardul Moscova,Chișinău,Unknown,Unknown,"Moldova, Republic of",pharmacy,pharmacy,Unknown,Unknown,Unknown,47.0588629,28.8681269
Felicia,Unknown,Strada Miorița,Chișinău,MD-2028,Unknown,"Moldova, Republic of",pharmacy,pharmacy,Unknown,Unknown,Unknown,46.9968125,28.8089126
MedHelper,Unknown,Strada Vladimir Korolenko,Chișinău,Unknown,Unknown,"Moldova, Republic of",pharmacy,pharmacy,Unknown,Unknown,Unknown,46.996096,28.8245508
Felicia,Unknown,Strada Calea Ieșilor,Chișinău,MD-2069,Unknown,"Moldova, Republic of",pharmacy,pharmacy,Unknown,Unknown,Mo-Su 08:00-22:00,47.0396623,28.8034771
Farmacie,Unknown,Bulevardul Dacia,Chișinău,Unknown,Unknown,"Moldova, Republic of",pharmacy,pharmacy,Unknown,Unknown,Unknown,46.9836125,28.8599508
Farmacia Felicia,Unknown,Strada Vladimir Korolenko,Chișinău,Unknown,Unknown,"Moldova, Republic of",pharmacy,pharmacy,Unknown,Unknown,Unknown,46.9961207,28.8245163
AcustMed,Unknown,Strada Columna,Chișinău,Unknown,Unknown,"Moldova, Republic of",clinic,clinic,Unknown,Unknown,Unknown,47.018514,28.8478179
Ciavdar Grup,Unknown,Strada Nicolae Costin,Chișinău,Unknown,Unknown,"Moldova, Republic of",veterinary,Healthcare Services,Unknown,Unknown,Unknown,47.0400375,28.7762035
Felicia,Unknown,Strada Alba-Iulia,Chișinău,Unknown,Unknown,"Moldova, Republic of",pharmacy,pharmacy,Unknown,Unknown,Mo-Su 08:00-21:00,47.0360236,28.7754838
Dental Spa,Unknown,Bulevardul Decebal,Chișinău,MD-2038,Unknown,"Moldova, Republic of",dentist,dentist,Unknown,Unknown,Unknown,47.0059744,28.8583283
Farmacia Ginseng,Unknown,Șoseaua Hâncești,Chișinău,Unknown,Unknown,"Moldova, Republic of",pharmacy,pharmacy,Unknown,Unknown,Unknown,46.9984376,28.8066426
Hippocrates,Unknown,Bulevardul Decebal,Chișinău,Unknown,Unknown,"Moldova, Republic of",pharmacy,pharmacy,Unknown,Unknown,Unknown,46.9966511,28.8593862
Hippocrates,Unknown,Strada Grenoble,Chișinău,Unknown,Unknown,"Moldova, Republic of",pharmacy,pharmacy,Unknown,Unknown,Unknown,46.9827275,28.8373355
Hippocrates,Unknown,Strada Alexandru cel Bun,Chișinău,Unknown,Unknown,"Moldova, Republic of",pharmacy,pharmacy,Unknown,Unknown,Unknown,47.0246958,28.8415101
Hippocrates,Unknown,Strada București,Chișinău,Unknown,Unknown,"Moldova, Republic of",pharmacy,pharmacy,Unknown,Unknown,Unknown,47.028572,28.817909
Hippocrates,Unknown,Bulevardul Grigore Vieru,Chișinău,MD-2005,Unknown,"Moldova, Republic of",pharmacy,pharmacy,Unknown,Unknown,Mo-Su 08:00-21:00,47.0326055,28.8435195
Hippocrates,Unknown,Strada Armenească,Chișinău,Unknown,Unknown,"Moldova, Republic of",pharmacy,pharmacy,Unknown,Unknown,Unknown,47.0207165,28.8409421
Hippocrates,Unknown,Strada Mitropolit Varlaam,Chișinău,Unknown,Unknown,"Moldova, Republic of",pharmacy,pharmacy,Unknown,Unknown,Unknown,47.0198939,28.8433614
Hippocrates,Unknown,Strada Mitropolit Varlaam,Chișinău,Unknown,Unknown,"Moldova, Republic of",pharmacy,pharmacy,Unknown,Unknown,Unknown,47.0194364,28.8431492
Hippocrates,Unknown,Strada Alecu Russo,Chișinău,Unknown,Unknown,"Moldova, Republic of",pharmacy,pharmacy,Unknown,Unknown,Unknown,47.0363141,28.8877325
Hippocrates,Unknown,Strada Maria Drăgan,Chișinău,Unknown,Unknown,"Moldova, Republic of",pharmacy,pharmacy,Unknown,Unknown,Unknown,47.0296291,28.8836586
Hippocrates,Unknown,Bulevardul Mircea cel Bătrân,Chișinău,Unknown,Unknown,"Moldova, Republic of",pharmacy,pharmacy,Unknown,Unknown,Unknown,47.0401377,28.8891916
Hippocrates,Unknown,Strada Mihail Sadoveanu,Chișinău,Unknown,Unknown,"Moldova, Republic of",pharmacy,pharmacy,Unknown,Unknown,Unknown,47.0447145,28.8820528
Hippocrates,Unknown,Strada Doctor Tudor Strișcă,Chișinău,Unknown,Unknown,"Moldova, Republic of",pharmacy,pharmacy,Unknown,Unknown,Unknown,46.9884056,28.8343503
Hippocrates,Unknown,Strada Alecu Russo,Chișinău,MD-2068,Unknown,"Moldova, Republic of",pharmacy,pharmacy,Unknown,Unknown,Unknown,47.0450782,28.86215
Hippocrates,Unknown,Strada Nicolae Testemițanu,Chișinău,Unknown,Unknown,"Moldova, Republic of",pharmacy,pharmacy,Unknown,Unknown,Unknown,46.9947681,28.832038
Royal Dentalit,Unknown,Strada Vasile Lupu,Chișinău,MD-2008,Unknown,"Moldova, Republic of",dentist,dentist,0609 98 999,https://www.facebook.com/Royal-Dentalit-388661334671443/,Mo-Su 09:00-19:00,47.0215829,28.8061426
Pediatrica,Unknown,Strada Miorița,Chișinău,MD-2028,Unknown,"Moldova, Republic of",clinic,clinic,Unknown,Unknown,Unknown,46.995589,28.8125727
Farmacie,Unknown,Strada Vasile Lupu,Chișinău,Unknown,Unknown,"Moldova, Republic of",pharmacy,pharmacy,Unknown,Unknown,Unknown,47.0232495,28.7981459
DITA Hyper Farmacie,Unknown,Strada Miorița,Chișinău,Unknown,Unknown,"Moldova, Republic of",pharmacy,pharmacy,Unknown,Unknown,Unknown,46.9953241,28.8123983
Neuromed,Unknown,Strada Florești,Chișinău,Unknown,Unknown,"Moldova, Republic of",clinic,clinic,+37361083434,Unknown,Unknown,47.0299514,28.7861582
Farmacie Veterinară,Unknown,Strada Paris,Chișinău,Unknown,Unknown,"Moldova, Republic of",veterinary,Healthcare Services,Unknown,Unknown,Unknown,47.029547,28.7799508
OSP-FARM,Unknown,Strada Alba-Iulia,Chișinău,Unknown,Unknown,"Moldova, Republic of",pharmacy,pharmacy,+37322749954,Unknown,Unknown,47.0383435,28.7707469
Farmacie,Unknown,Strada Onisifor Ghibu,Chișinău,Unknown,Unknown,"Moldova, Republic of",pharmacy,pharmacy,Unknown,Unknown,Unknown,47.0367352,28.7776373
Farmacia Felicia,Unknown,Strada Onisifor Ghibu,Chișinău,Unknown,Unknown,"Moldova, Republic of",pharmacy,pharmacy,+373 22 515 977;+373 30 000 429,https://felicia.md/,Mo-Su 08:00-21:00,47.0352716,28.7769378
AlmaMed,Unknown,Strada Vasile Lupu,Chișinău,Unknown,Unknown,"Moldova, Republic of",dentist,dentist,+37322595921,https://www.facebook.com/almamedstudio/,Unknown,47.0224134,28.8089102
ProMed Family Medical Center,Unknown,Strada Nicolae Costin,Chișinău,Unknown,Unknown,"Moldova, Republic of",clinic,clinic,+373 799 90 382,https://pro-med.md/,Unknown,47.0358728,28.7879701
Farmacia Mama,Unknown,Strada Ion Luca Caragiale,Chișinău,Unknown,Unknown,"Moldova, Republic of",pharmacy,pharmacy,Unknown,Unknown,Unknown,47.0351799,28.788612
Farmina,Unknown,Strada Calea Ieșilor,Chișinău,Unknown,Unknown,"Moldova, Republic of",pharmacy,pharmacy,+37322753508,https://www.apteka.md/,Unknown,47.0377256,28.8085616
ClasicDent,Unknown,Strada Ion Creangă,Chișinău,Unknown,Unknown,"Moldova, Republic of",dentist,dentist,+37322744531,Unknown,Unknown,47.0349925,28.8087258
MedWay,Unknown,Strada Țarinei,Chișinău,Unknown,Unknown,"Moldova, Republic of",clinic,clinic,+37379321919,https://terapie.medway.md/,Unknown,47.0401241,28.7945869
IuronVet,Unknown,Strada Calea Ieșilor,Chișinău,Unknown,Unknown,"Moldova, Republic of",veterinary,Healthcare Services,+37360028940,Unknown,Mo-Fr 09:00-19:00; Sa 09:00-16:00,47.042152,28.794854
Centrul Municipal de Vaccinare,Unknown,Strada Petru Rareș,Chișinău,MD-2005,Unknown,"Moldova, Republic of",clinic,clinic,Unknown,Unknown,Unknown,47.0314379,28.8392962
Astralis Dent,Unknown,Strada Petru Rareș,Chișinău,Unknown,Unknown,"Moldova, Republic of",dentist,dentist,Unknown,Unknown,Unknown,47.0341554,28.8405087
Felicia,Unknown,Strada Calea Ieșilor,Chișinău,Unknown,Unknown,"Moldova, Republic of",pharmacy,pharmacy,+37322597017,https://felicia.md/,Unknown,47.042839,28.7921277
Farmacia Mama,Unknown,Strada Calea Ieșilor,Chișinău,Unknown,Unknown,"Moldova, Republic of",pharmacy,pharmacy,Unknown,Unknown,Unknown,47.0386472,28.8080494
OrtoClinic Dr. Igor Cazacu,Unknown,Strada Alba-Iulia,Chișinău,Unknown,Unknown,"Moldova, Republic of",dentist,dentist,+37360534747,Unknown,Mo-Fr 09:00-18:00,47.0341059,28.7778049
Fala Dental,Unknown,Unknown,Unknown,Unknown,Unknown,"Moldova, Republic of",dentist,Healthcare Services,Unknown,Unknown,Unknown,47.0142064,28.8379751
Farmacia Balkan,Unknown,Strada Nicolae Costin,Chișinău,MD-2051,Unknown,"Moldova, Republic of",pharmacy,pharmacy,Unknown,Unknown,Mo-Fr 08:30-20:30; Sa-Su 08:30-18:30,47.0358049,28.7874845
Peon,Unknown,Strada Petricani,Chișinău,MD-2059,Unknown,"Moldova, Republic of",pharmacy,pharmacy,Unknown,Unknown,Unknown,47.0444209,28.8330316
Immuno+,Unknown,Bulevardul Moscova,Chișinău,Unknown,Unknown,"Moldova, Republic of",clinic,clinic,Unknown,Unknown,Unknown,47.0461201,28.8615958
Farmacia Familiei,Unknown,Strada Nicolae Testemițanu,Chișinău,Unknown,Unknown,"Moldova, Republic of",pharmacy,pharmacy,Unknown,Unknown,Mo-Su 08:00-22:00,46.99672,28.8342607
DermaClinic,Unknown,Strada Alessandro Bernardazzi,Chișinău,MD-2001,Unknown,"Moldova, Republic of",clinic,clinic,+373 600 04 045,Unknown,Unknown,47.0115798,28.8345276
BelloDent,Unknown,Șoseaua Hâncești,Chișinău,Unknown,Unknown,"Moldova, Republic of",dentist,dentist,Unknown,Unknown,Unknown,47.000978,28.8147962
Clinica Dentară „Innova”,Unknown,Strada Hristo Botev,Chișinău,MD-2043,Unknown,"Moldova, Republic of",hospital,hospital,Unknown,Unknown,Unknown,46.9879222,28.8446806
Unknown,Unknown,Strada Păcii,Durlești,Unknown,Unknown,"Moldova, Republic of",dentist,dentist,Unknown,Unknown,Unknown,47.0326612,28.7661815
Diagnostic Dentar 3D,Unknown,Bulevardul Constantin Negruzzi,Chișinău,Unknown,Unknown,"Moldova, Republic of",clinic,clinic,Unknown,Unknown,Unknown,47.0130646,28.852001
Dr. Romaniuc KIDS,Unknown,Strada Ginta Latină,Chișinău,MD-2044,Unknown,"Moldova, Republic of",dentist,dentist,Unknown,Unknown,Unknown,47.0335358,28.8826236
Sante,Unknown,Bulevardul Renașterii Naționale,Chișinău,Unknown,Unknown,"Moldova, Republic of",clinic,clinic,Unknown,Unknown,Mo-Fr 07:00-17:00; Sa 08:00-13:00,47.0356684,28.8495068
TestRapid,Unknown,Strada Vlaicu Pârcălab,Chișinău,Unknown,Unknown,"Moldova, Republic of",clinic,clinic,Unknown,Unknown,Unknown,47.0231636,28.8364213
MasterDent,Unknown,Strada Vasile Lupu,Chișinău,Unknown,Unknown,"Moldova, Republic of",dentist,dentist,Unknown,Unknown,Unknown,47.0226418,28.7953771
Sonomed,Unknown,Strada Ismail,Chișinău,MD-2001,Unknown,"Moldova, Republic of",clinic,clinic,Unknown,Unknown,Unknown,47.0174193,28.8500542
Vertebromed,Unknown,Strada Alexandru cel Bun,Chișinău,MD-2005,Unknown,"Moldova, Republic of",clinic,clinic,Unknown,Unknown,Unknown,47.0294787,28.8342762
Adler Medical,Unknown,Strada Bulgară,Chișinău,Unknown,Unknown,"Moldova, Republic of",clinic,clinic,Unknown,Unknown,Unknown,47.0175946,28.8399387
Porțelan-Dental,Unknown,Strada Mitropolit Gavriil Bănulescu-Bodoni,Chișinău,Unknown,Unknown,"Moldova, Republic of",dentist,dentist,Unknown,Unknown,Unknown,47.0262924,28.831679
Farmacie „Peon-Farm”,Unknown,Șoseaua Hîncești,Chișinău,Unknown,Unknown,"Moldova, Republic of",pharmacy,pharmacy,Unknown,Unknown,Unknown,46.9928989,28.7901064
Stomatologie,Unknown,Strada Spicului,Chișinău,MD-2070,Unknown,"Moldova, Republic of",dentist,dentist,Unknown,Unknown,Unknown,46.996031,28.785678
Farmacia Farmina,Unknown,Strada Ion Luca Caragiale,Chișinău,MD-2051,Unknown,"Moldova, Republic of",pharmacy,pharmacy,Unknown,Unknown,Mo-Fr 08:00-19:00,47.0348019,28.7894998
Centrul de Sănătate pentru Studenți,Unknown,Bulevardul Grigore Vieru,Chișinău,Unknown,Unknown,"Moldova, Republic of",clinic,clinic,Unknown,Unknown,Unknown,47.0313371,28.8454596
Farmacia Familiei,Unknown,Strada Ion Creangă,Chișinău,MD-2064,Unknown,"Moldova, Republic of",pharmacy,pharmacy,+373 22 780 061,https://ff.md/,Mo-Su 08:00-23:00,47.0277026,28.7939148
Vig-Vet,Unknown,Strada Vasile Lupu,Chișinău,MD-2008,Unknown,"Moldova, Republic of",veterinary,Healthcare Services,+37369189995,https://www.facebook.com/vigvet/,Mo-Fr 08:00-20:00,47.0246107,28.7900406
Eternal Beauty,Unknown,Strada Bogdan Voievod,Chișinău,Unknown,Unknown,"Moldova, Republic of",clinic,clinic,Unknown,Unknown,Mo-Su 09:00-19:00,47.0455744,28.860088
Clinica Dr. Terzi,Unknown,Bulevardul Grigore Vieru,Chișinău,MD-2005,Unknown,"Moldova, Republic of",doctors,doctor,Unknown,Unknown,Unknown,47.0314997,28.8417305
ClasicMed,Unknown,Strada Mihai Viteazul,Chișinău,MD-2004,Unknown,"Moldova, Republic of",clinic,clinic,Unknown,Unknown,Unknown,47.037553,28.826023
Ortognatica 3M,Unknown,Strada Alexandru Bernardazzi,Chișinău,Unknown,Unknown,"Moldova, Republic of",dentist,dentist,Unknown,Unknown,Unknown,47.0166377,28.8266127
Stomatologie,Unknown,Strada Miorița,Chișinău,Unknown,Unknown,"Moldova, Republic of",dentist,dentist,Unknown,Unknown,Unknown,46.996243,28.809811
Stomatologie,Unknown,Strada Grenoble,Codru,Unknown,Unknown,"Moldova, Republic of",dentist,dentist,Unknown,Unknown,Unknown,46.9810993,28.839724
Dr. Kelmanovici Mihail,Unknown,Strada Ion Creangă,Chișinău,Unknown,Unknown,"Moldova, Republic of",dentist,dentist,Unknown,https://www.kelmanovici.com/,Unknown,47.0247848,28.787495
SuperDent,Unknown,Strada Mihai Viteazul,Chișinău,Unknown,Unknown,"Moldova, Republic of",dentist,dentist,022235017,http://www.superdent.md/,Mo-Fr 09:00-18:00,47.0358789,28.8210566
VeroDent,Unknown,Strada Alexandru Marinescu,Chișinău,Unknown,Unknown,"Moldova, Republic of",dentist,dentist,+37322009550,Unknown,Mo-Fr 08:30-18:00,47.030694,28.7818228
Farmacia „Galenus”,Unknown,Strada Paris,Chișinău,Unknown,Unknown,"Moldova, Republic of",pharmacy,pharmacy,Unknown,Unknown,Unknown,47.0292741,28.7797499
Cristalex Dent,Unknown,Strada Alba-Iulia,Chișinău,Unknown,Unknown,"Moldova, Republic of",dentist,dentist,+37369253303,https://www.facebook.com/cristalexdent/,Mo-Fr 09:00-18:00,47.0346603,28.7764098
Stomatologie,Unknown,Strada Tudor Vladimirescu,Durlești,Unknown,Unknown,"Moldova, Republic of",dentist,dentist,Unknown,Unknown,Unknown,47.0255666,28.779656
"Ozonoterapie „Medox-Prim” SC, Cabinet medical",Unknown,Strada Vlaicu Pârcălab,Chișinău,MD-2009,Unknown,"Moldova, Republic of",clinic,clinic;doctor,+37369251492,Unknown,Mo-Fr 08:00-17:00,47.0164302,28.8262728
Felicia,Unknown,Unknown,Chișinău,Unknown,Unknown,"Moldova, Republic of",pharmacy,pharmacy,Unknown,Unknown,Unknown,47.0209683,28.84473
Kinezis-Vita,Unknown,Strada Columna,Chișinău,Unknown,Unknown,"Moldova, Republic of",clinic,clinic,Unknown,Unknown,Unknown,47.0182947,28.8478452
ALL-MED,Unknown,Strada Ismail,Chișinău,Unknown,Unknown,"Moldova, Republic of",clinic,clinic,Unknown,Unknown,Unknown,47.019431,28.8519619
Synevo laborator analize medicale,Unknown,Strada Nikolai Zelinski,Unknown,Unknown,Unknown,"Moldova, Republic of",clinic,Healthcare Services,+37322 856 993,https://www.synevo.md/locatii/centrul-de-recoltare-str-nicolae-zelinski-nr-31/,Mo-Fr 07:30-16:00,46.9931173,28.8527114
"Clinica ""Emanuel""",Unknown,Strada Alexandru cel Bun,Chișinău,Unknown,Unknown,"Moldova, Republic of",clinic,clinic,Unknown,Unknown,Unknown,47.0311604,28.8318399
zdent.md,Unknown,Unknown,Chișinău,Unknown,Unknown,"Moldova, Republic of",dentist,dentist,Unknown,Unknown,Unknown,47.0312007,28.8312176
American Medical Center,Unknown,Unknown,Chișinău,Unknown,Unknown,"Moldova, Republic of",clinic,clinic,022223311,https://www.amc.md/,Mo-Fr 08:00-20:00; Sa 08:00-14:00,47.0295083,28.8427304
Salut,Unknown,Strada Eugen Coca,Chișinău,Unknown,Unknown,"Moldova, Republic of",pharmacy,pharmacy,Unknown,Unknown,Unknown,47.0276751,28.8080041
Dental Health Dr. Eromenco,Unknown,Strada Grigore Alexandrescu,Chișinău,MD-2008,Unknown,"Moldova, Republic of",dentist,dentist,Unknown,Unknown,Unknown,47.0213107,28.8054876
FotoDent,Unknown,Strada Ion Creangă,Chișinău,Unknown,Unknown,"Moldova, Republic of",dentist,dentist,Unknown,Unknown,Unknown,47.029137,28.7993721
MartiDent,Unknown,Strada Doina și Ion Aldea-Teodorovici,Chișinău,Unknown,Unknown,"Moldova, Republic of",dentist,dentist,Unknown,Unknown,Unknown,47.0282189,28.7936377
Centrul Medical „Maia & CO”,Unknown,Strada Doina și Ion Aldea-Teodorovici,Chișinău,Unknown,Unknown,"Moldova, Republic of",clinic,clinic,Unknown,Unknown,Unknown,47.028445,28.794069
Health Med,Unknown,Piața Unirea Principatelor,Chișinău,MD-2064,Unknown,"Moldova, Republic of",clinic,clinic,Unknown,Unknown,Unknown,47.0269898,28.7947489
Dexa-Scanning,Unknown,Strada Constantin Vârnav,Chișinău,Unknown,Unknown,"Moldova, Republic of",clinic,clinic,Unknown,Unknown,Unknown,46.996907,28.830269
Salut,Unknown,Strada George Coșbuc,Chișinău,MD-2005,Unknown,"Moldova, Republic of",pharmacy,pharmacy,Unknown,Unknown,Mo-Su 08:00-20:00,47.0268087,28.8407602
Scutelnic Dental,Unknown,Strada Alecu Donici,Chișinău,Unknown,Unknown,"Moldova, Republic of",dentist,dentist,+373 22 234 297,Unknown,Unknown,47.0303079,28.7990798
Faur Dent,Unknown,Strada Ion Creangă,Chișinău,Unknown,Unknown,"Moldova, Republic of",dentist,dentist,Unknown,Unknown,Unknown,47.0286575,28.7952753
DentaLux,Unknown,Strada Vissarion Belinski,Chișinău,Unknown,Unknown,"Moldova, Republic of",dentist,dentist,Unknown,Unknown,Unknown,47.0305899,28.8008303
Ultrasonografie Dr. Sandu,Unknown,Strada Ion Luca Caragiale,Chișinău,Unknown,Unknown,"Moldova, Republic of",doctors,doctor,Unknown,Unknown,Unknown,47.0346912,28.7896694
Farmacia Hypocrates,Unknown,Strada Ioana Radu,Chișinău,Unknown,Unknown,"Moldova, Republic of",pharmacy,pharmacy,Unknown,Unknown,Unknown,47.0267079,28.7979048
Dental Med,Unknown,Strada Kiev,Chișinău,MD-2068,Unknown,"Moldova, Republic of",dentist,dentist,Unknown,Unknown,Unknown,47.0409026,28.8606287
Farmacia Familiei,Unknown,Bulevardul Ștefan cel Mare și Sfânt,Chișinău,MD-2001,Unknown,"Moldova, Republic of",pharmacy,pharmacy,Unknown,Unknown,Unknown,47.0166875,28.8437707
BrioDent,Unknown,Strada Bogdan Voievod,Chișinău,Unknown,Unknown,"Moldova, Republic of",dentist,dentist,Unknown,Unknown,Unknown,47.0438054,28.857545
ExpoDent,Unknown,Strada Miron Costin,Chișinău,Unknown,Unknown,"Moldova, Republic of",dentist,dentist,Unknown,Unknown,Unknown,47.049869,28.860236
Invitro,Unknown,Strada Albișoara,Chișinău,Unknown,Unknown,"Moldova, Republic of",clinic,laboratory,Unknown,Unknown,Mo-Fr 07:00-19:00; Sa-Su 08:00-14:00,47.0364451,28.8414378
Felicia,Unknown,Strada Albișoara,Chișinău,Unknown,Unknown,"Moldova, Republic of",pharmacy,pharmacy,Unknown,Unknown,Unknown,47.0365733,28.8412589
Invitro,Unknown,Unknown,Chișinău,Unknown,Unknown,"Moldova, Republic of",clinic,laboratory,Unknown,Unknown,Mo-Fr 07:30-16:00; Sa 07:30-12:00,47.053878,28.864577
Invitro,Unknown,Strada Alecu Russo,Chișinău,Unknown,Unknown,"Moldova, Republic of",clinic,laboratory,Unknown,Unknown,Mo-Fr 07:30-16:00; Sa 07:30-12:00,47.0383985,28.8854624
Invitro,Unknown,Unknown,Unknown,Unknown,Unknown,"Moldova, Republic of",clinic,laboratory,Unknown,Unknown,Mo-Fr 07:30-16:00; Sa 07:30-12:00,47.0320675,28.8216958
Invitro,Unknown,Strada Mihai Eminescu,Chișinău,Unknown,Unknown,"Moldova, Republic of",clinic,laboratory,Unknown,Unknown,Mo-Fr 07:30-16:00; Sa 07:30-12:00,47.0248137,28.8407745
Invitro,Unknown,Unknown,Unknown,Unknown,Unknown,"Moldova, Republic of",clinic,laboratory,Unknown,Unknown,Mo-Fr 07:30-16:00; Sa 08:00-12:00,47.0047569,28.8431078
Invitro,Unknown,Unknown,Unknown,Unknown,Unknown,"Moldova, Republic of",clinic,laboratory,Unknown,Unknown,Mo-Fr 07:30-16:00; Sa 07:30-12:00,47.043012,28.856208
Invitro,Unknown,Unknown,Chișinău,Unknown,Unknown,"Moldova, Republic of",clinic,laboratory,Unknown,Unknown,Mo-Fr 07:30-18:00; Sa 07:30-12:00,46.9907625,28.8276047
Sante,Unknown,Strada Aleksandr Pușkin,Chișinău,Unknown,Unknown,"Moldova, Republic of",clinic,clinic,Unknown,Unknown,Mo-Fr 07:00-17:00; Sa 08:00-13:00,47.0186019,28.827052
Sante,Unknown,Strada Nicolae Testemițanu,Chișinău,MD-2025,Unknown,"Moldova, Republic of",clinic,clinic,Unknown,Unknown,Mo-Fr 07:00-17:00; Sa 08:00-13:00,46.9952299,28.8327326
Elody,Unknown,Bulevardul Ștefan cel Mare și Sfânt,Chișinău,Unknown,Unknown,"Moldova, Republic of",pharmacy,pharmacy,Unknown,Unknown,Mo-Su 08:00-20:00,47.0234785,28.8345756
Universal Dental Clinic,Unknown,Strada Mitropolit Varlaam,Chișinău,Unknown,Unknown,"Moldova, Republic of",dentist,dentist,Unknown,Unknown,Unknown,47.0216218,28.8417987
Hippocrates,Unknown,Strada Kiev,Chișinău,MD-2068,Unknown,"Moldova, Republic of",pharmacy,pharmacy,Unknown,Unknown,Unknown,47.044021,28.8621402
Stomatolog MD,Unknown,Strada Alexei Șciusev,Chișinău,Unknown,Unknown,"Moldova, Republic of",dentist,dentist,Unknown,Unknown,Unknown,47.0170572,28.8317941
Orient,Unknown,Strada Ismail,Chișinău,MD-2001,Unknown,"Moldova, Republic of",pharmacy,pharmacy,Unknown,Unknown,Unknown,47.0181187,28.8483759
Stomatologie,Unknown,Unknown,Chișinău,Unknown,Unknown,"Moldova, Republic of",dentist,dentist,Unknown,Unknown,Unknown,46.9897015,28.8578823
Dental Premium,Unknown,Unknown,Chișinău,Unknown,Unknown,"Moldova, Republic of",dentist,dentist,Unknown,Unknown,Unknown,46.9891995,28.8577526
KinderMed,Unknown,Strada Vasile Alecsandri,Chișinău,Unknown,Unknown,"Moldova, Republic of",clinic,clinic,Unknown,Unknown,Unknown,47.0166361,28.8317949
Farmacia Familiei,Unknown,Strada Haiducilor,Codru,Unknown,Unknown,"Moldova, Republic of",pharmacy,pharmacy,Unknown,Unknown,Unknown,46.9937997,28.7989553
Dalmio-Dent,Unknown,Bulevardul Grigore Vieru,Chișinău,MD-2005,Unknown,"Moldova, Republic of",dentist,dentist,Unknown,Unknown,Unknown,47.0316598,28.84151
Elody,Unknown,Strada Gheorghe Asachi,Chișinău,Unknown,Unknown,"Moldova, Republic of",pharmacy,pharmacy,Unknown,Unknown,Unknown,46.9978529,28.8205498
Elody,Unknown,Bulevardul Decebal,Chișinău,MD-2038,Unknown,"Moldova, Republic of",pharmacy,pharmacy,Unknown,Unknown,Unknown,46.9975118,28.8594117
Farmacia Familiei,Unknown,Bulevardul Dacia,Chișinău,Unknown,Unknown,"Moldova, Republic of",pharmacy,pharmacy,Unknown,Unknown,Unknown,46.988842,28.8527605
Elody,Unknown,Strada Socoleni,Chișinău,Unknown,Unknown,"Moldova, Republic of",pharmacy,pharmacy,Unknown,Unknown,Unknown,47.0603956,28.8399018
Elody,Unknown,Strada Calea Moșilor,Chișinău,Unknown,Unknown,"Moldova, Republic of",pharmacy,pharmacy,+373 22 429 488,https://farmacie.md,Mo-Su 08:00-20:00,47.0253872,28.861563
DentExpert,Unknown,Bulevardul Dacia,Chișinău,Unknown,Unknown,"Moldova, Republic of",dentist,dentist,Unknown,Unknown,Unknown,46.9850902,28.8602415
DITA Hyper Farmacie,Unknown,Strada Ion Creangă,Chișinău,MD-2064,Unknown,"Moldova, Republic of",pharmacy,pharmacy,Unknown,Unknown,Mo-Su 08:00-22:00,47.028145,28.7951829
SB Dental Group,Unknown,Unknown,Chișinău,Unknown,Unknown,"Moldova, Republic of",dentist,dentist,Unknown,Unknown,Unknown,46.9890963,28.8620262
MelaDent,Unknown,Bulevardul Grigore Vieru,Chișinău,Unknown,Unknown,"Moldova, Republic of",dentist,dentist,Unknown,Unknown,Unknown,47.0329525,28.845928
MelaDent Kids,Unknown,Bulevardul Grigore Vieru,Chișinău,Unknown,Unknown,"Moldova, Republic of",dentist,dentist,Unknown,Unknown,Unknown,47.0325411,28.8458502
Sildent,Unknown,Unknown,Unknown,Unknown,Unknown,"Moldova, Republic of",dentist,Healthcare Services,Unknown,Unknown,Unknown,47.0628675,28.8457077
Unknown,Unknown,Unknown,Unknown,Unknown,Unknown,"Moldova, Republic of",pharmacy,Healthcare Services,Unknown,Unknown,Unknown,47.0195281,28.8834615
ViaDent,Unknown,Strada Valea Trandafirilor,Chișinău,Unknown,Unknown,"Moldova, Republic of",dentist,dentist,Unknown,Unknown,Unknown,47.007729,28.8483087
Farmacia Bonivit,Unknown,Bulevardul Mircea cel Bătrân,Chișinău,Unknown,Unknown,"Moldova, Republic of",pharmacy,pharmacy,Unknown,Unknown,Unknown,47.0372395,28.8903468
Dita,Unknown,Bulevardul Moscova,Chișinău,Unknown,Unknown,"Moldova, Republic of",pharmacy,pharmacy,Unknown,Unknown,Unknown,47.0478199,28.8622668
Balkan Medica,Unknown,Strada Nicolae Testemițanu,Chișinău,Unknown,Unknown,"Moldova, Republic of",clinic,clinic,Unknown,Unknown,Unknown,46.993584,28.8309381
Hippocrates,Unknown,Bulevardul Dacia,Chișinău,Unknown,Unknown,"Moldova, Republic of",pharmacy,pharmacy,Unknown,Unknown,Unknown,46.9862982,28.8586008
Mama Med,Unknown,Bulevardul Dacia,Chișinău,MD-2060,Unknown,"Moldova, Republic of",clinic,clinic,Unknown,Unknown,Unknown,46.9847332,28.8607536
Lacteia,Unknown,Bulevardul Cuza Vodă,Chișinău,Unknown,Unknown,"Moldova, Republic of",clinic,clinic,Unknown,Unknown,Unknown,46.9864641,28.8659129
Farmacia Familiei,Unknown,Strada Arborilor,Chișinău,MD-2025,Unknown,"Moldova, Republic of",pharmacy,pharmacy,Unknown,Unknown,Unknown,47.0042799,28.8407545
Farmacia Familiei,Unknown,Strada 31 August 1989,Chișinău,MD-2012,Unknown,"Moldova, Republic of",pharmacy,pharmacy,Unknown,Unknown,Unknown,47.0177994,28.8361977
Ultradent,Unknown,Bulevardul Mircea cel Bătrân,Chișinău,Unknown,Unknown,"Moldova, Republic of",dentist,dentist,Unknown,Unknown,Unknown,47.0381573,28.8889504
Dita,Unknown,Bulevardul Mircea cel Bătrân,Chișinău,Unknown,Unknown,"Moldova, Republic of",pharmacy,pharmacy,Unknown,Unknown,Unknown,47.0381603,28.8890178
Smile Dent,Unknown,Bulevardul Decebal,Chișinău,MD-2060,Unknown,"Moldova, Republic of",dentist,dentist,Unknown,Unknown,Unknown,46.9881513,28.8583213
ON Clinic,Unknown,Strada Vasile Alecsandri,Chișinău,Unknown,Unknown,"Moldova, Republic of",clinic,clinic,Unknown,Unknown,Unknown,47.0236719,28.8425392
Denta Scan,Unknown,Strada Alexandru cel Bun,Chișinău,Unknown,Unknown,"Moldova, Republic of",doctors,doctor,Unknown,Unknown,Unknown,47.0259355,28.8390005
Panacea,Unknown,Strada Calea Ieșilor,Chișinău,MD-2069,Unknown,"Moldova, Republic of",pharmacy,pharmacy,Unknown,Unknown,Unknown,47.0372215,28.8118
Dita,Unknown,Bulevardul Ștefan cel Mare și Sfânt,Chișinău,Unknown,Unknown,"Moldova, Republic of",pharmacy,pharmacy,Unknown,Unknown,Unknown,47.0147394,28.8479269
Invitro,Unknown,Unknown,Unknown,Unknown,Unknown,"Moldova, Republic of",clinic,laboratory,Unknown,Unknown,Mo-Fr 07:30-16:00; Sa 07:30-12:00,46.9901734,28.850795
Coriodent,Unknown,Strada Calea Ieșilor,Chișinău,Unknown,Unknown,"Moldova, Republic of",dentist,dentist,Unknown,Unknown,Unknown,47.0398677,28.7997764
Salut Farmacie,Unknown,Strada Grenoble,Chișinău,Unknown,Unknown,"Moldova, Republic of",pharmacy,pharmacy,Unknown,Unknown,Unknown,46.9843535,28.8349163
Proctomed Clinic,Unknown,Strada Independenței,Chișinău,Unknown,Unknown,"Moldova, Republic of",clinic,clinic,Unknown,Unknown,Unknown,46.981927,28.8498519
Orient,Unknown,Bulevardul Traian,Chișinău,MD-2043,Unknown,"Moldova, Republic of",pharmacy,pharmacy,Unknown,Unknown,Unknown,46.9815664,28.8501477
Farmacia Universitara,Unknown,Strada 31 August 1989,Unknown,Unknown,Unknown,"Moldova, Republic of",pharmacy,pharmacy,Unknown,Unknown,Mo-Fr 09:00-17:00,47.027586,28.8218671
Unknown,Unknown,Unknown,Unknown,Unknown,Unknown,"Moldova, Republic of",hospital,hospital,Unknown,Unknown,Unknown,47.0274875,28.8202839
Clinica Oftalmologică MCI,Unknown,Serghei Lazo 7,or. Chisinau,MD-2004,Unknown,"Moldova, Republic of",clinic,clinic,Unknown,Unknown,Mo-Fr 09:00-18:00,47.0266358,28.8209433
Hippocrates,Unknown,Unknown,Unknown,Unknown,Unknown,"Moldova, Republic of",pharmacy,pharmacy,Unknown,Unknown,09:00-20:00,47.045225,28.8656432
Pediatrica,Unknown,Strada Alba-Iulia,Chișinău,Unknown,Unknown,"Moldova, Republic of",clinic,clinic,Unknown,Unknown,Unknown,47.0376569,28.7724333
Farmacia Familiei,Unknown,Bulevardul Moscova,Chișinău,Unknown,Unknown,"Moldova, Republic of",pharmacy,pharmacy,Unknown,Unknown,Unknown,47.0504452,28.8632012
oftalmolog.md,Unknown,Strada Ismail 98/4 oficiu 210,Chișinău,Unknown,Unknown,"Moldova, Republic of",doctors,doctor,Unknown,Unknown,Unknown,47.019383,28.851994
Invitro,Unknown,Unknown,Unknown,Unknown,Unknown,"Moldova, Republic of",clinic,laboratory,Unknown,Unknown,Mo-Fr 07:30-16:00; Sa 07:30-12:00,47.0636324,28.8447976
Farmacia Familiei,Unknown,Strada Sprâncenoaia,Chișinău,Unknown,Unknown,"Moldova, Republic of",pharmacy,pharmacy,Unknown,Unknown,Unknown,46.9968137,28.8154704
Farmacia Balkan,Unknown,Strada Sprâncenoaia,Chișinău,Unknown,Unknown,"Moldova, Republic of",pharmacy,pharmacy,Unknown,Unknown,Unknown,46.9963768,28.8160786
Expert Clinic,Unknown,Strada Tadeuș Malinovschi,Codru,Unknown,Unknown,"Moldova, Republic of",clinic,clinic,Unknown,Unknown,Unknown,46.992127,28.8185249
Unknown,Unknown,Unknown,Unknown,Unknown,Unknown,"Moldova, Republic of",dentist,Healthcare Services,+373 22 909 044,https://dentalhouse.md/,Mo-Fr 09:00-19:00; Sa 09:00-14:00,47.0408758,28.881498
Farmacia Mama,Unknown,Strada Pietrarilor,Chișinău,Unknown,Unknown,"Moldova, Republic of",pharmacy,pharmacy,Unknown,Unknown,Unknown,47.0032767,28.8028824
NicDent,Unknown,Strada Gheorghe Asachi,Chișinău,Unknown,Unknown,"Moldova, Republic of",dentist,dentist,Unknown,Unknown,Unknown,46.9923456,28.8204831
Andromed Plus,Unknown,Strada Drumul Schinoasei,Codru,Unknown,Unknown,"Moldova, Republic of",clinic,clinic,+37379950011,Unknown,Unknown,46.9910681,28.8202176
ЛечСанУпр,Unknown,Unknown,Unknown,Unknown,Unknown,"Moldova, Republic of",clinic,clinic,Unknown,Unknown,Unknown,47.0203377,28.8332249
Centrul Medical „Medi Partner”,Unknown,Strada Mihai Eminescu,Codru,Unknown,Unknown,"Moldova, Republic of",doctors,doctor,Unknown,Unknown,Unknown,46.9884945,28.8279971
