Name,Full Address,Street,City,Postcode,State,Country,Amenity,Healthcare,Phone,Website,Opening Hours,Latitude,Longitude
municipal hospital for women & child,Unknown,Unknown,Unknown,Unknown,Unknown,Unknown,hospital,hospital,Unknown,Unknown,Unknown,19.8918831,75.3594412
Mundada Hospital,Unknown,Unknown,Unknown,Unknown,Unknown,Unknown,hospital,Unknown,Unknown,Unknown,Unknown,19.8675651,75.3477438
Sai Hospital,"Plot No.9, ST Work Shop, Shriram Colony, Aurangabad",Unknown,Unknown,431001,Maharastra,Unknown,hospital,Unknown,Unknown,Unknown,Unknown,19.8761032,75.3199706
shanti narsing home,Unknown,kanchanwadi  paithan road,aurangabad,Unknown,Unknown,Unknown,hospital,Unknown,Unknown,Unknown,Unknown,19.8357044,75.2913435
Kodgire Clinic,Unknown,Unknown,Unknown,Unknown,Unknown,Unknown,clinic,Unknown,Unknown,Unknown,Unknown,19.8423374,75.2413544
Jain Hospital,Unknown,Unknown,Unknown,Unknown,Unknown,Unknown,clinic,Unknown,Unknown,Unknown,Unknown,19.8472179,75.2531148
Shrikrishna Hospital,Unknown,Unknown,Unknown,Unknown,Unknown,Unknown,hospital,Unknown,Unknown,Unknown,Unknown,19.8758925,75.3221279
SANJIVNI  HOSPITAL,Unknown,Unknown,Unknown,Unknown,Unknown,Unknown,hospital,Unknown,Unknown,Unknown,Unknown,19.8428363,75.2166423
Khanale Hospital,Unknown,Unknown,Unknown,Unknown,Unknown,Unknown,hospital,Unknown,Unknown,Unknown,Unknown,19.8819257,75.3231341
Nayan Eye s Hospital,Unknown,Unknown,Unknown,Unknown,Unknown,Unknown,hospital,Unknown,Unknown,Unknown,Unknown,19.8790308,75.3228855
Aayurvedic hospital,Unknown,Unknown,Unknown,Unknown,Unknown,Unknown,hospital,Unknown,Unknown,Unknown,Unknown,19.8766439,75.3225391
Jijai Hospital,Unknown,Pundlik Nagar road,Unknown,431005,Unknown,Unknown,hospital,Unknown,02402442255,Unknown,Mo-Sa 11:00-22:00,19.8675942,75.3519011
Dr. Totla Hospital,"29, Venkateshnagar Mehesh Nagar Road Opposite Jalna Road","Venkateshnagar,near Maheshnagar","Aurangabad,Maharashtra",431005,Maharashtra,Unknown,hospital,hospital,Unknown,Unknown,Unknown,19.8786737,75.3474187
Sarda Diabetes Centre,Unknown,"Venkateshnagar, near Mahaeshnagar","Aurangabad,Maharashtra",Unknown,Unknown,Unknown,hospital,hospital,Unknown,Unknown,Unknown,19.8784701,75.347669
Universal Clinic,Unknown,Maheshnagar Road,"Aurangabad,Maharashtra",Unknown,Unknown,Unknown,clinic,clinic,Unknown,Unknown,Unknown,19.8770023,75.3470297
Soni Hospital,Unknown,Maheshnagar Road,"Aurangabad,Maharashtra",Unknown,Unknown,Unknown,hospital,hospital,Unknown,Unknown,Unknown,19.8773987,75.3471098
Ciigma Hospital,Unknown,Jalna Road,"Aurangabad,Maharashtra",Unknown,Unknown,Unknown,hospital,hospital,Unknown,Unknown,Unknown,19.8771206,75.3482109
Ishwar Institute Of Healthcare,Unknown,Unknown,Unknown,Unknown,Unknown,Unknown,clinic,Unknown,Unknown,Unknown,Unknown,19.8825983,75.2930227
Mauli Kripa Hospital,Unknown,Unknown,Unknown,Unknown,Unknown,Unknown,hospital,Unknown,Unknown,Unknown,Unknown,19.8826051,75.2921648
Chordia Hospital,Unknown,Unknown,Unknown,Unknown,Unknown,Unknown,clinic,Unknown,Unknown,Unknown,Unknown,19.8830864,75.2922177
Hindustan Medical And General Stores,Unknown,Unknown,Unknown,Unknown,Unknown,Unknown,pharmacy,Unknown,Unknown,Unknown,Unknown,19.8830864,75.2921802
Ciigma Hospital,"3, Raghuvir Nagar Opp: Sfs High School Jalna Road",Unknown,Unknown,431001,Maharashtra,Unknown,hospital,hospital,Unknown,Unknown,Unknown,19.859406,75.3363542
Roplekar Heart Care Centre Hospital,"Veer Savarkar Chowk, Tilaknagar, Ulkanagari, Aurangabad",Unknown,Unknown,431005,Maharastra,Unknown,hospital,Unknown,Unknown,Unknown,Unknown,19.8663541,75.3368435
Unknown,Unknown,Unknown,Unknown,Unknown,Unknown,Unknown,pharmacy,Unknown,Unknown,Unknown,Unknown,19.8787177,75.3188107
Unknown,Unknown,Unknown,Unknown,Unknown,Unknown,Unknown,hospital,Unknown,Unknown,Unknown,Unknown,19.8723956,75.3146969
Kamalnayan Bajaj Hospital,"Gut No.43, Satara Parisar, Bajaj Marg, Beed Bypass Road",Bajaj Rd. Beed Bypass Highway,Aurangabad,431005,Maharashtra,Unknown,hospital,Unknown,0240 237 7999,https://bajajhospital.com/,Unknown,19.851378,75.3149343
Madhavbaug Clinic Saubhagya,Unknown,Unknown,Unknown,Unknown,Unknown,Unknown,Unknown,hospice,Unknown,Unknown,Unknown,19.9070068,75.3550033
Seth Nandlal Dhoot Hospital,Unknown,Unknown,Unknown,Unknown,Unknown,Unknown,hospital,Unknown,Unknown,Unknown,Unknown,19.872344,75.3874956
Zavar Hospital,"Opposite Anjali Big Cinema, Khadkeshwar",Unknown,Unknown,431001,Maharashtra,Unknown,hospital,Unknown,Unknown,Unknown,Unknown,19.8841627,75.3222616
Dr. Satish Mundada's Joint and Spine Clinic,"Apna Bazar , Ljalna Road, Aurangabad, Nasik , Mumbai",Unknown,Unknown,422601,Maharashtra,Unknown,hospital,hospital,Unknown,Unknown,Unknown,19.8760466,75.3465113
"Bembde Plastic, Cosmetic, Burns and Hand Surgery Hospital","24, Jayvishwabharti Colony, Jawahar Colony Road, Near Chetak Horse Statue",Unknown,Unknown,431005,Maharashtra,Unknown,hospital,Unknown,Unknown,Unknown,Unknown,19.8498632,75.3351161
Kabra Hospital - Aurangabad,"55, Mahesh Nagar, Jalna Road, Near Akashwani Signal Near Bafna,S Showroom",Unknown,Unknown,431001,Maharashtra,Unknown,hospital,hospital,Unknown,Unknown,Unknown,19.8778,75.3469326
Joshi Hospital,"Opposite Varad Ganesh Mandir, Near Central Bus Stand, Samarth Nagar",Unknown,Unknown,431001,Maharashtra,Unknown,hospital,Unknown,Unknown,Unknown,Unknown,19.877935,75.318308
Krushnai Maternity and Nursing Home,"Avishkar Colony,N-6, Cidco",Unknown,Unknown,431001,Maharashtra,Unknown,hospital,hospital,Unknown,Unknown,Unknown,19.882549,75.3604811
Varad Medical Foundation and Research Centre - Aurangabad,"112, Beside Chate Coaching Classes, Shahanoormiyan Darga Road",Unknown,Unknown,431005,Maharashtra,Unknown,hospital,Unknown,Unknown,Unknown,Unknown,19.8618639,75.335914
Shree Avadhoot Hospital,"#7, Shivaji Colony,Near Kraint Chowk Police Station",Unknown,Unknown,431001,Maharashtra,Unknown,hospital,Unknown,Unknown,Unknown,Unknown,19.8759271,75.3246863
Wadgaonkar Eye Hospital,"126, Madhushree Varad Ganesh Mandir Road, Samarth Nagar",Unknown,Unknown,431001,Maharashtra,Unknown,hospital,Unknown,Unknown,Unknown,Unknown,19.8785769,75.3220926
Panat Hospital,12-Susheel-Co-Op Hsg Societ Shreya Nagar Road,Unknown,Unknown,431005,Maharashtra,Unknown,hospital,Unknown,Unknown,Unknown,Unknown,19.8691265,75.3314053
Deshmukh Institute Of Maxillo-Facial Surgery and Research Centre,"Jalna Road, Motiwala Nagar",Unknown,Unknown,431005,Maharashtra,Unknown,hospital,hospital,Unknown,Unknown,Unknown,19.8806427,75.347642
Aurangabad Hospital Mother And Child Care,"Juna Bazar Road, Town Hall, Buddi lane, Naralibag, Aurangabad",Unknown,Unknown,431001,Maharashtra,Unknown,hospital,Unknown,Unknown,Unknown,Unknown,19.8891202,75.3261414
"Jeevanjyot Hospital, Aurangabad","X,-59, Behind Fire Brigade Maharana Paratap Chowk Bajaj Nagar Midc Waluj",Unknown,Unknown,431005,Maharashtra,Unknown,hospital,Unknown,Unknown,Unknown,Unknown,19.8405945,75.242466
Navandar Nursing Home,"Mahesh Nagar Road, Near Apex Hospital",Unknown,Unknown,431001,Maharashtra,Unknown,clinic,clinic,Unknown,Unknown,Unknown,19.8793122,75.3471257
Rasha Maternity and Nursing Home,"Plot No-6, Cidco N-12B",Unknown,Unknown,431001,Maharashtra,Unknown,hospital,Unknown,Unknown,Unknown,Unknown,19.9004471,75.3463103
Janaki Hospital,"No. 136, Samarth Nagar,Varad Ganesh Mandeer Road",Unknown,Unknown,431005,Maharashtra,Unknown,hospital,Unknown,Unknown,Unknown,Unknown,19.8781027,75.321866
Suyash Nursing Home,"No. 11, Seven Hill Colony,Mgm Hospital Road",Unknown,Unknown,431001,Maharashtra,Unknown,clinic,Unknown,Unknown,Unknown,Unknown,19.879835,75.3325707
Suniti Nursing Home,"96/3, Pannalal Nagar",Unknown,Unknown,431001,Maharashtra,Unknown,clinic,Unknown,Unknown,Unknown,Unknown,19.8697105,75.3318277
Prestige Hospital,"Near M.S.E.B. Office, Khadkeshwar",Unknown,Unknown,431001,Maharashtra,Unknown,hospital,Unknown,Unknown,Unknown,Unknown,19.876279,75.3252704
Krishna Hospital and Icu,"16, Behind Gurunanak Petrol Pump, Opposite S.F.S.School, Jalna Road",Unknown,Unknown,431001,Maharashtra,Unknown,hospital,hospital,Unknown,Unknown,Unknown,19.8778543,75.3436951
Sachin Hosptial,"# 41/151/29, Opp:Anjali Cinema, Khadkeshwar",Unknown,Unknown,431001,Maharashtra,Unknown,hospital,Unknown,Unknown,Unknown,Unknown,19.8838284,75.3221811
Jilla Hospital,"84, Motiwala Nagar,Central Naka Road",Unknown,Unknown,431003,Maharashtra,Unknown,hospital,hospital,Unknown,Unknown,Unknown,19.8782818,75.352934
Chiranjeev Children Hospital and Critical Care Centre,"Behind Kushal Nagar Post Office , Near Mondha Naka Signal, Jalna Road",Unknown,Unknown,431001,Maharashtra,Unknown,hospital,Unknown,Unknown,Unknown,Unknown,19.8743821,75.3367737
Dongaonkar Superspeciality Eye Hospital,"1st , Shrinathji Apartment , Near Digjam Showroom, Osmanpura Roa , Kranti Chowk",Unknown,Unknown,431001,Maharashtra,Unknown,hospital,Unknown,Unknown,Unknown,Unknown,19.872209,75.3285876
Prabhashree Nursing Home - Aurangabad,"Near Telegraph Office, Rakadiya Hanuman Colony",Unknown,Unknown,431001,Maharashtra,Unknown,clinic,Unknown,Unknown,Unknown,Unknown,19.8781973,75.3373651
Gurde Hospital,"Chandranagar Society,M-2 Road",Unknown,Unknown,431003,Maharashtra,Unknown,hospital,hospital,Unknown,Unknown,Unknown,19.9003437,75.356158
MIT Super Speiality Hospital,"Plot No. 144,Sector F-4 Cidco",Unknown,Unknown,431003,Maharashtra,Unknown,hospital,hospital,Unknown,Unknown,Unknown,19.8677135,75.3645315
Jhunjhunwala Hospital,OppositeAkashwai Jalna Road,Unknown,Unknown,431001,Maharashtra,Unknown,hospital,hospital,Unknown,Unknown,Unknown,19.8770387,75.3449115
Sahyadri Multispeciality Hospital,"Polt No8, Near Mukundwadi Police Station Opposite Pvr Talkies Jalna Road",Unknown,Unknown,431001,Maharashtra,Unknown,hospital,Unknown,Unknown,Unknown,Unknown,19.8714548,75.3849767
Mauli Children Hospital,"Near Gajanan Mandir , Pundlik Nagar , Road Garkheda Parisar",Unknown,Unknown,431001,Maharashtra,Unknown,hospital,Unknown,Unknown,Unknown,Unknown,19.8677451,75.3514581
"Gade Hospital, Aurangabad","Gajanan Nagar Chowk, Garkheda",Unknown,Unknown,431001,Maharashtra,Unknown,hospital,Unknown,Unknown,Unknown,Unknown,19.867384,75.3521145
Citicare Superspeciality Hospital,"5-5-70, Opp Kailash Mangal Karyalaya , New Osmanpura , Kranti Chowk",Unknown,Unknown,431001,Maharashtra,Unknown,hospital,Unknown,Unknown,Unknown,Unknown,19.871472,75.3294587
Apex Superspeciality Hospital,"1, Ellore Ct Scan Bld Jalana Road, Opposite SFS School",Unknown,Unknown,431005,Maharashtra,Unknown,hospital,hospital,Unknown,Unknown,Unknown,19.8812954,75.3472125
Amaan Hospital,"Central Jakat Naka Road, Near Marble Building",Unknown,Unknown,431001,Maharashtra,Unknown,hospital,hospital,Unknown,Unknown,Unknown,19.884401,75.3518786
Shri Sai Hospital and Research Centre,"Opp Police Head Quarter , Mill Corner",Unknown,Unknown,431001,Maharashtra,Unknown,hospital,Unknown,Unknown,Unknown,Unknown,19.8852663,75.3184632
Mishra Children Hospital and Critical Care Hospital,"73, Tilak Nagar.Near Balaji Mandir",Unknown,Unknown,431001,Maharashtra,Unknown,hospital,Unknown,Unknown,Unknown,Unknown,19.8674742,75.3383602
Naqshabandi Eye Hospital,Beside Hotel J J Jubliee Park,Unknown,Unknown,431001,Maharashtra,Unknown,hospital,Unknown,Unknown,Unknown,Unknown,19.8882605,75.3389717
"Soni Hospital, Aurangabad","Maheshnagar,Jalana Road",Unknown,Unknown,431001,Maharashtra,Unknown,hospital,hospital,Unknown,Unknown,Unknown,19.877683,75.3472658
Dunakhe Hospital Pvt. Ltd.,"9, Hotel Ashoka Compound, Opp Dist Court, Adalat Road",Unknown,Unknown,431001,Maharashtra,Unknown,hospital,Unknown,Unknown,Unknown,Unknown,19.8733946,75.3214502
Vision Care Laxmi Netralaya,"Rajshree Tower, First Floor, Nirala Bazar, Pethangate Road, Jijmata Colony",Unknown,Unknown,431001,Maharashtra,Unknown,hospital,Unknown,Unknown,Unknown,Unknown,19.8805847,75.327746
Ruby Heart Care Centre,160161 Tilak Nagar Veer Savarkar Chowk,Unknown,Unknown,431005,Maharashtra,Unknown,hospital,Unknown,Unknown,Unknown,Unknown,19.8765827,75.3197095
Farah Maternity and Infertility Centre,"Dilras Colony Jublee Complex, Jublee Park, Bhadkalgate",Unknown,Unknown,431001,Maharashtra,Unknown,hospital,Unknown,Unknown,Unknown,Unknown,19.8948884,75.3234042
Sankalp Netra Ragnalaya and Refractive Surgery Cen,"G 9 And 10, Malkhare Classic, Near Jawaharnaga Police Station",Unknown,Unknown,431001,Maharashtra,Unknown,hospital,Unknown,Unknown,Unknown,Unknown,19.8626132,75.3399951
Jijai Maternity and Nursing Home,Aurangabad,Unknown,Unknown,431001,Maharashtra,Unknown,hospital,Unknown,Unknown,Unknown,Unknown,19.8686887,75.3503489
Padmawati Hospital,"B Wing, Chetan Nagar",Unknown,Unknown,431005,Maharashtra,Unknown,hospital,Unknown,Unknown,Unknown,Unknown,19.8697906,75.3372522
Awanti Audyodik Vaidyakiya Hospital,"X-64, Bajaj Nagar, Midc, Waluj",Unknown,Unknown,431133,Maharashtra,Unknown,clinic,Unknown,Unknown,Unknown,Unknown,19.8406785,75.2415781
Dumir Maternity and Nursing Home,"Shilpnagar, Station Road, Padampura",Unknown,Unknown,431001,Maharashtra,Unknown,hospital,Unknown,Unknown,Unknown,Unknown,19.8673986,75.311856
Indian Academy Of Acupuncture Science,"Mayanagar, Jalna Road, N-2,Cidco",Unknown,Unknown,431001,Maharashtra,Unknown,hospital,hospital,Unknown,Unknown,Unknown,19.870862,75.3712052
Kodlekeri Hospital and Trust,"#8, Manjeet Nagar,Opposite Akashwani,Jacna Road",Unknown,Unknown,431001,Maharashtra,Unknown,hospital,hospital,Unknown,Unknown,Unknown,19.8781115,75.3448257
Advanced Ent and Multispeciality Hospital,"Mitranagar, Near Gurudwara Gate, Mondha Naka, Jalana Road",Unknown,Unknown,431005,Maharashtra,Unknown,hospital,Unknown,Unknown,Unknown,Unknown,19.8672428,75.3502156
Hitech Adhar Hospital and Critical Care Unit,"#108, Samata Nagar,Adalot Road ,Near Water Tank",Unknown,Unknown,431001,Maharashtra,Unknown,hospital,Unknown,Unknown,Unknown,Unknown,19.873247,75.3255299
Saoji Orthopaedic Hospital,"32, Shri Niketan Colony, Jalna Road",Unknown,Unknown,431001,Maharashtra,Unknown,hospital,Unknown,Unknown,Unknown,Unknown,19.884454,75.3192119
Bagdia Maternity and Nursing Home,"278,Samarth Nagar,OppositeVarad Ganesh Mandir",Unknown,Unknown,431005,Maharashtra,Unknown,hospital,Unknown,Unknown,Unknown,Unknown,19.8783562,75.3193393
Palnitkar Hospital,"Plot No-4, Adalat Road, Near Baba Petrol Pumps, Behind Raviraj Hotel, Bhagyanagar",Unknown,Unknown,431001,Maharashtra,Unknown,hospital,Unknown,Unknown,Unknown,Unknown,19.8743083,75.3167859
Nimai Hospital,"Lot No 02, /3 N-9 M-2 Road Ranjan One Housing Society Huddco",Unknown,Unknown,431005,Maharashtra,Unknown,hospital,hospital,Unknown,Unknown,Unknown,19.9009244,75.3563055
K C H Kandharkar Hospital,"101, Tilaknagar",Unknown,Unknown,431005,Maharashtra,Unknown,hospital,Unknown,Unknown,Unknown,Unknown,19.8668067,75.3391793
Chhabda Hospital,"Plot No 5-6-19, New Osmanpura, Opp Sant Eknath Rang Mandir",Unknown,Unknown,431005,Maharashtra,Unknown,hospital,Unknown,Unknown,Unknown,Unknown,19.8698555,75.3286949
Guruprasad Eye Hospital - Aurangabad,Samarth Nagar,Unknown,Unknown,431001,Maharashtra,Unknown,hospital,Unknown,Unknown,Unknown,Unknown,19.8767375,75.3221878
Sakolkar Charitable Hospital and Research Centre,Cidco,Unknown,Unknown,431001,Maharashtra,Unknown,hospital,hospital,Unknown,Unknown,Unknown,19.8829229,75.3655437
Chobe Maternity and Nursing Home,"Opp Chetna Nagar,Marathwada",Unknown,Unknown,431005,Maharashtra,Unknown,hospital,Unknown,Unknown,Unknown,Unknown,19.8689865,75.3362312
Sukhada Nursing Home,"Panchvati Hotel, Near Youth Hostel",Unknown,Unknown,431001,Maharashtra,Unknown,clinic,Unknown,Unknown,Unknown,Unknown,19.8719694,75.3153992
Ekveera Hospital,"No. 23-D, N-2, Behind Sohamm Motors, Jalna Road, Cidco",Unknown,Unknown,431001,Maharashtra,Unknown,hospital,hospital,Unknown,Unknown,Unknown,19.8701897,75.3745365
Sushila Netralaya,"Plot No.8, Railway Station Road,Bansilanagar",Unknown,Unknown,431005,Maharashtra,Unknown,clinic,Unknown,Unknown,Unknown,Unknown,19.8648924,75.3163929
Pargaonkar Hospital,"30,Pushpanagari,OppositeS.T.Workshop",Unknown,Unknown,431001,Maharashtra,Unknown,hospital,Unknown,Unknown,Unknown,Unknown,19.8766353,75.3168885
Kushal Maternity and Sonography Centre,"27, Ganesh Co-Op Hsg. Society N-8-A Cidco",Unknown,Unknown,431001,Maharashtra,Unknown,hospital,hospital,Unknown,Unknown,Unknown,19.8703033,75.3664919
Patne Hospital and Maternity Home,"Plotno. 25, Hotel Aurangabad Ashok Premises, Near Manmandir Travels",Unknown,Unknown,431001,Maharashtra,Unknown,hospital,Unknown,Unknown,Unknown,Unknown,19.8734791,75.3205182
Insha Surgical Hospital,Near G.P.O. Juna Bazar,Unknown,Unknown,431001,Maharashtra,Unknown,hospital,Unknown,Unknown,Unknown,Unknown,19.888337,75.3262112
शेवाळे रुग्णालय,Aurangabad,Unknown,Unknown,431001,Maharashtra,Unknown,hospital,Unknown,Unknown,Unknown,Unknown,19.8758546,75.3355419
Saswade Eye Clinic and Laser Centre,"Plot No.3, Jai Vishwabharti Colony, Tilak Nagar, Chetakghoda Chowki",Unknown,Unknown,431005,Maharashtra,Unknown,clinic,Unknown,Unknown,Unknown,Unknown,19.8670202,75.3404134
Ranjalkar Hospital,"Plot No.1, Town Centre, Behind Raj Petrol Pump, Jalna Road, Cidco",Unknown,Unknown,431003,Maharashtra,Unknown,hospital,hospital,Unknown,Unknown,Unknown,19.8767393,75.3561721
"Pooja Nursing Home, Aurangabad","Rachanakar Colony, New Usmanpura",Unknown,Unknown,431001,Maharashtra,Unknown,clinic,Unknown,Unknown,Unknown,Unknown,19.8653603,75.3188793
Patwardhan Hospital,"Banlilal Nagar,Station Road",Unknown,Unknown,431001,Maharashtra,Unknown,hospital,Unknown,Unknown,Unknown,Unknown,19.8640561,75.3140219
Ankur Maternity and Eye Hospital,Tilaknagar,Unknown,Unknown,431005,Maharashtra,Unknown,hospital,Unknown,Unknown,Unknown,Unknown,19.8663315,75.33948
Moholkar Accident Hospital,"Plot No.19, N 3 Cidco,Behind Central Bank,In Front Of Jain Temple,Jalna Road",Unknown,Unknown,431002,Maharashtra,Unknown,hospital,hospital,Unknown,Unknown,Unknown,19.8733643,75.3613749
"Neo Clinic, Aurangabad","Gayatri, 27Samarth Nagar",Unknown,Unknown,431005,Maharashtra,Unknown,clinic,Unknown,Unknown,Unknown,Unknown,19.8787623,75.3193031
Hazari Nursing Home,"Near Vivekanand College, Samarthnagar",Unknown,Unknown,431001,Maharashtra,Unknown,clinic,Unknown,Unknown,Unknown,Unknown,19.8741419,75.3224286
Yashoda Hospital and Maternity Home,"Opposite Apex Hospital, Mahesh Nagar,Baijipura Road",Unknown,Unknown,431001,Maharashtra,Unknown,hospital,hospital,Unknown,Unknown,Unknown,19.8824084,75.3519791
Drushti Eye Institute,"Warad Ganesh Mandir Road,Samarth Nagar",Unknown,Unknown,431001,Maharashtra,Unknown,hospital,Unknown,Unknown,drushtieyeinstitute.com,Unknown,19.8782087,75.3212705
Dr Pawar Hospital,"85/2A,Near Water Supply Gate",Unknown,Unknown,431001,Maharashtra,Unknown,hospital,Unknown,Unknown,Unknown,Unknown,19.8694197,75.336193
Sai Urology Hospital,"#1, Vishal Nagar, Gajanan Maharaj Mandir Road,Opposite Cada Office",Unknown,Unknown,431005,Maharashtra,Unknown,hospital,hospital,Unknown,Unknown,Unknown,19.8715242,75.352246
Dwarka Hospital,"N-09, Ranjawan Society, Hudco",Unknown,Unknown,431003,Maharashtra,Unknown,hospital,hospital,Unknown,Unknown,Unknown,19.9020523,75.3557114
Om Orthopedic Hospital,30 Behind Ratnaprabha Motors,Unknown,Unknown,431001,Maharashtra,Unknown,hospital,Unknown,Unknown,Unknown,Unknown,19.8743683,75.3178118
Sumananjali Nursing Home,"Plot No 3,N-2,Cidco Airport Road Airport Road",Unknown,Unknown,431001,Maharashtra,Unknown,clinic,clinic,Unknown,Unknown,Unknown,19.8735661,75.3673562
Ashtvinayak Hospital,"Choudhary Complex, Waluj",Unknown,Unknown,431136,Maharashtra,Unknown,hospital,Unknown,Unknown,Unknown,Unknown,19.8383208,75.2500726
Sanjeevani Children's Hospital,"14, Kushalnagar Jalna Road, Behind J & K Bank,Near Patidar Bhavan",Unknown,Unknown,431005,Maharashtra,Unknown,hospital,Unknown,Unknown,sanjeevanichildcare.com,Unknown,19.8749169,75.336134
St. Ann's Hospital,"Jalna Road, Motiwala Nagar",Unknown,Unknown,431005,Maharashtra,Unknown,hospital,hospital,Unknown,Unknown,Unknown,19.8728686,75.3489643
Dr. Hedgewar Rugnalya - Aurangabad,"Jawahar Colony, Garkheda Road",Unknown,Unknown,431005,Maharashtra,Unknown,hospital,Unknown,Unknown,Unknown,Unknown,19.869095,75.3481811
"Sub Centre, Gandheli",Bagtalab,Unknown,Unknown,Unknown,Maharashtra,Unknown,Unknown,centre,Unknown,Unknown,Unknown,19.8276947,75.3924054
"PHC, Bhavshingpura","Nandanvan Colony, Padegaon",Unknown,Unknown,431002,Maharashtra,Unknown,Unknown,centre,Unknown,Unknown,Unknown,19.890599,75.3042717
"Unani Dispencery, Aurangabad",Aurangabad,Unknown,Unknown,431010,Maharashtra,Unknown,clinic,centre,Unknown,Unknown,Unknown,19.8887137,75.3266093
UPHC Peer Bazaar,"Saha Colony, Peerbazar, Near Bhajee Mandi",Unknown,Unknown,431005,Maharashtra,Unknown,Unknown,centre,Unknown,Unknown,Unknown,19.8635193,75.3268922
"E S I C Dispensary, Kotwalpura","Near Phataelogoy Lab, Khadkeshwar Mandi Road, Kotwalpura",Unknown,Unknown,431001,Maharashtra,Unknown,clinic,centre,Unknown,Unknown,Unknown,19.8841299,75.3202078
"District Civil Hospital, Chikalthana","Chikalthana amc, Near airport wall, Chikalthana",Unknown,Unknown,431003,Maharashtra,Unknown,hospital,Unknown,Unknown,Unknown,Unknown,19.8816065,75.3822879
UPHC Ambikanagar,"Hpcl transit house, Aurangabad",Unknown,Unknown,431006,Maharashtra,Unknown,Unknown,centre,Unknown,Unknown,Unknown,19.8668369,75.3755515
"Government Hospital, Bansilal Nagar","Bhanudas Sabhahgrah Railway Station Road, Bansilal Nagar, Padampura",Unknown,Unknown,431005,Maharashtra,Unknown,hospital,Unknown,Unknown,Unknown,Unknown,19.8659725,75.3145153
AMC Hospital,"N 11 Cidco, Near Hindustan pertrol Pump, Ward No. 6, Yadavnagar",Unknown,Unknown,431003,Maharashtra,Unknown,hospital,Unknown,Unknown,Unknown,Unknown,19.9124157,75.352348
PHC Daulatabad,Shree Krupa Prasad Ganpati Mandir,Unknown,Unknown,431002,Maharashtra,Unknown,Unknown,centre,Unknown,Unknown,Unknown,19.9364582,75.2258319
"Primary Health Centre, Jai Bhavani Nagar",Jai Bhavani Nagar,Unknown,Unknown,431007,Maharashtra,Unknown,Unknown,centre,Unknown,Unknown,Unknown,19.8619913,75.3675695
Kothari Hospital,"Bhanudas Sabhahgrah Railway Station Road, Rachanakar Colony, New Usmanpura",Unknown,Unknown,431005,Maharastra,Unknown,hospital,Unknown,Unknown,Unknown,Unknown,19.8630279,75.3176152
Arihant Clinic,"Ahmednagar - Aurangabad Road, Pandharpur, Indiranagar, Waluj, Aurangabad",Unknown,Unknown,431136,Maharastra,Unknown,clinic,Unknown,Unknown,Unknown,Unknown,19.8341973,75.2513175
Kilbil Balrugnalaya and Dental Clinic,"Jaiswal Hall, Above Malkapur Co-Op Bank, TV Center Chowk-Jadhavwadi Signal Road, Cidco",Unknown,Unknown,431003,Maharastra,Unknown,dentist,dentist,Unknown,Unknown,Unknown,19.903773,75.356339
Tirupati Hospital,"MIDC, Waluj, Aurangabad",Unknown,Unknown,431133,Maharastra,Unknown,hospital,Unknown,Unknown,Unknown,Unknown,19.836792,75.248073
Mental Health Clinic,"Nashik Road, Padegaon, Aurangabad",Unknown,Unknown,431002,Maharastra,Unknown,clinic,Unknown,Unknown,Unknown,Unknown,19.8889683,75.2811026
Soham Hospital,"Sai Complex, Opp Mohata Devi Mandir, Bajaj Nagar, Waluj, Aurangabad",Unknown,Unknown,431136,Maharastra,Unknown,hospital,Unknown,Unknown,Unknown,Unknown,19.8439924,75.2446252
Dr. Mangesh Kadam Psychiatric Hospital,"CIDCO Growth Center, Near MSEB Office and CIDCO Garden, Aurangabad",Unknown,Unknown,431136,Maharastra,Unknown,hospital,Unknown,Unknown,Unknown,Unknown,19.848107,75.257378
Mamta Memorial Multispeciality Hospital,"Mohata Devi Mandir Road, MIDC, Bajaj Nagar, Waluj, Wadgaon Kolhati",Unknown,Unknown,431136,Maharastra,Unknown,hospital,Unknown,Unknown,Unknown,Unknown,19.84697,75.243149
Aarogyam Hospital,"Jadhav Mandi, N 9, Cidco, Aurangabad",Unknown,Unknown,431003,Maharastra,Unknown,hospital,hospital,Unknown,Unknown,Unknown,19.903877,75.356516
Krupashri Clinic,"Mahavir Chowk, Ranjangaon Shenpunji, Waluj, Aurangabad",Unknown,Unknown,431133,Maharastra,Unknown,clinic,Unknown,Unknown,Unknown,Unknown,19.8437216,75.2126843
Daiva-Bharti Accident Hospital,"Paithan Road, Kanchanwadi, Aurangabad",Unknown,Unknown,431136,Maharastra,Unknown,hospital,Unknown,Unknown,Unknown,Unknown,19.832759,75.289988
Anjali Clinic,"Behind Buldana Bank, Right Hand Side Of Vitthal Rukhmai Mandir, Pandharpur, Aurangabad",Unknown,Unknown,431136,Maharastra,Unknown,clinic,Unknown,Unknown,Unknown,Unknown,19.8335318,75.2511634
Manoj Jain Clinic,"CIDCO, Waluj Mahanagar 1, Waluj, Aurangabad",Unknown,Unknown,431136,Maharastra,Unknown,clinic,Unknown,Unknown,Unknown,Unknown,19.84755,75.253571
Golden City Hospital,"Besides Nathseeds, Paithan Road, Itkheda, Aurangabad",Unknown,Unknown,431005,Maharastra,Unknown,hospital,Unknown,Unknown,Unknown,Unknown,19.8479989,75.2962154
Samarth Hospital,"Swami Samarth Nagar, Opp Rose Bud School, CIDCO Waluj Mahanagar, Aurangabad",Unknown,Unknown,431133,Maharastra,Unknown,hospital,Unknown,Unknown,Unknown,Unknown,19.852649,75.248329
Dhanvantri Hospital,"More Chowk, Waluj, Aurangabad",Unknown,Unknown,431136,Maharastra,Unknown,hospital,Unknown,Unknown,Unknown,Unknown,19.8417197,75.2466808
Patil Hospital,"Mayur Park Road, Kasthuri Nagar, Auditor Society, Opp S.B.O.A School, Harsul, Aurangabad",Unknown,Unknown,431003,Maharastra,Unknown,hospital,Unknown,Unknown,Unknown,Unknown,19.910703,75.354752
Noble Hospital,"Beed Bypass Road, Hamid Colony, MIDC, Aurangabad",Unknown,Unknown,431005,Maharastra,Unknown,hospital,Unknown,Unknown,Unknown,Unknown,19.854144,75.3081967
Saanvi Womens Care Clinic,"SN 10, Jai Bajrang Market, Bajaj Nagar, Waluj, Aurangabad",Unknown,Unknown,431136,Maharastra,Unknown,clinic,Unknown,Unknown,Unknown,Unknown,19.843588,75.24575
Ghrushneshwar Multispeciality Hospital,"Pratap Chowk, Bajaj Nagar, Waluj, Aurangabad",Unknown,Unknown,431136,Maharastra,Unknown,hospital,Unknown,Unknown,Unknown,Unknown,19.8409016,75.2420637
Dr. Bhale's Clnic,"CIDCO, Waluj Mahanagar, Waluj, Aurangabad",Unknown,Unknown,431136,Maharastra,Unknown,clinic,Unknown,Unknown,Unknown,Unknown,19.84593,75.252921
Jaiswal Hospital,"Rasheed pura, Jadhav Mandi, N 9, Shivaji Nagar, Aurangabad",Unknown,Unknown,431003,Maharastra,Unknown,hospital,hospital,Unknown,Unknown,Unknown,19.904161,75.356934
Sai Om Clinic,"Dhule Daulatabad Highway, Opposite Devgiri School, Aurangabad",Unknown,Unknown,431001,Maharastra,Unknown,clinic,Unknown,Unknown,Unknown,Unknown,19.9389308,75.2213855
Dr. Ubaid's Children Clinic,"Kalayni Classic, Opp Sapna Beauty Parlour, Jalan Nagar, Aurangabad",Unknown,Unknown,Unknown,Maharastra,Unknown,clinic,Unknown,Unknown,Unknown,Unknown,19.8604452,75.3006053
Aai Nursing Home,"Mayur Park Road, Opp SBOA School, Nath Nagar, Mhasoba Nagar, Harsul, Aurangabad",Unknown,Unknown,431003,Maharastra,Unknown,hospital,Unknown,Unknown,Unknown,Unknown,19.9099116,75.3538367
Shri Sai Hospital,"Maharana Pratap Chowk, Waluj, Aurangabad",Unknown,Unknown,431136,Maharastra,Unknown,hospital,Unknown,Unknown,Unknown,Unknown,19.8406435,75.2418765
Waluj Hospital,"CIDCO, Waluj Mahanagar, Waluj, Aurangabad",Unknown,Unknown,431136,Maharastra,Unknown,hospital,Unknown,Unknown,Unknown,Unknown,19.847504,75.2579527
Adarsh Clinic,"CIDCO, Waluj Mahanagar, Waluj, Aurangabad",Unknown,Unknown,431136,Maharastra,Unknown,clinic,Unknown,Unknown,Unknown,Unknown,19.8475119,75.2535747
Siddhivinayak Hospital,"Jalgaon Road, Wholesale Market, Harsul, Aurangabad",Unknown,Unknown,431003,Maharastra,Unknown,hospital,hospital,Unknown,Unknown,Unknown,19.9049664,75.3574886
Mahendrakar Hospital,"Jagruti High School Road, Dr Bhapkar Marg, Bansilal Nagar, Aurangabad",Unknown,Unknown,431005,Maharastra,Unknown,hospital,Unknown,Unknown,Unknown,Unknown,19.8654279,75.3153645
Saba Clinic,"Puna Highway Road, Opposite Bhaji Mandi, Pandharpur, Aurangabad",Unknown,Unknown,431136,Maharastra,Unknown,clinic,Unknown,Unknown,Unknown,Unknown,19.8352793,75.2522478
Sai Kripa Clinic,"Padegaon, Aurangabad",Unknown,Unknown,431002,Maharastra,Unknown,clinic,Unknown,Unknown,Unknown,Unknown,19.8853173,75.2875286
AIMS Hospital,"Jalgaon Road, Sharad Hotel Chowk, Sudarshan Nagar, N 11, Cidco, Aurangabad",Unknown,Unknown,431003,Maharastra,Unknown,hospital,hospital,Unknown,Unknown,Unknown,19.9048784,75.3565412
Shri Hospital,"Waluj, Aurangaba",Unknown,Unknown,431136,Maharastra,Unknown,hospital,Unknown,Unknown,Unknown,Unknown,19.8401929,75.241898
Kasturba Clinic,"MIDC, Waluj, Aurangabad",Unknown,Unknown,431136,Maharastra,Unknown,clinic,Unknown,Unknown,Unknown,Unknown,19.8458987,75.2445354
Dr. Heena's Hospital,"Beed Bypass Road, Hamid Colony, MIDC, Aurangabad",Unknown,Unknown,431005,Maharastra,Unknown,hospital,Unknown,Unknown,Unknown,Unknown,19.855406,75.307423
Shri Balaji Jivanjyot Hospital,"More Chowk Road, More Chowk, Bajaj Nagar, Waluj, Aurangabad",Unknown,Unknown,431136,Maharastra,Unknown,hospital,Unknown,Unknown,Unknown,Unknown,19.83959,75.2464801
Dr. Azim Shaikh Hospital,"Silk Mill Colony, MIDC, Aurangabad",Unknown,Unknown,431005,Maharastra,Unknown,hospital,Unknown,Unknown,Unknown,Unknown,19.8562247,75.3062433
Manisha Clinic,"Wadgaon Road, Aurangabad",Unknown,Unknown,431136,Maharastra,Unknown,clinic,Unknown,Unknown,Unknown,Unknown,19.8568227,75.2415726
Sai Medicity Hospital & ICU,"Swabhagya Chowk, Jalgaon Road, Hudco, N 11, Cidco, Aurangabad",Unknown,Unknown,431003,Maharastra,Unknown,hospital,Unknown,Unknown,Unknown,Unknown,19.907912,75.3552249
Gajanan Hospital,"Aurangabad Malegaon Road, Daulatabad",Unknown,Unknown,431115,Maharastra,Unknown,hospital,Unknown,Unknown,Unknown,Unknown,19.9258795,75.2084184
Sahyadri Clinic,"R.M. 190, Alfonsa High School Road, Jay Bhawani Chowk, Bajaj Nagar, Aurangabad",Unknown,Unknown,431133,Maharastra,Unknown,clinic,Unknown,Unknown,Unknown,Unknown,19.843558,75.232051
Shravasti Clinic,"Opp. Hotel Kanta, Old Bhavsingpura, Bhimnagar, Aurangabad",Unknown,Unknown,431002,Maharastra,Unknown,clinic,Unknown,Unknown,Unknown,Unknown,19.8981193,75.2962344
Ramai Clinic,"Old Bhavsingpura Padegaon, Aurangabad",Unknown,Unknown,431002,Maharastra,Unknown,clinic,Unknown,Unknown,Unknown,Unknown,19.896553,75.2960113
Manik Hospital,"Waluj, Wadgaon Kolhati",Unknown,Unknown,431136,Maharastra,Unknown,hospital,Unknown,Unknown,Unknown,Unknown,19.844267,75.24483
Vertex Hospital,"Pratap Chowk, Bajaj Nagar, Waluj, Aurangabad",Unknown,Unknown,431136,Maharastra,Unknown,hospital,Unknown,Unknown,Unknown,Unknown,19.840773,75.241183
Safa Hospital,"Beed Bypass Road, Abrar Colony, MIDC, Aurangabad",Unknown,Unknown,431005,Maharastra,Unknown,hospital,Unknown,Unknown,Unknown,Unknown,19.8557766,75.3083547
Shri Jagdamba Clinic,"Naigoan, Aurangabad",Unknown,Unknown,431136,Maharastra,Unknown,clinic,Unknown,Unknown,Unknown,Unknown,19.806113,75.235094
Jirvanakar Hospital,"Saubhagya Chowk, Infront Of Sai Medicity Hospital, Sudarshan Nagar, N 11, Aurangabad",Unknown,Unknown,431001,Maharastra,Unknown,hospital,Unknown,Unknown,Unknown,Unknown,19.907635,75.35429
Ikon Multispeciality Hospital,"Rose Park, Majnu Hill Road, VIP Road, Ganesh Colony, Aurangabad",Unknown,Unknown,431001,Maharastra,Unknown,hospital,Unknown,Unknown,Unknown,Unknown,19.8956603,75.3436304
Savaji Tupkari Hospital,"Police Station, Opp Jawahar Nagar, Chhatrapati Nagar, Vijay Nagar, Garkheda, Aurangabad",Unknown,Unknown,431009,Maharastra,Unknown,hospital,Unknown,Unknown,Unknown,Unknown,19.8648138,75.3489382
Shivkala Netralay Hospital,"Nagpur - Aurangabad - Mumbai Highway, Bhanudas Nagar, Mondha, Aurangabad",Unknown,Unknown,431001,Maharastra,Unknown,hospital,Unknown,Unknown,Unknown,Unknown,19.8528194,75.3317559
Vare ENT Hospital,"Pawan Gas to Toplewallibai Road, New Osmanpura Road, Peer Bazar, Aurangabad",Unknown,Unknown,431005,Maharastra,Unknown,hospital,Unknown,Unknown,Unknown,Unknown,19.8658084,75.3281228
Shreeji Hospital,"Ramkrishna Nagar, Garkheda, Aurangabad",Unknown,Unknown,431009,Maharastra,Unknown,hospital,Unknown,Unknown,Unknown,Unknown,19.859075,75.350369
Madhavbaug Multidisciplinary Cardiac Clinic,"Samarth Nagar, Aurangabad",Unknown,Unknown,431001,Maharastra,Unknown,clinic,Unknown,Unknown,Unknown,Unknown,19.8780423,75.3209204
Ghazala Maternity,"Shah Bazar, Aurangabad",Unknown,Unknown,431003,Maharastra,Unknown,hospital,Unknown,Unknown,Unknown,Unknown,19.8881313,75.3389587
Paripurti Nursing Home,"Shrikrishna Nagar, Ulkanagari, Aurangabad",Unknown,Unknown,431001,Maharastra,Unknown,hospital,Unknown,Unknown,Unknown,Unknown,19.862977,75.3387925
Deshmukh Hospital,"Near Vardhman Patsanstha, Shivaji Nagar, MIDC, Aurangabad",Unknown,Unknown,431005,Maharastra,Unknown,hospital,Unknown,Unknown,Unknown,Unknown,19.8542348,75.3511796
Apsingkar Hospital,"Disha Nagari, Aurangabad",Unknown,Unknown,431005,Maharastra,Unknown,hospital,Unknown,Unknown,Unknown,Unknown,19.8489532,75.3283897
Navdip Superspeciality Hospital,"Agnihotra Chowk, Ulkanagari, Ashok Nagar, Garkheda, Near Chetak Ghoda, Aurangabad",Unknown,Unknown,431009,Maharastra,Unknown,hospital,Unknown,Unknown,Unknown,Unknown,19.8667603,75.3432582
Brain Hospital,"Nutan Colony, Nirala Bazar, Aurangabad",Unknown,Unknown,431001,Maharastra,Unknown,hospital,Unknown,Unknown,Unknown,Unknown,19.8772088,75.3282494
Nawandar Accident Hospital,"Near Ramayna Cultural Hall, Opp Gaikwad Classes, Ashok Nagar, Garkheda, Aurangabad",Unknown,Unknown,431009,Maharastra,Unknown,hospital,Unknown,Unknown,Unknown,Unknown,19.8661205,75.345904
Narayanii Hospital,"Shri Nagar Colony, Aurangabad",Unknown,Unknown,431003,Maharastra,Unknown,hospital,hospital,Unknown,Unknown,Unknown,19.887866,75.358509
Dr. Kasbekar Eye Hospital,"Prabhu Shriram Small Mandir Road, Samarth Nagar, Aurangabad",Unknown,Unknown,431001,Maharastra,Unknown,hospital,Unknown,Unknown,Unknown,Unknown,19.8781684,75.3212374
Gaikwad Hospital,"VIP Road, Kileark, Near Civil Hospital, Aurangabad",Unknown,Unknown,431001,Maharastra,Unknown,hospital,Unknown,Unknown,Unknown,Unknown,19.8935161,75.3296329
More Hospital & Nursing Home,"Behind Dhanwantari Medical, Khadkeshwar, Aurangabad",Unknown,Unknown,431001,Maharastra,Unknown,hospital,Unknown,Unknown,Unknown,Unknown,19.8840757,75.3218329
Sai Nursing Home Advance Laparoscopy & Infertility Centre,"Akashwani Road, Behind Reliance Smart Mall, Bhanudas Nagar, Aurangabad",Unknown,Unknown,431001,Maharastra,Unknown,hospital,Unknown,Unknown,Unknown,Unknown,19.87397,75.345274
Dr. Narendra Vaidya's Colony Nursing Home,"Shivdatta Housing Society, Cidco, Aurangabad",Unknown,Unknown,431003,Maharastra,Unknown,hospital,hospital,Unknown,Unknown,Unknown,19.8882993,75.356722
Asian Citicare Superspeciality Hospital,"Motiwala Square, Jalna Road, Akashwani Chowk, Aurangabad",Unknown,Unknown,431001,Maharastra,Unknown,hospital,hospital,Unknown,Unknown,Unknown,19.875825,75.345561
Mathura Maternity and Nursing Home,"Shivaji Nagar Road, Sukhad Sahwas Nagar, Kasliwal Nagar, Garkheda, Aurangabad",Unknown,Unknown,431009,Maharastra,Unknown,hospital,Unknown,Unknown,Unknown,Unknown,19.8593767,75.3477519
International Hospital,"Central Naka Road, Motiwala Nagar, Indira Nagar, Kiradpura, Aurangabad",Unknown,Unknown,431001,Maharastra,Unknown,hospital,Unknown,Unknown,Unknown,Unknown,19.8797019,75.3531236
Kulkarni Hospital,"Beside Fame Tapdiya Multiplex And Prozone Mall, Town Center, Cidco, Aurangabad",Unknown,Unknown,431003,Maharastra,Unknown,hospital,hospital,Unknown,Unknown,Unknown,19.8790029,75.3678618
Antarang Neuropsychiatry Hospital,"Jalna Road, Sant Eknath Housing Society, Kailash Nagar, Mondha, Aurangabad",Unknown,Unknown,431001,Maharastra,Unknown,hospital,hospital,Unknown,Unknown,Unknown,19.87804,75.344064
UPHC,"Gadiya Vihar Road, Madhuban Housing Society, Shivraj Colony, Gadia Vihar, Aurangabad",Unknown,Unknown,431005,Maharastra,Unknown,Unknown,centre,Unknown,Unknown,Unknown,19.855187,75.337178
Matoshri Hospital,"Kamgar Chowk, Prabodhankar Thakare Nagar, Cidco, Aurangabad",Unknown,Unknown,431007,Maharastra,Unknown,hospital,hospital,Unknown,Unknown,Unknown,19.8661013,75.3671275
Aniket Hospital,"Shriganesh Nagar, D Royal Co Operative Housing Society, N-8, Cidco, Aurangabad",Unknown,Unknown,431003,Maharastra,Unknown,hospital,hospital,Unknown,Unknown,Unknown,19.8918864,75.35443
The Pacific Hospital,"Plot No.16, N/12, Sector F, Near SBH Bank, Himayat Bagh, Cidco, Aurangabad",Unknown,Unknown,431001,Maharastra,Unknown,hospital,Unknown,Unknown,Unknown,Unknown,19.9036065,75.3417861
Noor Hospital,"New Bhajipura, Indira Nagar Road, Aurangabad",Unknown,Unknown,431001,Maharastra,Unknown,hospital,hospital,Unknown,Unknown,Unknown,19.8828829,75.3509272
Dhule Hospital,"Nutan Colony, Nirala Bazar, Aurangabad",Unknown,Unknown,431001,Maharastra,Unknown,hospital,Unknown,Unknown,Unknown,Unknown,19.8761182,75.3253297
Skin and STD Clinic,"Near Hotel Tania, Kranti Chowk, Police Station Road, Nutan Colony, Aurangabad",Unknown,Unknown,431005,Maharastra,Unknown,clinic,Unknown,Unknown,Unknown,Unknown,19.8762494,75.3263478
Keley ENT Hospital,"Plot No.8, Town Centre, 1, Sector C, N 1, Cidco, Aurangabad",Unknown,Unknown,431006,Maharastra,Unknown,hospital,hospital,Unknown,Unknown,Unknown,19.8772395,75.3677443
Ghule Hospital,"Shivaji Nagar Road, Sara Raaj Nagar, Garkheda, Aurangabad",Unknown,Unknown,431005,Maharastra,Unknown,hospital,Unknown,Unknown,Unknown,Unknown,19.8535647,75.3509282
Shankar Chest Hospital,"Near Chetak Ghoda, Jai Vishwabharati Colony, Aurangabad",Unknown,Unknown,431005,Maharastra,Unknown,hospital,Unknown,Unknown,Unknown,Unknown,19.8679814,75.341873
Indos Hospital and Trauma Centre,"Opp. Aurangabad Gymkhana, Sanjay Nagar, N 2, Mukundwadi, Aurangabad",Unknown,Unknown,431003,Maharastra,Unknown,hospital,hospital,Unknown,Unknown,Unknown,19.872011,75.3789569
Bebde Hospital,"Disha Nagari, Aurangabad",Unknown,Unknown,431005,Maharastra,Unknown,hospital,Unknown,Unknown,Unknown,Unknown,19.8485202,75.322058
YSK Superspeciality Hospital,"Dr YS Khedkar Marg, N-6, Cidco, Aurangabad",Unknown,Unknown,431003,Maharastra,Unknown,hospital,Unknown,Unknown,Unknown,Unknown,19.879315,75.3598252
Alpine Superspeciality Hospital,"PWD Colony, Aurangabad",Unknown,Unknown,431005,Maharastra,Unknown,hospital,Unknown,Unknown,Unknown,Unknown,19.8523762,75.324442
Dhanvantari Hospital,"Plot No 2, Jalna Road, Shriniketan Colony, Rokda Hanuman Colony, Mondha, Aurangabad",Unknown,Unknown,431001,Maharastra,Unknown,hospital,Unknown,Unknown,Unknown,Unknown,19.876189,75.335387
Aditya Children's Hospital,"Garkheda Road, Karyalay, Near Gajanan Mandir, Aurangabad",Unknown,Unknown,431001,Maharastra,Unknown,hospital,Unknown,Unknown,Unknown,Unknown,19.8666936,75.3493271
Nirmal Hospital,"New Balaji Nagar, Sara Raaj Nagar, Garkheda, Aurangabad",Unknown,Unknown,431001,Maharastra,Unknown,hospital,Unknown,Unknown,Unknown,Unknown,19.8532017,75.3542636
Palwe Hospital,"Kamgar Chowk, Prabodhankar Thakare Nagar, Sector N 4, Cidco, Aurangabad",Unknown,Unknown,431007,Maharastra,Unknown,hospital,hospital,Unknown,Unknown,Unknown,19.8667355,75.3674641
Gadekar Hospital,"Radha Krishna Tower, Amdar Road, High Court Colony, Sangram Nagar, Aurangabad",Unknown,Unknown,431010,Maharastra,Unknown,hospital,Unknown,Unknown,Unknown,Unknown,19.84456,75.334713
Sainath Accident and Orthopaedic Hospital,"N3-88, Parimal Housing Society, N 3, Cidco, Aurangabad",Unknown,Unknown,431003,Maharastra,Unknown,hospital,Unknown,Unknown,Unknown,Unknown,19.8720324,75.359963
Ramkrishna Hospital,"Shri Nagar Colony, Aurangabad",Unknown,Unknown,431003,Maharastra,Unknown,hospital,hospital,Unknown,Unknown,Unknown,19.8871691,75.3605764
Amey Hospital,"Samarth Nagar, Aurangabad",Unknown,Unknown,431001,Maharastra,Unknown,hospital,Unknown,Unknown,Unknown,Unknown,19.8788416,75.3208368
Noble Hospital,"Kamgar Chowk, N 3, Cidco, Aurangabad",Unknown,Unknown,431007,Maharastra,Unknown,hospital,hospital,Unknown,Unknown,Unknown,19.8696842,75.3664069
E.S.I.S. Hospital,"Naregaon Road, Near Garware Stadium, Chilkalthana, MIDC, Aurangabad",Unknown,Unknown,431006,Maharastra,Unknown,hospital,Unknown,Unknown,Unknown,Unknown,19.8865027,75.3686856
Kandharkar Clinic,"Near Kandharkar Hospital, Tilaknagar, Ulkanagari, Aurangabad",Unknown,Unknown,431005,Maharastra,Unknown,clinic,Unknown,Unknown,Unknown,Unknown,19.866845,75.3391521
Ashirvad Hospital,"Darga To Stadium Road, Gurukrupa Housing Society, Garkheda Area, Aurangabad",Unknown,Unknown,431005,Maharastra,Unknown,hospital,Unknown,Unknown,Unknown,Unknown,19.858364,75.340133
Raghvendra Hospital,"Central Bus Stand Road, Pushpa Nagari, Behind Shakti Sahkar Building, Aurangabad",Unknown,Unknown,431001,Maharastra,Unknown,hospital,Unknown,Unknown,Unknown,Unknown,19.8781022,75.3163206
Mamta Hospital,"N2, Jalna Road, Ram Nagar, Sector 8, Cidco, Aurangabad",Unknown,Unknown,431003,Maharastra,Unknown,hospital,Unknown,Unknown,Unknown,Unknown,19.8712041,75.3833999
Baheti Hospital,"Jalna Road, Manjeet Nagar, Kailash Nagar, Mondha, Aurangabad",Unknown,Unknown,431001,Maharastra,Unknown,hospital,hospital,Unknown,Unknown,Unknown,19.8778592,75.3448183
Shree Venkatesh Hospital,"Shivajinagar Main Road, Railway Gate, Aurangabad",Unknown,Unknown,431005,Maharastra,Unknown,hospital,Unknown,Unknown,Unknown,Unknown,19.8521087,75.351814
Sabahat Hospital,"Mujib Colony, Sharif Colony, Yunus Colony, Aurangabad",Unknown,Unknown,431001,Maharastra,Unknown,hospital,Unknown,Unknown,Unknown,Unknown,19.8913089,75.3454225
Shripad Clinic,"Gadiya Vihar Road, Prithviraj Nagar, Gadia Vihar, Aurangabad",Unknown,Unknown,431005,Maharastra,Unknown,clinic,Unknown,Unknown,Unknown,Unknown,19.8551332,75.3414326
Synergy Hospital,"Kamgar Chowk, Prabodhankar Thakare Nagar, N 2, Cidco, Aurangabad",Unknown,Unknown,431007,Maharastra,Unknown,hospital,hospital,Unknown,Unknown,Unknown,19.8680907,75.3673627
Hormone Clinic,"Satya Dharma Complex, Akashwani, Jalana Road, Near Atul Honda, Aurangabad",Unknown,Unknown,431001,Maharastra,Unknown,hospital,hospital,Unknown,Unknown,Unknown,19.876793,75.345899
Prachi Hospital,"Pundlik Nagar Road, Near Tirumala Mangal Karyalay, Hanuman Nagar, Garkheda, Aurangabad",Unknown,Unknown,431009,Maharastra,Unknown,hospital,Unknown,Unknown,Unknown,Unknown,19.8655006,75.3564848
Nandini Hospital,"Sut Girni Road, Near Hanuman Temple, Moti Nagar, Garkhed Parisar, Aurangabad",Unknown,Unknown,431007,Maharastra,Unknown,hospital,Unknown,Unknown,Unknown,Unknown,19.8533524,75.3534719
Venkatesh Hospital,"Shrikrishna Nagar, Ulkanagari, Aurangabad",Unknown,Unknown,431005,Maharastra,Unknown,hospital,Unknown,Unknown,Unknown,Unknown,19.8609132,75.3382159
M.G.M. Hospital,"Jalna Road, Jlal Colony, Vidya Nagar, M G M, Aurangabad",Unknown,Unknown,431001,Maharastra,Unknown,hospital,Unknown,Unknown,Unknown,Unknown,19.877895,75.354164
Dr. Rashid's Children Hospital,"Near Kali Masjid, Labar Colony, Shah Bazar, Aurangabad",Unknown,Unknown,431001,Maharastra,Unknown,hospital,Unknown,Unknown,Unknown,Unknown,19.8884334,75.3395746
Borikar Hospital,"Savarkar Chowk, Samarth Nagar, Aurangabad",Unknown,Unknown,431001,Maharastra,Unknown,hospital,Unknown,Unknown,Unknown,Unknown,19.877567,75.3227074
Nirmiti Hospital,"Ashok Nagar, Ulkanagari, Aurangabad",Unknown,Unknown,431009,Maharastra,Unknown,hospital,Unknown,Unknown,Unknown,Unknown,19.8661953,75.347996
Krishna Hospital and ICU,"Jalna Road, Motiwala Nagar, Venkatesh Nagar, M G M, Aurangabad",Unknown,Unknown,431005,Maharastra,Unknown,hospital,Unknown,Unknown,Unknown,Unknown,19.8760553,75.3364942
Citizen Hospital,"Amer Complex, Near Jinsi Police Station Road, Kaiser Colony, Aurangabad",Unknown,Unknown,431001,Maharastra,Unknown,hospital,Unknown,Unknown,Unknown,Unknown,19.8852508,75.3407793
Dr. Imran's Children Hospital,"Kat Kat Gate Road, Near Arish Masjid, Younus Colony, Aurangabad",Unknown,Unknown,431003,Maharastra,Unknown,hospital,Unknown,Unknown,Unknown,Unknown,19.8915171,75.3433833
Care Multispeciality and Children Hospital,"Central Naka Road, Near VIP Function Hall, Rahemania Colony, Jaswantpura, Aurangabad",Unknown,Unknown,431003,Maharastra,Unknown,hospital,hospital,Unknown,Unknown,Unknown,19.8852615,75.3506697
Shubham Children's Hospital,"Opposite Tapadia Park, Kamgar Chowk, Sector N 4, Cidco, Aurangabad",Unknown,Unknown,431005,Maharastra,Unknown,hospital,hospital,Unknown,Unknown,Unknown,19.8661075,75.3661363
Diwan Hospital,"Near CIDCO Bus Stand Square, Opp Hotel Deepali, N 3, Cidco, Aurangabad",Unknown,Unknown,431003,Maharastra,Unknown,hospital,hospital,Unknown,Unknown,Unknown,19.8728815,75.3666764
Kpond Children's Superspeciality Hospital,"Vijay Nagar Road, Deep Nagar, Garkheda, Opp Aadinath Nagar, Aurangabad",Unknown,Unknown,431009,Maharastra,Unknown,hospital,Unknown,Unknown,Unknown,Unknown,19.863838,75.349676
Life Multispeciality Hospital & Trauma Centre,"Plot No:6, CIDCO, N-2, Sector -A, Ram Nagar Corner, Jalna Road, Aurangabad",Unknown,Unknown,431003,Maharastra,Unknown,hospital,Unknown,Unknown,Unknown,Unknown,19.8716312,75.3840046
Renuka Nursing Home & Children Hospital,"Darga Road, Near Osmanpura, State Bank Colony, S.B.H. Colony, Aurangabad",Unknown,Unknown,431005,Maharastra,Unknown,hospital,Unknown,Unknown,Unknown,Unknown,19.862187,75.328093
Shraddha Hospital,"Sandesh Nagar, Vidya Nagar, Nyay Nagar, Aurangabad",Unknown,Unknown,431009,Maharastra,Unknown,hospital,Unknown,Unknown,Unknown,Unknown,19.8711656,75.3529096
Daulat Memorial Hospital,"148, Main Road, N-3, Sector N 4, Cidco, Aurangabad",Unknown,Unknown,431009,Maharastra,Unknown,hospital,hospital,Unknown,Unknown,Unknown,19.8704782,75.3618702
Bohra E.N.T. Hospital & Laser Centre,"First Floor, Gurukrupa Chambers, Samarth Nagar, Opposite UCO BANK, Aurangabad",Unknown,Unknown,431001,Maharastra,Unknown,hospital,Unknown,Unknown,Unknown,Unknown,19.8781146,75.3220684
Jinturkar Hospital,"Bhagyanagar, Aurangabad",Unknown,Unknown,431005,Maharastra,Unknown,hospital,Unknown,Unknown,Unknown,Unknown,19.8756685,75.3184566
Dr. Sodhi's Kewal Care Hospital,"Osmanpura, Behind Gurudwara Ground, Aurangabad",Unknown,Unknown,431005,Maharastra,Unknown,hospital,Unknown,Unknown,Unknown,Unknown,19.868971,75.327317
Gharpure Hospital,"Pushpa Nagari, Aurangabad",Unknown,Unknown,431002,Maharastra,Unknown,hospital,Unknown,Unknown,Unknown,Unknown,19.877623,75.316951
Govindraj Hospital,"Shop No. 7, Plot No. 7, Ram Nagar Chowk, Ram Nagar, N 2, Cidco, Aurangabad",Unknown,Unknown,431007,Maharastra,Unknown,hospital,Unknown,Unknown,Unknown,Unknown,19.8714029,75.3840033
United CIiigma Nursing Home,"Ulkanagari, Aurangabad",Unknown,Unknown,431005,Maharastra,Unknown,hospital,Unknown,Unknown,Unknown,Unknown,19.8589312,75.335999
Bhartiya Hospital,"Near Akashwani Square, Manjeet Nagar, Kailash Nagar, Mondha, Aurangabad",Unknown,Unknown,431001,Maharastra,Unknown,hospital,hospital,Unknown,Unknown,Unknown,19.877343,75.344452
Mi & Mummy Hospital,"Maharana Pratap Road, Near Renuka Mata Kaman, Satara Deolai Parisar, Aurangabad",Unknown,Unknown,431005,Maharastra,Unknown,hospital,Unknown,Unknown,Unknown,Unknown,19.84737,75.338467
Vedant Children Hospital,"Opp.Chistiya Police Chowki, Gulmohar Colony, Sahyadri Nagar, Cidco, Aurangabad",Unknown,Unknown,431003,Maharastra,Unknown,hospital,Unknown,Unknown,Unknown,Unknown,19.8802419,75.3606894
Dande Hospital,"Thakre Nagar Area, Mayanagar, CIDCO, Aurangabad",Unknown,Unknown,431003,Maharastra,Unknown,hospital,Unknown,Unknown,Unknown,Unknown,19.8726497,75.3672641
Shruti Hospital,"Gas Agency, Amdar Road, Satara, Aurangabad",Unknown,Unknown,431005,Maharastra,Unknown,hospital,Unknown,Unknown,Unknown,Unknown,19.8453326,75.3349901
Pendkar Hospital,"Khadkeshwar, Aurangabad",Unknown,Unknown,431001,Maharastra,Unknown,hospital,Unknown,Unknown,Unknown,Unknown,19.8867728,75.320901
Fatima Maternity and Surgical Hospital,"Indira Nagar, M G M, Aurangabad",Unknown,Unknown,431003,Maharastra,Unknown,hospital,hospital,Unknown,Unknown,Unknown,19.8849653,75.3497465
Kelgaokar Hospital,"Jinsi, Shahgunj, Aurangabad",Unknown,Unknown,431003,Maharastra,Unknown,hospital,Unknown,Unknown,Unknown,Unknown,19.8853567,75.3400742
Chirayu Children's Hospital,"Beside Hotel Dashmesh, Near Bajrang Chowk, Aurangabad",Unknown,Unknown,431003,Maharastra,Unknown,hospital,hospital,Unknown,Unknown,Unknown,19.886555,75.3606367
Dr. Satarkar Hospital,"Plot No 20, Antarang Building, Tilak Nagar, Sawarkar Chowk, Aurangabad",Unknown,Unknown,431005,Maharastra,Unknown,hospital,Unknown,Unknown,Unknown,Unknown,19.8673674,75.3374503
Dr. Jyoti Mahadik Private Hospital,"Khivansara Park, Siddhi Vinak Road, Garkheda Area, Aurangabad",Unknown,Unknown,431001,Maharastra,Unknown,hospital,Unknown,Unknown,Unknown,Unknown,19.8632626,75.3414684
Deshmukh Hospital,"Beed Bypass Road, Opp Prashant Hotel, Darshan Vihar Colony, Mirajgave Nagari, Aurangabad",Unknown,Unknown,431002,Maharastra,Unknown,hospital,Unknown,Unknown,Unknown,Unknown,19.8507996,75.3490957
Nilkanth Hospital,"Sadashiv Nagar, Ram Nagar, Cidco, Aurangabad",Unknown,Unknown,431007,Maharastra,Unknown,hospital,Unknown,Unknown,Unknown,Unknown,19.8709004,75.3857727
Sharma Hospital,"Jalna Road, Opposite Akashwani, Manjeet Nagar, Aurangabad",Unknown,Unknown,431001,Maharastra,Unknown,hospital,hospital,Unknown,Unknown,Unknown,19.8784502,75.3444914
"SubCentre, Sawangi",Sawangi,Unknown,Unknown,431008,Maharashtra,Unknown,Unknown,centre,Unknown,Unknown,Unknown,19.9851706,75.384969
"Government Hospital, Pandharpur",Pandharpur,Unknown,Unknown,431136,Maharashtra,Unknown,hospital,Unknown,Unknown,Unknown,Unknown,19.8328142,75.2498534
"SubCentre, Cidco",Cidco,Unknown,Unknown,431003,Maharashtra,Unknown,Unknown,centre,Unknown,Unknown,Unknown,19.8886308,75.3561553
"Government Hospital, Kaiser Colony","Kaiser Colony, Shahgunj",Unknown,Unknown,431003,Maharashtra,Unknown,hospital,Unknown,Unknown,Unknown,Unknown,19.8870557,75.3451811
"SubCentre, Khirdi",Khirdi,Unknown,Unknown,431101,Maharashtra,Unknown,Unknown,centre,Unknown,Unknown,Unknown,19.9935977,75.2251442
"Primary Health Centre, Pisadevi",Pisadevi,Unknown,Unknown,431008,Maharashtra,Unknown,Unknown,centre,Unknown,Unknown,Unknown,19.9131312,75.3863047
"SubCentre, Ohar",Ohar,Unknown,Unknown,431101,Maharashtra,Unknown,Unknown,centre,Unknown,Unknown,Unknown,19.9477195,75.3133392
"Government Hospital, Ranjangaon Shenpunji",Ranjangaon Shenpunji,Unknown,Unknown,431133,Maharashtra,Unknown,hospital,Unknown,Unknown,Unknown,Unknown,19.8405006,75.2168293
"SubCentre, Nakshtra Wadi",Nakshtra Wadi,Unknown,Unknown,431136,Maharashtra,Unknown,Unknown,centre,Unknown,Unknown,Unknown,19.8145899,75.2868196
"SubCentre, Jatwada",Jatwada,Unknown,Unknown,431101,Maharashtra,Unknown,Unknown,centre,Unknown,Unknown,Unknown,19.9571189,75.2859763
"SubCentre, Tisgaon",Tisgaon,Unknown,Unknown,431002,Maharashtra,Unknown,Unknown,centre,Unknown,Unknown,Unknown,19.8639549,75.2633154
"SubCentre, Naregaon",Naregaon,Unknown,Unknown,431006,Maharashtra,Unknown,Unknown,centre,Unknown,Unknown,Unknown,19.896239,75.3884746
"SubCentre, Satara Parisar",Satara Parisar,Unknown,Unknown,431010,Maharashtra,Unknown,Unknown,centre,Unknown,Unknown,Unknown,19.8515226,75.311624
DR. BHUTE SPINE CLINIC AND ORTHODENTAL CARE,Unknown,"Satya dharma complex, Between RC Bafna Jewellers and Atul Honda Showroom, Akashwani Chowk","Aurangabad,Maharashtra",431001,Unknown,Unknown,clinic,clinic,Unknown,https://www.spinesurgeonaurangabad.com/spinesurgeonaurangabad,Unknown,19.8765302,75.3456059
Lifeline Multispeciality Hospital,"Mirajgave Nagari, Aurangabad",Unknown,Unknown,431010,Maharashtra,Unknown,hospital,Unknown,Unknown,Unknown,Unknown,19.8518663,75.358403
"J J Plus Hospitals Pvt Ltd, Aurangabad","Konkanwadi, Aurangabad",Unknown,Unknown,431001,Maharashtra,Unknown,hospital,Unknown,Unknown,Unknown,Unknown,19.8734759,75.3182289
Deogiri Children's Hospital,"Jalna Road, Raghuveer Nagar, Surana Nagar, Aurangabad",Unknown,Unknown,431003,Maharashtra,Unknown,clinic,Unknown,Unknown,Unknown,Unknown,19.8768718,75.3501633
Ketki Hospital,Unknown,Unknown,Unknown,Unknown,Unknown,Unknown,hospital,hospital,02402482902,Unknown,Unknown,19.8705712,75.3663136
Unknown,Unknown,Unknown,Unknown,Unknown,Unknown,Unknown,hospital,Unknown,Unknown,Unknown,Unknown,19.8492875,75.3673082
amrut bal rugnalay,Unknown,Unknown,Unknown,Unknown,Unknown,Unknown,hospital,hospital,Unknown,Unknown,Unknown,19.863851,75.3366914
