Name,Full Address,Street,City,Postcode,State,Country,Amenity,Healthcare,Phone,Website,Opening Hours,Latitude,Longitude
Manisha Hospital,Unknown,"Main Road 3, Gomti Colony,","Bhopal, Madhya Pradesh 462003",462003,Unknown,Unknown,hospital,Unknown,0755 277 4851,Unknown,Unknown,23.213357,77.3921666
"Shekhar Hospital, Bhopal","A-69, Shahpura Near Manisha Market",Unknown,Unknown,462016,Madhya Pradesh,Unknown,hospital,Unknown,Unknown,Unknown,Unknown,23.2016302,77.4263831
Bhopal Fracture Hospital ,Unknown,Unknown,Unknown,Unknown,Unknown,Unknown,hospital,hospital,Unknown,Unknown,Unknown,23.2126452,77.4387892
Asha Niketan,Unknown,Unknown,Unknown,Unknown,Unknown,Unknown,hospital,hospital,Unknown,Unknown,Unknown,23.2100099,77.440881
"Vardaan Hospital, Bhopal","1st Floor,Shiv Narayan Complex Lily Talkies Square Jehangirabad",Unknown,Unknown,462008,Madhya Pradesh,Unknown,hospital,Unknown,Unknown,Unknown,Unknown,23.2521256,77.4149495
"Khan Shakir ali khan aspataal, gas rahat, bhopal",BHRAT TALKIES ROAD,Near Station,Unknown,462013,Madhya Pradesh,Unknown,hospital,Unknown,Unknown,Unknown,Unknown,23.2617176,77.4104527
Bhopal Eye Hospital,Unknown,Unknown,Unknown,Unknown,Unknown,Unknown,hospital,Unknown,Unknown,Unknown,Unknown,23.2682768,77.404835
Seva Sadan Eye Hospital Trust,Unknown,Unknown,Unknown,Unknown,Unknown,Unknown,Unknown,hospice,Unknown,Unknown,Unknown,23.2730246,77.3400647
Shri Medicals,Unknown,Unknown,Unknown,Unknown,Unknown,Unknown,pharmacy,Unknown,Unknown,Unknown,Unknown,23.2377581,77.402213
Aastha Hospital,Unknown,Unknown,Unknown,Unknown,Unknown,Unknown,hospital,Unknown,Unknown,Unknown,Unknown,23.2324175,77.3944885
HAKIM SYED ZIAUL HASAN GOVERMENT UNANI MEDICAL COLLEGE AND HOSPITAL,Unknown,Unknown,Unknown,Unknown,Unknown,Unknown,hospital,hospital,Unknown,Unknown,Unknown,23.2045252,77.4093707
GOVERMENT HOMEOPATHIC MEDICAL COLLEGE AND HOSPITAL,Unknown,Unknown,Unknown,Unknown,Unknown,Unknown,hospital,hospital,Unknown,Unknown,Unknown,23.2037556,77.4091003
"Meenakshi Hospital, Bhopal","E-5/38, Arera Colony",Unknown,Unknown,462001,Madhya Pradesh,Unknown,hospital,Unknown,Unknown,Unknown,Unknown,23.2133755,77.4299254
Prakash Eye Care and Laser Centre,"Plot No.131/14, Zone-2,Mp Nagar,Opposite Provident Fund Office,Near Pragati Petrol Pump",Unknown,Unknown,462011,Madhya Pradesh,Unknown,hospital,Unknown,Unknown,Unknown,Unknown,23.2288798,77.4356157
Mata Mandir Netra Sewa Kendra,"1/4, Sanjay Complex, Mata Mandir",Unknown,Unknown,462001,Madhya Pradesh,Unknown,hospital,Unknown,Unknown,Unknown,Unknown,23.2242238,77.4019808
Kshitij Hospital,Bhopal,Unknown,Unknown,462003,Madhya Pradesh,Unknown,hospital,Unknown,Unknown,Unknown,Unknown,23.262956,77.3803829
Bhopal Care Hospital,"Noor Mahal Road, Chowki Imambara",Unknown,Unknown,462001,Madhya Pradesh,Unknown,hospital,Unknown,Unknown,Unknown,Unknown,23.2627832,77.3939585
G.S.M.Hospital,"31-35,Mwa Mp Qwarters, Jawahar Chowk New Market",Unknown,Unknown,462003,Madhya Pradesh,Unknown,hospital,Unknown,Unknown,Unknown,Unknown,23.2301825,77.3937517
Central Hospital and Research Center,"713,Kamala Nehru Nagar",Unknown,Unknown,482002,Madhya Pradesh,Unknown,hospital,Unknown,Unknown,Unknown,Unknown,23.263933,77.393792
Narmada Advance Trauma and Critical care Institute,"Add,E-3/23, Arera Colony",Unknown,Unknown,462016,Madhya Pradesh,Unknown,hospital,Unknown,Unknown,Unknown,Unknown,23.217648,77.4391609
"Pushkom Maternity and Nursing Home, Bhopal","52, Old Ashoka Garden",Unknown,Unknown,462001,Madhya Pradesh,Unknown,clinic,Unknown,Unknown,Unknown,Unknown,23.2534681,77.4309044
Devmata Hospital,"Ahinsa Vihar Colony, Ayodhya Nagar, P O Phase-3",Unknown,Unknown,462041,Madhya Pradesh,Unknown,hospital,Unknown,Unknown,Unknown,Unknown,23.2684238,77.4731988
Malti Hospital,"E-7, H/451, Opp, 1100 Qtrs, Hanuman Mandir Arera Colony",Unknown,Unknown,462016,Madhya Pradesh,Unknown,hospital,Unknown,Unknown,Unknown,Unknown,23.2070006,77.4342786
Jayshree Hospital,"No. 22, Retghat, Near Kamla Park",Unknown,Unknown,462001,Madhya Pradesh,Unknown,hospital,Unknown,Unknown,Unknown,Unknown,23.2528588,77.3988064
Peoples General Hospital,"6, Malviya Nagar",Unknown,Unknown,462003,Madhya Pradesh,Unknown,hospital,Unknown,Unknown,Unknown,Unknown,23.2402937,77.4055132
Shubham Hospital Fracture Accident Care,"103, Opposite Tazul Masjid",Unknown,Unknown,462001,Madhya Pradesh,Unknown,hospital,Unknown,Unknown,Unknown,Unknown,23.2624533,77.3939529
Choudhary Hospital,"Gurunankrupa Raisen Road,Bpl, Near Capital Pertol Pump",Unknown,Unknown,462023,Madhya Pradesh,Unknown,hospital,Unknown,Unknown,Unknown,Unknown,23.2536634,77.4280921
Citi Hospital,"115,Zonal-II,M.P Nagar,Behind Pragati Petrol Pump",Unknown,Unknown,462011,Madhya Pradesh,Unknown,hospital,Unknown,Unknown,Unknown,Unknown,23.2304819,77.4360924
Gour Hospital And Maternity Home,Charbatti Budhwara,Unknown,Unknown,462001,Madhya Pradesh,Unknown,hospital,Unknown,Unknown,Unknown,Unknown,23.2548783,77.4043921
"Adarsh Hospital, Bhopal",Shahjahanabad,Unknown,Unknown,462001,Madhya Pradesh,Unknown,hospital,Unknown,Unknown,Unknown,Unknown,23.2678041,77.3950513
Parul Hospital Pvt Ltd,"Hig-2, Ankur Colony Shivaji Nagar",Unknown,Unknown,462016,Madhya Pradesh,Unknown,hospital,Unknown,Unknown,Unknown,Unknown,23.2274392,77.4320886
Bhopal Fracture Hospital,E-3-A Arera Colony,Unknown,Unknown,462016,Madhya Pradesh,Unknown,hospital,hospital,Unknown,Unknown,Unknown,23.2128356,77.4391428
Shukla Hospital and Maternity Home,"Behind Veerangana Laxmi Bai Parisar, Kotra Sultanabad",Unknown,Unknown,462003,Madhya Pradesh,Unknown,hospital,Unknown,Unknown,Unknown,Unknown,23.2198621,77.3957902
Hafeez Maternity Home and Eye Hospital,"Safina Church Road , Opposite Lal Parade Ground",Unknown,Unknown,462003,Madhya Pradesh,Unknown,hospital,Unknown,Unknown,Unknown,Unknown,23.2481629,77.413765
Apex Hospital,"116-117, Sindhi Colony Berasia Road",Unknown,Unknown,462001,Madhya Pradesh,Unknown,hospital,Unknown,Unknown,Unknown,Unknown,23.2698098,77.4013451
Pranjal Hospital and Child Care Center,"110, Old Ashoka Garden, Near Prabhat Petrol Pump",Unknown,Unknown,462023,Madhya Pradesh,Unknown,hospital,Unknown,Unknown,Unknown,Unknown,23.254938,77.4302284
"Jeevan Dhara Hospital, Bareilly","2, Ahinsa Vihar, Ayodhya Bye Pass Road Opp Petrol Pump",Unknown,Unknown,462001,Madhya Pradesh,Unknown,hospital,Unknown,Unknown,Unknown,Unknown,23.2696189,77.4705058
Ajwani Eye Hospital,"115, Berasia Road Near Sindhi Colony",Unknown,Unknown,462001,Madhya Pradesh,Unknown,hospital,Unknown,Unknown,Unknown,Unknown,23.2696891,77.4013142
Anushree Hospital,"E- 4/20, Arera Colony",Unknown,Unknown,462016,Madhya Pradesh,Unknown,hospital,hospital,Unknown,Unknown,Unknown,23.2125817,77.4361414
"Nahar Nursing Home, Bhopal","Behind Panchanan Building, 73, Malviya Nagar",Unknown,Unknown,462003,Madhya Pradesh,Unknown,clinic,Unknown,Unknown,Unknown,Unknown,23.2373436,77.4018855
Anantshree Multispeciality Hospital,"Inrapuri A- Sector, Opposite Bhel Gate No. 1, Above Canara Bank, Raisen Road",Unknown,Unknown,462030,Madhya Pradesh,Unknown,hospital,Unknown,Unknown,Unknown,Unknown,23.2512606,77.459553
Venus Hospital and Medical Research Centre-Bhopal,"House No-2,Pipal Squre Karond",Unknown,Unknown,462038,Madhya Pradesh,Unknown,hospital,Unknown,Unknown,Unknown,Unknown,23.2993465,77.403806
Aradhana Maternity And Kidney Hospital,"H-8, Sector-B, Sonagiri",Unknown,Unknown,462023,Madhya Pradesh,Unknown,hospital,Unknown,Unknown,Unknown,Unknown,23.250594,77.4717195
L.B.S Hospital,"73, Tajul Masjid Road",Unknown,Unknown,462001,Madhya Pradesh,Unknown,hospital,Unknown,Unknown,Unknown,Unknown,23.2649458,77.3937383
Chirayu Medical College and Hospital,"Bhopal- Indore Highway, Near Bajragarh,Bhaisakheds, Baijragarh",Unknown,Unknown,462030,Madhya Pradesh,Unknown,hospital,Unknown,Unknown,Unknown,Unknown,23.2688064,77.3081296
"Yashoda Hospital, Bhopal","Tajul Masjid Road, Opp Motiya Talab Near L.B.S Hospital",Unknown,Unknown,462001,Madhya Pradesh,Unknown,hospital,Unknown,Unknown,Unknown,Unknown,23.2652057,77.3936498
"Krishna Hospital, Bhopal","# 106, Chiklod Road,Jehangirbad",Unknown,Unknown,462008,Madhya Pradesh,Unknown,hospital,Unknown,Unknown,Unknown,Unknown,23.2523431,77.4155004
Faith and Hope Hospital,"40, Malviya Nagar",Unknown,Unknown,462003,Madhya Pradesh,Unknown,hospital,Unknown,Unknown,Unknown,Unknown,23.2343749,77.4025494
Jashdeep Hospital,"30, M L A Quarters, Near DAV Maha vidyalaya, Bhadbhada Road",Unknown,Unknown,462003,Madhya Pradesh,Unknown,hospital,Unknown,Unknown,Unknown,Unknown,23.2338401,77.3961577
"Niramaya Hospital, Bhopal","E-2/13, Arera Colony , Opposite Habibganj Railway Station",Unknown,Unknown,462016,Madhya Pradesh,Unknown,hospital,hospital,Unknown,Unknown,Unknown,23.2112407,77.432908
Ntr Hospital and Research Centre,31.Mangalwara Road,Unknown,Unknown,462001,Madhya Pradesh,Unknown,hospital,Unknown,Unknown,Unknown,Unknown,23.2597415,77.4056527
Agrawal Hospital,"E-3/15, Arera Colony Near Habibganj Rly Crossing",Unknown,Unknown,462016,Madhya Pradesh,Unknown,hospital,Unknown,Unknown,Unknown,Unknown,23.2156753,77.4393775
Navodaya Hospital And Research Centre,"41, Zone- Ii M P Nagar",Unknown,Unknown,462011,Madhya Pradesh,Unknown,hospital,Unknown,Unknown,Unknown,Unknown,23.230265,77.436824
Akshaya Hospital,Char Imli Opp: Ekant Park Rishi Nagar,Unknown,Unknown,462016,Madhya Pradesh,Unknown,hospital,Unknown,Unknown,Unknown,Unknown,23.2174908,77.4236557
Paliwal Hospital Pvt. Ltd.,"Near a Bhopal Talkies Chouraha, Berasia Road",Unknown,Unknown,462001,Madhya Pradesh,Unknown,hospital,Unknown,Unknown,Unknown,Unknown,23.2303599,77.4440525
Rajdeep Hospital,"55, Main Road, In Front Of Krishna Plaza Bairagarh",Unknown,Unknown,462030,Madhya Pradesh,Unknown,hospital,Unknown,Unknown,Unknown,Unknown,23.2720029,77.3424774
"Sanjeevani Hospital, Bhopal","77, Op. Motia Talab , Tajul Masajid Road",Unknown,Unknown,462001,Madhya Pradesh,Unknown,hospital,Unknown,Unknown,Unknown,Unknown,23.2641502,77.3937863
Peoples Hospital,"Peoples Campus , Bhanpur",Unknown,Unknown,462016,Madhya Pradesh,Unknown,hospital,Unknown,Unknown,Unknown,Unknown,23.2988834,77.4251068
Dewani Hospital And Research Centre,E-7 Arera Colony,Unknown,Unknown,462016,Madhya Pradesh,Unknown,hospital,Unknown,Unknown,Unknown,Unknown,23.210445,77.4315892
Pushpanjali Hsopital,"E-7/822, Arera Colony, Near Basant Kunj",Unknown,Unknown,462016,Madhya Pradesh,Unknown,hospital,Unknown,Unknown,Unknown,Unknown,23.2014132,77.4344569
Suyash Mother and Child Hospital,"45-A, Janki Nagar,Chuna Bhatti, Kolar Road",Unknown,Unknown,462016,Madhya Pradesh,Unknown,hospital,Unknown,Unknown,Unknown,Unknown,23.2083848,77.4180633
Global Liver and Gastroenterology Centre,"E-5/24,Opp Arera Petrol Pump,Arena Colony",Unknown,Unknown,462038,Madhya Pradesh,Unknown,hospital,Unknown,Unknown,Unknown,Unknown,23.2140521,77.429118
Asha Niketan Hospital,"E-6, Arera Colony",Unknown,Unknown,462016,Madhya Pradesh,Unknown,hospital,Unknown,Unknown,Unknown,Unknown,23.2102929,77.4396715
National Hospital For Heart and Critical Care,"E- 3/61, Arera Colony",Unknown,Unknown,462016,Madhya Pradesh,Unknown,hospital,Unknown,Unknown,Unknown,Unknown,23.2169754,77.4360666
Ajwani Eye Tech Centre,"E-5/61, Arera Colony",Unknown,Unknown,462016,Madhya Pradesh,Unknown,hospital,Unknown,Unknown,Unknown,Unknown,23.2137751,77.4274743
"Charak Hospital/A Unit Of Mrityunjay Health Care Pvt Ltd,",Old Nav Bharat Press Building Jahangirabad,Unknown,Unknown,462008,Madhya Pradesh,Unknown,hospital,Unknown,Unknown,Unknown,Unknown,23.251491,77.4151021
New Bhopal Hospital and Research Foundation,"172, Zone 2, Near Sargam Talkies, Maharanapratap Nagar",Unknown,Unknown,462011,Madhya Pradesh,Unknown,hospital,Unknown,Unknown,Unknown,Unknown,23.2283782,77.4364391
Sharda Hospital and Diagnostic Center,"189 A, Aradhana Nagar, Kotra Sultanabad",Unknown,Unknown,462001,Madhya Pradesh,Unknown,hospital,Unknown,Unknown,Unknown,Unknown,23.221521,77.3959123
Saarthi Hospital (Maternity and Urological Centre),"C-2, Narayan Nagar, Opposite Barkutallah University, Hoshangabad Road",Unknown,Unknown,462016,Madhya Pradesh,Unknown,hospital,Unknown,Unknown,Unknown,Unknown,23.2029589,77.4457088
Tanushree Female Hospital,"84, Chiklol Road, Near Petrol Pump",Unknown,Unknown,462008,Madhya Pradesh,Unknown,hospital,Unknown,Unknown,Unknown,Unknown,23.2516574,77.4167892
"Shivam Hospital, Bhopal","Mig-215, Gautam Nagar, Govindpura",Unknown,Unknown,462023,Madhya Pradesh,Unknown,hospital,Unknown,Unknown,Unknown,Unknown,23.2353103,77.441023
Sankalp Netralya Hospital,109 Zone 2 Mp Nagar,Unknown,Unknown,462011,Madhya Pradesh,Unknown,hospital,Unknown,Unknown,Unknown,Unknown,23.2302816,77.4364857
"Vatsalya Hospital, Bhopal","B-66 Kasturba Nagar, Near Chetak Bridge",Unknown,Unknown,462023,Madhya Pradesh,Unknown,hospital,Unknown,Unknown,Unknown,Unknown,23.2339407,77.4400197
"Lakecity Hospital, Bhopal","B-27, Kasturba Nagar , Near Chetak Bridge",Unknown,Unknown,462023,Madhya Pradesh,Unknown,hospital,Unknown,Unknown,Unknown,Unknown,23.2321079,77.4405538
Al - Rasheed Hospital,"No:3, Chowki Imam Bada, Noor Mahal Road",Unknown,Unknown,462001,Madhya Pradesh,Unknown,hospital,Unknown,Unknown,Unknown,Unknown,23.2617624,77.3977843
Kid Kare,"Pari Park Road , Opposite Babe Aali",Unknown,Unknown,462001,Madhya Pradesh,Unknown,hospital,Unknown,Unknown,Unknown,Unknown,23.2676723,77.389707
Asian Globus Liver And Gastroenterology Centre,"E-5/24, Arera Colony,Opposite Arera Petrol Pump",Unknown,Unknown,462016,Madhya Pradesh,Unknown,clinic,Unknown,Unknown,Unknown,Unknown,23.2147497,77.4269749
Ankur Maternity And Nursing Home,"104-105,Prince Colony, Lower Idgah Hills",Unknown,Unknown,462001,Madhya Pradesh,Unknown,hospital,Unknown,Unknown,Unknown,Unknown,23.2711503,77.3887213
"Rainbow Children Hospital, Bhopal","Sahkar Brown,Rangmahal Square,New Market",Unknown,Unknown,462003,Madhya Pradesh,Unknown,hospital,Unknown,Unknown,Unknown,Unknown,23.2356788,77.3983128
Hi-Tech Eye Care and Laser Center,"E- 1/100, Arera Colony+106 Old Tas Market",Unknown,Unknown,462001,Madhya Pradesh,Unknown,hospital,Unknown,Unknown,Unknown,Unknown,23.2616106,77.3938631
Ayush Hospital and Research Centre,"11, Old Ashoka Garden, Behind Prabhat Petrol Pump",Unknown,Unknown,462003,Madhya Pradesh,Unknown,hospital,Unknown,Unknown,Unknown,Unknown,23.25277,77.4309996
Siddharth Eye Hospital,45 Mla Qtrs. Jawahar Chowk . T.T Nagar,Unknown,Unknown,462003,Madhya Pradesh,Unknown,hospital,Unknown,Unknown,Unknown,Unknown,23.233081,77.3953892
Vijaya Maternity and Nursing Home,Bhopal,Unknown,Unknown,462001,Madhya Pradesh,Unknown,clinic,Unknown,Unknown,Unknown,Unknown,23.2377429,77.437811
Swami Vivekanand Regional Spine Centre,"Kisan Bhawan Campus, Near R. B.I., Opposite Maida Mill",Unknown,Unknown,462008,Madhya Pradesh,Unknown,hospital,Unknown,Unknown,Unknown,Unknown,23.2405328,77.4307877
Miracles Children Hospital,"Z-17, M P Nagar Zone 1, Infront Of Chittod Complex",Unknown,Unknown,462001,Madhya Pradesh,Unknown,hospital,Unknown,Unknown,Unknown,Unknown,23.2369443,77.4343295
"Mayo Hospital, Bhopal","State Bank Chouraha, Sultania Road",Unknown,Unknown,462001,Madhya Pradesh,Unknown,hospital,Unknown,Unknown,Unknown,Unknown,23.2622106,77.3890002
Roshan Maternity Child Care And General Hospital,"First Floor, 8-A, Govind Garden Raisen Road, Govindpura",Unknown,Unknown,462023,Madhya Pradesh,Unknown,hospital,Unknown,Unknown,Unknown,Unknown,23.2527836,77.4390656
Bhambhani Hospital,"Bairagarh, Under Central Bank, Sarafa Road",Unknown,Unknown,462030,Madhya Pradesh,Unknown,hospital,Unknown,Unknown,Unknown,Unknown,23.2697538,77.3367957
R.A Stone and Surgical Care,"48, Mla Quarter, Jawahar Chowk",Unknown,Unknown,462003,Madhya Pradesh,Unknown,hospital,Unknown,Unknown,Unknown,Unknown,23.2332387,77.3952263
Suditi Hospital - Bhopal,"6-C, Vijay Nagar, Near Railway Crossing, Lalghatti",Unknown,Unknown,462016,Madhya Pradesh,Unknown,hospital,Unknown,Unknown,Unknown,Unknown,23.2766683,77.3657897
S.V Eye Care and Research Centre,"Hig-5, Shalimar Complex, Opposite S.B.I Sultania Road",Unknown,Unknown,462001,Madhya Pradesh,Unknown,hospital,Unknown,Unknown,Unknown,Unknown,23.2613802,77.392424
Muskan Maternity and General Hospital,"Indus Muskan Plaza By Pass Road, Ayodhya Nagar",Unknown,Unknown,462001,Madhya Pradesh,Unknown,hospital,hospital,Unknown,Unknown,Unknown,23.2728295,77.4650335
Pathak's Clinic and Hi-Tech Diagnostic,"3 - Nupur Kunj, E3 Arera Colony, Near Habibganj Railway Crossing",Unknown,Unknown,462011,Madhya Pradesh,Unknown,clinic,clinic,Unknown,Unknown,Unknown,23.212281,77.4406502
Hajela Hospital,"Geetanjali Complex Main Road, No.2, Near .Mata Mandir,T T Nagar",Unknown,Unknown,462003,Madhya Pradesh,Unknown,hospital,Unknown,Unknown,Unknown,Unknown,23.2249287,77.3934285
UPHC ANAND NAGAR,"Anand Nagar Choraha,","Anand Nagar Choraha,",Unknown,462021,Madhya Pradesh,Unknown,Unknown,centre,Unknown,Unknown,Unknown,23.2514775,77.4836446
Civil Hospital,Main Road,Bairagarh,Unknown,462030,Madhya Pradesh,Unknown,hospital,Unknown,Unknown,Unknown,Unknown,23.2721125,77.340247
CHC GANDHINAGAR,Ward No 1,Airport Road,Unknown,462036,Madhya Pradesh,Unknown,Unknown,centre,Unknown,Unknown,Unknown,23.2998885,77.3474126
UPHC Saibaba Nagar,J 329,E- 6 Arera Colony,Unknown,462011,Madhya Pradesh,Unknown,Unknown,centre,Unknown,Unknown,Unknown,23.2070647,77.4413113
KAILASH NATH KATJU,Jawahar Chowk,Jawahar Chawk,Unknown,462003,Madhya Pradesh,Unknown,hospital,Unknown,Unknown,Unknown,Unknown,23.2339794,77.3973834
UPHC BARKHEDA PATHANI,Barkheda Pathani,Barkheda Pathani,Unknown,462021,Madhya Pradesh,Unknown,Unknown,centre,Unknown,Unknown,Unknown,23.2129207,77.4792646
"All India Institute of Medical Sciences (AIIMS), Bhopal","C-Wing, Second Floor, Medical College Building,","Aiims Bhopal,",Unknown,462020,Madhya Pradesh,Unknown,hospital,Unknown,Unknown,Unknown,Unknown,23.2093426,77.4584547
UPHC Ashoka Gardern,Punjabi Bagh,Ashoka Gardern,Unknown,462023,Madhya Pradesh,Unknown,Unknown,centre,Unknown,Unknown,Unknown,23.2583812,77.4360488
Civil Dispensary 1100 Quarter,Behind Hanuman Mandir,1100 Quarter,Unknown,462016,Madhya Pradesh,Unknown,clinic,centre,Unknown,Unknown,Unknown,23.2089715,77.4285038
MASTERLAL SINGH HOSPITAL,MLS Hospital,Shahjahanabad,Unknown,462001,Madhya Pradesh,Unknown,hospital,Unknown,Unknown,Unknown,Unknown,23.2714472,77.3916972
"Gastrocare, Liver & Digestive Disease Center","Link Road Number 3, Near Personal Branch Sbi, Arera Colony, Bhopal",Unknown,Unknown,462016,Madhya Pradesh,Unknown,hospital,hospital,Unknown,Unknown,Unknown,23.212475,77.437564
Malti Hospital & Test Tube Baby Centre,"Arera Colony, Bhopal",Unknown,Unknown,462016,Madhya Pradesh,Unknown,hospital,Unknown,Unknown,Unknown,Unknown,23.209923,77.431569
Manahi Hospital,"Arera Colony, Bhopal",Unknown,Unknown,462016,Madhya Pradesh,Unknown,hospital,Unknown,Unknown,Unknown,Unknown,23.20852,77.438402
Colony Care Multi-Speciality Hospital,"Arera Colony, Bhopal",Unknown,Unknown,462016,Madhya Pradesh,Unknown,hospital,Unknown,Unknown,Unknown,Unknown,23.2149023,77.433355
Jainmshree Hospital,"Arera Colony, Bhopal",Unknown,Unknown,462016,Madhya Pradesh,Unknown,hospital,Unknown,Unknown,Unknown,Unknown,23.2120918,77.4309133
CGHS health Centre,"Lala Lajpat Rai Society, Shahupura Village, Arera Colony, Bhopal",Unknown,Unknown,462016,Madhya Pradesh,Unknown,Unknown,centre,Unknown,Unknown,Unknown,23.200179,77.434877
RBM Advanced Eye Hospital,"Kolar Road, Janki Nagar, Chuna Bhatti, Bhopal",Unknown,Unknown,462016,Madhya Pradesh,Unknown,hospital,Unknown,Unknown,Unknown,Unknown,23.209026,77.418302
University Hospital,"Barkatullah University, Habib Ganj, Bhopal",Unknown,Unknown,462026,Madhya Pradesh,Unknown,hospital,Unknown,Unknown,Unknown,Unknown,23.202278,77.45071
Swasth Hospital,"Hoshangabad Road, Surendra Palace, Narayan Nagar, Bhopal",Unknown,Unknown,462026,Madhya Pradesh,Unknown,hospital,Unknown,Unknown,Unknown,Unknown,23.201299,77.4466394
bansal hospital,"Residential Quarters, Vaishali Nagar, Bhopal",Unknown,Unknown,462003,Madhya Pradesh,Unknown,hospital,Unknown,Unknown,Unknown,Unknown,23.213384,77.396377
Astha Hospital,"Motia Talab Road, Taj-Ul-Masjid Road, E-4, Arera Colony, Bhopal",Unknown,Unknown,462001,Madhya Pradesh,Unknown,hospital,Unknown,Unknown,Unknown,Unknown,23.21118,77.432444
Shri Satya Sai Hospital,"Hoshangabad Road, Narayan Nagar, Bhopal",Unknown,Unknown,462026,Madhya Pradesh,Unknown,hospital,Unknown,Unknown,Unknown,Unknown,23.202132,77.446307
All Care Hospital,"Raisen Road, Near Hindustan Hall, New Subhash Nagar, Lala Lajpat Rai Colony, Old Subhash Nagar, Bhopal",Unknown,Unknown,462008,Madhya Pradesh,Unknown,hospital,Unknown,Unknown,Unknown,Unknown,23.253359,77.4264
Sant Hirdaram Yoga and Nature cure Hospital,"One Tree Hill Road, Sant Hiroadaram Nagar, Behata, Bairagarh, Bhopal",Unknown,Unknown,462030,Madhya Pradesh,Unknown,hospital,Unknown,Unknown,Unknown,Unknown,23.266028,77.339174
Jamna Hospital,"Hatai Kheda Road, Bhawani Chowk, Ashok Vihar, Anandnagar, Bhopal",Unknown,Unknown,462021,Madhya Pradesh,Unknown,hospital,Unknown,Unknown,Unknown,Unknown,23.252763,77.486122
Cmas Koh E Fiza Hospital,"Sultania Road, Lal Ghati Road, Kohefiza, Bhopal",Unknown,Unknown,462030,Madhya Pradesh,Unknown,hospital,Unknown,Unknown,Unknown,Unknown,23.264925,77.380524
Unani Hospital,"Hathikhana, Hathi Khana, Budhwara, Bhopal",Unknown,Unknown,462001,Madhya Pradesh,Unknown,hospital,Unknown,Unknown,Unknown,Unknown,23.2521287,77.4041094
Silver Line Hospital,"Old Taj Market, Taj-Ul-Masjid Road, Motia Talab, Kohefiza, Bhopal",Unknown,Unknown,462001,Madhya Pradesh,Unknown,hospital,Unknown,Unknown,Unknown,Unknown,23.263746,77.393839
Maheshwari Hospital,"Gufa Mandir Road, Om Shiv Nagar, Om Shiv Colony, Lalghati",Unknown,Unknown,462032,Madhya Pradesh,Unknown,hospital,Unknown,Unknown,Unknown,Unknown,23.277062,77.372306
Paras Hospital,"Motia Talab Road, Opposite, Taj-Ul-Masjid Road, Lbs Hospital, Kali Basti, Kohefiza, Bhopal",Unknown,Unknown,462001,Madhya Pradesh,Unknown,hospital,Unknown,Unknown,Unknown,Unknown,23.2632152,77.39392
Nandan Hospital,"Paul Street Church Rd, Jinsi, Pratap Nagar, Jahangirabad, Bhopal",Unknown,Unknown,462008,Madhya Pradesh,Unknown,hospital,Unknown,Unknown,Unknown,Unknown,23.2500507,77.4169728
Metro Multispeciality & Fracture Hospital,"Khajuri Kala Roadkhajuri Kala, Near Krishna Mandir, Regal Town, Gopal Nagar, Bhopal",Unknown,Unknown,462043,Madhya Pradesh,Unknown,hospital,Unknown,Unknown,Unknown,Unknown,23.238589,77.4959018
Madhavbaug cardiac clinic,"Gufa Mandir Road, Lalghati, Bhopal",Unknown,Unknown,462030,Madhya Pradesh,Unknown,hospital,Unknown,Unknown,Unknown,Unknown,23.276649,77.37255
Maxcare Hospital,"Sultania Rd, Fatehgarh, Nakkar Khana, Peer Gate Area, Bhopal",Unknown,Unknown,462001,Madhya Pradesh,Unknown,hospital,Unknown,Unknown,Unknown,Unknown,23.258056,77.3957463
Gayatri Hospital And Trauma Centre,"Bhopal Bypass Rd, Bijli Colony, Anandnagar",Unknown,Unknown,462022,Madhya Pradesh,Unknown,hospital,Unknown,Unknown,Unknown,Unknown,23.249134,77.488308
Hayat Hospital,"Kabadkhana Road, Liyaqat Market, Near Bus Stand, Ibrahimganj",Unknown,Unknown,462001,Madhya Pradesh,Unknown,hospital,Unknown,Unknown,Unknown,Unknown,23.2697662,77.4074972
Srijan Hospital,"Raisen Road, Punjabi Bagh, Shanshah Garoaden, Bhopal",Unknown,Unknown,462023,Madhya Pradesh,Unknown,hospital,Unknown,Unknown,Unknown,Unknown,23.255325,77.435997
Colony Hospital,"Arera Colony, Bhopal",Unknown,Unknown,462016,Madhya Pradesh,Unknown,hospital,Unknown,Unknown,Unknown,Unknown,23.221097,77.434557
Zindagi Hospital,"Ayodhya Bypass Rd, Bhawanidham, Chhatrapati Nagar, Narela Shankri, Ayodhya Nagar, Bhopal",Unknown,Unknown,462022,Madhya Pradesh,Unknown,hospital,Unknown,Unknown,Unknown,Unknown,23.269603,77.467351
Thyrocare Centre,"Shubhalay Villas Adhar Shilla Near Avadhpuri Police Station Ke Paas, Bhopal",Unknown,Unknown,462022,Madhya Pradesh,Unknown,hospital,Unknown,Unknown,Unknown,Unknown,23.2195151,77.4826762
Gas Rahat Hospital,"Iqbal Colony, New Ashoka Garden",Unknown,Unknown,462023,Madhya Pradesh,Unknown,hospital,Unknown,Unknown,Unknown,Unknown,23.253862,77.4311342
Bhopal Memorial & Gas Rahat Hospital,"Kapda Mill Gate, Chandbarh",Unknown,Unknown,462010,Madhya Pradesh,Unknown,hospital,Unknown,Unknown,Unknown,Unknown,23.2668298,77.4200427
MP Hospital Bhopal,"Indrapuri B Sector, Indrapuri, Bhopal",Unknown,Unknown,462022,Madhya Pradesh,Unknown,hospital,Unknown,Unknown,Unknown,Unknown,23.2514169,77.4599857
Ballabh ENT Hospital,"Old Saifia College Road, Kali Basti, Peer Gate Area",Unknown,Unknown,462001,Madhya Pradesh,Unknown,hospital,Unknown,Unknown,Unknown,Unknown,23.2633324,77.3992566
Mehko Hospital,"Infront Jain Mandir, Murghi Bazar, Berkhedi, Jahangirabad, Bhopal",Unknown,Unknown,462008,Madhya Pradesh,Unknown,hospital,Unknown,Unknown,Unknown,Unknown,23.251139,77.41259
Hindustan Hospital,"Mayur Vihar, Bhopal",Unknown,Unknown,462023,Madhya Pradesh,Unknown,hospital,Unknown,Unknown,Unknown,Unknown,23.2615613,77.428758
Gayatri Hospital Anand Nagar,"Shiv Nagar, Anandnagar, Bhopal",Unknown,Unknown,462022,Madhya Pradesh,Unknown,hospital,Unknown,Unknown,Unknown,Unknown,23.2504261,77.48461
Batra Hospital,"Chetak Bridge, Zone-I, Maharana Pratap Nagar, Near Jyoti Talkies, Bhopal",Unknown,Unknown,462023,Madhya Pradesh,Unknown,hospital,Unknown,Unknown,Unknown,Unknown,23.2337463,77.4347058
Care Infinity Hospital,"Bairagarh Road, Near Vatika, Vijay Nagar, Lalghati",Unknown,Unknown,462030,Madhya Pradesh,Unknown,hospital,Unknown,Unknown,Unknown,Unknown,23.2737457,77.3668008
Pulse hospital,"New Itwara Rd, Indra Prasth, Mangalwara, Bhopal",Unknown,Unknown,462001,Madhya Pradesh,Unknown,hospital,Unknown,Unknown,Unknown,Unknown,23.2604152,77.4053093
M J Hospital,"Raisen Rd, Anandnagar, Bhopal",Unknown,Unknown,462022,Madhya Pradesh,Unknown,hospital,Unknown,Unknown,Unknown,Unknown,23.250024,77.4881688
career hospital,"Kalibadi Road, A-Sector, Sector A, Habib Ganj, Bhopal",Unknown,Unknown,462023,Madhya Pradesh,Unknown,hospital,Unknown,Unknown,Unknown,Unknown,23.2314706,77.4504262
Shree Shubh Hospital,"Near Durga Mandir, Soubhagya Nagar, Govindpura, Bhopal",Unknown,Unknown,462023,Madhya Pradesh,Unknown,hospital,Unknown,Unknown,Unknown,Unknown,23.2498466,77.441712
Sakshi co-operative hospital,"Druga Chowk, Samanvay Nagar, Awadhpuri, Bhopal",Unknown,Unknown,462022,Madhya Pradesh,Unknown,hospital,Unknown,Unknown,Unknown,Unknown,23.2280354,77.4864343
Darbari Hospital,"Berasia Road, Sindhi Colony Crossing, Near Durga Temple",Unknown,Unknown,462001,Madhya Pradesh,Unknown,hospital,Unknown,Unknown,Unknown,Unknown,23.2705381,77.4015169
Hope s s hospital,"Mohan Nagar, Prakash Nagar, Mamta Nagar, Bhopal",Unknown,Unknown,462022,Madhya Pradesh,Unknown,hospital,Unknown,Unknown,Unknown,Unknown,23.257513,77.478446
Mona Hospital,"Punjabi Bagh, Shanshah Garoaden, Bhopal",Unknown,Unknown,462023,Madhya Pradesh,Unknown,hospital,Unknown,Unknown,Unknown,Unknown,23.253224,77.433678
aashirwad multispeciality hospital,"Awadhpuri, Bhopal",Unknown,Unknown,462022,Madhya Pradesh,Unknown,hospital,Unknown,Unknown,Unknown,Unknown,23.222251,77.484838
Shubh Hospital,"Unnamed Road, Ahinsa Vihar Colony, Ayodhya Bypass, Bhopal",Unknown,Unknown,462041,Madhya Pradesh,Unknown,hospital,Unknown,Unknown,Unknown,Unknown,23.2655073,77.4726603
Parulkar Hospitals,"Arera Colony, Near Bittan Market, Bhopal",Unknown,Unknown,462016,Madhya Pradesh,Unknown,hospital,Unknown,Unknown,Unknown,Unknown,23.220139,77.430376
R.K. Hospital and Research Centre (A Unit of R.K Healthcare),"Raisen Road, Indrapuri C Sector,Indrapuri, Bhopal",Unknown,Unknown,462021,Madhya Pradesh,Unknown,hospital,Unknown,Unknown,Unknown,Unknown,23.252527,77.466163
Central Hospital & Research Center,"Motia Talab, Near Taj-Ul-Masajid, Motia Talab",Unknown,Unknown,462001,Madhya Pradesh,Unknown,hospital,Unknown,Unknown,Unknown,Unknown,23.2646039,77.3941763
"Arnav Hospital, Bhopal","Raisen Road, Near Nri College, Patel Nagar, Bhopal",Unknown,Unknown,462022,Madhya Pradesh,Unknown,hospital,Unknown,Unknown,Unknown,Unknown,23.252094,77.504064
Unique Hospital,"Motia Talab Road, Motia Talab, Kali Basti, Kohefiza, Bhopal",Unknown,Unknown,462001,Madhya Pradesh,Unknown,hospital,Unknown,Unknown,Unknown,Unknown,23.2635646,77.3938354
ECHS Polyclinic,"Bairagarh, Bhopal",Unknown,Unknown,462030,Madhya Pradesh,Unknown,clinic,Unknown,Unknown,Unknown,Unknown,23.276895,77.33363
Nagpur Hospital,"Patel Nagar, Bhopal",Unknown,Unknown,462022,Madhya Pradesh,Unknown,hospital,Unknown,Unknown,Unknown,Unknown,23.25137,77.503047
Dolphin Children Hospital,"Karamveer Nagar Road, Hazrat, Nizamuddin Road, Ayodhya Nagar",Unknown,Unknown,462022,Madhya Pradesh,Unknown,hospital,Unknown,Unknown,Unknown,Unknown,23.261919,77.46257
Rudransh Multispeciality Hospital,"Raisen Rd, Patel Nagar, Bhopal",Unknown,Unknown,462022,Madhya Pradesh,Unknown,hospital,hospital,Unknown,Unknown,Unknown,23.250681,77.502513
Vaishno Hospital bhopal,"Near Krishna Mandir, Khajuri Kala, Bhopal",Unknown,Unknown,462022,Madhya Pradesh,Unknown,hospital,Unknown,Unknown,Unknown,Unknown,23.2380758,77.4962629
T B Hospital,"Near Cancer Hospital, Bda Colony, Idgah Hills",Unknown,Unknown,462001,Madhya Pradesh,Unknown,hospital,Unknown,Unknown,Unknown,Unknown,23.2750528,77.3781166
Indira Gandhi Hospital,"Kazipura Station Road Nearest, Sultania Road",Unknown,Unknown,462001,Madhya Pradesh,Unknown,hospital,Unknown,Unknown,Unknown,Unknown,23.2610396,77.4010633
Police Hospital,"Phq Jhangirabad Bhopal, Bhopal",Unknown,Unknown,462008,Madhya Pradesh,Unknown,hospital,Unknown,Unknown,Unknown,Unknown,23.2465243,77.4113718
G.S.M. Hospital,"Jawahar Chowk, Tt Nagar, Bhopal",Unknown,Unknown,462003,Madhya Pradesh,Unknown,hospital,Unknown,Unknown,Unknown,Unknown,23.2337404,77.3959966
Tripti Hospital,"Tripti Hospital, Gufa Mandir Road, Lalghati Chauraha",Unknown,Unknown,462030,Madhya Pradesh,Unknown,hospital,Unknown,Unknown,Unknown,Unknown,23.273679,77.370737
Superintendent Office Sultania Zanana Hospital,"Sultania Road City Center Thana Talaiya, Band Master Square, Quasipura ,Budhwara",Unknown,Unknown,462001,Madhya Pradesh,Unknown,hospital,Unknown,Unknown,Unknown,Unknown,23.2552746,77.4081332
Protima Mullik Police Lady Hospital,"Roshanpura Road, Jahangirabad, Bhopal",Unknown,Unknown,462008,Madhya Pradesh,Unknown,hospital,Unknown,Unknown,Unknown,Unknown,23.2435872,77.4104892
MKM Stone & Urology Hospital,"Near Rbi Awasiya Parisar, Arera Colony, Bhopal",Unknown,Unknown,462016,Madhya Pradesh,Unknown,hospital,Unknown,Unknown,Unknown,Unknown,23.2207305,77.4306234
Saluja Hospital,"Teela Jamalpura Road, Putlighar, Shanti Nagar, Shahjahanabad",Unknown,Unknown,462001,Madhya Pradesh,Unknown,hospital,Unknown,Unknown,Unknown,Unknown,23.268316,77.401097
Global Hospital,"Ekant Park, Arera Colony, Bhopal",Unknown,Unknown,462016,Madhya Pradesh,Unknown,hospital,Unknown,Unknown,Unknown,Unknown,23.216619,77.424238
Jaimini Hospital,"Anekant Nagar, Near Lily Complex,, Jahangirabad, Bhopal",Unknown,Unknown,462008,Madhya Pradesh,Unknown,hospital,Unknown,Unknown,Unknown,Unknown,23.253402,77.413919
Sunetra Eye Hospital,"Hamidia Road, Near, Bhopal Talkies, Ghora Nakkas ,Bhopal",Unknown,Unknown,462001,Madhya Pradesh,Unknown,hospital,Unknown,Unknown,Unknown,Unknown,23.266097,77.400791
Navodaya Cancer Hospital,"Nizamuddin Road, Opp Bhel, Indrapuri, Bhopal",Unknown,Unknown,462022,Madhya Pradesh,Unknown,hospital,Unknown,Unknown,Unknown,Unknown,23.253032,77.461701
Anand Joint Replacement Centre,"Narela Sankri Road, Narela, Bhawani Campus, Paras Nagar, Ayodhya Bypass, Bhopal",Unknown,Unknown,462022,Madhya Pradesh,Unknown,hospital,Unknown,Unknown,Unknown,Unknown,23.2649868,77.4656512
OM Hospital,"R.K Plaza , Near Prabhat Petrol Pump, Padmanabh Nagar, Govindpura",Unknown,Unknown,462023,Madhya Pradesh,Unknown,hospital,Unknown,Unknown,Unknown,Unknown,23.2507344,77.430654
Jupiter Hospital,"Chiklod Road, Jinsi, Jahangirabad, Bhopal",Unknown,Unknown,462008,Madhya Pradesh,Unknown,hospital,Unknown,Unknown,Unknown,Unknown,23.2503903,77.422628
Indira IVF Bhopal,"Manya Arcade ,Commercial Scheme Zone Waroad",Unknown,Unknown,462011,Madhya Pradesh,Unknown,hospital,Unknown,Unknown,Unknown,Unknown,23.231072,77.443582
Hardev Hospital,"Bhopal Bypass Road, Sant Hiroadaram Nagar, Hemu Kalani, Bairagarh, Bhopal",Unknown,Unknown,462030,Madhya Pradesh,Unknown,hospital,Unknown,Unknown,Unknown,Unknown,23.272502,77.344475
Chirayu Health & Medicare Pvt. Ltd.,"Nakkar Khana, Peer Gate, Bhopal",Unknown,Unknown,462001,Madhya Pradesh,Unknown,hospital,Unknown,Unknown,Unknown,Unknown,23.258135,77.397161
Sachin Mamta Hospital,"Raisen Rd, Sonagiri Square,Bhel, Piplani, Sonagiri, Bhopal",Unknown,Unknown,462023,Madhya Pradesh,Unknown,hospital,Unknown,Unknown,Unknown,Unknown,23.249564,77.471653
A.K. Hospital,"Sanjay Complex, 7Th Block, Mata Mandir Square, Aradhana Nagar, Bhopal",Unknown,Unknown,462003,Madhya Pradesh,Unknown,hospital,Unknown,Unknown,Unknown,Unknown,23.224112,77.399811
Nandan Hospital,"Raj Deo Colony, Qazi Camp, Bhopal",Unknown,Unknown,462001,Madhya Pradesh,Unknown,hospital,Unknown,Unknown,Unknown,Unknown,23.2704374,77.401481
Mansi Hospital,"Pul Bogda Road Near Chadakyapuri, Railway Gate, Ganpati Chowk, Aish Bagh, Bhopal",Unknown,Unknown,462010,Madhya Pradesh,Unknown,hospital,Unknown,Unknown,Unknown,Unknown,23.257099,77.418607
Aggrawal's Bombay Children Hospital,"Near Mlb Girls College, Professors Colony, Bhopal",Unknown,Unknown,462001,Madhya Pradesh,Unknown,hospital,Unknown,Unknown,Unknown,Unknown,23.245765,77.4002823
25Th Battalion Hospital,"Bhadbhada Road, Police Radio Colony, Tt Nagar, Bhopal",Unknown,Unknown,462002,Madhya Pradesh,Unknown,hospital,Unknown,Unknown,Unknown,Unknown,23.22181,77.380268
Suyash Hospital,"Janki Nagar, Chunabhatti",Unknown,Unknown,462001,Madhya Pradesh,Unknown,hospital,Unknown,Unknown,Unknown,Unknown,23.2696244,77.3956623
Dr Rahul Agarwal ENT Clinic,"Arera Colony, Bhopal",Unknown,Unknown,462016,Madhya Pradesh,Unknown,hospital,Unknown,Unknown,Unknown,Unknown,23.2197879,77.4341465
Swastik Hospital,"Patel Nagar, Raisen Road, Patel Nagar, Bhopal",Unknown,Unknown,462021,Madhya Pradesh,Unknown,hospital,Unknown,Unknown,Unknown,Unknown,23.252268,77.496581
Narayan Shri Homeopathic Hospital,"Ashok Garoaden Bank Colony, Pushpa Nagar, Bhopal",Unknown,Unknown,462010,Madhya Pradesh,Unknown,hospital,Unknown,Unknown,Unknown,Unknown,23.264439,77.419474
ASG Eye Hospital,"Market Road , Near Habibganj Naka, Arera Colony",Unknown,Unknown,462016,Madhya Pradesh,Unknown,hospital,Unknown,Unknown,Unknown,Unknown,23.2154253,77.4388478
Devi Rajeshwari Hospital,"Raisen Rd, Indrapuri Sector, A, Indrapuri, Bhopal",Unknown,Unknown,462022,Madhya Pradesh,Unknown,hospital,Unknown,Unknown,Unknown,Unknown,23.251641,77.458523
ABM Muntispeciality Hospital,"Thelay Wali Sadak, Kohefiza, Bhopal",Unknown,Unknown,462001,Madhya Pradesh,Unknown,hospital,Unknown,Unknown,Unknown,Unknown,23.2633705,77.3938848
Muskan Children's & General Hospital Bhopal,"Green Park Colony Main Road, Berasiya Road, Bhopal",Unknown,Unknown,462001,Madhya Pradesh,Unknown,hospital,Unknown,Unknown,Unknown,Unknown,23.2768125,77.40287
Apple hospital,"Pratap Nagar, Jahangirabad, Bhopal",Unknown,Unknown,462008,Madhya Pradesh,Unknown,hospital,Unknown,Unknown,Unknown,Unknown,23.2511711,77.4150939
Sahaj Hospital,"Mayur Vihar, Ashoka Garden, Ashoka Garden, Bhopal",Unknown,Unknown,462023,Madhya Pradesh,Unknown,hospital,Unknown,Unknown,Unknown,Unknown,23.261772,77.428413
Peoples General Hospital,"Raj Deo Colony, Qazi Camp ,Congress Nagar, Raj Deo Colony, Jp Nagar",Unknown,Unknown,462001,Madhya Pradesh,Unknown,hospital,Unknown,Unknown,Unknown,Unknown,23.274346,77.402743
Pulse Hospital,"Mangalwara, Azad Market, Peer Gate Area, Bhopal",Unknown,Unknown,462001,Madhya Pradesh,Unknown,hospital,Unknown,Unknown,Unknown,Unknown,23.2605895,77.4049403
Balaji Fracture & General Hospital,"Raisen Road , Sonagiri, Bhopal",Unknown,Unknown,462021,Madhya Pradesh,Unknown,hospital,Unknown,Unknown,Unknown,Unknown,23.250344,77.471633
Himalaya Optical Bhopal,"Db City, Arera Hill Road, Maharana Pratap Nagar, Bhopal",Unknown,Unknown,462011,Madhya Pradesh,Unknown,hospital,Unknown,Unknown,Unknown,Unknown,23.232979,77.429734
Cancer Hospital,Idgah Hills,Unknown,Unknown,462001,Madhya Pradesh,Unknown,hospital,Unknown,Unknown,Unknown,Unknown,23.27308,77.380577
Lord Buddha Hospital,"Awadhpuri Road, Tagore Nagar, Awadhpuri, Bhopal",Unknown,Unknown,462022,Madhya Pradesh,Unknown,hospital,Unknown,Unknown,Unknown,Unknown,23.2386597,77.4859876
Jindal Maternity Hospital,"Saraswati Nagar, Jawahar Chowk, Stt Nagar, Shastri Nagar, Bhopal",Unknown,Unknown,462003,Madhya Pradesh,Unknown,hospital,Unknown,Unknown,Unknown,Unknown,23.230583,77.3932195
Kiishnani Hospital,Sant Hiroadaram Ki Kutiya Ke Samne Main Road Bairagad,Unknown,Unknown,462030,Madhya Pradesh,Unknown,hospital,Unknown,Unknown,Unknown,Unknown,23.2720075,77.3452807
Manya Hospital,"Aali Manzil Rd, Badabagh, Shahjahanabad, Bhopal",Unknown,Unknown,462001,Madhya Pradesh,Unknown,hospital,Unknown,Unknown,Unknown,Unknown,23.2676797,77.3947884
Srijan General Hospital And Nursing Home,"Housing Boaroad Colony, Ayodhya Nagar, Bhopal",Unknown,Unknown,462041,Madhya Pradesh,Unknown,hospital,Unknown,Unknown,Unknown,Unknown,23.2813234,77.4662053
Mohit Day Care Hospital,"Near St Thomas School, Ayodhya Nagar, Bhopal",Unknown,Unknown,462041,Madhya Pradesh,Unknown,hospital,hospital,Unknown,Unknown,Unknown,23.280336,77.465615
New star hospital,"Komal Complexdig Bunglow, Berasiya Road",Unknown,Unknown,462001,Madhya Pradesh,Unknown,hospital,Unknown,Unknown,Unknown,Unknown,23.278182,77.40302
Central Hospital,"Indira Vihar, Airport Road, Tilak Society, Lalghati",Unknown,Unknown,462030,Madhya Pradesh,Unknown,hospital,Unknown,Unknown,Unknown,Unknown,23.2817728,77.3592499
Shradha Hospital,"Airport Road, Gandhi Nagar, Bhopal",Unknown,Unknown,462036,Madhya Pradesh,Unknown,hospital,Unknown,Unknown,Unknown,Unknown,23.2955194,77.3457958
Promise Children & general Hospital,"Fiza Colony, Berasiya Road, Infront Of Triveni Heights, Housing Boaroad Colony, Karond",Unknown,Unknown,462038,Madhya Pradesh,Unknown,hospital,Unknown,Unknown,Unknown,Unknown,23.2926896,77.4037377
"Divisional Railway Hospital, Bhopal",Nishatpura,Unknown,Unknown,462010,Madhya Pradesh,Unknown,hospital,Unknown,Unknown,Unknown,Unknown,23.280011,77.422307
New Apex Hospital,"Berasiya Road, Dig Bunglow, Sindhi Colony",Unknown,Unknown,462016,Madhya Pradesh,Unknown,hospital,Unknown,Unknown,Unknown,Unknown,23.277956,77.403085
Carewell Multispeciality Hospital,"Gufa Mandir Road, Vitthal Nagar, Nayapura, Lalghati",Unknown,Unknown,462030,Madhya Pradesh,Unknown,hospital,Unknown,Unknown,Unknown,Unknown,23.281349,77.376758
Sarvottam Hospital,"Gufa Mandir Road Opp Sbi, Janki Nagar, Lalghati",Unknown,Unknown,462030,Madhya Pradesh,Unknown,hospital,Unknown,Unknown,Unknown,Unknown,23.277597,77.372502
Max Hospital,"Bhopal Mandi, Bhanpur, Bhopal",Unknown,Unknown,462038,Madhya Pradesh,Unknown,hospital,Unknown,Unknown,Unknown,Unknown,23.2920061,77.4147566
Sparsh Med care Hospital,"Near V-Mart, Dig Banglow Square, Sheetal Heights Building, Sheetal Nagar, Berasia Road, Bhopal",Unknown,Unknown,462008,Madhya Pradesh,Unknown,hospital,Unknown,Unknown,Unknown,Unknown,23.282081,77.403413
Somnath Hospital,"Ayodhya Bypass Road, Adarsh Colony, Gandhi Nagar, Bhopal",Unknown,Unknown,462036,Madhya Pradesh,Unknown,hospital,Unknown,Unknown,Unknown,Unknown,23.2958957,77.3450567
SK dubey hospital,Unknown,Unknown,Unknown,Unknown,Unknown,Unknown,hospital,hospital,Unknown,Unknown,Unknown,23.2095734,77.4357149
raka medical,Unknown,Unknown,Unknown,Unknown,Unknown,Unknown,hospital,hospital,Unknown,Unknown,Unknown,23.2183639,77.428498
Modi Hospital,Unknown,New minal,Bhopal,462023,Unknown,Unknown,hospital,hospital,Unknown,Unknown,Unknown,23.2759059,77.4561599
Hind Spine Clinic,Unknown,"E7 ,HIG - 454 Arera Colony, Infront of 1100 Quaters, Hanuman Temple, Beside Multi Hospital, Bhopal, Arera Colony, ,Maharashtra, India",Bhopal,411037,Unknown,Unknown,clinic,clinic,Unknown,https://www.hindspineclinic.com/,Mo-Fr 18:00-20:00,23.2104222,77.4315482
CIVIL HOSPITAL,Unknown,Sultania Road,bhopal,Unknown,Unknown,Unknown,hospital,hospital,Unknown,Unknown,Unknown,23.2564166,77.4094808
Umang Speech And Hearing Clinic,Unknown,"S/7, 2nd Floor, Metro Plaza, Bittan Market, Arera Colony",Bhopal,462016,Unknown,Unknown,Unknown,speech_therapist,07554221596,https://umangspeechnhearingclinic.com/,Unknown,23.2172189,77.4300205
