Name,Full Address,Street,City,Postcode,State,Country,Amenity,Healthcare,Phone,Website,Opening Hours,Latitude,Longitude
Kalaignar Karunanidhi Nagar,Unknown,Unknown,Unknown,Unknown,Unknown,Unknown,hospital,hospital,Unknown,Unknown,Unknown,13.0386493,80.2052158
Koyambedu,Unknown,Unknown,Unknown,Unknown,Unknown,Unknown,clinic,Unknown,Unknown,Unknown,Unknown,13.0720236,80.1980375
Kasimedu,Unknown,Unknown,Unknown,Unknown,Unknown,Unknown,hospital,hospital,Unknown,Unknown,Unknown,13.122775,80.2960584
Amrit Hospital,"New No.310, Mint Street, Sowcarpet",Unknown,Unknown,600079,Tamil Nadu,Unknown,hospital,hospital,Unknown,http://www.amrithospital.com/,Unknown,13.0922007,80.2792912
Vikram Hospital,Unknown,Unknown,Unknown,Unknown,Unknown,Unknown,hospital,hospital,Unknown,Unknown,Unknown,13.0985007,80.2796178
City Tower Hospitals,"Old No AA-10, New No AA - 85, 2ND-Avenue, Near Roundtana Bus Stop",Unknown,Unknown,600040,Tamil Nadu,Unknown,hospital,hospital,Unknown,http://www.citytowerhospitals.net/contact.asp,Unknown,13.08438,80.2160862
"Apollo Hospitals, Tondiarpet","No.645, TH Road, Tondiarpet",Unknown,Unknown,600081,Tamil Nadu,Unknown,hospital,hospital,Unknown,https://www.apollohospitals.com/,Unknown,13.1289367,80.2905623
K.H.M.Hospital,"AB-14/4907, Balasubramanian Building, Opposite Sri Ayyappa Temple, 6th Main Road",Unknown,Unknown,600040,Tamil Nadu,Unknown,hospital,hospital,Unknown,https://khmhospital.com/,Unknown,13.0844424,80.2130723
Sundaram Medical Foundation,"9-C, Shanthi Colony Iv Avenue, Anna Nagar",Unknown,Unknown,600040,Tamil Nadu,Unknown,hospital,hospital,Unknown,Unknown,Unknown,13.08217,80.2069819
Sri Devi Speciality Hospial,"New No.4, Old No.1620-A, 16Th Main Road, Anna Nagar",Unknown,Unknown,600040,Tamil Nadu,Unknown,hospital,hospital,Unknown,Unknown,Unknown,13.0887983,80.1994692
Corporation Hospital,Unknown,Unknown,Unknown,Unknown,Unknown,Unknown,hospital,hospital,Unknown,Unknown,Unknown,13.0336624,80.2572467
Military Hospital,Unknown,Unknown,Unknown,Unknown,Unknown,Unknown,hospital,Unknown,Unknown,Unknown,Unknown,13.0194622,80.1972947
Goverment dental hospital & collage,Unknown,Unknown,Unknown,Unknown,Unknown,Unknown,hospital,hospital,Unknown,Unknown,Unknown,13.0829605,80.281264
Kilpauk Medical College,Unknown,Unknown,Unknown,Unknown,Unknown,Unknown,hospital,hospital,Unknown,Unknown,Unknown,13.0785984,80.2433369
Cancer Institute,Unknown,Unknown,Unknown,Unknown,Unknown,Unknown,hospital,hospital,Unknown,Unknown,Unknown,13.0061338,80.239884
Sri Ramachandra Medical Centre and Hospital,Unknown,Unknown,Unknown,Unknown,Unknown,Unknown,hospital,hospital,Unknown,Unknown,Unknown,13.0380979,80.1428047
Govt Maternity Hospital,Unknown,Unknown,Unknown,Unknown,Unknown,Unknown,hospital,hospital,Unknown,Unknown,Unknown,13.0720996,80.2589871
Institute of Child Health,Unknown,Unknown,Unknown,Unknown,Unknown,Unknown,hospital,hospital,Unknown,Unknown,Unknown,13.0735496,80.257025
Institute of Obstetrics and Gynaecology dd,Unknown,Unknown,Unknown,Unknown,Unknown,Unknown,hospital,hospital,Unknown,Unknown,Unknown,13.0735431,80.2591463
MIOT International,"Manapakkam, 4/112, Mount Poonamalle Road","4/112, Mount Poonamalle High Rd, Sathya Nagar, Manapakkam, Chennai, Tamil Nadu 600089",Unknown,600089,Tamil Nadu,Unknown,hospital,hospital,044 4200 2288,https://www.miotinternational.com/,24/7,13.0211808,80.1858412
St. Thomas Hospital,"No. 5, 105, Defence Colony 1st Ave, Seven Wells, St.Thomas Mount",Unknown,Unknown,600016,Tamil Nadu,Unknown,hospital,hospital,Unknown,Unknown,Unknown,13.0122733,80.196428
Apollo Pharmacy,Unknown,Unknown,Unknown,Unknown,Unknown,Unknown,pharmacy,pharmacy,Unknown,Unknown,Unknown,13.0645397,80.243327
Unknown,Unknown,Unknown,Unknown,Unknown,Unknown,Unknown,hospital,hospital,Unknown,Unknown,Unknown,13.009781,80.1949734
Venkataeswara Hospitals,"121-A(New No-36A), Chamiers Road, Nandanam",Unknown,Unknown,600035,Tamil Nadu,Unknown,hospital,hospital,Unknown,Unknown,Unknown,13.0293624,80.2440921
Appolo,Unknown,Unknown,Unknown,Unknown,Unknown,Unknown,pharmacy,pharmacy,Unknown,Unknown,Unknown,13.0348418,80.2555018
Sugam,Unknown,Unknown,Unknown,Unknown,Unknown,Unknown,pharmacy,pharmacy,Unknown,Unknown,Unknown,13.0386303,80.2517685
Sugam,Unknown,Unknown,Unknown,Unknown,Unknown,Unknown,pharmacy,pharmacy,Unknown,Unknown,Unknown,13.039551,80.2502927
Unknown,Unknown,Unknown,Unknown,Unknown,Unknown,Unknown,pharmacy,pharmacy,Unknown,Unknown,Unknown,13.0402754,80.2500307
Unknown,Unknown,Unknown,Unknown,Unknown,Unknown,Unknown,doctors,doctor,Unknown,Unknown,Unknown,13.0399682,80.2503287
Unknown,Unknown,Unknown,Unknown,Unknown,Unknown,Unknown,doctors,doctor,Unknown,Unknown,Unknown,13.0406602,80.2505675
Unknown,Unknown,Unknown,Unknown,Unknown,Unknown,Unknown,pharmacy,Unknown,Unknown,Unknown,Unknown,13.0202464,80.2429776
Unknown,Unknown,Unknown,Unknown,Unknown,Unknown,Unknown,pharmacy,Unknown,Unknown,Unknown,Unknown,13.0201628,80.2429432
Apollo Clinic & Pharmacy,Unknown,Unknown,Unknown,Unknown,Unknown,Unknown,hospital,hospital,Unknown,Unknown,Unknown,13.05244,80.2041657
Abhirami Medicals,Unknown,Unknown,Unknown,Unknown,Unknown,Unknown,pharmacy,pharmacy,Unknown,Unknown,Unknown,13.0540717,80.2040147
Vijaya Heart Centre,Unknown,Unknown,Unknown,Unknown,Unknown,Unknown,hospital,hospital,Unknown,Unknown,Unknown,13.0483819,80.2070144
B.M.Orthopaedic Hospital,"# 3/157, M.T.H.Road, ,Ambattur",Unknown,Unknown,600053,Tamil Nadu,Unknown,hospital,Unknown,Unknown,Unknown,Unknown,13.1181104,80.1499411
Geetha Pharmacy,Unknown,Unknown,Unknown,Unknown,Unknown,Unknown,pharmacy,pharmacy,Unknown,Unknown,Unknown,13.0570316,80.1939439
"Vasan Eye Care Hospital, Vadapalani","D No 154/2, Aroot Road, Vadapalani",Unknown,Unknown,600026,Tamil Nadu,Unknown,hospital,hospital,Unknown,Unknown,Unknown,13.0495316,80.211027
JJ Hospital,Unknown,Unknown,Unknown,Unknown,Unknown,Unknown,hospital,hospital,Unknown,Unknown,Unknown,13.0571293,80.1942138
Seven Star Pharmacy,Unknown,Unknown,Unknown,Unknown,Unknown,Unknown,pharmacy,Unknown,Unknown,Unknown,Unknown,13.0726659,80.2083688
Unknown,Unknown,Unknown,Unknown,Unknown,Unknown,Unknown,pharmacy,pharmacy,Unknown,Unknown,Unknown,13.04426,80.2272823
MedPlus,Unknown,Unknown,Unknown,Unknown,Unknown,Unknown,pharmacy,pharmacy,Unknown,Unknown,Unknown,13.039837,80.1859118
Appasamy Hospital,Unknown,Unknown,Unknown,Unknown,Unknown,Unknown,hospital,hospital,Unknown,Unknown,Unknown,13.0750445,80.2151198
Seetha Medicals,Unknown,Unknown,Unknown,Unknown,Unknown,Unknown,pharmacy,Unknown,Unknown,Unknown,Unknown,13.0706398,80.2081591
Appasamy Hospital,Unknown,Unknown,Unknown,Unknown,Unknown,Unknown,hospital,hospital,Unknown,Unknown,Unknown,13.073239,80.2148826
Appolo Clinic,Unknown,Unknown,Unknown,Unknown,Unknown,Unknown,hospital,hospital,Unknown,Unknown,Unknown,13.0892073,80.2178866
Om Medicals,Unknown,Unknown,Unknown,Unknown,Unknown,Unknown,hospital,hospital,Unknown,Unknown,Unknown,13.0529181,80.2039631
Unknown,Unknown,Unknown,Unknown,Unknown,Unknown,Unknown,pharmacy,pharmacy,Unknown,Unknown,Unknown,13.0529181,80.2039636
Srm Speciality Hospital,"50 Bharathi Street, Ramapuram",Unknown,Unknown,600089,Tamil Nadu,Unknown,hospital,hospital,Unknown,Unknown,Unknown,13.0331325,80.1810857
SRM Dental Hospital,Unknown,Unknown,Unknown,Unknown,Unknown,Unknown,hospital,hospital,Unknown,Unknown,Unknown,13.0321291,80.1801201
Apollo,Unknown,Unknown,Unknown,Unknown,Unknown,Unknown,pharmacy,pharmacy,Unknown,Unknown,Unknown,13.029475,80.2539531
Capz and Tabz,Unknown,Unknown,Unknown,Unknown,Unknown,Unknown,pharmacy,pharmacy,Unknown,Unknown,Unknown,13.0279792,80.2638653
Aakash Fertility Centre & Hospital,"No:10, 100 Feet Road, Opp. Hotel Ambika Empire, Vadapalani",Unknown,Unknown,600026,Tamil Nadu,Unknown,hospital,hospital,Unknown,Unknown,Unknown,13.0554597,80.2118365
Rajan Eye Care Hospital,"5,Vidyodaya East Second Street, Behind Vidyodaya School",Vidyodaya 2nd Cross Street,Chennai,600017,Tamil Nadu,Unknown,hospital,hospital,2834 0500/0300,https://rajaneyecare.com/,Unknown,13.0508335,80.2434416
MMC Govenment Hospital,Unknown,Unknown,Unknown,Unknown,Unknown,Unknown,hospital,Unknown,Unknown,Unknown,Unknown,13.1635998,80.2435516
Avadi Hospital,Unknown,Unknown,Unknown,Unknown,Unknown,Unknown,hospital,hospital,Unknown,Unknown,Unknown,13.1174941,80.1008132
sree dhanalakshmi family clinic,Unknown,Unknown,Unknown,Unknown,Unknown,Unknown,hospital,Unknown,Unknown,Unknown,Unknown,13.0583046,80.211745
Uma Medicals,Unknown,Unknown,Unknown,Unknown,Unknown,Unknown,pharmacy,Unknown,Unknown,Unknown,Unknown,13.0386116,80.1805122
Ganapathy medicals,Unknown,Unknown,Unknown,Unknown,Unknown,Unknown,pharmacy,pharmacy,Unknown,Unknown,Unknown,13.1417058,80.2371106
Amma Hospital,Unknown,"7th street, Choolaimedu high road",Chennai,600094,Unknown,Unknown,hospital,hospital,Unknown,Unknown,Unknown,13.0626045,80.2305209
Right Hospitals,"1, Prof. Subramaniam Street (Behind Ega Theatre) , Kllpauk",Unknown,Unknown,600010,Tamil Nadu,Unknown,hospital,hospital,Unknown,Unknown,Unknown,13.0787952,80.2405731
Vasan Eye Care Hospital,Unknown,Unknown,Unknown,Unknown,Unknown,Unknown,hospital,hospital,Unknown,Unknown,Unknown,13.0015307,80.2552541
Unknown,Unknown,Unknown,Unknown,Unknown,Unknown,Unknown,hospital,Unknown,Unknown,Unknown,Unknown,13.0584072,80.2011738
Ashwini Eye Care,"No.G4, Srivatsa Apartments, Plot No:196, Old Mth Road,Ambattur, Chennai",Unknown,Unknown,600053,Tamil Nadu,Unknown,hospital,Unknown,Unknown,Unknown,Unknown,13.1187083,80.1572422
Periyandaver Pharmacy,Unknown,Unknown,Unknown,Unknown,Unknown,Unknown,pharmacy,pharmacy,Unknown,Unknown,Unknown,13.0266818,80.270192
Siva Medicals,Unknown,Unknown,Unknown,Unknown,Unknown,Unknown,pharmacy,Unknown,Unknown,Unknown,Unknown,13.0728115,80.2079408
ACS Medical College And Hospital,Unknown,Unknown,Unknown,Unknown,Unknown,Unknown,hospital,Unknown,Unknown,Unknown,Unknown,13.0575206,80.127824
Unknown,Unknown,Unknown,Unknown,Unknown,Unknown,Unknown,hospital,Unknown,Unknown,Unknown,Unknown,13.1340563,80.1037102
Unknown,Unknown,Unknown,Unknown,Unknown,Unknown,Unknown,hospital,Unknown,Unknown,Unknown,Unknown,13.1333249,80.1033668
Apollo Free Emergency Clinic,Unknown,Unknown,Unknown,Unknown,Unknown,Unknown,hospital,Unknown,Unknown,Unknown,Unknown,13.0677233,80.2050055
Apollo Pharmacy,Unknown,Unknown,Unknown,Unknown,Unknown,Unknown,pharmacy,pharmacy,Unknown,Unknown,Unknown,13.0677514,80.2050048
Agarwal Hospital,Unknown,Unknown,Unknown,Unknown,Unknown,Unknown,hospital,hospital,Unknown,Unknown,Unknown,13.0385656,80.2165845
Rajan Opticals,Unknown,Unknown,Unknown,Unknown,Unknown,Unknown,pharmacy,pharmacy,Unknown,Unknown,Unknown,13.0346459,80.2163029
Agarwal,Unknown,Unknown,Unknown,Unknown,Unknown,Unknown,pharmacy,pharmacy,Unknown,Unknown,Unknown,13.0385891,80.2166274
Senthil Nursing Home,Unknown,Unknown,Unknown,Unknown,Unknown,Unknown,hospital,hospital,Unknown,Unknown,Unknown,13.0849671,80.2004752
I K Hospital,"2/1911, J-Block, 15 Th Main Road, Anna Nagar",Unknown,Unknown,600040,Tamil Nadu,Unknown,hospital,hospital,Unknown,Unknown,Unknown,13.0868667,80.1991661
JK Hospital,Unknown,Unknown,Unknown,Unknown,Unknown,Unknown,hospital,Unknown,Unknown,Unknown,Unknown,13.0358564,80.1644897
Dr Venugopals' Sundaram Clini,Unknown,Unknown,Unknown,Unknown,Unknown,Unknown,hospital,hospital,Unknown,Unknown,Unknown,13.076782,80.268345
Dr Kabir's Clinic,Unknown,Unknown,Unknown,Unknown,Unknown,Unknown,hospital,hospital,Unknown,Unknown,Unknown,13.0768734,80.2678381
Dr Sridhars'Clinic,Unknown,Unknown,Unknown,Unknown,Unknown,Unknown,hospital,hospital,Unknown,Unknown,Unknown,13.0764345,80.2672427
Apollo Pharmacy,Unknown,Unknown,Unknown,Unknown,Unknown,Unknown,pharmacy,pharmacy,Unknown,Unknown,Unknown,13.0904821,80.215805
Vepery Hospital,Unknown,Unknown,Unknown,Unknown,Unknown,Unknown,hospital,hospital,Unknown,Unknown,Unknown,13.0921812,80.2594411
Jaws Dental Foundation,Unknown,30th Street,Chennai,600102,Unknown,Unknown,hospital,hospital,Unknown,Unknown,Unknown,13.0929667,80.2236256
Chennai Skin Foundation,Unknown,Unknown,Unknown,Unknown,Unknown,Unknown,hospital,hospital,Unknown,Unknown,Unknown,13.0205681,80.2594702
Chennai Jayanth Acupuncture Clinic,Unknown,"School Street, Koyambedu",Chennai,600105,Unknown,Unknown,Unknown,alternative,+91 77082 11515,https://chennaiacupuncture.com/,Unknown,13.0743875,80.2006671
24 Hours Hospital,Unknown,Karaneeswar Koil Street,Saidapet,600015,Unknown,Unknown,clinic,clinic,Unknown,Unknown,Unknown,13.024235,80.2231706
A.N.N Hospital,"81-85, Near Indian Bank & Andhra Meals Hotel, Valasaravakkam",Unknown,Unknown,600087,Tamil Nadu,Unknown,hospital,Unknown,Unknown,Unknown,Unknown,13.0405941,80.1784622
LAB,Unknown,Unknown,Unknown,Unknown,Unknown,Unknown,pharmacy,Unknown,Unknown,Unknown,Unknown,13.0158622,80.1748512
Unknown,Unknown,Unknown,Unknown,Unknown,Unknown,Unknown,pharmacy,Unknown,Unknown,Unknown,Unknown,13.015755,80.1748112
Appolo Speciality Hospital Vanagram,"Plot No 64, Vanagaram-Ambattur Rd, Ayanambakkam",Unknown,Unknown,600095,Tamil Nadu,Unknown,hospital,Unknown,Unknown,Unknown,Unknown,13.0705042,80.150612
Kauvery Hospital,Unknown,Luz Church Road,Chennai,60004,Unknown,Unknown,hospital,hospital,+914440006000,https://www.kauveryhospital.com/,Unknown,13.0381705,80.2573008
Dr. Reddi's Poly Clinic,Unknown,Karaneeswar Koil Street,saidapet,600015,Unknown,Unknown,clinic,clinic,Unknown,Unknown,"09:00-13:00,18:00-21:00",13.022387,80.2230108
Appollo Pharmacy,Unknown,Jones Road,Saidapet,600015,Unknown,Unknown,pharmacy,pharmacy,Unknown,Unknown,Unknown,13.0249589,80.2204682
Sushil Medicals,Unknown,Unknown,Unknown,Unknown,Unknown,Unknown,pharmacy,pharmacy,Unknown,Unknown,Mo-Su 08:00-23:00,13.0248573,80.2204111
Sri Ram Medicals,Unknown,Unknown,Unknown,Unknown,Unknown,Unknown,pharmacy,pharmacy,Unknown,Unknown,Unknown,13.0250873,80.221673
Amman Medicals,Unknown,Unknown,Unknown,Unknown,Unknown,Unknown,pharmacy,pharmacy,Unknown,Unknown,Unknown,13.0249743,80.2207562
Ganesh Medicals,Unknown,Unknown,Unknown,Unknown,Unknown,Unknown,pharmacy,pharmacy,Unknown,Unknown,Unknown,13.0249507,80.2203146
Naga Medicals,Unknown,Unknown,Unknown,Unknown,Unknown,Unknown,pharmacy,pharmacy,Unknown,Unknown,Unknown,13.0250178,80.2213774
Sugam Poly Clinic,Unknown,Jones Road,Saidapet,600015,Unknown,Unknown,clinic,clinic,Unknown,Unknown,24/7,13.0248543,80.2208806
24 Hours Health care centre,Unknown,Jones Road,Saidapet,600015,Unknown,Unknown,clinic,clinic,Unknown,Unknown,24/7,13.0248243,80.2203784
Sri Karaneeswarar Medicals,Unknown,Karaneeswar Koil Street,Saidapet,600015,Unknown,Unknown,pharmacy,pharmacy,Unknown,Unknown,Unknown,13.0242117,80.2231695
Udayam Medicals,Unknown,Unknown,Unknown,Unknown,Unknown,Unknown,pharmacy,pharmacy,Unknown,Unknown,Unknown,13.0222576,80.2211617
Sri Iyappa Medicals,Unknown,Unknown,Unknown,Unknown,Unknown,Unknown,pharmacy,pharmacy,Unknown,Unknown,Unknown,13.0216638,80.2194646
Unknown,Unknown,Bazaar Road,Chennai,600015,Unknown,Unknown,pharmacy,pharmacy,Unknown,Unknown,Unknown,13.0221323,80.2245935
"Dr. R. Gurusamy, ENT & General",Unknown,Subramania Swamy Koil Street,saidapet,600015,Unknown,Unknown,doctors,doctor,Unknown,Unknown,10:30-12:30;18:30-20:30,13.0246739,80.2203223
Rajesh Clinic,Unknown,Jones Road,Saidapet,600015,Unknown,Unknown,doctors,doctor,Unknown,Unknown,09:00-14:00;18:00-23:00,13.0252349,80.2227857
Smile Care,Unknown,Jones Road,Saidapet,600015,Unknown,Unknown,dentist,dentist,Unknown,Unknown,Unknown,13.0252375,80.2228534
Jaya Medicals,Unknown,Arya Gowda Road,Chennai,600033,Unknown,Unknown,pharmacy,pharmacy,Unknown,Unknown,Unknown,13.0395967,80.2213776
Tooth Craft,Unknown,Karaneeswar Koil Street,Saidapet,600015,Unknown,Unknown,dentist,dentist,Unknown,Unknown,Unknown,13.0242232,80.2231722
MedPlus,Unknown,Unknown,Unknown,Unknown,Unknown,Unknown,pharmacy,pharmacy,Unknown,Unknown,Unknown,13.0247344,80.2168255
Saranya Medicals,Unknown,Unknown,Unknown,Unknown,Unknown,Unknown,pharmacy,pharmacy,Unknown,Unknown,Unknown,13.0221564,80.2207542
Saravana Medicals,Unknown,Unknown,Unknown,Unknown,Unknown,Unknown,pharmacy,pharmacy,Unknown,Unknown,Unknown,13.0222453,80.2206601
Sayer Pharmacy,Unknown,Unknown,Unknown,Unknown,Unknown,Unknown,pharmacy,pharmacy,Unknown,Unknown,Unknown,13.0218682,80.224325
Sindhu Pharmacy,Unknown,Unknown,Unknown,Unknown,Unknown,Unknown,pharmacy,pharmacy,Unknown,Unknown,Unknown,13.0221953,80.2226021
Vasantham Medicals,Unknown,Unknown,Unknown,Unknown,Unknown,Unknown,pharmacy,pharmacy,Unknown,Unknown,Unknown,13.0222897,80.2199272
Unknown,Unknown,Unknown,Unknown,Unknown,Unknown,Unknown,pharmacy,pharmacy,Unknown,Unknown,Unknown,13.0224517,80.2194413
Bohra Tooth Palace,Unknown,General Muthiah Street,Unknown,Unknown,Unknown,Unknown,dentist,dentist,Unknown,Unknown,Unknown,13.0923775,80.2777601
Unknown,Unknown,Unknown,Unknown,Unknown,Unknown,Unknown,pharmacy,pharmacy,Unknown,Unknown,Unknown,13.0922553,80.2777363
Maruthi Pharmacy,Unknown,Unknown,Unknown,Unknown,Unknown,Unknown,pharmacy,pharmacy,Unknown,Unknown,Unknown,13.0242543,80.2185088
JOGO Clinic,Unknown,Unknown,Unknown,Unknown,Unknown,Unknown,Unknown,psychotherapist,Unknown,Unknown,Unknown,13.0003975,80.2611458
"Sri Meenakshi Nursing Home, Chennai","No. 3A, Baroda Street, West Mambalam, T Nagar",Railway Border Road,Chennai,600001,Tamil Nadu,Unknown,clinic,clinic,044 2345 5290,Unknown,Unknown,13.041711,80.2285827
West Mambalam Pharmacy,Unknown,Unknown,Unknown,Unknown,Unknown,Unknown,pharmacy,pharmacy,Unknown,Unknown,Unknown,13.0419746,80.2249547
Madras Medical Mission Hospital - Institute of Cardio Vascular Diseases,"4 - A, Dr.J.Jayalalitha Nagar, Mogappair",Unknown,Chennai,600037,Tamil Nadu,Unknown,hospital,hospital,044 2656 5991,http://www.madrasmedicalmission.org/,Unknown,13.0859961,80.1870589
Jeyalakshmi Medicals,Unknown,Unknown,Unknown,Unknown,Unknown,Unknown,pharmacy,pharmacy,Unknown,Unknown,Unknown,13.0420421,80.2257791
Madras Medicals,Unknown,Unknown,Unknown,Unknown,Unknown,Unknown,pharmacy,Unknown,Unknown,Unknown,Unknown,13.0172184,80.2410405
Vinodh Medicals,Unknown,Arya Gowda Rd,Unknown,Unknown,Unknown,Unknown,pharmacy,pharmacy,Unknown,Unknown,Unknown,13.0391259,80.2212706
Apollo Pharmacy,Unknown,Unknown,Unknown,Unknown,Unknown,Unknown,pharmacy,pharmacy,Unknown,Unknown,Unknown,13.0363292,80.2226905
Mumtaz Medicals,Unknown,Unknown,Unknown,Unknown,Unknown,Unknown,pharmacy,pharmacy,Unknown,Unknown,Unknown,13.0366726,80.2230223
Saravana Medicals,Unknown,Unknown,Unknown,Unknown,Unknown,Unknown,pharmacy,pharmacy,Unknown,Unknown,Unknown,13.0362675,80.2222656
Dhanalakshmi Medicals,Unknown,Unknown,Unknown,Unknown,Unknown,Unknown,pharmacy,pharmacy,Unknown,Unknown,Unknown,13.0368258,80.2230191
Unknown,Unknown,Unknown,Unknown,Unknown,Unknown,Unknown,pharmacy,Unknown,Unknown,Unknown,Unknown,13.0597957,80.195286
Pavithra Hospital,"No.7, Ethiraiswami Salai, Erukkenchery",Ethiraj Samy Salai,Chennai,600118,Tamil Nadu,Unknown,hospital,hospital,Unknown,Unknown,Unknown,13.1260907,80.2488406
Shankara Netralaya Eye Hospital,Unknown,Pycrofts Garden Road,Unknown,600006,Unknown,Unknown,hospital,hospital,Unknown,https://sankaranethralaya.org/,Unknown,13.0642564,80.2497746
Dr Aslam Yousuff Clinic,Unknown,Unknown,Unknown,600007,Unknown,Unknown,doctors,doctor,26423282,Unknown,"Tu-Th, Sa-Su",13.0861416,80.2529597
Shree devi medicals,Unknown,Parthasarathy Street,Unknown,600005,Unknown,Unknown,pharmacy,pharmacy,7200935169,Unknown,Mo-Su 09:00-22:00,13.0610433,80.2765499
Sri Nanthish Medicals,Unknown,"Sri Amman Nagar, Kolapakkam main road",Unknown,Unknown,Unknown,Unknown,pharmacy,pharmacy,+91 44 6450 6869,Unknown,Mo-Su 07:30-22:30,13.0111273,80.1530134
Unknown,Unknown,Unknown,Unknown,Unknown,Unknown,Unknown,pharmacy,Unknown,Unknown,Unknown,Unknown,13.0275425,80.1833846
Unknown,Unknown,Ramapuram Main Rd,Unknown,Unknown,Unknown,Unknown,clinic,Unknown,Unknown,Unknown,Mo-Su 18:30-21:30,13.0286757,80.183588
Unknown,Unknown,Unknown,Unknown,Unknown,Unknown,Unknown,clinic,Unknown,Unknown,Unknown,Unknown,13.0278142,80.1832579
Unknown,Unknown,Unknown,Unknown,Unknown,Unknown,Unknown,hospital,Unknown,Unknown,Unknown,Unknown,13.026489,80.1829882
Apollo Pharmacy,Unknown,53rd Street,Chennai,600083,Unknown,Unknown,pharmacy,pharmacy,04424745946,https://www.apollopharmacy.in/,Unknown,13.0339283,80.2142544
Unknown,Unknown,College Road,Unknown,Unknown,Unknown,Unknown,clinic,clinic,Unknown,Unknown,Unknown,13.0672454,80.2496008
Unknown,Unknown,Unknown,Unknown,Unknown,Unknown,Unknown,clinic,Unknown,Unknown,Unknown,Unknown,13.0594837,80.1694976
Chennai Medical Centre Hospital,Unknown,Unknown,Unknown,Unknown,Unknown,Unknown,hospital,hospital,Unknown,Unknown,Unknown,13.0380047,80.1889685
SRM Institutes For Medical Science,"No.1, Next To Vadapalani Metro Station, Vadapalani, Jawaharlal Nehru Salai",Jawaharlal Nehru Road (100 Feet Road),Unknown,600026,Tamil Nadu,Unknown,hospital,hospital,+91 44 2000 2001,https://www.simshospitals.com/,24/7,13.0515961,80.2114304
Unknown,Unknown,TTK Road,Unknown,600018,Unknown,Unknown,clinic,clinic,04424346665,Unknown,Unknown,13.0327786,80.2526813
Unknown,Unknown,TVS AVENUE,Unknown,600101,Unknown,Unknown,pharmacy,Unknown,04426544609,Unknown,"Mo-Su 09:00-14:00, 17:00-23:00",13.090139,80.1885088
Siva clinic,Unknown,Unknown,Unknown,Unknown,Unknown,Unknown,clinic,clinic,Unknown,Unknown,Unknown,13.0313209,80.2247278
Sri Krishna Medicals,Unknown,Unknown,Unknown,Unknown,Unknown,Unknown,pharmacy,pharmacy,Unknown,Unknown,Unknown,13.0313163,80.2246668
Sri Desikan Clinic,Unknown,Unknown,Unknown,Unknown,Unknown,Unknown,doctors,doctor,Unknown,Unknown,Unknown,13.0366881,80.2230407
Gokul XRAY,Unknown,Unknown,Unknown,Unknown,Unknown,Unknown,pharmacy,pharmacy,Unknown,Unknown,Unknown,13.0396163,80.2630412
HEALTH,Unknown,Unknown,Unknown,Unknown,Unknown,Unknown,hospital,Unknown,Unknown,Unknown,Unknown,13.0135999,80.2395364
Unknown,Unknown,SOMU STREET 6th LANE,Unknown,600013,Unknown,Unknown,hospital,hospital,+914425980998,Unknown,Mo-Su 09:00-21:00,13.1133021,80.2905249
Primary Health Center,Unknown,Unknown,Unknown,Unknown,Unknown,Unknown,Unknown,centre,Unknown,Unknown,Unknown,13.0176941,80.2058832
Vishnu Eye Clinic,Unknown,"4th Block, Mogappair West, Ambattur Industrial Estate",Chennai,600037,Unknown,Unknown,Unknown,optometrist,Unknown,http://vishnueyeclinic.com,Mo-Sa 09:45-20:00,13.0820389,80.1688148
Dr.Agarwal's Eye Hospital,Unknown,"Mogappair West Main Road, Ambattur Industrial Estate",Chennai,600037,Unknown,Unknown,Unknown,optometrist,Unknown,https://www.dragarwal.com/,Mo-Sa 09:00-20:00,13.0812175,80.1647462
Unknown,"Siruvallur, Perambur, Chennai",Unknown,Unknown,600011,Tamil Nadu,Unknown,hospital,hospital,Unknown,Unknown,Unknown,13.1131363,80.2429369
Sukham Pharmacy,Unknown,12th Main Road,Unknown,Unknown,Unknown,Unknown,pharmacy,pharmacy,Unknown,Unknown,Unknown,13.0856902,80.2030609
Sha Dental Clinic,Unknown,Unknown,Unknown,Unknown,Unknown,Unknown,dentist,dentist,Unknown,Unknown,Unknown,13.0857438,80.2029307
Neuro Clinic,Unknown,H Block 5th street,Unknown,Unknown,Unknown,Unknown,clinic,clinic,04426164055,Unknown,Mo-Sa 18:30-20:30,13.0862108,80.2048268
Dr. Ram's Diabetes & Endocrine Clinic,Unknown,"J.J. Complex, Jawaharlal Nehru Road, Thirumangalam",Unknown,Unknown,Unknown,Unknown,clinic,clinic,9333193331,Unknown,"Mo, We, Fr 18:00-21:00",13.0860731,80.1983714
Heart Care Clinic,Unknown,"J.J. Complex, Jawaharlal Nehru Road, Thirumangalam",Unknown,Unknown,Unknown,Unknown,clinic,Unknown,Unknown,Unknown,"Mo-Sa 18:00-21:00, 09:00-18:00; Su 10:00-12:00",13.0856328,80.1983243
S.R. Medicals,Unknown,Unknown,Unknown,Unknown,Unknown,Unknown,pharmacy,pharmacy,04426180992,Unknown,Unknown,13.1026223,80.2090829
MedPlus,Unknown,Unknown,Unknown,Unknown,Unknown,Unknown,pharmacy,pharmacy,Unknown,Unknown,Unknown,13.1026662,80.2089167
The Cresent Hospital,"New No:91, Old No: 46, Royapettah, Dr. Besant Road",Unknown,Unknown,600014,Tamil Nadu,Unknown,hospital,hospital,Unknown,Unknown,Mo-Sa 08:00-13:00; Su 08:00-12:00,13.0527235,80.2727336
Swami Eye Clinic & Surgi Center,Unknown,Unknown,Unknown,Unknown,Unknown,Unknown,clinic,clinic,Unknown,Unknown,"Mo-Sa 09:00-12:00, 17:30-20:00",13.1058085,80.2077881
Sri Bhagavan Medicals,Unknown,Unknown,Unknown,Unknown,Unknown,Unknown,pharmacy,pharmacy,Unknown,Unknown,Unknown,13.105724,80.2076852
Sri Azhagu Medicals,Unknown,"Redhills road, Villivakkam",Unknown,Unknown,Unknown,Unknown,pharmacy,pharmacy,Unknown,Unknown,Unknown,13.1076791,80.2061087
Thai Medical and Generals,Unknown,Unknown,Unknown,Unknown,Unknown,Unknown,pharmacy,pharmacy,Unknown,Unknown,Unknown,13.1092819,80.2062148
Gurudev Pharmacy,Unknown,Unknown,Unknown,Unknown,Unknown,Unknown,pharmacy,pharmacy,Unknown,Unknown,Unknown,13.1036499,80.2075899
Narayanappah Pharmacy,Unknown,Unknown,Unknown,Unknown,Unknown,Unknown,pharmacy,pharmacy,Unknown,Unknown,Unknown,13.0847337,80.2122632
Sathya Pharmacy,Unknown,Unknown,Unknown,Unknown,Unknown,Unknown,pharmacy,pharmacy,Unknown,Unknown,Unknown,13.0852419,80.199355
Biocosmo Healthcare,Unknown,Mahalingapuram Main Road,Unknown,600034,Unknown,Unknown,hospital,hospital,7200080075,Unknown,Mo-Sa 10:30-19:30; Su 14:30-19:30,13.0590329,80.2375326
A.R.R. Pharmacy,Unknown,Padikuppam Road,Chennai,Unknown,Unknown,Unknown,pharmacy,pharmacy,9444629833,Unknown,Unknown,13.0857391,80.1925899
MedPlus,Unknown,Padikuppam Road,Chennai,Unknown,Unknown,Unknown,pharmacy,pharmacy,Unknown,Unknown,Unknown,13.085025,80.1924583
Madha Medicals,Unknown,"Padikuppam Road, Kamarajar Nagar, Anna Nagar West, Chennai",Unknown,Unknown,Unknown,Unknown,pharmacy,Unknown,9176154429,Unknown,Unknown,13.0847424,80.1924194
Anbu Dental Implant & Maxillofacial Clinic,Unknown,Unknown,Unknown,Unknown,Unknown,Unknown,clinic,clinic,9940753151,Unknown,"Mo-Su 09:30-13:30, 16:30-21:30",13.0855051,80.192537
Coopertive Medicals,Unknown,Unknown,Unknown,Unknown,Unknown,Unknown,pharmacy,pharmacy,Unknown,Unknown,Unknown,13.0873798,80.1974921
Ashok Medicals,Unknown,Unknown,Unknown,Unknown,Unknown,Unknown,pharmacy,pharmacy,Unknown,Unknown,Unknown,13.0349633,80.2123839
Anbu Medicals,Unknown,"Padikuppam road, Kamarajar Nagar, Thirumangalam, Anna Nagar West, Chennai",Unknown,Unknown,Unknown,Unknown,pharmacy,Unknown,Unknown,Unknown,Unknown,13.0833415,80.1920654
Keerthi clinic,Unknown,Unknown,Unknown,Unknown,Unknown,Unknown,clinic,Unknown,9003052532,Unknown,"Mo-Su 18:00-19:30, 21:00-22:00",13.0200088,80.1422946
VSR Hospital,Unknown,Church road,Unknown,Unknown,Unknown,Unknown,hospital,Unknown,Unknown,Unknown,Unknown,13.0799682,80.1805593
New Life Family Hospitals,Unknown,Church road,Unknown,Unknown,Unknown,Unknown,hospital,Unknown,044 26566823,http://newlifehospitals.com/,Unknown,13.0800478,80.1804976
Vijaya Group of Hospital,"Gopathi Narayanaswami Chetty Rd, Satyamurthy Nagar, T. Nagar","New No:434, Old No:180, NSK Salai Rd, Vadapalani, Chennai, Tamil Nadu 600026",Unknown,600017,Tamil Nadu,Unknown,hospital,hospital,044 6664 6600,https://vijayahospital.org/,24/7,13.0497391,80.2083222
King Institute of Preventive Medicine and Research,Unknown,Unknown,Unknown,Unknown,Unknown,Unknown,Unknown,centre,044-22501520,https://www.kipmr.org.in/,Unknown,13.0142256,80.2181845
ஹிபா சிறப்பு மருத்துவமனை,"Old No-25 New No:53, Big Street, Near Hindu Higher Secondary School",Veeraraghava Street (Big St),Unknown,600005,Tamil Nadu,Unknown,hospital,hospital,Unknown,Unknown,24/7,13.0615207,80.275747
Viji Clinic,Unknown,Old Mambalam Road,Chennai,600033,Unknown,Unknown,clinic,clinic,Unknown,Unknown,Unknown,13.0298741,80.2217057
Annamalai Hospital,"# 27, Govindan Raod, West Mambalam, Near Srinivasa Theatre",Govindan Road,Chennai,600033,Tamil Nadu,Unknown,hospital,hospital,Unknown,Unknown,Unknown,13.031147,80.2228983
Ezhil Hospital,Unknown,Govindan Road,Saidapet,600015,Unknown,Unknown,hospital,hospital,Unknown,Unknown,Unknown,13.0319539,80.2207913
The Guest Pharmacy,Unknown,EVR Periyar Salai (Poonamallee High Road),Unknown,Unknown,Unknown,Unknown,pharmacy,pharmacy,Unknown,Unknown,Unknown,13.0770009,80.2387258
Unknown,Unknown,Unknown,Unknown,Unknown,Unknown,Unknown,pharmacy,pharmacy,Unknown,Unknown,Unknown,13.0860154,80.2798104
VM Medicals,Unknown,"East Mada Street, Villivakkam",Unknown,Unknown,Unknown,Unknown,pharmacy,pharmacy,Unknown,Unknown,Unknown,13.105607,80.2099301
MedPlus,Unknown,Unknown,Unknown,Unknown,Unknown,Unknown,pharmacy,pharmacy,Unknown,Unknown,Unknown,13.108615,80.2077057
GK Clinic,Unknown,"South Mada Street, Villivakkam",Unknown,Unknown,Unknown,Unknown,clinic,clinic,Unknown,Unknown,Unknown,13.1055632,80.2098688
Jayalakshmi Medicals,Unknown,"Welcome colony, Anna nagar west",Unknown,Unknown,Unknown,Unknown,pharmacy,Unknown,Unknown,Unknown,Unknown,13.0874373,80.1970993
City Primary Healthcare Centre,Unknown,Kavingar Barathidasan Road,Chennai,600018,Unknown,Unknown,Unknown,centre,Unknown,Unknown,Unknown,13.0354034,80.2504161
Diabetes and Heart Care Clinic,Unknown,Unknown,Unknown,Unknown,Unknown,Unknown,clinic,clinic,Unknown,Unknown,Unknown,13.0291736,80.2474284
Unknown,Unknown,Unknown,Unknown,Unknown,Unknown,Unknown,clinic,clinic,Unknown,Unknown,Unknown,13.0199102,80.2697182
BK ENT care,Unknown,Mahalingapuram Main Road,Chennai,600034,Unknown,Unknown,clinic,clinic,+91 44 2817 1314,Unknown,"Mo-Sa 10:30-12:30,16:00-20:00; Su unknown",13.057865,80.2362823
Suman Clinic,Unknown,Mahalingapuram Main Road,Chennai,600034,Unknown,Unknown,clinic,clinic,+91 44 2817 4422,Unknown,"Mo-Fr 19:30-21:30, Sa-Su unknown",13.055823,80.2348714
Nivas Skin Clinic,Unknown,Unknown,Unknown,Unknown,Unknown,Unknown,hospital,hospital,Unknown,Unknown,Unknown,13.0289663,80.2085951
Unknown,Unknown,SAIT Colony 1st Street,Unknown,Unknown,Unknown,Unknown,clinic,Unknown,"9841214222,9962222266",Unknown,Mo-Fr 10:30-14:30,13.0723143,80.2530089
Unknown,Unknown,Unknown,Unknown,Unknown,Unknown,Unknown,pharmacy,pharmacy,Unknown,Unknown,Unknown,13.0853754,80.2520126
Unknown,Unknown,Unknown,Unknown,Unknown,Unknown,Unknown,pharmacy,pharmacy,Unknown,Unknown,Unknown,13.0636828,80.2773224
Unknown,Unknown,Unknown,Unknown,Unknown,Unknown,Unknown,pharmacy,pharmacy,Unknown,Unknown,Unknown,13.0651517,80.2739292
Unknown,Unknown,Unknown,Unknown,Unknown,Unknown,Unknown,pharmacy,pharmacy,Unknown,Unknown,Unknown,13.0634397,80.274789
Aryan Clinic,Unknown,Narashiman 2nd Street,Chennai,Unknown,Unknown,Unknown,clinic,clinic,Unknown,Unknown,Unknown,13.0464568,80.2457288
Unknown,Unknown,Montieth Lane,Unknown,Unknown,Unknown,Unknown,doctors,doctor,Unknown,Unknown,Unknown,13.0682794,80.2604397
Unknown,Unknown,Unknown,Unknown,Unknown,Unknown,Unknown,clinic,clinic,Unknown,Unknown,Unknown,13.0708359,80.2657441
Tamilnadu Test House,Unknown,"Lakshmi Kanthammal Street, Rajiv Nagar, Vanagaram",Chennai,600077,Unknown,Unknown,Unknown,laboratory,044 26493005,https://www.tamilnadutesthouse.com/,Mo-Sa 09:00-18:00,13.0566406,80.1437839
The Tamil Nadu Dr. MGR Medical University Blood Bank,"69, Anna Salai, Guindy, Chennai",Unknown,Guindy,600032,Tamil Nadu,Unknown,Unknown,blood_donation,Unknown,http://www.tnmgrmu.ac.com,24/7,13.0098682,80.2182251
Apollo Cancer Centres,"4th Floor, Geo Tower, Old No.319, New No.465, Anna Salai, Nandanam, Chennai","Anna Salai, Teynampet,",Chennai,600035,Tamil Nadu,Unknown,hospital,hospital,Unknown,https://apollocancercentres.com/,24/7,13.0337515,80.2451004
Sree Venkateswara Blood Bank,"158, Mannarswamy Kovil Street, Royapuram, Chennai, Tamil Nadu",Unknown,Unknown,600013,Tamil Nadu,Unknown,Unknown,blood_donation,Unknown,Unknown,24/7,13.10995,80.282059
Raju Hospitals,"No:43, Near Bus Terminus, T. Nagar, South Usman Road",Unknown,Unknown,600017,Tamil Nadu,Unknown,hospital,hospital,Unknown,Unknown,Unknown,13.0329888,80.230346
"Raju Nursing Home, Chennai","7/1, Laxmanan Nagar Paper Mills Road",Unknown,Unknown,600082,Tamil Nadu,Unknown,clinic,clinic,Unknown,Unknown,Unknown,13.1193228,80.2254523
Rakshith Hospitals,"153, Arcot Road, Sai Square Complex Valasaravakkam Chennai Chennai",Unknown,Unknown,600087,Tamil Nadu,Unknown,hospital,Unknown,Unknown,Unknown,Unknown,13.042307,80.177473
"Raj Nursing Home, Tiruvallur","1/234, Mmda, Mogappair East",Unknown,Unknown,600037,Tamil Nadu,Unknown,clinic,clinic,Unknown,Unknown,Unknown,13.0844879,80.1876882
Hitech Diagnostic Centre,"No.1, Millers Road, Kilpauk",Unknown,Unknown,600010,Tamil Nadu,Unknown,Unknown,laboratory,Unknown,Unknown,Unknown,13.0855408,80.2504653
Sri Kalyan Hospital,"12, First Main Road Kasturba Nagar Adyar",Unknown,Unknown,600001,Tamil Nadu,Unknown,hospital,hospital,Unknown,Unknown,Unknown,13.0063976,80.2507134
Sundaravadanan Nursing Home,"#136, Ponamallee High Road",Unknown,Unknown,600010,Tamil Nadu,Unknown,clinic,clinic,Unknown,Unknown,Unknown,13.0793555,80.2560469
Sen Hospital,"New No. 51, 18,Bunder Garden Street,Perambur,Opposite Lourdes Girls School",Unknown,Unknown,600011,Tamil Nadu,Unknown,hospital,hospital,Unknown,Unknown,Unknown,13.1105649,80.2418775
"Angel Nursing Home, Washermenpet","26/21, Telugu St, Washermanpet",Unknown,Unknown,600021,Tamil Nadu,Unknown,clinic,clinic,Unknown,Unknown,Unknown,13.1116559,80.2847452
Billroth Hospitals,"43, Lakshmi Talkies Road, Shenoy Nagar",Unknown,Unknown,600030,Tamil Nadu,Unknown,hospital,hospital,Unknown,https://www.billrothhospitals.com/,Unknown,13.0757435,80.2272588
Cauvery Trust Hospital,"No.36, Ponnankinaru Street, Villivakkam",Unknown,Unknown,600049,Tamil Nadu,Unknown,hospital,hospital,Unknown,Unknown,Unknown,13.1026603,80.2112943
Kedar Hospital,"19, Vinayagapuram, Mugalivakkam Main Road Porur",Mugalivakkam Main Road,சென்னை - Chennai,600125,Tamil Nadu,Unknown,hospital,hospital,Unknown,Unknown,Unknown,13.0229098,80.1670808
Srinivas Eye Hospital,"335, Thirucalluvar Salai Panneer Nagar, Mugapair Chennai",Unknown,Unknown,600037,Tamil Nadu,Unknown,hospital,hospital,Unknown,Unknown,Unknown,13.0829726,80.1796965
Soundarapandian Bone and Joint Hospital Research Institute Pvt. Ltd.,"Aa 16, 3Road Main Road, Anna Nagar",Unknown,Unknown,600040,Tamil Nadu,Unknown,hospital,hospital,Unknown,Unknown,Unknown,13.0835957,80.2156462
Dr. U. Mohan Rau Memorial Hospital - Chennai,"962, Poonamallee High Road, Near Egmore Over Bridge",Unknown,Unknown,600084,Tamil Nadu,Unknown,hospital,hospital,Unknown,Unknown,Unknown,13.079494,80.2572808
Vijaya Institute Of Trauma and Orthopadics,"No.175, N.S.K.Salai, Vadapalani",Unknown,Unknown,600026,Tamil Nadu,Unknown,clinic,clinic,Unknown,Unknown,Unknown,13.0477799,80.2065495
Chennai Cancer Care,"# 55,New Avadi Road,Kilpauk",Unknown,Unknown,600010,Tamil Nadu,Unknown,hospital,hospital,Unknown,Unknown,Unknown,13.0762935,80.234026
Chennai Heart Centre,"64, Medavakkam Tank Road, Kilpauk",Unknown,Unknown,600010,Tamil Nadu,Unknown,hospital,hospital,Unknown,Unknown,Unknown,13.0917939,80.2410534
Chennai Kaliappa Hospital,"#52, Raja Annamalai Puram",Unknown,Unknown,600028,Tamil Nadu,Unknown,hospital,hospital,Unknown,Unknown,Unknown,13.0268492,80.2558082
Mots Hospital,"264/125, Kilpauk Garden Road, Kilpauk",Unknown,Unknown,600010,Tamil Nadu,Unknown,hospital,hospital,Unknown,Unknown,Unknown,13.0833606,80.2341561
"Mother and Child Care Clinic, Chennai","No:5/4, 3Road Cross Street, Balaji Nagar , Ekkattuthangal",Unknown,Unknown,600032,Tamil Nadu,Unknown,clinic,Unknown,Unknown,Unknown,Unknown,13.0223545,80.2042052
"Mohan Nursing Home, Tiruvallur",M.T.H.. Road Villivakkam Chennai - 49,Unknown,Unknown,600049,Tamil Nadu,Unknown,clinic,clinic,Unknown,Unknown,Unknown,13.1025336,80.2090412
Vasanthi Orthopaedic Hospital,"Cp-50, Razack Garden Main Road, Arumbakkam",Unknown,Unknown,600106,Tamil Nadu,Unknown,hospital,hospital,Unknown,Unknown,Unknown,13.0723588,80.2157642
Mina Nursing Home,"22/12, G.S.T Road, Guindy",Unknown,Unknown,600032,Tamil Nadu,Unknown,clinic,Unknown,Unknown,Unknown,Unknown,13.0074586,80.206874
R.M.D. Nursing Home,"13, Raghaviah Road, T Nagar",Unknown,Unknown,600017,Tamil Nadu,Unknown,clinic,clinic,Unknown,Unknown,Unknown,13.0440054,80.2355951
R.K. Gynaec And Maternity Hospital,"866, Poonamallee High Road, Kilpauk",Unknown,Unknown,600010,Tamil Nadu,Unknown,hospital,hospital,Unknown,Unknown,Unknown,13.0788127,80.2481786
R.G. Stone Urological Research Institute,"391/392, Anna Salai, 1st Floor, Miv Complex., Opposite New Bus Stand, Saidapet",Unknown,Unknown,600015,Tamil Nadu,Unknown,hospital,hospital,Unknown,Unknown,Unknown,13.0240792,80.2278288
R. K. Eye Centre,"No. 14/20, Chari Street, T. Nagar",Unknown,Unknown,600017,Tamil Nadu,Unknown,hospital,hospital,Unknown,Unknown,Unknown,13.0485912,80.2311788
Psymed Hospiyal,"49/2,Harrington Road,Chetput",Unknown,Unknown,600031,Tamil Nadu,Unknown,hospital,hospital,Unknown,Unknown,Unknown,13.0714757,80.2317998
"Priya Nursing Home, Perambur","10/84, Paddy Field Road, Perambur",Unknown,Unknown,600011,Tamil Nadu,Unknown,clinic,Unknown,Unknown,Unknown,Unknown,13.1122071,80.2496512
"Priya Nursing Home, Chennai","82, Kappal Polu Street Old Washermenpet",Unknown,Unknown,600021,Tamil Nadu,Unknown,clinic,clinic,Unknown,Unknown,Unknown,13.1192888,80.2889456
Vanaja Hospital,"#4/198 & 199, M.A.Koil St,M.A.Nagar,Redhills",Unknown,Unknown,600052,Tamil Nadu,Unknown,hospital,Unknown,Unknown,Unknown,Unknown,13.1990395,80.1760313
"Vasanthram Hospital (P) Ltd.,","No.7, Varadappan Street,West Mambalam",Unknown,Unknown,600033,Tamil Nadu,Unknown,hospital,hospital,Unknown,Unknown,Unknown,13.0433091,80.2187696
Vadapalani Multispeciality Hospital,"Near Murugan Temple, Vadapalani, Palaniandavar Koil St",Unknown,Unknown,600026,Tamil Nadu,Unknown,hospital,hospital,Unknown,Unknown,Unknown,13.0516559,80.2133146
Sri Ramachandra Hospital,"No.1, Ramchandra Nagar",Unknown,Unknown,600016,Tamil Nadu,Unknown,hospital,Unknown,Unknown,Unknown,Unknown,13.0378713,80.1402023
Sri Ramana Eye Center,"11, Gopalakrishna Street, T Nagar",Unknown,Unknown,600001,Tamil Nadu,Unknown,clinic,clinic,Unknown,Unknown,Unknown,13.0425395,80.2430315
Sri Sai Sankara Dental Clinic And Orthodontic Cent,"80/2, 34 Srp Koil St., T.V.K.Nagar",Unknown,Unknown,600082,Tamil Nadu,Unknown,clinic,clinic,Unknown,Unknown,Unknown,13.1173689,80.2315973
Sri Sayee Poly Clinic,"#37,Oid#17Bheemasena Garden St., Mylapore",Unknown,Unknown,600004,Tamil Nadu,Unknown,clinic,clinic,Unknown,Unknown,Unknown,13.0422887,80.2665116
Prakriti Ayurvedic Center,"No.22,2nd Main Road,R.A. Puram",Unknown,Unknown,600028,Tamil Nadu,Unknown,clinic,clinic,Unknown,Unknown,Unknown,13.0224512,80.2639461
"M N Eye Hospital Private Limited, Tondiarpet","No.781, T H Road, Opposite Tondiarpet Police Station",Unknown,Unknown,600021,Tamil Nadu,Unknown,hospital,hospital,Unknown,https://www.mneyehospitals.com/,Unknown,13.1232306,80.2876528
Doctor Rexs Hospitals,"(Old No.19), New No.37, Millers Road, Kilpauk",Unknown,Unknown,600010,Tamil Nadu,Unknown,hospital,hospital,Unknown,Unknown,Unknown,13.0838812,80.2502386
Deepam Muthu Hospital,"#105, Pulianthope High Road,Pulianthope",Unknown,Unknown,600012,Tamil Nadu,Unknown,hospital,hospital,Unknown,Unknown,Unknown,13.0995855,80.2605303
M.K. Nursing Home,"Clock Tower, Tondiarpet, Rathna Sabapathy Street",Unknown,Unknown,600021,Tamil Nadu,Unknown,clinic,clinic,Unknown,Unknown,Unknown,13.1217763,80.2858047
Padmini Nursing Home,"9, Pachaiyappa College Hostel Road Chetpet",Unknown,Unknown,600031,Tamil Nadu,Unknown,clinic,clinic,Unknown,Unknown,Unknown,13.0727703,80.2343653
Malligai Hospital,"Old No 10, New No 33, Agastya Theatre Back Side, Tondiarpet, Kannka Pillai Street",Unknown,Unknown,600081,Tamil Nadu,Unknown,hospital,hospital,Unknown,Unknown,Unknown,13.1238765,80.2899749
D.R.R. Eye Hospital,"399, Trunk Road, Karayanchavadi, Poonamallee",Unknown,Unknown,600056,Tamil Nadu,Unknown,hospital,Unknown,Unknown,Unknown,Unknown,13.0459064,80.1136042
Raja Annamalai Puram Dispensary No.6,"Kamaraj Saalai, R.A.Puram",Unknown,Unknown,600028,Tamil Nadu,Unknown,clinic,centre,Unknown,http://nb.bsf.gov.in/CGHS%20DIspenseries.pdf,Unknown,13.0213249,80.2596237
Joseph Eye Clinic,"21.Ritherdon Road,Vepery",Unknown,Unknown,600007,Tamil Nadu,Unknown,clinic,clinic,Unknown,Unknown,Unknown,13.0813437,80.2588713
Huma Specialists Hospital and Research Centre Pvt Ltd,"786 Anna Salai, CIT Nagar West",Unknown,Unknown,600035,Tamil Nadu,Unknown,hospital,hospital,Unknown,https://humahospital.com/,Unknown,13.0282655,80.235353
Dr Radha Rajendran Nursing Home Pvt Ltd,"New No:9, Old No 4A Vembuliamman Koil Street Alandur",Unknown,Unknown,600016,Tamil Nadu,Unknown,clinic,clinic,Unknown,Unknown,Unknown,13.0057455,80.2044077
Regina Nursing Home,"3, Mandapam Road, Kilpauk",Unknown,Unknown,600010,Tamil Nadu,Unknown,clinic,clinic,Unknown,Unknown,Unknown,13.0863886,80.2339844
The Surgical Clinic and Nursing Home,"Old No -15 /New 26-28, Norton Road",Unknown,Unknown,600028,Tamil Nadu,Unknown,clinic,clinic,Unknown,Unknown,Unknown,13.028161,80.2681853
Noor`S Hospital,"No.13, Seetharam Nagar, Vii Street, Munsif Garden,Chinnakodungaiyur",Unknown,Unknown,600118,Tamil Nadu,Unknown,hospital,hospital,Unknown,Unknown,Unknown,13.1418442,80.2485046
"Vasan Eye Care Hospital, Perambur","#289/149, D.No.149, ,Paper Mills Road, Opp To 70 Feet Road,Perambur",Unknown,Unknown,600082,Tamil Nadu,Unknown,hospital,hospital,Unknown,Unknown,Unknown,13.1177888,80.2287099
Getwel Dental Clinic,"N..94 First Floor,Kundrathure Main Road,Porur,Chennai",Unknown,Unknown,600016,Tamil Nadu,Unknown,clinic,Unknown,Unknown,Unknown,Unknown,13.0247168,80.1493795
Sri Sai Krs Hospital,"No.39, Ashok Nagar, 7Th Avenue",Unknown,Unknown,600083,Tamil Nadu,Unknown,hospital,hospital,Unknown,Unknown,Unknown,13.0379843,80.2163241
Gopalapuram Dispensary,"No.1, 1st Street,Gopalapuram",Unknown,Unknown,600086,Tamil Nadu,Unknown,clinic,centre,Unknown,http://nb.bsf.gov.in/CGHS%20DIspenseries.pdf,Unknown,13.0490968,80.2576214
Satish Eye Hospital,"No. 15, Ormes Road, Kilpauk",Unknown,Unknown,600010,Tamil Nadu,Unknown,hospital,hospital,Unknown,Unknown,Unknown,13.0813959,80.2469972
Uma Eye Clinic Pvt.Ltd,"182,Plot No.995 `O` 2nd, Anna Nagar",Unknown,Unknown,600040,Tamil Nadu,Unknown,clinic,clinic,Unknown,Unknown,Unknown,13.0854776,80.2034474
"A.K. Hospital, Chennai","P.H. Road,Jn Of P.H. Road And, Nelson Manickam Road, Aminjikarai",Unknown,Unknown,600029,Tamil Nadu,Unknown,hospital,hospital,Unknown,Unknown,Unknown,13.0741442,80.220515
Ammayi Eye Hospital,"New No 80, 7Th Avenue Ashok Nagar",Unknown,Unknown,600083,Tamil Nadu,Unknown,hospital,hospital,Unknown,http://www.ammayieyehospital.com/,Unknown,13.0331935,80.2159045
K.M. Speciality Hospital,"453 And 454, R.K. Shanmugam Salai , K.K. Nagar",Unknown,Unknown,600001,Tamil Nadu,Unknown,hospital,hospital,Unknown,Unknown,Unknown,13.0379671,80.2013517
Subha Hospital,"87/38, M.S. Koil Street, Royapuram",Unknown,Unknown,600013,Tamil Nadu,Unknown,hospital,hospital,Unknown,Unknown,Unknown,13.1113868,80.2923493
Apollo Cosmetic Clinic,"No. 14, Jayammal Street Teynampat",Unknown,Unknown,600018,Tamil Nadu,Unknown,clinic,Unknown,Unknown,Unknown,Unknown,13.0177421,80.2712363
Radhatri Nethralaya,"12, Hindi Prachara Sabha Street, T Nagar",Unknown,Unknown,600017,Tamil Nadu,Unknown,hospital,hospital,Unknown,Unknown,Unknown,13.0339283,80.2394965
"S M Hospital, Chennai","B-49B, Dr.Ramasamy Salai, Near Pillayar Koil Bus Stop, K.K Nagar",Unknown,Unknown,600078,Tamil Nadu,Unknown,hospital,hospital,Unknown,Unknown,Unknown,13.0400969,80.2044211
Cu Shah Sankara Netralaya,"Ii Gst Road, St. Thomas Mount",Unknown,Unknown,600016,Tamil Nadu,Unknown,hospital,hospital,Unknown,Unknown,Unknown,13.0012687,80.2001283
Subiksha Nursing Home,"New.No.32,(Old No.45), Bunder Garden,2nd Street, Perambur",Unknown,Unknown,600011,Tamil Nadu,Unknown,clinic,clinic,Unknown,Unknown,Unknown,13.1118191,80.2419198
Aashiana Hospital,"1201, 6th Avenue",Unknown,Unknown,600040,Tamil Nadu,Unknown,hospital,hospital,Unknown,http://www.aashianachennai.com/p/home.html,Unknown,13.0924039,80.2090184
SMV Nursing Home,"No:68, Near Vengeshwaran Temple, Vadapalani, South Sivan Koil St",Unknown,Unknown,600026,Tamil Nadu,Unknown,clinic,clinic,Unknown,Unknown,Unknown,13.0473231,80.2127641
"Ayesha Hospital, Kilpauk","91-A Millers Road, Kilpauk",Unknown,Unknown,600010,Tamil Nadu,Unknown,hospital,hospital,Unknown,Unknown,Unknown,13.0847009,80.2498054
Fathima Nursing Home,"No.6, Moolakadai Junction, Moolakadai, Kamarajar High Road",Unknown,Unknown,600118,Tamil Nadu,Unknown,clinic,clinic,Unknown,Unknown,Unknown,13.1272912,80.2461
Frontline Eye Hospital,123 T.T.K. Rood Alwarpet,Unknown,Unknown,600018,Tamil Nadu,Unknown,hospital,hospital,Unknown,Unknown,Unknown,13.0323531,80.2517212
Fousiya Hospital,"New No: 119, Old No: 56, Ice House Police Station, Triplicane, Dr. Natesan St;Sudandira Nagar",Unknown,Unknown,600005;600014,Tamil Nadu,Unknown,hospital,hospital,Unknown,Unknown,Unknown,13.0477722,80.2744473
Dr Iravathams Laboratory,"20/3-4 Gopalkrishna Street, Indra Devi Complex , (Near Rohini International), T Nagar",Unknown,Unknown,600017,Tamil Nadu,Unknown,Unknown,laboratory,Unknown,Unknown,Unknown,13.0420156,80.237081
Hande Hospital,"45, Lakshmi Talkies Road",Unknown,Unknown,600030,Tamil Nadu,Unknown,hospital,hospital,Unknown,https://www.handehospital.org/,Unknown,13.0764653,80.2274586
Halsted Surgical Clinic,"815, Poonamalle High Road",Unknown,Unknown,600010,Tamil Nadu,Unknown,clinic,clinic,Unknown,Unknown,Unknown,13.0780413,80.2415872
Dr Gurusekaran Hospital Pvt Ltd,"N0-01, Crescent Park Street, T Nagar",Unknown,Unknown,600017,Tamil Nadu,Unknown,hospital,hospital,Unknown,Unknown,Unknown,13.0374924,80.2381137
Guindy Dispensary,"Block No.6/1-5, BCGStaff Quarters, Guindy",Unknown,Unknown,600032,Tamil Nadu,Unknown,clinic,centre,Unknown,http://nb.bsf.gov.in/CGHS%20DIspenseries.pdf,Unknown,13.010217,80.2217737
G K M Hospital Pvt Ltd,"120/113, Perambur Barracks Road, Purasawalkam",Unknown,Unknown,600004,Tamil Nadu,Unknown,hospital,hospital,Unknown,Unknown,Unknown,13.0899919,80.2585199
Kaliappa Renal Center,"No.43,Second Main Road,R A Puram",Unknown,Unknown,600028,Tamil Nadu,Unknown,hospital,hospital,Unknown,Unknown,Unknown,13.0274616,80.2566481
Ayur Kshetra ( A Unit Of Institute Of Ayurvedic Research Pvt Ltd),"No 5, Panchaliamman Koil Street, Arumbakkam",Unknown,Unknown,600106,Tamil Nadu,Unknown,hospital,Unknown,Unknown,Unknown,Unknown,13.0760812,80.2107431
Krishna Eye And Ent Hospitals,"No.39, Burkit Road, T. Nagar",Unknown,Unknown,600017,Tamil Nadu,Unknown,hospital,hospital,Unknown,Unknown,Unknown,13.0343985,80.2339764
Vishnu Eye Clinic and Laser Foundation,"No C 46, Near Chintamani, 2nd Avenue, Anna Nagar East",Unknown,Unknown,600102,Tamil Nadu,Unknown,hospital,hospital,Unknown,Unknown,Unknown,13.0842894,80.2230605
Fathimah Eye Clinic,"No. 23, Arulanandam Street, Santhome",Unknown,Unknown,600004,Tamil Nadu,Unknown,clinic,clinic,Unknown,Unknown,Unknown,13.0290932,80.2775791
Kanaga Hospital,No:3/225 Kundrathur Main Road Kovur,Unknown,Unknown,600122,Tamil Nadu,Unknown,hospital,hospital,Unknown,Unknown,Unknown,13.0099884,80.1223294
"Santhigiri Ayurveda and Siddha Hospital, Chennai","No.159 Lloyds Road , Siva .Ent Hospital Building",Unknown,Unknown,600014,Tamil Nadu,Unknown,hospital,hospital,Unknown,Unknown,Unknown,13.0476871,80.2646568
Vijaya Heart Foundation - Vijaya Hospital,"180, Nsk Salai, Vadapalani",Unknown,Unknown,600026,Tamil Nadu,Unknown,hospital,hospital,Unknown,Unknown,Unknown,13.054729,80.2110462
"Dr.Agarwal's Eye Hospital Ltd., Anna Nagar","No.107, A Block, 3rd Avenue, Anna Nagar Roundana",Unknown,Unknown,600102,Tamil Nadu,Unknown,hospital,hospital,Unknown,https://www.dragarwal.com/,Unknown,13.0847414,80.2219681
Girishwari Hospital Pvt Ltd,"19, K.B Dasan Road (SIET College Road), Alwarpet",Unknown,Unknown,600018,Tamil Nadu,Unknown,hospital,hospital,Unknown,https://girishwarihospital.com/,Unknown,13.0349787,80.2519137
Sri Kumaran Multi Speciality Hospital,"N0:532, Suriya Narayana Street, Royapuram",Unknown,Unknown,600012,Tamil Nadu,Unknown,hospital,hospital,Unknown,Unknown,Unknown,13.1152895,80.2923614
Dr. Arvind Vision Care,"Old No.61New No.3,Reddy Palayam Road,Mugappair West",Unknown,Unknown,600037,Tamil Nadu,Unknown,hospital,hospital,Unknown,Unknown,Unknown,13.0840124,80.1691809
Dr. K Ravi Eye Care,No. 03 2nd Link Street. Cit Colony,Unknown,Unknown,600004,Tamil Nadu,Unknown,hospital,hospital,Unknown,Unknown,Unknown,13.0407013,80.2618016
"SKS Hospital, Chennai","959, Tvs Colony Annanagar West Extension",Unknown,Unknown,600101,Tamil Nadu,Unknown,hospital,Unknown,Unknown,Unknown,Unknown,13.0896987,80.1877418
Madras Ent Research Foundation,"15, P.S.Sivasamy Salai, Off Dr.Radhakrishnan Raod) Mylapore",Unknown,Unknown,600004,Tamil Nadu,Unknown,hospital,hospital,Unknown,Unknown,Unknown,13.0268688,80.2541439
Dr. Mohans Mv Diabetes Specialities Centre - Chennai,"6B, Conran Smith Road, Gopalapuram",Unknown,Unknown,600086,Tamil Nadu,Unknown,hospital,hospital,Unknown,Unknown,Unknown,13.0541946,80.257671
Dr. Meera Nursing Home,"# 142/9, Akshaya Building , Purasawalkam High Road, Kellys",Unknown,Unknown,600010,Tamil Nadu,Unknown,clinic,clinic,Unknown,Unknown,Unknown,13.086608,80.2468979
Lister Metropolis Laboratory and Research Centre Pvt. Ltd.,"No 3 Jagannathan Road,Nungambakkam",Unknown,Unknown,600034,Tamil Nadu,Unknown,Unknown,laboratory,Unknown,Unknown,Unknown,13.0614296,80.2456105
Dr V Rathna Prabhu,"Old Number 21, New Number 3, Bharathi Nagar, 1st Street, 2nd Lane, T. Nagar",Unknown,Unknown,600017,Tamil Nadu,Unknown,doctors,doctor,Unknown,Unknown,Unknown,13.0449508,80.2388835
Dr.Bhats Eye Hospital,"Vijoya Complex,No.1.M.J.H.Road,Ambattur,Chennai",Unknown,Unknown,600053,Tamil Nadu,Unknown,hospital,Unknown,Unknown,Unknown,Unknown,13.1175413,80.1539406
Nivaren Maternity Clinic,J J Nagar East Mugappair,Unknown,Unknown,600037,Tamil Nadu,Unknown,clinic,clinic,Unknown,Unknown,Unknown,13.0828407,80.1800171
Lifeline Rigid Hospital,"47/3, New Avadi Road,Near Kilpauk Post Office",Unknown,Unknown,600010,Tamil Nadu,Unknown,hospital,hospital,Unknown,Unknown,Unknown,13.0780204,80.2336988
Dr. Seshiah Diabetes Research Institute and Dr. Balaji Diabetes Care Centre,"#729, P.H. Road, ,Near Pachaiappa's College,Aminjikarai",Unknown,Unknown,600029,Tamil Nadu,Unknown,hospital,hospital,Unknown,Unknown,Unknown,13.0748591,80.2299839
Dr.Kamakshi Memorial Hospital,"6/13, 3rd Cross Street, Kasthuribai Nagar, Adyar",Unknown,Unknown,600020,Tamil Nadu,Unknown,hospital,hospital,Unknown,https://www.drkmh.com/,Unknown,13.0022187,80.2520867
Dr.Duraiswami Eye Hospital,"No.10/11, Madley Road, T.Nagar",Unknown,Unknown,600017,Tamil Nadu,Unknown,hospital,hospital,Unknown,Unknown,Unknown,13.034051,80.2279374
Dr.C. Satheesh,"Clinic:185,Portuguese Church Street",Unknown,Unknown,600013,Tamil Nadu,Unknown,doctors,doctor,Unknown,Unknown,Unknown,13.0991061,80.2836885
Dr. Udhaya Rajas Dental Centre,"56,(Old No.105), G.N. Chetty Road, First Floor, T.Nagar",Unknown,Unknown,600017,Tamil Nadu,Unknown,hospital,hospital,Unknown,Unknown,Unknown,13.0465492,80.2422899
Voluntary Health Services Medical Centre,Chennai,Unknown,Unknown,600113,Tamil Nadu,Unknown,clinic,Unknown,Unknown,Unknown,Unknown,13.0027257,80.2469087
Dhanvantari Eye Care,"W-27, Old No.18, North Main Road,Anna Nagar West Extn",Unknown,Unknown,600101,Tamil Nadu,Unknown,hospital,hospital,Unknown,Unknown,Unknown,13.0973284,80.1942193
Sri Bala Nursing Home,"46, S.R.P. Kil Street(North) T.V.K.Nagar",Unknown,Unknown,600082,Tamil Nadu,Unknown,hospital,hospital,Unknown,Unknown,Unknown,13.1183119,80.2318051
"Anand Hospital, Chennai","201, Kamarajar Salai Manali Chennai",Unknown,Unknown,600068,Tamil Nadu,Unknown,hospital,hospital,Unknown,Unknown,Unknown,13.1638346,80.2581659
Lakshmi Hospital,"Near Srinivasa Theatre, West Mambalam, Govindan Road",Unknown,Unknown,600033,Tamil Nadu,Unknown,hospital,hospital,Unknown,Unknown,Unknown,13.0314888,80.2218689
Bharathirajaa Hospital and Research centre,"Gopathi Narayanaswami Chetty Rd, Satyamurthy Nagar, T. Nagar",Unknown,Unknown,600017,Tamil Nadu,Unknown,hospital,hospital,Unknown,Unknown,Unknown,13.0480981,80.245015
Bethany Health Care Centre,"72, Spur Tank Road,Chetpet",Unknown,Unknown,600031,Tamil Nadu,Unknown,hospital,hospital,Unknown,Unknown,Unknown,13.0699812,80.2444142
Bhagwan Mahaveer Eye Hospital,"No.142, M.S. Koil Street, Royapuram",Unknown,Unknown,600013,Tamil Nadu,Unknown,hospital,hospital,Unknown,Unknown,Unknown,13.1105084,80.2917197
Bharani Nursing Home,"No.62,Foxen Street Perambur",Unknown,Unknown,600011,Tamil Nadu,Unknown,clinic,clinic,Unknown,Unknown,Unknown,13.1102609,80.2376792
Trinity Acute Care Hospital - Chennai,"No:33, Near Alwarpet Signal, Mylapore, Desikan Road",Unknown,Unknown,600004,Tamil Nadu,Unknown,hospital,hospital,Unknown,Unknown,Unknown,13.0382607,80.2582785
Balakrishna Eye Hospital,"11, Sastri 1st Cross Street, Kaveri Nagar Saidapet",Unknown,Unknown,600015,Tamil Nadu,Unknown,hospital,hospital,Unknown,Unknown,Unknown,13.0274436,80.2269866
Bagdi Nursing Home,"2, New Giri Road, T. Nagar",Unknown,Unknown,600017,Tamil Nadu,Unknown,clinic,clinic,Unknown,Unknown,Unknown,13.0533846,80.2374941
Dr Rabindran's Health Care Center,"212 Mth Road, Ambattur",Unknown,Unknown,600010,Tamil Nadu,Unknown,hospital,Unknown,Unknown,Unknown,Unknown,13.1190773,80.1504859
B.S.S. Hospital,"200, Ramakrishnan Mutt Road, Mandaveli",Unknown,Unknown,600028,Tamil Nadu,Unknown,hospital,hospital,Unknown,Unknown,Unknown,13.026013,80.2655232
B.R.S. Hospital Pvt. Ltd.,"No: 28, Cathedral Gardens Road, Next Hotel Palm Grove, Nungambakkam",Unknown,Unknown,600034,Tamil Nadu,Unknown,hospital,hospital,Unknown,Unknown,Unknown,13.0519442,80.2454831
Harvey Healthcare Limited,"Old No 32, New No 12, Conran Smith Road, Gopalapuram",Unknown,Unknown,600086,Tamil Nadu,Unknown,hospital,hospital,Unknown,Unknown,Unknown,13.037303,80.2558136
Chitra's Ent Laser Hospital,"No.30C, Cathedral Garden Road, Nungambakkam",Unknown,Unknown,600034,Tamil Nadu,Unknown,hospital,hospital,Unknown,Unknown,Unknown,13.0518247,80.2476483
"Krishna Dental Clinic, Chennai","Krishna Dental Clinic W-120,Anna Nagar",Unknown,Unknown,600040,Tamil Nadu,Unknown,dentist,dentist,Unknown,Unknown,Unknown,13.0874336,80.2177075
Kottakkal Arya Vaidya Sala,"Mangesh Street, T Nagar",Unknown,Unknown,600017,Tamil Nadu,Unknown,hospital,hospital,Unknown,Unknown,Unknown,13.0395483,80.2313016
C.U. Shah Clinic And Diagnostic Center,"# 4,Ritherdon Road,Pursaivakam",Unknown,Unknown,600007,Tamil Nadu,Unknown,clinic,clinic,Unknown,Unknown,Unknown,13.0863304,80.2583543
"Rohit Hospital, Tiruvallur","#98/1031, T H Road Kaladipet Chennai Chennai",Unknown,Unknown,600019,Tamil Nadu,Unknown,hospital,hospital,Unknown,Unknown,Unknown,13.1512288,80.2998984
Je Nesam Hospital,"Door No.1, 40Th Street, 1St Floor, Opposite To Jfa, Near Ashok Nagar",Unknown,Unknown,600083,Tamil Nadu,Unknown,hospital,hospital,Unknown,Unknown,Unknown,13.0405732,80.2146873
Chennai Meenakshi Multispeciality Hospital Ltd,"148, Luz Church Road Mylapore",Unknown,Unknown,600004,Tamil Nadu,Unknown,hospital,hospital,Unknown,Unknown,Unknown,13.0376198,80.2619625
Chennai Skin Foundation and Yesudian Research Institute,"No:12/2, Bagirathi Ammal Street, C P Ramasamy Road, R.A.Puram",Unknown,Unknown,600028,Tamil Nadu,Unknown,hospital,hospital,Unknown,Unknown,Unknown,13.0210394,80.2592924
Chinnammal Ent Hospital,"No 387 Drr Complex 1st Floor,Opposite Indian Oil Petrol Pump,Trunk Road,Karaiyanchavadi,Chennai",Unknown,Unknown,600056,Tamil Nadu,Unknown,hospital,Unknown,Unknown,Unknown,Unknown,13.0459338,80.1131429
Dr.Mu.Va.Hospital,"6,Kanniamman,Koil Street,Shenoy Nagar",Unknown,Unknown,600032,Tamil Nadu,Unknown,hospital,hospital,Unknown,Unknown,Unknown,13.0743327,80.228278
Cholayil Sanjeevanam Ayurveda,"50, Block 1 1st Flr Amm Towers",Unknown,Unknown,600037,Tamil Nadu,Unknown,hospital,hospital,Unknown,Unknown,Unknown,13.0844527,80.1798642
"Vandana Hospital, Tiruvallur","No.96, Village Street, Tollgate, Sathuma Nagar",Unknown,Unknown,600019,Tamil Nadu,Unknown,hospital,hospital,Unknown,Unknown,Unknown,13.1456863,80.2927141
Mysaan Hospital,"19/10, Thayar Street, Mount Road",Unknown,Unknown,600002,Tamil Nadu,Unknown,hospital,hospital,Unknown,Unknown,Unknown,13.0641326,80.2705644
V H M Hospitals Pvt Ltd,"No-4, Lal Bahadur Sastry Street Sathya Garden, Saligramam",Unknown,Unknown,600043,Tamil Nadu,Unknown,hospital,hospital,Unknown,Unknown,Unknown,13.0462892,80.1979979
Ritherdon Nursing Home,"21, Ritherdon Road, Vepery",Unknown,Unknown,600007,Tamil Nadu,Unknown,clinic,clinic,Unknown,Unknown,Unknown,13.0815684,80.2587748
Robin and Robin Health Care,162/16 Mangalam Colony 7Th Avennue Anna Nagar,Unknown,Unknown,600040,Tamil Nadu,Unknown,hospital,hospital,Unknown,Unknown,Unknown,13.0807741,80.1989025
West Madras Medical Centre,"W-98, Second Avenue Anna Nagar",Unknown,Unknown,600040,Tamil Nadu,Unknown,hospital,hospital,Unknown,Unknown,Unknown,13.0850496,80.215956
Rathina Clinic,"# 15, Thoppai Street, Royapuram",Unknown,Unknown,600013,Tamil Nadu,Unknown,clinic,clinic,Unknown,Unknown,Unknown,13.1098612,80.2909854
"Kauvery Hospital, Chennai","#81, Ttk Road,Alwarpet",Unknown,Unknown,600018,Tamil Nadu,Unknown,hospital,hospital,Unknown,Unknown,Unknown,13.0390564,80.2568208
Rathi Med Speciality Hospital,"63, Old No. 102, Q Block, 3Road Avenue , Annanagar",Unknown,Unknown,600040,Tamil Nadu,Unknown,hospital,hospital,Unknown,Unknown,Unknown,13.0916495,80.2179844
Rathenam Nursing Home,"No.1, Kaligarayan Street, Iii Lane, Old Washermenpet",Unknown,Unknown,600021,Tamil Nadu,Unknown,clinic,clinic,Unknown,Unknown,Unknown,13.1113476,80.284929
Suraksha Ent Care Centre,"Thoppu New No 2 (Old No 64) Dr. Ranga Road, Abhiramapuram",Unknown,Unknown,600018,Tamil Nadu,Unknown,clinic,Unknown,Unknown,Unknown,Unknown,13.0331886,80.258056
Sunder Eye Hospital,"W - 98, Second Avenue West Madras Medical Centre",Unknown,Unknown,600040,Tamil Nadu,Unknown,hospital,hospital,Unknown,Unknown,Unknown,13.08497,80.2159721
Laksha Hospital,"No.15, P.S.Sivasamy Salai Road, P.S.Sivasamy Salai",Unknown,Unknown,600004,Tamil Nadu,Unknown,hospital,hospital,Unknown,http://www.lakshahospitals.com/,Unknown,13.0435469,80.2636349
"Lake View Hospital, Tiruvallur","#100 A, Perambur -Redhills Road ,Near Secretariat Colony Bus Stop,Lakshmipuram",Unknown,Unknown,600099,Tamil Nadu,Unknown,hospital,hospital,Unknown,Unknown,Unknown,13.1368213,80.2087516
Narayanaa Hospital,"No.18, Tana Street, Purasawalkam",Unknown,Unknown,600007,Tamil Nadu,Unknown,hospital,hospital,Unknown,Unknown,Unknown,13.0893773,80.2547595
Janamma Hospital,"38/56, Near Bank Of Baroda, Venkata Krishna Road, Jeth Nagar, Mandaveli",Unknown,Unknown,600028,Tamil Nadu,Unknown,hospital,Unknown,Unknown,Unknown,Unknown,13.0269457,80.2623196
Janaki E.N.T. Nursing Home,"29, Nagamani Garden Street, Seven Wells South, Near Govindappa Naicken Street end, George Town, Flower Bazar Police Station",Unknown,Unknown,600001,Tamil Nadu,Unknown,clinic,clinic,Unknown,http://www.janakient.com/,Unknown,13.0970567,80.2821958
"Noble Hospital, Chennai","4 Adiappa Mudali Street,Purasaiwalkam Flowers Road",Unknown,Unknown,600084,Tamil Nadu,Unknown,hospital,hospital,Unknown,Unknown,Unknown,13.0821536,80.253244
"J.K. Hospital, Chennai","New No.303,Old No.99, T.H.Road",Unknown,Unknown,600081,Tamil Nadu,Unknown,hospital,hospital,Unknown,Unknown,Unknown,13.1354513,80.2934799
Ishwarya Nursing Home,"New # 7, Kooresan Street",Unknown,Unknown,600021,Tamil Nadu,Unknown,clinic,clinic,Unknown,Unknown,Unknown,13.1129411,80.2822602
Indira Eye Hospital,No 5 School View Road R K Nagar,Unknown,Unknown,600028,Tamil Nadu,Unknown,hospital,hospital,Unknown,Unknown,Unknown,13.0222055,80.2622388
Indian Hospitals,"No. 1051, P.H.Road, Arumbakkam",Unknown,Unknown,600006,Tamil Nadu,Unknown,hospital,Unknown,Unknown,Unknown,Unknown,13.0766658,80.2057502
Sheeba Multi Speciality Clinic,"No.25/17,70 Feet Road,Jawahar Nagar",Unknown,Unknown,600082,Tamil Nadu,Unknown,clinic,clinic,Unknown,Unknown,Unknown,13.1168517,80.2279428
Diabetes Research Centre and M.V.Hospital For Diabetes,"No.4, West Mada Church Street",Unknown,Unknown,600013,Tamil Nadu,Unknown,hospital,hospital,Unknown,https://www.mvdiabetes.com/,Unknown,13.1119458,80.2952072
Apollo First Medical Foundation,"154, Poonta Nala High. Road,Kilpauk, Near , K.Mc. Hospital",Unknown,Unknown,600010,Tamil Nadu,Unknown,hospital,hospital,Unknown,Unknown,Unknown,13.0776912,80.2459216
Julian Nursing Home,"96, Perambur High Road, Near Jamalia Bus Stop Kamalia",Unknown,Unknown,600012,Tamil Nadu,Unknown,clinic,clinic,Unknown,Unknown,Unknown,13.1063124,80.2506946
Josephs Nursing Home,"10-A, Dr. Guruswamy Road, Chetpet",Unknown,Unknown,600031,Tamil Nadu,Unknown,hospital,hospital,Unknown,Unknown,Unknown,13.0739408,80.2357346
Jayam Nursing Home,"53,Thandavaraya Mudali Street,Old Washermanpet",Unknown,Unknown,600021,Tamil Nadu,Unknown,clinic,clinic,Unknown,Unknown,Unknown,13.122272,80.2894968
Jayadev Polyclinic Hospital,"No : 814, Poonamallee High Road ., Kilpauk",Unknown,Unknown,600010,Tamil Nadu,Unknown,hospital,hospital,Unknown,Unknown,Unknown,13.0778545,80.2415295
Jaya Eye Clinic,"12, Norton 3Road Lane Mandavelipakkam",Unknown,Unknown,600028,Tamil Nadu,Unknown,clinic,clinic,Unknown,Unknown,Unknown,13.0265892,80.2699743
Kummaran Eye Speciality Centre,"67/79, Choolaimedu High Road",Unknown,Unknown,600094,Tamil Nadu,Unknown,hospital,hospital,Unknown,http://www.kumaraneyecare.in/,Unknown,13.0600349,80.2302911
Kvt Health Centre,"Moolakadai Junction, Moolkadai, Gnt Road, Moolakadai",Unknown,Unknown,600060,Tamil Nadu,Unknown,hospital,hospital,Unknown,Unknown,Unknown,13.1282303,80.2421558
Maya Nursing Home Pvt Ltd,"B - 225, 15Th Avenue Ashok Nagar",Unknown,Unknown,600083,Tamil Nadu,Unknown,clinic,clinic,Unknown,Unknown,Unknown,13.0313072,80.2097064
Ezhil Hospital,"583, Thiruvottiyur High Road, Near Apollo, Tondiarpet",Unknown,Unknown,600081,Tamil Nadu,Unknown,hospital,hospital,Unknown,Unknown,Unknown,13.1302259,80.2916855
Eswari Nursing Home,"1/255, 10Th Street S R P Colony",Unknown,Unknown,600082,Tamil Nadu,Unknown,clinic,clinic,Unknown,Unknown,Unknown,13.1165682,80.2263898
Essvee Hospital,"No.506,M.T.H.Road,Ambathur-Chennai",Unknown,Unknown,600053,Tamil Nadu,Unknown,hospital,Unknown,Unknown,Unknown,Unknown,13.1232006,80.1461421
Premier Health Center,"B-Block,1/2 Second Avenue,Anna Nagar",Unknown,Unknown,600102,Tamil Nadu,Unknown,hospital,hospital,Unknown,Unknown,Unknown,13.0842489,80.220851
Endocrine Diagnostic And Research Centre,"# 1,Moosa Street,T.Nager",Unknown,Unknown,600017,Tamil Nadu,Unknown,Unknown,laboratory,Unknown,Unknown,Unknown,13.0335088,80.2366854
Vasantha Subramanian Hospitals Pvt Ltd,"13, East Spurtank Road, Chetpet",Unknown,Unknown,600031,Tamil Nadu,Unknown,hospital,hospital,Unknown,Unknown,Unknown,13.0731975,80.2527237
"Vasan Eye Care Hospital, Tondiarpet","New No 976, Old No 447, T H Road,Old Washermenpet, Opp To Nirmala Silks,Tondiarpet",Unknown,Unknown,600021,Tamil Nadu,Unknown,hospital,hospital,Unknown,Unknown,Unknown,13.1109009,80.2812195
Madras Poly Clinic and R.R. Scan,5 Kannadasan St.Ranga Rajapuram,Unknown,Unknown,600024,Tamil Nadu,Unknown,hospital,hospital,Unknown,Unknown,Unknown,13.0461063,80.2220044
"Vasan Eye Care Hospital, Valasaravakkam","No 50, Arcot Road, Valasaravakkam",Unknown,Unknown,600087,Tamil Nadu,Unknown,hospital,Unknown,Unknown,Unknown,Unknown,13.0411063,80.1747546
Lister Nursing Home,"#3/2,Appavood Street",Unknown,Unknown,600002,Tamil Nadu,Unknown,clinic,clinic,Unknown,Unknown,Unknown,13.0644964,80.2730508
"Lifeline Cliniq , Adyar","37, 1st Avenue, Sastri Nagar, Adyar",Unknown,Unknown,600020,Tamil Nadu,Unknown,clinic,clinic,Unknown,Unknown,Unknown,13.0007709,80.2575208
Life Medhospital,"32/12, Next To Gopalapuram Boys High School Play Ground, Gopalapuram, Conran Smith Road",Unknown,Unknown,600086,Tamil Nadu,Unknown,hospital,hospital,Unknown,Unknown,Unknown,13.0535505,80.2576911
"K.M. Hospitals, Chennai","No.167,E.H.Road,Vyasarpadi,Sharma Nagar,Chennai",Unknown,Unknown,600019,Tamil Nadu,Unknown,hospital,hospital,Unknown,Unknown,Unknown,13.0884107,80.2421169
Zubeda Hospitals Ltd.,"# 10, Dr. Guruswamy Road",Unknown,Unknown,600031,Tamil Nadu,Unknown,hospital,hospital,Unknown,Unknown,Unknown,13.0741955,80.2357775
Sree Narayana Nursing Home,"No 7, Bharathi Road Perambur",Unknown,Unknown,600011,Tamil Nadu,Unknown,clinic,clinic,Unknown,Unknown,Unknown,13.1089757,80.2481371
RR Multispeciality Hospital,"Near Rathna Cafe Hotel, Triplicane, T.H. Road",Unknown,Unknown,600005,Tamil Nadu,Unknown,hospital,hospital,Unknown,Unknown,Unknown,13.0584745,80.2740124
"Dr.N. Nagajothi,M.D","New No 11,Old No 4 Saarngapani Street T.Nagar",Unknown,Unknown,600017,Tamil Nadu,Unknown,doctors,doctor,Unknown,Unknown,Unknown,13.0350165,80.2392798
Dr.Manju Kulkarni Hospital,"No,18,Nowroji Road",Unknown,Unknown,600001,Tamil Nadu,Unknown,hospital,hospital,Unknown,Unknown,Unknown,13.0743836,80.2367672
Sri Hanu Nursing Home,"New No.2,Old No.22,Vani Nagar,Valasaravakkam",Unknown,Unknown,600087,Tamil Nadu,Unknown,clinic,Unknown,Unknown,Unknown,Unknown,13.0395058,80.1712127
Sri Ganesa Eye Clinic,"3/A, Sathyam Flats Ground Floor, Cholan Street, Alwarthirunagar",Unknown,Unknown,600087,Tamil Nadu,Unknown,clinic,clinic,Unknown,Unknown,Unknown,13.0455758,80.1854472
Vaman Clinic Eye and Ent Care,"Kala Flats, Ashok Nagar",Unknown,Unknown,600083,Tamil Nadu,Unknown,clinic,clinic,Unknown,Unknown,Unknown,13.0388943,80.2137016
S.V. Bone And Joint Hospital,"New No: 177, Old No:77, Rangarajapuram Road, Kodambakkam",Unknown,Unknown,600024,Tamil Nadu,Unknown,hospital,hospital,Unknown,Unknown,Unknown,13.0473239,80.2241461
Sri Eshodha Hospital,"No.46, Konnur High Road Ayanavaram",Unknown,Unknown,600023,Tamil Nadu,Unknown,hospital,hospital,Unknown,Unknown,Unknown,13.0981213,80.2362643
"Peoples Nursing Home, Chennai","No.12/16, New Natarajapuram, Aminjikarai",Unknown,Unknown,600029,Tamil Nadu,Unknown,clinic,clinic,Unknown,Unknown,Unknown,13.0696298,80.2159499
Abhijay Hospital,"No.22/2, E.S.I.Hospital Road",Unknown,Unknown,600011,Tamil Nadu,Unknown,hospital,hospital,Unknown,https://www.abhijayhospital.com/,Unknown,13.1160177,80.2328438
"Sinus And Nose Hospital - Mylapore, Chennai","35 A, Santhome High Road, Marina Beach",Unknown,Unknown,600004,Tamil Nadu,Unknown,hospital,hospital,Unknown,Unknown,Unknown,13.0350623,80.2778479
"Shyamala Nursing Home, Chennai","32, Cemetry Road Old Washermenpet",Unknown,Unknown,600021,Tamil Nadu,Unknown,clinic,clinic,Unknown,Unknown,Unknown,13.1101185,80.2819745
Srinivas Priya Hospital (P) Ltd,"Old No.89,& New No.106 Pate Road Perambur, (Near Perambur Railway Station), Patel Road",Unknown,Unknown,600011,Tamil Nadu,Unknown,hospital,hospital,Unknown,Unknown,Unknown,13.1100467,80.2466847
"M.R. Hospital, Chennai","New No. 12 Old No.20, Govindan Street Ayyavoo, Naidu Colony, Aminjikarai",Unknown,Unknown,600029,Tamil Nadu,Unknown,hospital,hospital,Unknown,Unknown,Unknown,13.0725279,80.2195783
M. N. Orthopaedic Hospital,"No. 14, Bank Street Off New Avadi Road, Kilpauk",Unknown,Unknown,600010,Tamil Nadu,Unknown,hospital,hospital,+914426442279,https://www.mnorthohosp.com/,Unknown,13.0810328,80.2336653
M.L Dental Clinic,"91/2,Arcot Road,Virugambakkam",Unknown,Unknown,600092,Tamil Nadu,Unknown,clinic,clinic,Unknown,Unknown,Unknown,13.0452205,80.1861023
M V Hospital For Diabetes Pvt Ltd,"No-4, West Mada Church Street, Royapuram",Unknown,Unknown,600013,Tamil Nadu,Unknown,hospital,Unknown,Unknown,Unknown,Unknown,13.1121574,80.2956927
"A.V. Hospital, Chennai","# 172, Solaiappan Stree, Near Maharani Theatre",Unknown,Unknown,600021,Tamil Nadu,Unknown,hospital,hospital,Unknown,Unknown,Unknown,13.1170802,80.2864189
N.R. Hospital,7(1/1A)1st Main Road Jawahar Nagar,Unknown,Unknown,600082,Tamil Nadu,Unknown,hospital,hospital,Unknown,Unknown,Unknown,13.1122162,80.2309737
N.R. Medical Home Private Limited,"No 1, Binny Colony, Perambur Barracks Road, Behind Binny Cloth Show Room",Unknown,Unknown,600012,Tamil Nadu,Unknown,hospital,hospital,Unknown,Unknown,Unknown,13.0965878,80.2597135
Nagamani Hospitals Private Limited,"# 116,118, Rajarathinam Saalai, (G.A. Road)",Unknown,Unknown,600021,Tamil Nadu,Unknown,hospital,hospital,Unknown,Unknown,Unknown,13.117412,80.289427
Nalamm Hospital Pvt Ltd,"10A/3 I Cross Street, M K B Nagar",Unknown,Unknown,600039,Tamil Nadu,Unknown,hospital,hospital,Unknown,Unknown,Unknown,13.1184216,80.2610184
Nambi Nursing Home and Research Centre,"#21, Devarajan Street",Unknown,Unknown,603001,Tamil Nadu,Unknown,clinic,Unknown,Unknown,Unknown,Unknown,13.0576423,80.2723642
Nandalala Medical Foundation,"Thoppu New No.2,(Old No.64),Dr.Ranga Road, Abiramapuram",Unknown,Unknown,600018,Tamil Nadu,Unknown,hospital,hospital,Unknown,Unknown,Unknown,13.0328516,80.2615173
Sri Kumaran Health Centre,"No:1419, Chennai, 200 Feet,Retteri Junction,Kolathur",Unknown,Unknown,600099,Tamil Nadu,Unknown,hospital,hospital,Unknown,Unknown,Unknown,13.1308907,80.2138799
Nandambakkam Dispensary,"Quarter No.16-19 CDA Residential Complex, Nandambakkam",Unknown,Unknown,600089,Tamil Nadu,Unknown,clinic,centre,Unknown,http://nb.bsf.gov.in/CGHS%20DIspenseries.pdf,Unknown,13.0154215,80.1932403
Navasuja Sankara Nethralaya,"73 Venkatakrishna Road, Ra Puram",Unknown,Unknown,600028,Tamil Nadu,Unknown,hospital,hospital,Unknown,Unknown,Unknown,13.0265108,80.2607878
Neomed Hospital - Chennai,"2181 L Block 12Th Main Road, Anna Nagar",Unknown,Unknown,600040,Tamil Nadu,Unknown,hospital,hospital,Unknown,Unknown,Unknown,13.083452,80.2030747
"New Balaji Hospital, Chennai","49 Srinivasa Reddu Street,T Nagar",Unknown,Unknown,600017,Tamil Nadu,Unknown,hospital,hospital,Unknown,Unknown,Unknown,13.0316469,80.2311185
New Hope Indian Specilaity Hospital,"No 1051, Poonamallee High Road, Arumbakkam",Unknown,Unknown,600106,Tamil Nadu,Unknown,hospital,hospital,Unknown,Unknown,Unknown,13.0777579,80.2414826
New Hope Medical Centre Pvt. Ltd,"No. 814, Poonamallee High Road, Kilpauk",Unknown,Unknown,600010,Tamil Nadu,Unknown,hospital,hospital,Unknown,Unknown,Unknown,13.0776821,80.2415201
Nichani Health Centre,"10, Arthoon Road Royapuram",Unknown,Unknown,600013,Tamil Nadu,Unknown,hospital,hospital,Unknown,Unknown,Unknown,13.111251,80.2940284
Nungambakkam Dispensary CandB Block,"Nungambakkam Dispensary CandB Block, 1stFloor, Shastri Bhavan, Haddows Road",Unknown,Unknown,600006,Tamil Nadu,Unknown,clinic,centre,Unknown,http://nb.bsf.gov.in/CGHS%20DIspenseries.pdf,Unknown,13.0666173,80.2481747
Om Shakthi Hospital,"No. 11, Old B.O.B. St. Secretariate Colony",Unknown,Unknown,600053,Tamil Nadu,Unknown,hospital,Unknown,Unknown,Unknown,Unknown,13.1184222,80.1507749
Orthopedic and Specialities Hospital,"No. 25, 10Th Avenue, Ashoknagar",Unknown,Unknown,600083,Tamil Nadu,Unknown,hospital,hospital,Unknown,Unknown,Unknown,13.0390564,80.2086724
Padma Clinic And Nursing Home,"753, Poonamallee High Road Kilpauk",Unknown,Unknown,600010,Tamil Nadu,Unknown,clinic,clinic,Unknown,Unknown,Unknown,13.0768865,80.2351539
Palani Balaji Fertility Centre,"4/12A, Anna Nagar,Palani",Unknown,Unknown,624601,Tamil Nadu,Unknown,hospital,Unknown,Unknown,Unknown,Unknown,13.0122123,80.2235084
Pallava Hospital,"No.19A, Next To Bhuari Hotel, Ashok Nagar, First Avenue",Unknown,Unknown,600083,Tamil Nadu,Unknown,hospital,hospital,Unknown,Unknown,Unknown,13.0420391,80.2126005
P&G Nursing Home,"No. 42, Near Sivan Koil (Venueshwarar Temple), Vadapalani, 100 Feet Road Jawaharlal Nehru Road",Unknown,Unknown,600026,Tamil Nadu,Unknown,clinic,clinic,Unknown,Unknown,Unknown,13.0479576,80.2124181
Apollo Childrens Hospital,"No.15, Thousand Lights, Shafee Mohammed Road",Unknown,Unknown,600006,Tamil Nadu,Unknown,hospital,hospital,Unknown,http://www.apollohospitals.com/Apollo_Children/,Unknown,13.060131,80.2523656
Anuradha Maternity Centre,"31,Dhandapani Street,T.Nagar",Unknown,Unknown,600017,Tamil Nadu,Unknown,hospital,hospital,Unknown,Unknown,Unknown,13.0356881,80.2337551
Shri Balaji Hospital - Chennai,"No-36, Brickkiln Road Near Abirani Theatre",Unknown,Unknown,600012,Tamil Nadu,Unknown,hospital,hospital,Unknown,Unknown,Unknown,13.0919709,80.2511633
Shree Sai Krupa Dental Care,No 53/1 Burkit Road T.Nagar,Unknown,Unknown,600017,Tamil Nadu,Unknown,dentist,dentist,Unknown,Unknown,Unknown,13.0373853,80.2318856
Shivas Eye Care,"Plot No:1824/1, 18Th Main Road, Anna Nagar",Unknown,Unknown,600040,Tamil Nadu,Unknown,clinic,Unknown,Unknown,Unknown,Unknown,13.0939374,80.2008538
Shepherd Nursing Home,"No. 19, Kumaran Nagar, Main Road, Peravallur Peravallur",Unknown,Unknown,600022,Tamil Nadu,Unknown,clinic,clinic,Unknown,Unknown,Unknown,13.1255776,80.2260934
Perambur Dispensary,"No 28, Perambur HighRoad, Perambur",Unknown,Unknown,600012,Tamil Nadu,Unknown,clinic,centre,Unknown,http://nb.bsf.gov.in/CGHS%20DIspenseries.pdf,Unknown,13.0976393,80.2594614
Teja Hospital,"471, Mth Road, , Ambattur",Unknown,Unknown,600053,Tamil Nadu,Unknown,hospital,Unknown,Unknown,Unknown,Unknown,13.1220029,80.1469266
Tamil Nadu Urological Research Centre,"No.76,Nelson Manickam Road, Aminjikaral",Unknown,Unknown,600026,Tamil Nadu,Unknown,hospital,hospital,Unknown,Unknown,Unknown,13.0710341,80.222632
Vhs Diabeted Research Centre,T.T.T.I Post,Unknown,Unknown,600113,Tamil Nadu,Unknown,clinic,Unknown,Unknown,Unknown,Unknown,13.0029165,80.2463347
"Thulasi Krishna Nursing Home, Kodambakkam","# 5, First Street, Taylors Estate, Kodambakkam",Unknown,Unknown,600024,Tamil Nadu,Unknown,hospital,hospital,Unknown,Unknown,Unknown,13.0517176,80.2300054
Star Bone Joint Center,"# 2, Pillaiyar Koil Street, Triplicane",Unknown,Unknown,600005,Tamil Nadu,Unknown,clinic,clinic,Unknown,Unknown,Unknown,13.0633102,80.2743041
Dr. Agarwal's Eye Hospital,"No. 11, M C. Nichols Road, 4Th Lane, Opposite To Chetpet Police Station Chetpet",Unknown,Unknown,600031,Tamil Nadu,Unknown,hospital,hospital,Unknown,Unknown,Unknown,13.074266,80.2382156
Selvarangam Hospital,"C-54, 1 St Main Road, Anna Nagar East, Near Chinthamani Supermarket",Unknown,Unknown,600102,Tamil Nadu,Unknown,hospital,hospital,Unknown,Unknown,Unknown,13.0850183,80.2244673
"Sankara Nethralaya, Chennai","(A Unit Of Medical Research Foundation)41/18, College Road, Nungambakkam",Unknown,Unknown,600006,Tamil Nadu,Unknown,hospital,hospital,Unknown,Unknown,Unknown,13.0670837,80.2505444
Akn Nursing Home,"20, Kellys Road Kilpauk",Unknown,Unknown,600010,Tamil Nadu,Unknown,clinic,clinic,Unknown,Unknown,Unknown,13.0836428,80.2462569
Sampat Nursing Home,"4, Nachiappa Street, Mylapore",Unknown,Unknown,600004,Tamil Nadu,Unknown,clinic,clinic,Unknown,Unknown,Unknown,13.0365779,80.2728282
Royal Hospital - Chennai,"1, Jawaharlal Nehru Street, Valasarawakkam, Alwarthirunagar",Unknown,Unknown,600087,Tamil Nadu,Unknown,hospital,hospital,Unknown,Unknown,Unknown,13.0449677,80.1846506
Viganesh Hospital,"36, Poothapedu Main Road, Vengadeswar Nagar, Perur",Unknown,Unknown,600116,Tamil Nadu,Unknown,hospital,Unknown,Unknown,Unknown,Unknown,13.0309126,80.1715896
Dr Agarwal Eye Hospital Ltd,"B-63, Siva Elango Salai (70 Feet Road), Periyar Nagar",Unknown,Unknown,600082,Tamil Nadu,Unknown,hospital,hospital,Unknown,Unknown,Unknown,13.1135903,80.2270764
Sulochana Dental Care Center,"# 45 Jubilee Road, West Mambalam",Unknown,Unknown,600033,Tamil Nadu,Unknown,dentist,dentist,Unknown,Unknown,Unknown,13.0404661,80.2244103
Spandana Surgical Centre,"Swarnapuri-Ground Floor, 6/13, J.J.Nagar West",Unknown,Unknown,600037,Tamil Nadu,Unknown,hospital,hospital,Unknown,Unknown,Unknown,13.0834455,80.1749497
Tosh Hospitals Private Limited,"No.34/72, Ormes Road, Kilpauk",Unknown,Unknown,600010,Tamil Nadu,Unknown,hospital,hospital,Unknown,Unknown,Unknown,13.0827016,80.2424652
Dr Vas Dental Clinic,"Old No.33,New No.10.Mannar Street,T.Nagar",Unknown,Unknown,600017,Tamil Nadu,Unknown,clinic,clinic,Unknown,Unknown,Unknown,13.0341895,80.2325615
Sri Vaishnavi Nursing Home,"C-57,2nd Main Road, Thiruvenkada Nagar, Ambattur",Unknown,Unknown,600053,Tamil Nadu,Unknown,clinic,Unknown,Unknown,Unknown,Unknown,13.1164154,80.146014
Sundaram Cancer Centre,"Flat1/B,Ii Floor,Old#No191,New#297,Precision Diagnostics Complex,Periyar Evr Salai(P.H.Road)Kilpauk",Unknown,Unknown,600010,Tamil Nadu,Unknown,hospital,hospital,Unknown,Unknown,Unknown,13.07604,80.2366224
R.R. Eye Instutute and Laser Foundation,"37, Arunachalam Road",Unknown,Unknown,600093,Tamil Nadu,Unknown,hospital,hospital,Unknown,Unknown,Unknown,13.0483992,80.2040416
Rajalakshmi Nursing Home,"D-93 (D-107), First Main Road, Anna Nagar",Unknown,Unknown,600102,Tamil Nadu,Unknown,clinic,clinic,Unknown,Unknown,Unknown,13.084629,80.2247456
Rajan Dental Institute Pvt. Ltd.,"#56, Dr.Radha Krishnan Salai,Opposite Kalyani Hospital,Mylapore",Unknown,Unknown,600004,Tamil Nadu,Unknown,dentist,dentist,Unknown,Unknown,Unknown,13.0439283,80.2727732
Avm Medical Ent Research Foundation Pvt Ltd,"3, P S Sivasami Salai Mylapore",Unknown,Unknown,600004,Tamil Nadu,Unknown,hospital,hospital,Unknown,https://avmmerf.in/contact.php,Unknown,13.0441485,80.2637114
"Aditya Hospital, Chennai","7, Barnaby Road",Unknown,Unknown,600010,Tamil Nadu,Unknown,hospital,hospital,Unknown,https://www.adityahospital.co.in/,Unknown,13.0806801,80.2486159
Laser and Laparascopic Hospital,No.121 G.N.Chetty Road,Unknown,Unknown,600017,Tamil Nadu,Unknown,hospital,hospital,Unknown,https://www.drashokchennai.com/,Unknown,13.0430125,80.2371521
Lalitha Nurshing Home,"192,Nakeeran Street, Alwarthirunagar, Chennai",Unknown,Unknown,600087,Tamil Nadu,Unknown,clinic,clinic,Unknown,Unknown,Unknown,13.0477067,80.185183
Kumaran Hospital Pvt.Ltd.,"214, E.V.R.Periyar Salai, Poonamalee High Road, Periyar Salai",Unknown,Unknown,600010,Tamil Nadu,Unknown,hospital,hospital,Unknown,https://kumaranhospitals.com/Index.html,Unknown,13.0790289,80.2490893
Kts Nursing Home,"7/10, Bharathi Nagar, Balaji Nagar Main Road, Kolathur",Unknown,Unknown,600099,Tamil Nadu,Unknown,clinic,clinic,Unknown,Unknown,Unknown,13.1225671,80.224244
D R J Hospital P. Ltd.,"No: 9, 100 Feet Road, Nehru National Highway, Kolathur",Unknown,Unknown,600099,Tamil Nadu,Unknown,hospital,Unknown,Unknown,Unknown,Unknown,13.1217887,80.1996361
"Dr Agarwals Eye Hospital Ltd, Chennai","No 49, Aruot Road Porur Porur Chennai",Unknown,Unknown,600116,Tamil Nadu,Unknown,hospital,Unknown,Unknown,Unknown,Unknown,13.0381353,80.1619336
Apollo Specialty Hospitals Private Limited,"No.41/42, 53/54, Sathyadev Avenue, Mrc Nagar",Unknown,Unknown,600028,Tamil Nadu,Unknown,hospital,Unknown,Unknown,Unknown,Unknown,13.0177957,80.2711008
Darshan Eye Clinic,T-80 (New no.24) 5th Main Road,Unknown,Unknown,600040,Tamil Nadu,Unknown,clinic,clinic,Unknown,Unknown,Unknown,13.0883153,80.2162363
Deepam Eye Hospital,"72, Medavakkam Tank Road, Near Jamai Mosque",Unknown,Unknown,600010,Tamil Nadu,Unknown,hospital,hospital,Unknown,http://www.deepameyehospital.com/,Unknown,13.0877615,80.2423476
Dr. A. Ramachandran's Diabetes Hospital,"28, Marshalls Road Egmore",Unknown,Unknown,600008,Tamil Nadu,Unknown,hospital,hospital,Unknown,Unknown,Unknown,13.0685338,80.2579902
"Srushti Hospital, Kanchipuram","No.1, Padmavathy Street, Thirumalai, Ramapuram",Unknown,Unknown,600089,Tamil Nadu,Unknown,hospital,Unknown,Unknown,Unknown,Unknown,13.0353484,80.1822808
Veecare Eye Hospital,"4/579, Chennai, 4/579 Rajiv Gandhi Salai",Unknown,Unknown,600041,Tamil Nadu,Unknown,hospital,hospital,Unknown,Unknown,Unknown,13.0843952,80.2182426
Sanjeevini Nursing Home,"80, Kappal Polu Street, Old Washermenpet",Unknown,Unknown,600021,Tamil Nadu,Unknown,clinic,clinic,Unknown,Unknown,Unknown,13.1169712,80.2883984
Vasantha Nursing Home,119 Sanjeevarayan Koil Street Old Washerman Pet,Unknown,Unknown,600012,Tamil Nadu,Unknown,clinic,clinic,Unknown,Unknown,Unknown,13.1168268,80.2876957
K.J. Hospital,"New-182, Old-927, Poonamalee High Road, Flower Road",Unknown,Unknown,600084,Tamil Nadu,Unknown,hospital,hospital,Unknown,http://kjhospital.net/kjhospital/Welcome.aspx,Unknown,13.0790015,80.25267
Sathya Physiotherapy Centre,"24,Coats Road, T.Nagar",Unknown,Unknown,600017,Tamil Nadu,Unknown,hospital,hospital,Unknown,Unknown,Unknown,13.0440365,80.2336198
Sri Balaji Ent And Maternity Clinic,"29/59, Near West Jones Road, Saidapet, Sadayappan St",Unknown,Unknown,600015,Tamil Nadu,Unknown,clinic,clinic,Unknown,Unknown,Unknown,13.0257935,80.2227634
Kensington Hospital,"856,Poonamallee High Road, Kilpauk",Unknown,Unknown,600010,Tamil Nadu,Unknown,hospital,hospital,Unknown,Unknown,Unknown,13.0788382,80.2469368
Pdr Othopaedic Hospital,"35, Rangan Street, Behind Grt, T.Nagar",Unknown,Unknown,600017,Tamil Nadu,Unknown,hospital,hospital,Unknown,Unknown,Unknown,13.0389519,80.2290894
"Durga Nursing Home, Tiruvallur","182, M.T.H. Road, Avadi, Chennai",Unknown,Unknown,600054,Tamil Nadu,Unknown,clinic,Unknown,Unknown,Unknown,Unknown,13.1252733,80.141872
E V Kalyani Medical Centre,4Second Street Dr Radhakrishnan Road Mylapore,Unknown,Unknown,600004,Tamil Nadu,Unknown,hospital,hospital,Unknown,Unknown,Unknown,13.0427786,80.2706811
Vijay's Nursing Home,"39, West Road, West City Nagar",Unknown,Unknown,600035,Tamil Nadu,Unknown,clinic,clinic,Unknown,Unknown,Unknown,13.0266147,80.2283525
Yogi Vedha Kumari Hospital,"Near Central Bank (Bus Stop), Mandaveli, Devanathan St",Unknown,Unknown,600028,Tamil Nadu,Unknown,hospital,Unknown,Unknown,Unknown,Unknown,13.0269877,80.2631588
Women and Children Foundation,"4 / 1 & 4/2 , Porur Somasundaram, North Usman Road T Nagar",Unknown,Unknown,600017,Tamil Nadu,Unknown,hospital,hospital,Unknown,Unknown,Unknown,13.0478465,80.2329075
Subamathi Clinic,Chennai,Unknown,Unknown,600017,Tamil Nadu,Unknown,clinic,Unknown,Unknown,Unknown,Unknown,13.0473037,80.1121954
Sucha Eye Cure,"Jothir Akshaya Flat-1 No-59, Munusamy Salai Kk Nagar West Near Pondy State Guest House",Unknown,Unknown,600078,Tamil Nadu,Unknown,clinic,clinic,Unknown,Unknown,Unknown,13.0390577,80.1931438
"Sudha Hospital, Chennai","51/18, Adam Sahib Street, Pumping Station Road, Roya Puram",Unknown,Unknown,600013,Tamil Nadu,Unknown,hospital,hospital,Unknown,Unknown,Unknown,13.0791504,80.2541493
V.K. Hospital,"No.77, Dr. Alagappa Road, Purasawalkam",Unknown,Unknown,600084,Tamil Nadu,Unknown,hospital,hospital,Unknown,Unknown,Unknown,13.0816938,80.2522811
U.K. Hospitals Pvt. Ltd.,"103/112, D- Block,1st Main Road, Annanagar East",Unknown,Unknown,600102,Tamil Nadu,Unknown,hospital,hospital,Unknown,Unknown,Unknown,13.0838857,80.2252632
"Trust Hospital, Chennai","N0 122,Medavakkam Tank Road,Ayanavaram",Unknown,Unknown,600023,Tamil Nadu,Unknown,hospital,hospital,Unknown,Unknown,Unknown,13.0892193,80.2415402
Titan Eye,"Road s Enterprises Pvt Limited, Franchisee Of Titan Eye Rbn Tower,Ak-2,4Th Avenue,Shanthi Colony,Annanagar",Unknown,Unknown,600040,Tamil Nadu,Unknown,hospital,hospital,Unknown,Unknown,Unknown,13.082343,80.2076291
Sai Ortho Care Hospital,"55, Sadulla Street, T.Nagar",Unknown,Unknown,600017,Tamil Nadu,Unknown,hospital,hospital,Unknown,Unknown,Unknown,13.0332775,80.2371645
Sri Kamatchi Nursing Home,"No.2, Jawaharlal Street, New Perungalathur",Unknown,Unknown,600001,Tamil Nadu,Unknown,clinic,Unknown,Unknown,Unknown,Unknown,13.0373801,80.1130088
Sooriya Hospital,"No.1, Near By Avm Studio, Saligramam, Arunachalam St",Unknown,Unknown,600093,Tamil Nadu,Unknown,hospital,hospital,Unknown,Unknown,Unknown,13.0481888,80.2035199
Amruth Siddha and Ayurvedic Clinic,"#45/11,K.H Road,Ayanavaram,Opp T N S C Bank Near Ayanavaram Signal",Unknown,Unknown,600023,Tamil Nadu,Unknown,clinic,clinic,Unknown,Unknown,Unknown,13.097668,80.2415751
Siva Sakthi Nursing Home,"No. 7, Venkateswara Lane, Anna Nednmpathai, Choolaimeda, Near Kodambakkam (Power House)",Unknown,Unknown,600094,Tamil Nadu,Unknown,clinic,Unknown,Unknown,Unknown,Unknown,13.0607823,80.2217676
Centre For Blood Disorder,"Old No.24, New 73, Habibullah Road, T.Nagar",Habibullah Road,Chennai,600017,Tamil Nadu,Unknown,hospital,hospital,+91 44 2834 0668;+91 44 2834 5161,Unknown,Unknown,13.0496502,80.2410582
Csm Nursing Home,"Old No:18 New No: 10, Westmambalam, Rukmani St",Unknown,Unknown,600033,Tamil Nadu,Unknown,clinic,clinic,Unknown,Unknown,Unknown,13.037934,80.2170509
Roselin Gandhi Hospital,"10/18, Arumugam Street, Old Washermenpet",Unknown,Unknown,600021,Tamil Nadu,Unknown,hospital,hospital,Unknown,Unknown,Unknown,13.1166714,80.2803303
Sree Sai Krishna Poly Clinic Hospital,"#32/1, (Old No.463/1),Kilpauk Garden Road ,Kilpauk",Unknown,Unknown,600010,Tamil Nadu,Unknown,clinic,clinic,Unknown,Unknown,Unknown,13.0838165,80.236031
Paterson Cancer Center / Vijaya Health Centre Premises,"175, N.S.K. Salai, Vadapalani",Unknown,Unknown,600026,Tamil Nadu,Unknown,hospital,hospital,Unknown,Unknown,Unknown,13.0475826,80.2069719
Aarthi Scans,"No 17, CV Raman Road",Unknown,Unknown,600018,Tamil Nadu,Unknown,clinic,Unknown,Unknown,Unknown,Unknown,13.0346684,80.2576784
Fertility Research Centre,"6E, Nungambakkam High Road",Unknown,Unknown,600034,Tamil Nadu,Unknown,hospital,hospital,Unknown,Unknown,Unknown,13.0558855,80.2481343
Spot Hospital,"No.36, Dr. Ambedkar Road, Kodambakkam",Unknown,Unknown,600024,Tamil Nadu,Unknown,hospital,hospital,Unknown,Unknown,Unknown,13.047269,80.2187347
B B Hospital,"No.52, Dayalunagar, Kolathur, Near Villirakham Railway Station",Unknown,Unknown,600049,Tamil Nadu,Unknown,hospital,Unknown,Unknown,Unknown,Unknown,13.1184203,80.204346
Sri Visa Clinic,"A Unit Of Sre Visa Clinic (P) Ltd, No.13,New Boag Road, T Nagar",Unknown,Unknown,600017,Tamil Nadu,Unknown,clinic,clinic,Unknown,Unknown,Unknown,13.0312145,80.2321847
"Medindia Hospitals, Chennai","83, Valluvarkottam High Road ( Village Road)",Unknown,Unknown,600034,Tamil Nadu,Unknown,hospital,hospital,Unknown,Unknown,Unknown,13.0606718,80.2432201
K.M. Multi Speciality Hospital,"# 8 & 9 Annai Velakanni Nagar,Madhavaram Milk Colony",Unknown,Unknown,600081,Tamil Nadu,Unknown,hospital,hospital,Unknown,Unknown,Unknown,13.1450072,80.2398249
Rudhra-Chella Clinicare`N`Cure Services,"599,T.H.Road, Tondiarpet",Unknown,Unknown,600081,Tamil Nadu,Unknown,hospital,hospital,Unknown,Unknown,Unknown,13.1228878,80.293498
K.K.R. ENT Hospital and Research Institute(P) Ltd,"827, Poonamallee High Road",Poonamalee High Road,Unknown,600010,Tamil Nadu,Unknown,hospital,hospital,+91 44 2641 1444,https://www.kkrenthospital.org/,Mo-Su 07:00-19:00,13.0781955,80.2452886
Sri Hari Clinic,"61, 7Th Avenue, Ashok Kumar",Unknown,Unknown,600083,Tamil Nadu,Unknown,clinic,clinic,Unknown,Unknown,Unknown,13.0352086,80.2164307
Roy's Heart Foundation,"No: 3/49, Valluvar Salai, Ramapuram",Unknown,Unknown,600089,Tamil Nadu,Unknown,hospital,Unknown,Unknown,Unknown,Unknown,13.0345893,80.1836944
Sri Viveka Institute Of Dental Health,"54, G.N. Chetty Road, T Nagar",Unknown,Unknown,600017,Tamil Nadu,Unknown,dentist,dentist,Unknown,Unknown,Unknown,13.0438892,80.2387923
"Srinivasa Hospital P P N, Chennai","47, Railway Station Road, Near Post Office, Kodambakkam",Unknown,Unknown,600024,Tamil Nadu,Unknown,hospital,hospital,Unknown,Unknown,Unknown,13.0503377,80.2299377
Gastro Cre Hospital,"C,57 11Th Cross Thillai Nagar",Unknown,Unknown,620018,Tamil Nadu,Unknown,hospital,hospital,Unknown,Unknown,Unknown,13.0394065,80.2507684
Dr. A.G. Arumugam Nursing Home,"Old No.764, New No.402, Poonamallee High Road, (Chathurpujadoss Road), Kilpauk, Madras",Unknown,Unknown,600010,Tamil Nadu,Unknown,clinic,clinic,Unknown,Unknown,Unknown,13.0768382,80.2354315
Aaditya Kamaraja Eye Hospital,"No.36, Ist Main Road, Alwarthirunagar Annexe, Alwarthirunagar, Chennai",Unknown,Unknown,600087,Tamil Nadu,Unknown,hospital,hospital,Unknown,Unknown,Unknown,13.0463676,80.1865241
Dr Ravishankars Eye Clinic and Nursing Home,"No.11, Hunters Road, (Near Clock Tower) Vepery",Unknown,Unknown,600112,Tamil Nadu,Unknown,clinic,clinic,Unknown,Unknown,Unknown,13.0872141,80.2596062
Seethapathy Nursing Home,"241,Royupattak High Road",Unknown,Unknown,600014,Tamil Nadu,Unknown,clinic,clinic,Unknown,Unknown,Unknown,13.0489087,80.2645898
Immanuel Hosptal,"221, Nehru Bazaar Road, Avadi",Unknown,Unknown,600054,Tamil Nadu,Unknown,hospital,Unknown,Unknown,Unknown,Unknown,13.1162117,80.1065513
Unknown,Unknown,Unknown,Unknown,Unknown,Unknown,Unknown,pharmacy,pharmacy,Unknown,Unknown,Unknown,13.0025112,80.2568577
Unknown,Unknown,Unknown,Unknown,Unknown,Unknown,Unknown,pharmacy,pharmacy,Unknown,Unknown,Unknown,13.0063273,80.2567379
Farmatodo,Unknown,Unknown,Unknown,Unknown,Unknown,Unknown,pharmacy,pharmacy,Unknown,Unknown,Unknown,13.1636875,80.2540769
Sri Kandan Medicals,Unknown,Unknown,Unknown,Unknown,Unknown,Unknown,pharmacy,pharmacy,Unknown,Unknown,Unknown,13.0105569,80.1960206
Patanjali Pharmacy,Unknown,"# 101 , Butt Road, Defence Colony 1st Ave, Ravi Colony, St.Thomas Mount, Tamil Nadu 600016",Unknown,Unknown,Unknown,Unknown,pharmacy,pharmacy,Unknown,Unknown,Unknown,13.0109087,80.1961641
Siva E N T Hospital,"136 (295), Triplicane High Road",Unknown,Unknown,600005,Tamil Nadu,Unknown,hospital,hospital,Unknown,Unknown,Unknown,13.0619796,80.2741693
"Vinayagam Laser Hospital, Chennai","194, Old No 289, Lloyd's Road, Avvai Sanmugam Salai, Royapettah",Unknown,Unknown,600014,Tamil Nadu,Unknown,hospital,hospital,Unknown,Unknown,Unknown,13.0476113,80.2650954
"Dr Agarwals Eye Hospital, Triplicane","No: 290, Triplicane High Road, Triplicane",Unknown,Unknown,600014,Tamil Nadu,Unknown,hospital,hospital,Unknown,Unknown,Unknown,13.0524884,80.2736449
"Dr.Agarwal's Eye Hospital Ltd., Gopala Puram","No-19, Cathedral Road",Unknown,Unknown,600086,Tamil Nadu,Unknown,hospital,hospital,Unknown,https://www.dragarwal.com/,Unknown,13.0432085,80.259169
Dr. M. Mohamed Meeran Clinic,"77, Paper Mills Road, Perambur",Unknown,Unknown,600039,Tamil Nadu,Unknown,clinic,clinic,Unknown,Unknown,Unknown,13.1216418,80.2436035
Ramarau Polyclinic,"New.No.264 (Old No 829/2), Poonamallee High Road, Kilpauk",Unknown,Unknown,600010,Tamil Nadu,Unknown,clinic,clinic,Unknown,Unknown,Unknown,13.0782438,80.2456386
Bharani Hospital,"No 22, Arcot Road, Saligramam",Unknown,Unknown,600093,Tamil Nadu,Unknown,hospital,hospital,Unknown,Unknown,Unknown,13.0380111,80.2013205
Vasantha Hospital,"No-04, Annai Gangammal Nagar, Satiamurhu Nagar, Thiruvattiyur",Unknown,Unknown,600019,Tamil Nadu,Unknown,hospital,hospital,Unknown,Unknown,Unknown,13.1738112,80.294082
K.K. Nagar Dispensary and Polyclinic,"GPRA Complex, CPWD Quarters, K.K.Nagar",Unknown,Unknown,600078,Tamil Nadu,Unknown,clinic,clinic,Unknown,http://nb.bsf.gov.in/CGHS%20DIspenseries.pdf,Unknown,13.0368,80.2079107
Rajiv Scans,Unknown,Unknown,Unknown,Unknown,Unknown,Unknown,Unknown,laboratory,Unknown,Unknown,Unknown,13.0675771,80.2580238
Fortis Vadapalani Hospital,"Ottagapalayam, Kannika Puram, Vadapalani, Chennai",Unknown,Unknown,600026,Tamil Nadu,Unknown,hospital,hospital,Unknown,Unknown,Unknown,13.0474655,80.2042377
Tamil Nadu Urological Research Centre Best Kidney Stone Clinic,"Poonamallee High Road,Arumbakkam LandMark : Next to Chennai Ford LandMark",Unknown,Unknown,636106,Tamil Nadu,Unknown,hospital,hospital,Unknown,Unknown,Unknown,13.0748708,80.2147555
Sree Sanjeevi Rayan Hospital,"MA Nagar, Padiyanallur, Thiruvallur, NH-5, Great Northern Trunk Road, Thiruvallu",Unknown,Unknown,600052,Tamil Nadu,Unknown,hospital,Unknown,Unknown,Unknown,Unknown,13.1992282,80.1786155
Sri Ranga Hospitals,"No.06, Chokkalingam St, Jeth Nagar, Mandaveli",Unknown,Unknown,600028,Tamil Nadu,Unknown,hospital,hospital,Unknown,Unknown,Unknown,13.0290525,80.2636265
Chamiers Day Care Center,"23, Pasumpon Muthuramalinga Thevar Rd, Rathna Nagar, Nandanam",Unknown,Unknown,600035,Tamil Nadu,Unknown,hospital,hospital,Unknown,Unknown,Unknown,13.0297278,80.2446245
Doctor kannan,"12/10, 3rd St, Bakthavatchalam Nagar, Adyar, Chennai",Unknown,Unknown,600020,Tamil Nadu,Unknown,doctors,doctor,Unknown,Unknown,Unknown,13.0032895,80.25373
Gas Hospital,"3/2, 3/2, Adyar 3rd St, Bakthavatchalam Nagar, Baktavatsalm Nagar, Adyar, Chennai",Unknown,Unknown,600020,Tamil Nadu,Unknown,hospital,hospital,Unknown,Unknown,Unknown,13.003026,80.2540981
Adyar Ortho Clinic,"108/2, Akhil Apartment, Kamaraj Avenue First Street, Kasturba Nagar Main Road, Adyar, near Nalli Silks, Chennai",Unknown,Unknown,600020,Tamil Nadu,Unknown,clinic,clinic,Unknown,Unknown,Unknown,13.0017764,80.2518544
Siloam Hospital,"Justice Ramaswamy Ave, Venkata Rathnam Nagar Extension, Rukmani Nagar, Adyar",Unknown,Unknown,600020,Tamil Nadu,Unknown,clinic,clinic,Unknown,Unknown,Unknown,13.0012776,80.2498239
Dr VK Jayalakshmi - Vishnu Fertility Centre,"No: 148, Kamaraj Ave 2nd St, Adyar",Unknown,Unknown,600020,Tamil Nadu,Unknown,clinic,clinic,Unknown,Unknown,Unknown,13.0015495,80.2497784
Dr.Bala Subramanian,"56,(Old No.105), G.N. Chetty Road, First Floor, T.Nagar",Unknown,Unknown,600017,Tamil Nadu,Unknown,hospital,hospital,Unknown,Unknown,Unknown,13.0465056,80.2423799
Prakash Hospial,"Jawaharlal Nehru Rd, Bharathi Colony, Bharathi Nagar, Anna Nagar",Unknown,Unknown,600040,Tamil Nadu,Unknown,hospital,hospital,Unknown,Unknown,Unknown,13.0882891,80.1989896
Central Government Health Scheme Dispensary & Health Scheme,"Central Revenue Quarters, No 15, Ranganathan Garden, Anna Nagar, Chennai",Unknown,Unknown,600040,Tamil Nadu,Unknown,Unknown,centre,Unknown,http://nb.bsf.gov.in/CGHS%20DIspenseries.pdf,Unknown,13.0888482,80.2046966
"UHP, Kodungaiyur 1","15, Anna Salai, Gandhi Nagar, Moolakadai, Kodungaiyur",Unknown,Unknown,600118,Tamil Nadu,Unknown,Unknown,centre,Unknown,Unknown,Unknown,13.13478,80.243553
Madhavaram Government Hospital,"Government Hospital, Madhavaram, Madhavaram, Manjambakkam, Milk Colony",Unknown,Unknown,600051,Tamil Nadu,Unknown,hospital,Unknown,Unknown,Unknown,Unknown,13.163539,80.2430669
Shri Pooja Maternity Clinic,"Opp. Relince Fressh, M.R. Nagar, Tondiarpet High Road",Unknown,Unknown,600118,Tamil Nadu,Unknown,clinic,clinic,Unknown,Unknown,Unknown,13.1308512,80.2517777
Jeeva Nagar North UPHC,"No.1, Chellliamman Koil Street, Tondiarpet Bus Terminus, Tondiarpet",Unknown,Unknown,600081,Tamil Nadu,Unknown,Unknown,centre,Unknown,Unknown,Unknown,13.13262,80.2863
Swasthik Health Care center,"Near M.R. Nagar, Bus Stop, Moolakadai, Perambur, Ist Main Road",Unknown,Unknown,0:00,Tamil Nadu,Unknown,hospital,hospital,Unknown,Unknown,Unknown,13.1297134,80.2506039
"PHC, Madhavaram","Back Side To Z0Ne Iii Circle Office, Madhavaram, Swamy Nagar",Unknown,Unknown,600060,Tamil Nadu,Unknown,Unknown,centre,Unknown,Unknown,Unknown,13.1480849,80.2300992
NRV Hospital,"86/A, Pandian Cinema Theatre, Kodungaiyur, Kamarajar Salai",Unknown,Unknown,600081,Tamil Nadu,Unknown,hospital,hospital,Unknown,Unknown,Unknown,13.13468,80.243196
"PHC, Kollumedu","Appostalic Blessing Gospel Church, School Street, Suriya Nagar, New Vellanur, Ambathur, Kollumedu",Unknown,Unknown,600062,Tamil Nadu,Unknown,Unknown,centre,Unknown,Unknown,Unknown,13.16156,80.112802
Oragadam PHC,"Ambedkhar Statue, Oragadam, Gandhi High Road",Unknown,Unknown,600050,Tamil Nadu,Unknown,Unknown,centre,Unknown,Unknown,Unknown,13.1297876,80.1536771
Manali PHC,"Near By Church And Panchayat Office, Manali, Pallikudam Street",Unknown,Unknown,600068,Tamil Nadu,Unknown,Unknown,centre,Unknown,Unknown,Unknown,13.16868,80.25812
Thirumullaivoyal PHC,"Oppt. Pachaiamman Kovil, Thirumullaivoyal, Kulakkarai St",Unknown,Unknown,600062,Tamil Nadu,Unknown,Unknown,centre,Unknown,Unknown,Unknown,13.1309288,80.131225
Vilangadupakkam PHC,"Government Adhidravida Welfare Middile School, Vilangadupakkam, Government Primary Health Centre Periyastreet",Unknown,Unknown,600052,Tamil Nadu,Unknown,Unknown,centre,Unknown,Unknown,Unknown,13.1949928,80.2121565
"UHP, Kodungaiyur 2","Vivekanandha Nagar Near Electricity Board, Appar Street, Kodungaiyur",Unknown,Unknown,600118,Tamil Nadu,Unknown,Unknown,centre,Unknown,Unknown,Unknown,13.13079,80.258508
Irch Uhp,"5 sivagnanam street , Pondi Bazaar, Near Pondi Bazar Post Office, Chennai",Unknown,Unknown,600017,Tamil Nadu,Unknown,Unknown,centre,Unknown,Unknown,Unknown,13.1044386,80.2748161
Korukkupet UPHC,"Vaithiyanadhan Bridge, Korrukupet, Amman Koil Strret",Unknown,Unknown,600021,Tamil Nadu,Unknown,Unknown,centre,Unknown,Unknown,Unknown,13.1228129,80.2870743
Govt Kilpauk Medical College Hospital,"822, Poonamallee High Rd, Near Ega Theatre, Kilpauk, Chennai",Unknown,Unknown,600010,Tamil Nadu,Unknown,hospital,hospital,Unknown,Unknown,Unknown,13.07832,80.243753
Sakthi Nursing Home,"No.4, Near Nagathamman Koil St, Saligramam, M.G.R. Salai",Unknown,Unknown,600093,Tamil Nadu,Unknown,clinic,Unknown,Unknown,Unknown,Unknown,13.0583373,80.2012267
Rasi Hospital,"Near Washermanpet Post Office, Oldwashermanpet, Thiruvottiyur High Road",Unknown,Unknown,600021,Tamil Nadu,Unknown,hospital,hospital,Unknown,Unknown,Unknown,13.12038,80.285818
Government Maternity And Child Hospital,"United India Nagar, Ayanavaram",Unknown,Unknown,600023,Tamil Nadu,Unknown,hospital,hospital,Unknown,Unknown,Unknown,13.0991743,80.2301988
Cloudnine Hospital - Chennai,"Near Hyatt Resigency Hotel, T. Nagar, Vijayaraghava Road",Unknown,Unknown,600017,Tamil Nadu,Unknown,hospital,hospital,Unknown,Unknown,Unknown,13.0433937,80.2461174
Mangalapuram PHC,"U.F.W, Amma Unavagam, Chetpet, 8Th Street,Magalapuram",Unknown,Unknown,600031,Tamil Nadu,Unknown,Unknown,centre,Unknown,Unknown,Unknown,13.0731831,80.2429769
Krishnampet UPHC,"55/1, Meceapuram Main Street, Royapeetah, Llyods Road, Royapettah,Ch-14",Unknown,Unknown,600005,Tamil Nadu,Unknown,Unknown,centre,Unknown,Unknown,Unknown,13.0528882,80.2621371
Virugambakkam PHC,"Achi School, Virugambakkam, Kamarajar Street ,Division Office",Unknown,Unknown,600092,Tamil Nadu,Unknown,Unknown,centre,Unknown,Unknown,Unknown,13.051891,80.1968567
Sembium PHC,"Mirsha Husain Park, Sembium, Paper Mills Road",Unknown,Unknown,600011,Tamil Nadu,Unknown,Unknown,centre,Unknown,Unknown,Unknown,13.11399,80.235509
Nallankuppam UPHC,"27th Street, Sarvamangala Colony, Lig Colony, Ashok Nagar, Chennai",Unknown,Unknown,600083,Tamil Nadu,Unknown,Unknown,centre,Unknown,Unknown,Unknown,13.04065,80.21578
Shifa Hospital And Reasearch Centre,"Near Star Theatre, Triplicane, Quaide-Millah High Road",Unknown,Unknown,600005,Tamil Nadu,Unknown,hospital,hospital,Unknown,Unknown,Unknown,13.061988,80.2745135
Siva Sakthi Nursing Home,"No:7, Near Anna Nedumapadhai Market, Choolaimedu, Venkateswara Lane",Unknown,Unknown,600094,Tamil Nadu,Unknown,clinic,Unknown,Unknown,Unknown,Unknown,13.0605437,80.2217663
S.M.Nagar PHC,"Community Hall T.Nagar, Ramakamathupuram, Ramakamathupuram",Unknown,Unknown,600017,Tamil Nadu,Unknown,Unknown,centre,Unknown,Unknown,Unknown,13.0482814,80.2353519
Govt. Stanley Hospital,"Mint, Royapuram, Osh Road",Unknown,Unknown,600001,Tamil Nadu,Unknown,hospital,hospital,Unknown,Unknown,Unknown,13.10618,80.286804
Urban Primary Health Center,"Opp.To Abr Kalyanamandabam, Vyasarpadi, S.A.Colony 8Th Street",Unknown,Unknown,600039,Tamil Nadu,Unknown,Unknown,centre,Unknown,Unknown,Unknown,13.1231681,80.2529369
Zambazar PHC,"opposite to New college, Royapeetah, ROB 6th Street",Unknown,Unknown,600014,Tamil Nadu,Unknown,Unknown,centre,Unknown,Unknown,Unknown,13.0551882,80.2603077
Nagammaiar Nagar North PHC,"Near Iyyappan Temple, Ayanavaram, Vasantha Garden Main Street",Unknown,Unknown,600023,Tamil Nadu,Unknown,Unknown,centre,Unknown,Unknown,Unknown,13.1008845,80.2383559
Subam Specialities Hospitals,"No. 46, (Opp) Vembulliammal Koil, Virugambakkam, Avm Avenue",Unknown,Unknown,600092,Tamil Nadu,Unknown,hospital,hospital,Unknown,Unknown,Unknown,13.0469783,80.1895003
Pudupet PHC,"Langs Garden Rd, Pudupet, Komaleeswaranpet, Egmore",Unknown,Unknown,600002,Tamil Nadu,Unknown,Unknown,centre,Unknown,Unknown,Unknown,13.0711841,80.2679271
Kts Nursing Home,"No: 7/10, Near By Perambur Srinivasa Sweets, Kolathur, Bharathi Nagar Balaji Nagar Main Road",Unknown,Unknown,600099,Tamil Nadu,Unknown,clinic,clinic,Unknown,Unknown,Unknown,13.12222,80.223972
UPHC Vadapalani West,"Vadapalani, Rajangam Mathya Veethi",Unknown,Unknown,600026,Tamil Nadu,Unknown,Unknown,centre,Unknown,Unknown,Unknown,13.05381,80.20915
Choolai UPHC,"Near Choolai Bus Stand, Choolai, Vijaya Vigneswara Koil Street",Unknown,Unknown,600012,Tamil Nadu,Unknown,Unknown,centre,Unknown,Unknown,Unknown,13.091086,80.2656825
Srisaihospital With Matrinity Facility,"No: 36, Near Dayasadan Agarwal Vidyalaya, Maduravoyal, V.G.P Amudha Nagar",Unknown,Unknown,600095,Tamil Nadu,Unknown,hospital,Unknown,Unknown,Unknown,Unknown,13.0692631,80.1799109
Govt Peripheral Hospital Periyar Nagar,"Govt.Peripheral Hospital, Periyar Nagar, Shiva Vishnu Koil, Periyar Nagar, Jaganadhan Salai",Unknown,Unknown,600082,Tamil Nadu,Unknown,hospital,hospital,Unknown,Unknown,Unknown,13.1153048,80.2233851
Perumalpet PHC,"Opposite To Sravana Store, Kariappa Street, Kariappan Street,Chennai-7",Unknown,Unknown,0:00:00,Tamil Nadu,Unknown,Unknown,centre,Unknown,Unknown,Unknown,13.0887868,80.2566885
Be Well Hospital,"5A, (Opp) Anjuman Hr.Sec. School, T. Nagar, Vijayaraghava Road",Unknown,Unknown,600017,Tamil Nadu,Unknown,hospital,hospital,Unknown,Unknown,Unknown,13.0431134,80.2453103
Hera Hospital,"No.1, (Opp) To Akr Mahal, Virugambakkam, Soranmbigai Nagar",Unknown,Unknown,600092,Tamil Nadu,Unknown,hospital,hospital,Unknown,Unknown,Unknown,13.0508643,80.1922458
SBS Hospital Nursing Home,"No.3, Virugambakkam, Iind Main Road Natesan Nagar",Unknown,Unknown,600092,Tamil Nadu,Unknown,clinic,Unknown,Unknown,Unknown,Unknown,13.05943,80.194729
Government Unani Hospital,"E Kal Mandapam Rd, Panaimarathotti, Pudumani Kuppam, Royapuram, Chennai",Unknown,Unknown,600013,Tamil Nadu,Unknown,hospital,hospital,Unknown,Unknown,Unknown,13.1129012,80.2957982
Meenakshi Hospital & Childrens Hospital,"103-109, Near Valluvarkottam, Nungambakkam, Valluvarkottam High Road",Unknown,Unknown,600034,Tamil Nadu,Unknown,hospital,hospital,Unknown,Unknown,Unknown,13.0586646,80.2428501
"UPHC, Avadi","Ram Nagar 4Th St, Ram Nagar, Avadi",Unknown,Unknown,600071,Tamil Nadu,Unknown,Unknown,centre,Unknown,Unknown,Unknown,13.1034047,80.1040655
"PHC, Shenoy Nagar","Gym School, Shenoy Nagar, 4Th Street",Unknown,Unknown,600030,Tamil Nadu,Unknown,Unknown,centre,Unknown,Unknown,Unknown,13.0776301,80.2259431
Subam Clinic,"239/4, Rathna Cafebus Stand, Triplicane, Triplicane High Road",Unknown,Unknown,600005,Tamil Nadu,Unknown,clinic,clinic,Unknown,Unknown,Unknown,13.05774,80.273916
"PHC, Kolathur","Near Don Bosco School, 3Rd Main Road, Srinivasa Nagar, Kolathur",Unknown,Unknown,600049,Tamil Nadu,Unknown,Unknown,centre,Unknown,Unknown,Unknown,13.1190934,80.2066309
Sanjeevirayanpet UHP,"48/125, Sri Rangammal St, Sanjeevarayanpet, Washermanpet, Chennai",Unknown,Unknown,600021,Tamil Nadu,Unknown,Unknown,centre,Unknown,Unknown,Unknown,13.1186161,80.2873816
Padi UCHC,"Britania Company Back Side, Tmp Nagar, Church Street",Unknown,Unknown,600050,Tamil Nadu,Unknown,Unknown,centre,Unknown,Unknown,Unknown,13.0947437,80.1783856
Thiruverkadu PHC,"No.7, Near Sbi Bank, Thiruverkadu, Sivan Koil Street",Unknown,Unknown,600077,Tamil Nadu,Unknown,Unknown,centre,Unknown,Unknown,Unknown,13.0707695,80.1128806
Paruthipattu Uphc,"No.2, Oppt. Chinamman Kovil, Paruthipattu, Pillaiyar Kovil St",Unknown,Unknown,600054,Tamil Nadu,Unknown,Unknown,centre,Unknown,Unknown,Unknown,13.1157648,80.1098061
Tanker Dialysis Foundation Unit,"Next To Kamarajar Illam, T. Nagar ,Chennai, Tamil Nadu, Ellora Apartments, Flat , 4D, 4Th Floor, 20 Tirumurthy Street",Unknown,Unknown,600017,Tamil Nadu,Unknown,hospital,hospital,Unknown,Unknown,Unknown,13.09041,80.175293
Periyar Thidal PHC,"Dhina Thanthi Office, Evk Sampath Salai, E.V.K Sampth Salai ,Vepery",Unknown,Unknown,600007,Tamil Nadu,Unknown,Unknown,centre,Unknown,Unknown,Unknown,13.0859683,80.2633216
Hiba Hospital,"New No: 53/25, Near L.V. Bank, Triplicane, Big Street",Unknown,Unknown,600005,Tamil Nadu,Unknown,hospital,hospital,Unknown,Unknown,Unknown,13.0616195,80.275793
A.R.A Hospital For Women,"Muthiah Street, Dr. Natesan Road, Ice House, Mirsahibpet, Royapettah",Unknown,Unknown,600005,Tamil Nadu,Unknown,hospital,hospital,Unknown,Unknown,Unknown,13.0508818,80.2735131
Mugapair PHC,"Chennai Public School, Mugappair East, Tvs Colony 1St Main Road",Unknown,Unknown,600101,Tamil Nadu,Unknown,Unknown,centre,Unknown,Unknown,Unknown,13.0824777,80.1862979
Priyas Medical Centre,"No.849, Near Parvathi Bhavan, Elango Nagar, Kaliamman Koil St",Unknown,Unknown,600092,Tamil Nadu,Unknown,hospital,Unknown,Unknown,Unknown,Unknown,13.0594024,80.1954415
"PHC, Kondithope","Near New Mint Bus Stand, Basin Bridge Road, Kondithope",Unknown,Unknown,600017,Tamil Nadu,Unknown,Unknown,centre,Unknown,Unknown,Unknown,13.1043408,80.2743222
Villiwakkam PHC,"Villivakkam, Rajamangalam 1St Main Road.",Unknown,Unknown,600049,Tamil Nadu,Unknown,Unknown,centre,Unknown,Unknown,Unknown,13.0999769,80.2011892
Dr. Rai Memorial Medical Centre,"No. 562, Century Plaza, Anna Salai, Teynampet, Opp.Hyatt Regency, Chennai;Century Plaza Anna Salai Teynampet",Unknown,Unknown,600018,Tamil Nadu,Unknown,hospital,hospital,Unknown,Unknown,Unknown,13.044837,80.2475507
Medway Hospitals,"Near Corporation Ground, Kodambakkam, Trustpuram 4Th Cross St",Unknown,Unknown,Unknown,Tamil Nadu,Unknown,hospital,hospital,Unknown,Unknown,Unknown,13.0535971,80.2275376
Seven Wells Hospital,"Near Seven Wells Police Station, Seven Wells, Amman Koil Street,Chennai-1",Unknown,Unknown,600001,Tamil Nadu,Unknown,hospital,hospital,Unknown,Unknown,Unknown,13.0993782,80.2825418
Government Hospital,"Pudupet, Komaleeswaranpet, Egmore, Chennai",Unknown,Unknown,600002,Tamil Nadu,Unknown,hospital,hospital,Unknown,Unknown,Unknown,13.068807,80.2672078
Ranga Nursing Home,"Near Maharani Post Office, Old Washermenpet, Thiruvottiyur High Road",Unknown,Unknown,600021,Tamil Nadu,Unknown,clinic,clinic,Unknown,Unknown,Unknown,13.1192346,80.2857643
Standard Hospital,"No.55, Virugambakkam, Elango Nagar Main Road",Unknown,Unknown,600092,Tamil Nadu,Unknown,hospital,hospital,Unknown,Unknown,Unknown,13.0524675,80.1898468
Chennai Corporation Hospital,"Near old washermanpet post office, Royapuram, Solaiappar Street",Unknown,Unknown,600021,Tamil Nadu,Unknown,hospital,hospital,Unknown,Unknown,Unknown,13.1142928,80.2844517
Guru Raghavendra Hospital,"Sector 11, K. K. Nagar, Chennai",Unknown,Unknown,600083,Tamil Nadu,Unknown,hospital,hospital,Unknown,Unknown,Unknown,13.0410091,80.1964532
RIDA Physiotherapy Clinic,"Near Star Theatre, Triplicane High Road, Triplicane, Quaide-Millath High Road",Unknown,Unknown,600005,Tamil Nadu,Unknown,clinic,clinic,Unknown,Unknown,Unknown,13.0621485,80.2745047
Varadarajapuram Government Hospitals,"Canara Bank, Varadharajapuram, Railway Station Road",Unknown,Unknown,600050,Tamil Nadu,Unknown,hospital,Unknown,Unknown,Unknown,Unknown,13.1126809,80.153358
Urban Primary Health Centre,"Division Office, Ayanavaram, Aspiran Garden",Unknown,Unknown,600010,Tamil Nadu,Unknown,Unknown,centre,Unknown,Unknown,Unknown,13.0855035,80.2396927
Seethapathy clinic & Hospital,"128/241, (Opp) To Provident Fund Office, Royapettah",Unknown,Unknown,600014,Tamil Nadu,Unknown,hospital,hospital,Unknown,Unknown,Unknown,13.0487028,80.2645448
Kvt Health Speciality Hospital,"Near Pavithra Hospital, Chennai, Plot No 1,2,3 , Ethirajaswamy Salai, Erukkanchery",Unknown,Unknown,600118,Tamil Nadu,Unknown,hospital,hospital,Unknown,Unknown,Unknown,13.1267531,80.2489796
Sakthi Hospital &Reasearch Centre Helath Care Organization,"No: 175, Near Indian Bank, Triplicane, Big Street",Unknown,Unknown,600005,Tamil Nadu,Unknown,hospital,hospital,Unknown,Unknown,Unknown,13.0572714,80.2757357
Women And Children Foundation Hospitals T-Nagar,"No:20, Near North Usman Road Head Post Office, T. Nagar, North Usman Road",Unknown,Unknown,600017,Tamil Nadu,Unknown,hospital,hospital,Unknown,Unknown,Unknown,13.0480821,80.2329957
Dr.Rai Cbcc Centre,"Saveetha Dental College, Chennai, 162,Saveetha Dental College Campus Velappanchavadi, Poonamallee High Road",Unknown,Unknown,600077,Tamil Nadu,Unknown,hospital,Unknown,Unknown,Unknown,Unknown,13.05562,80.124419
Annai multispeciality hospital,"121/60, Kaliamman Koil Street, Ganapathy Raj Nagar, Virugambakkam",Unknown,Unknown,600092,Tamil Nadu,Unknown,hospital,hospital,Unknown,Unknown,Unknown,13.0538856,80.1927125
Firm Hospital,"No.65, Near K4 Police Station, Anna Nagar Chennai, R- Block, 12Th Street",Unknown,Unknown,600040,Tamil Nadu,Unknown,hospital,hospital,Unknown,Unknown,Unknown,13.0916464,80.2139939
The Best Hospital Private Ltd,"Near Power House, Kodambakkam, Vellala Street",Unknown,Unknown,600024,Tamil Nadu,Unknown,hospital,hospital,Unknown,Unknown,Unknown,13.0535089,80.2195494
Chennai Corporation Hospital,"Purasaiwalkaam, Kariyappa Street",Unknown,Unknown,600007,Tamil Nadu,Unknown,hospital,hospital,Unknown,Unknown,Unknown,13.0887,80.256712
M.M.D.A. Colony UPHC,"21/63, Mmda Post Office, Arumbakkam, D Block, Pandian Street",Unknown,Unknown,600106,Tamil Nadu,Unknown,Unknown,centre,Unknown,Unknown,Unknown,13.0665829,80.2136697
Triplicane Government Hospital,"Near V.House Bus Stop, Icce Hpuse, Dr.Bescent Road",Unknown,Unknown,600005,Tamil Nadu,Unknown,hospital,hospital,Unknown,Unknown,Unknown,13.060986,80.2747981
Urban Public Health Center,"Vadapalani Eoc Back Side, Kodambakkam, Corporation Colony",Unknown,Unknown,600024,Tamil Nadu,Unknown,Unknown,centre,Unknown,Unknown,Unknown,13.0511322,80.2190929
Hemakamal Nursing Home,"Kathbada Rd, Basin Bridge, Kathibada, Royapuram, Chennai",Unknown,Unknown,600001,Tamil Nadu,Unknown,clinic,clinic,Unknown,Unknown,Unknown,13.1069544,80.2796126
Mirsh Aibpet PHC,"Lloyds Colony, Dr.Nadesan Road, Muthiya Main Street",Unknown,Unknown,600014,Tamil Nadu,Unknown,Unknown,centre,Unknown,Unknown,Unknown,13.05073,80.2722891
Vyasarpadi North PHC,"M.K.B Nagar Bus Stand, Vyasarpadi, 14Th East Cross Street",Unknown,Unknown,600039,Tamil Nadu,Unknown,Unknown,centre,Unknown,Unknown,Unknown,13.1245741,80.2625243
Government Hospital For Ladies And Children,"Koyambedu Market, Virugambakkam, Natesa Nagar,5Th Main Road",Unknown,Unknown,600092,Tamil Nadu,Unknown,hospital,Unknown,Unknown,Unknown,Unknown,13.0590564,80.1928218
Dr. Premkumar's Orthopedic Clinic,Unknown,Unknown,Unknown,Unknown,Unknown,Unknown,clinic,clinic,Unknown,Unknown,Unknown,13.0566709,80.2350491
SIMS Hospital,"Tirumurthy Nagar, Nungambakkam, Chennai",Unknown,Unknown,600034,Tamil Nadu,Unknown,hospital,hospital,Unknown,Unknown,Unknown,13.0561828,80.2478331
Human Health,Unknown,Unknown,Unknown,Unknown,Unknown,Unknown,Unknown,laboratory,Unknown,Unknown,Unknown,13.0538477,80.2494072
"Urban Primary Health Center, Mugalivakkam",School Street,"Vembadi Vinayakar Koil Rd, Dhanam Nagar",Mugalivakkam,600125,Tamil Nadu,Unknown,Unknown,hospital,Unknown,Unknown,Unknown,13.0209496,80.1670655
Shree Chakra Maternity Clinic and Nursing Home,"Old No 108 New No: 4, T. Nagar Bus Stand Madley Subway, West Mambalam, Ellaiamman Koil Street",Unknown,Unknown,600033,Tamil Nadu,Unknown,clinic,clinic,Unknown,Unknown,Unknown,13.0348047,80.2246285
Sri Muthukumaran Medical College Hospital & Research Institute,"Chikkarayapuram, Mangadu, Kundrathur Road",Unknown,Unknown,600069,Tamil Nadu,Unknown,hospital,Unknown,Unknown,Unknown,Unknown,13.01822,80.108873
Kavitha Clinic,"71/89, T. Nagar, South Westboag Road",Unknown,Unknown,600017,Tamil Nadu,Unknown,clinic,clinic,Unknown,Unknown,Unknown,13.0340836,80.2419057
Sunrays Laproscopic Centre,"Next To Ashok Nagar Bus Statnd, Ashok Nagar, 2Nd Avenue",Unknown,Unknown,600083,Tamil Nadu,Unknown,hospital,hospital,Unknown,Unknown,Unknown,13.0319129,80.2099892
Hirsh Nursing Home,"No.35 Old No:5, Near Mgr Statue, Nesapakkam, Bharathi Nagar Main Road",Unknown,Unknown,600089,Tamil Nadu,Unknown,clinic,clinic,Unknown,Unknown,Unknown,13.0298958,80.1911357
Sriramachandra Hospital,"Near Porur Lake, Porur, Ramachandra Nagar",Unknown,Unknown,600116,Tamil Nadu,Unknown,hospital,Unknown,Unknown,Unknown,Unknown,13.0374439,80.1444537
Chinna Porur Government Hospital,"Hospital Rd, Sairam Avenue, Valasaravakkam, Chennai",Unknown,Unknown,600089,Tamil Nadu,Unknown,hospital,Unknown,Unknown,Unknown,Unknown,13.0369528,80.169935
Kotturpuram UPHC,"Kotturpuram Uphc,12/23 Dhandayuthapani 2Nd St Kotturpuram, Ch-85",Unknown,Unknown,600085,Tamil Nadu,Unknown,Unknown,centre,Unknown,Unknown,Unknown,13.0230199,80.2401457
Motherhood Hospital,"Alwarpet Signal, Alwerpet, T.T..K Road",Unknown,Unknown,600018,Tamil Nadu,Unknown,hospital,hospital,Unknown,Unknown,Unknown,13.0312006,80.2511993
Mangadu PHC,Kundrathur Main Road,Unknown,Unknown,602101,Tamil Nadu,Unknown,Unknown,centre,Unknown,Unknown,Unknown,13.0298709,80.1114175
Gunasekaran Hospitals Pvt.Ltd,"No:1, Raj Palace Hotel (Opp), T. Nagar, Crescent Park St",Unknown,Unknown,600017,Tamil Nadu,Unknown,hospital,hospital,Unknown,Unknown,Unknown,13.0374624,80.2389389
Saidapet West PHC,"Jones Rd, Anna Nagar, Saidapet",Unknown,Unknown,600015,Tamil Nadu,Unknown,Unknown,centre,Unknown,Unknown,Unknown,13.0204311,80.2240903
VHS PHC,"Vhs Multispeciality Hospital, Madhyakailesh Temple, Tharamani, Rajiv Gandhi Salai",Unknown,Unknown,600113,Tamil Nadu,Unknown,Unknown,centre,Unknown,Unknown,Unknown,13.00279,80.24698
Kumaran Specialities Hospital,"No: 46, 1St Avenue, Opp To Canara Bank & Andhra Bank, Ashok Nagar, Chennai",Unknown,Unknown,600083,Tamil Nadu,Unknown,hospital,hospital,Unknown,Unknown,Unknown,13.03968,80.21204
Saidapet PHC,"Panagal Maligai, Saidapet, Jones Road",Unknown,Unknown,600015,Tamil Nadu,Unknown,Unknown,centre,Unknown,Unknown,Unknown,13.0283419,80.2162268
Arokiya hospital,"32, Pillayar Koil St, Kk Nagar West, Nesapakkam",Unknown,Unknown,600078,Tamil Nadu,Unknown,hospital,hospital,Unknown,Unknown,Unknown,13.0374234,80.190944
Parvathy Hospital,"Back Side Of Hotel Grand Residence, Karapakkam",Unknown,Unknown,600116,Tamil Nadu,Unknown,hospital,Unknown,Unknown,Unknown,Unknown,13.036525,80.1567342
"PHC, Beemannanpet",Unknown,Thiruvalluvar Salai,Unknown,600018,Tamil Nadu,Unknown,Unknown,centre,Unknown,Unknown,Unknown,13.0353537,80.250612
Genesis Womens Hospital,"Suthamal Extension, Teynampet, First Main Road",Unknown,Unknown,600018,Tamil Nadu,Unknown,hospital,hospital,Unknown,Unknown,Unknown,13.034922,80.2465468
Radhatri Nethralaya,"New No: 12, Old No:29, Behind Dakshina Hindi Prachara Sabha, T. Nagar, Hindi Prachara Sabha St",Unknown,Unknown,600017,Tamil Nadu,Unknown,hospital,hospital,Unknown,Unknown,Unknown,13.0342203,80.2398192
Kavery Hospital,"Cit Colony, Alwarpet",Unknown,Unknown,600018,Tamil Nadu,Unknown,hospital,hospital,Unknown,Unknown,Unknown,13.038362,80.2572398
Kanamapet Government Hospital,"Kannammapet, Cit Nagar, Chennai",Unknown,Unknown,600017,Tamil Nadu,Unknown,hospital,hospital,Unknown,Unknown,Unknown,13.0298989,80.2261208
Sri Sai Krs Hospital,"No.39, Ashok Nagar, 7Th Avenue",Unknown,Unknown,600083,Tamil Nadu,Unknown,hospital,hospital,Unknown,Unknown,Unknown,13.037967,80.2162727
Porur PHC,"Porur, Poonamallee, Main Road",Unknown,Unknown,600116,Tamil Nadu,Unknown,Unknown,centre,Unknown,Unknown,Unknown,13.0371,80.169936
Government Hospital Alandur,"Near Rto Office, Alandhur, Sowri Street",Unknown,Unknown,600016,Tamil Nadu,Unknown,hospital,hospital,Unknown,Unknown,Unknown,13.0048164,80.2025432
Janani Hospital,"No.7, Mgr Statue, Amman Street, Ramapuram Main Road, Nehru Nagar, Nesapakkam",Unknown,Unknown,600078,Tamil Nadu,Unknown,hospital,hospital,Unknown,Unknown,Unknown,13.0313233,80.1909256
Kumaran Nagar UPHC,"Sirinivasa Theatre Near Avanganathan Bridge, West Mambalam, Govindan Road",Unknown,Unknown,600033,Tamil Nadu,Unknown,Unknown,centre,Unknown,Unknown,Unknown,13.03102,80.224117
Sri Sumathi Vishal Jain Dialysis Centre,Unknown,Unknown,Unknown,Unknown,Unknown,Unknown,Unknown,dialysis,Unknown,Unknown,Unknown,13.0550736,80.232573
Kalyanaraman Consulting Room,Unknown,Unknown,Unknown,Unknown,Unknown,Unknown,Unknown,doctor,Unknown,Unknown,Unknown,13.084566,80.2335309
Padma Chandrasekharan Clinic,Unknown,Unknown,Unknown,Unknown,Unknown,Unknown,doctors,clinic,Unknown,Unknown,Mo-Su 18:00-21:00,13.0585997,80.2422913
Pulp Dental Hospital,Chennai,Unknown,Unknown,600031,Tamil Nadu,Unknown,dentist,dentist,Unknown,Unknown,Unknown,13.054776,80.2499299
Scans World,Unknown,Unknown,Unknown,Unknown,Unknown,Unknown,Unknown,laboratory,"044 4000 0008, 9791007777",http://www.scansworld.in,Unknown,13.0570676,80.2436601
Unknown,Unknown,Unknown,Unknown,Unknown,Unknown,Unknown,hospital,hospital,Unknown,Unknown,Unknown,13.0753606,80.21879
Taj Hospital,Unknown,Unknown,Unknown,Unknown,Unknown,Unknown,hospital,hospital,Unknown,Unknown,Unknown,13.0239396,80.116819
Unknown,Unknown,South Mada St,Unknown,600049,Unknown,Unknown,dentist,dentist,9688867716,Unknown,Mo-Sa 18:00-21:00,13.1057366,80.2076677
Yaathum.Life,Unknown,Vellalar Street,Thandalam,600128,Unknown,Unknown,Unknown,alternative,Unknown,https://www.bodhisays.com/,Mo-Su 09:00-21:00,13.002843,80.1181707
Memisa Skin Clinic,Manali,Unknown,Unknown,600051,Tamil Nadu,Unknown,clinic,Unknown,Unknown,Unknown,Unknown,13.1534531,80.2533929
Sri Jayakala Clinic,Mathur,Unknown,Unknown,600051,Tamil Nadu,Unknown,clinic,clinic,Unknown,Unknown,Unknown,13.167576,80.246488
Uma Hospital,"Bharathi Nagar, Lakshmipuram",Unknown,Unknown,600099,Tamil Nadu,Unknown,hospital,hospital,Unknown,Unknown,Unknown,13.1345397,80.2058879
Maaya Nursing Home,Vadapalani,Unknown,Unknown,600099,Tamil Nadu,Unknown,clinic,clinic,Unknown,Unknown,Unknown,13.131644,80.2121709
Acharya Tulsi Clinic,"Puzhal, Lyon",Unknown,Unknown,600066,Tamil Nadu,Unknown,clinic,Unknown,Unknown,Unknown,Unknown,13.1651744,80.2098306
Suman Hospital,"Rajakadai, Tiruvottiyur",Unknown,Unknown,600019,Tamil Nadu,Unknown,hospital,hospital,Unknown,Unknown,Unknown,13.1503301,80.2984201
Mahalakshmi Clinic,"Gurushanthi Nagar, Kavankarai, Puzhal",Unknown,Unknown,600066,Tamil Nadu,Unknown,clinic,Unknown,Unknown,Unknown,Unknown,13.1724224,80.200226
Sri Kannan Clinic,Unknown,Unknown,Unknown,600066,Tamil Nadu,Unknown,clinic,Unknown,Unknown,Unknown,Unknown,13.170706,80.199551
Dr. Ezhilarasi Clinic,"Rajan Nagar, Lakshmipuram",Unknown,Unknown,600099,Tamil Nadu,Unknown,clinic,clinic,Unknown,Unknown,Unknown,13.1327627,80.2073327
Smile Care Multispeciality Dental Clinic,"Chinnasekkadu, Manali",Unknown,Unknown,600051,Tamil Nadu,Unknown,dentist,dentist,Unknown,Unknown,Unknown,13.1554438,80.2569022
Sunil's Dental Care,Kolathur,Unknown,Unknown,600099,Tamil Nadu,Unknown,dentist,dentist,Unknown,Unknown,Unknown,13.1346648,80.2099619
Ropheka Polyclinic,"Vasantha Nagar, Tiruvottiyur",Unknown,Unknown,600019,Tamil Nadu,Unknown,clinic,clinic,Unknown,Unknown,Unknown,13.1463416,80.2978175
Kvm Physiotherapy Clinic,"Chinnasekkadu, Manali",Unknown,Unknown,600051,Tamil Nadu,Unknown,clinic,clinic,Unknown,Unknown,Unknown,13.1625945,80.2594403
Srs Healthcare Clinic,Unknown,Unknown,Unknown,600068,Tamil Nadu,Unknown,clinic,clinic,Unknown,Unknown,Unknown,13.1675158,80.247696
Sankara Eye Hospital,"Vimlapuram, Chinnasekkadu, Manali",Unknown,Unknown,600068,Tamil Nadu,Unknown,hospital,hospital,Unknown,Unknown,Unknown,13.165259,80.25871
Md Hussain Hospital,"Kannappasamy Nagar, Puzhal",Unknown,Unknown,600066,Tamil Nadu,Unknown,hospital,Unknown,Unknown,Unknown,Unknown,13.1702776,80.193567
TJ Dental Clinic,"Kamaraj Salai, Manali",Unknown,Unknown,600051,Tamil Nadu,Unknown,dentist,dentist,Unknown,Unknown,Unknown,13.1628639,80.2604165
Annai Hospital,"Vasantha Nagar, Rajakadai",Unknown,Unknown,600019,Tamil Nadu,Unknown,hospital,hospital,Unknown,Unknown,Unknown,13.1486276,80.2982812
Dr. Saravana's Ortho Clinic,"Lakshmipuram, Kolathur",Unknown,Unknown,600099,Tamil Nadu,Unknown,clinic,clinic,Unknown,Unknown,Unknown,13.1358049,80.2092573
Sri Malar Clinic,"Sakthivel Nagar, Puzhal",Unknown,Unknown,600066,Tamil Nadu,Unknown,clinic,Unknown,Unknown,Unknown,Unknown,13.1621341,80.205369
GK Shree Health Clinic,Kavanagarai,Unknown,Unknown,600066,Tamil Nadu,Unknown,clinic,Unknown,Unknown,Unknown,Unknown,13.1711581,80.2000625
Sekar Hospital,"Rajakadai, Tiruvottiyur",Unknown,Unknown,600019,Tamil Nadu,Unknown,hospital,hospital,Unknown,Unknown,Unknown,13.1523333,80.2998808
St. Anthony's Hospital,Puzhal,Unknown,Unknown,600066,Tamil Nadu,Unknown,hospital,Unknown,Unknown,Unknown,Unknown,13.161861,80.204431
I Smile Dental Care,"Kaladipet, Chennai",Unknown,Unknown,600019,Tamil Nadu,Unknown,dentist,dentist,Unknown,Unknown,Unknown,13.151965,80.299566
Sri Vishnu Clinic,"Chinnasekkadu, Manali",Unknown,Unknown,600068,Tamil Nadu,Unknown,clinic,clinic,Unknown,Unknown,Unknown,13.1602832,80.2584421
S.S Clinic,Unknown,Unknown,Unknown,600056,Tamil Nadu,Unknown,clinic,Unknown,Unknown,Unknown,Unknown,13.0497791,80.1146142
Dhanvantari Multispeciality Clinic,Kattupakkam,Unknown,Unknown,600056,Tamil Nadu,Unknown,clinic,Unknown,Unknown,Unknown,Unknown,13.0341953,80.1238143
Neha Clinic and Diagnostic centre,"Srinivasa Nagar, Poonamallee",Unknown,Unknown,600056,Tamil Nadu,Unknown,clinic,clinic,Unknown,Unknown,Unknown,13.0507828,80.1009762
Dr. Tamilarasi Dental Clinic,"Alwartirunagar, Valasaravakkam, Chennai",Unknown,Unknown,600095,Tamil Nadu,Unknown,dentist,dentist,Unknown,Unknown,Unknown,13.0469121,80.1843538
Kannimaram Hospital,"Alwartirunagar, Valasaravakkam, Chennai",Unknown,Unknown,600087,Tamil Nadu,Unknown,hospital,hospital,Unknown,Unknown,Unknown,13.0471845,80.184358
Yagnyaa Diabetes Clinic,Valasaravakkam,Unknown,Unknown,600087,Tamil Nadu,Unknown,clinic,Unknown,Unknown,Unknown,Unknown,13.0471927,80.1814527
Vasanthi Dental Hospital,Valasaravakkam,Unknown,Unknown,600087,Tamil Nadu,Unknown,hospital,Unknown,Unknown,Unknown,Unknown,13.0401817,80.1803453
Maf Clinic,"Alwartiru Ngar, Valasaravakkam",Unknown,Unknown,600087,Tamil Nadu,Unknown,clinic,clinic,Unknown,Unknown,Unknown,13.0456848,80.1858062
Sri Venkatesvara Physio and Obesity Centre,"Arcot Road, Chennai",Unknown,Unknown,600087,Tamil Nadu,Unknown,clinic,clinic,Unknown,Unknown,Unknown,13.0447838,80.1844199
Latha Ravichandran Clinic,"Palaniappa Nagar, Valasaravakkam",Unknown,Unknown,600087,Tamil Nadu,Unknown,clinic,Unknown,Unknown,Unknown,Unknown,13.0456183,80.1820026
Aravind Eye Hospital,Poonamallee,Mount Poonamallee Highway,Chennai,600077,Tamil Nadu,Unknown,hospital,hospital,+91 44 4095 6100,https://aravind.org/,Mo-Sa 7:30-18:00; Su off,13.0532913,80.1249542
Dr. N Suresh Kumar,"Alwartirunagar, Valasaravakkam",Unknown,Unknown,600087,Tamil Nadu,Unknown,doctors,doctor,Unknown,Unknown,Unknown,13.047776,80.185283
Jeevan Women Care Clinic,"Valasaravakkam, Chennai",Unknown,Unknown,600095,Tamil Nadu,Unknown,clinic,clinic,Unknown,Unknown,Unknown,13.0442533,80.184247
Champa Clinic,Poonamallee,Unknown,Unknown,600056,Tamil Nadu,Unknown,clinic,clinic,Unknown,Unknown,Unknown,13.0494837,80.1028024
Udhaya Sai Clinic,"Chowthri Nagar, Valasaravakkam",Unknown,Unknown,600087,Tamil Nadu,Unknown,clinic,Unknown,Unknown,Unknown,Unknown,13.0382058,80.1807184
Meenakshi Mission Hospital,Madurai,Unknown,Unknown,625020,Tamil Nadu,Unknown,hospital,Unknown,Unknown,Unknown,Unknown,13.0472622,80.1815603
ESI Dispensary,"Karayanchavadi, Poonamallee",Unknown,Unknown,600056,Tamil Nadu,Unknown,Unknown,centre,Unknown,Unknown,Unknown,13.0508209,80.1133058
Shanthi Hospital,"Alwarthirunagar, Chennai",Unknown,Unknown,600087,Tamil Nadu,Unknown,hospital,hospital,Unknown,Unknown,Unknown,13.0470409,80.1841129
Best Laser Dental Clinic,"Kumudam Nagar, Mugalivakkam",Unknown,Unknown,600125,Tamil Nadu,Unknown,dentist,dentist,Unknown,Unknown,Unknown,13.0214884,80.166537
Padmavathi Dental Care,"Sabari Nagar, Mugalivakkam",Unknown,Unknown,600125,Tamil Nadu,Unknown,dentist,dentist,Unknown,Unknown,Unknown,13.0243553,80.1714555
Rathna Hospital,Unknown,Unknown,Unknown,600016,Tamil Nadu,Unknown,hospital,hospital,Unknown,Unknown,Unknown,13.0087475,80.1937172
Deen Hospital,"Sriram Nagar, Poonamallee",Unknown,Unknown,600056,Tamil Nadu,Unknown,hospital,Unknown,Unknown,Unknown,Unknown,13.034339,80.1104925
S.S. Hospital,Alandur,Unknown,Unknown,600016,Tamil Nadu,Unknown,hospital,hospital,Unknown,Unknown,Unknown,13.0036449,80.2030844
Dhanraj Hospital,Alandu,Unknown,Unknown,600016,Tamil Nadu,Unknown,hospital,hospital,Unknown,Unknown,Unknown,13.0017797,80.2033269
Nalam Hospital,"Ambedkar Nagar, Manapakkam",Unknown,Unknown,600116,Tamil Nadu,Unknown,hospital,Unknown,Unknown,Unknown,Unknown,13.0164671,80.1772853
Healthwise Clinic,"Tulasingapuram, Nandambakkam",Unknown,Unknown,600089,Tamil Nadu,Unknown,clinic,Unknown,Unknown,Unknown,Unknown,13.0154658,80.1838246
Indhu Siddha Ayurveda Clinic,"Ramachandra Nagar, Iyyapanthangal",Unknown,Unknown,600056,Tamil Nadu,Unknown,clinic,Unknown,Unknown,Unknown,Unknown,13.0358366,80.1346656
Indra Clinic,"Kamachi Nagar, Mangadu",Unknown,Unknown,600116,Tamil Nadu,Unknown,clinic,Unknown,Unknown,Unknown,Unknown,13.0371387,80.1121067
Sai Mind Care,"Thirumalai Nagar, Moonram Kattalai",Unknown,Unknown,600069,Tamil Nadu,Unknown,clinic,Unknown,Unknown,Unknown,Unknown,13.0028361,80.1033642
Primary Health Centre,"Kovur, Kanchipuram",Unknown,Unknown,600128,Tamil Nadu,Unknown,Unknown,centre,Unknown,Unknown,Unknown,13.0100737,80.1141934
Sri Renga Clinic,"Mookambigai Nagar, Nesapakkam",Unknown,Unknown,600083,Tamil Nadu,Unknown,clinic,Unknown,Unknown,Unknown,Unknown,13.036466,80.186442
Jaya Sri Hospital,Alandur,Unknown,Unknown,600016,Tamil Nadu,Unknown,hospital,Unknown,Unknown,Unknown,Unknown,13.0027883,80.207025
Kedar Hospital,"Subbiah Nagar, Iyyappanthangal",Unknown,Unknown,600056,Tamil Nadu,Unknown,hospital,Unknown,Unknown,Unknown,Unknown,13.0441663,80.1364773
Sai Nursing Home and Maternity Hospital,"Kamatchiamman Nagar, Poonamallee",Unknown,Unknown,600122,Tamil Nadu,Unknown,hospital,Unknown,Unknown,Unknown,Unknown,13.0372175,80.1136836
Kaanthi Makapperu Hospital,Alandur,Unknown,Unknown,600016,Tamil Nadu,Unknown,hospital,Unknown,Unknown,Unknown,Unknown,13.003406,80.2063632
Dr. Vasantha's Eye Clinic,Unknown,Unknown,Unknown,600028,Tamil Nadu,Unknown,clinic,clinic,Unknown,Unknown,Unknown,13.0221852,80.259708
Dr. S. Nambi,"Mylapore, Chennai",Unknown,Unknown,600004,Tamil Nadu,Unknown,doctors,doctor,Unknown,Unknown,Unknown,13.0380247,80.2637952
Sri Sarada Ayurveda Clinic,"Mandaveli, Chennai",Unknown,Unknown,600028,Tamil Nadu,Unknown,clinic,clinic,Unknown,Unknown,Unknown,13.0297211,80.2606156
Dr. Vasantha Clinic,"Narasimahapuram, Abiramapuram, Chennai",Unknown,Unknown,600004,Tamil Nadu,Unknown,clinic,clinic,Unknown,Unknown,Unknown,13.0292453,80.2602795
Dr. Vasanthi Clinic,"Narayana Krishnaraja Puram, Triplicane",Unknown,Unknown,600005,Tamil Nadu,Unknown,clinic,clinic,Unknown,Unknown,Unknown,13.0544077,80.2779849
Accu Hospital,"Mylapore, Chennai",Unknown,Unknown,600004,Tamil Nadu,Unknown,hospital,hospital,Unknown,Unknown,Unknown,13.041251,80.267354
Kalyani Hospital,"Sudandira Nagar, Royapettah",Unknown,Unknown,600014,Tamil Nadu,Unknown,hospital,hospital,Unknown,Unknown,Unknown,13.0512111,80.273209
Dr. N. Sekar,"Mylapore, Chennai",Unknown,Unknown,600004,Tamil Nadu,Unknown,clinic,clinic,Unknown,Unknown,Unknown,13.0375294,80.2658475
Ashwath Health Care,"Mylapore, Chennai",Unknown,Unknown,600004,Tamil Nadu,Unknown,clinic,clinic,Unknown,Unknown,Unknown,13.0397241,80.2685888
Sai Clinic,"Mylapore, Chennai",Unknown,Unknown,600004,Tamil Nadu,Unknown,clinic,clinic,Unknown,Unknown,Unknown,13.042349,80.2664963
Triveni Hospital,"Mylapore, Chennai",Unknown,Unknown,600004,Tamil Nadu,Unknown,hospital,hospital,Unknown,Unknown,Unknown,13.0385371,80.2581929
Dr. Vindhiya,"Sastri Nagar, Adyar",Unknown,Unknown,600020,Tamil Nadu,Unknown,doctors,doctor,Unknown,Unknown,Unknown,13.0013115,80.2572335
B.K. Clinic,Triplicane,Unknown,Unknown,600014,Tamil Nadu,Unknown,clinic,clinic,Unknown,Unknown,Unknown,13.0532206,80.2726053
Sai Neuro Clinic,"Mandaveli Railway Station, Abiramapuram, Chennai",Unknown,Unknown,600004,Tamil Nadu,Unknown,clinic,Unknown,Unknown,Unknown,Unknown,13.0318707,80.2595716
Vasantha Hospital,Unknown,Unknown,Unknown,600014,Tamil Nadu,Unknown,hospital,hospital,Unknown,Unknown,Unknown,13.0490602,80.2747953
Elixir Multi Speciality Centre,"Alwarpet, Chennai",Unknown,Unknown,600018,Tamil Nadu,Unknown,clinic,Unknown,Unknown,Unknown,Unknown,13.034819,80.2580026
Orthomed Hospital,"Royapettah, Chennai",Unknown,Unknown,600004,Tamil Nadu,Unknown,hospital,hospital,Unknown,Unknown,Unknown,13.0454703,80.2668731
Mint Hospitals,"Shastri Nagar, Adyar",Unknown,Unknown,600020,Tamil Nadu,Unknown,hospital,hospital,Unknown,Unknown,Unknown,13.0013494,80.258796
Sri Sai Speciality Clinic,"Bhaskarapuram, Mylapore, Chennai",Unknown,Unknown,600004,Tamil Nadu,Unknown,clinic,Unknown,Unknown,Unknown,Unknown,13.0373228,80.2612955
Dr. M G Rajamanickam,"Oliver Road, Chennai",Unknown,Unknown,600004,Tamil Nadu,Unknown,doctors,doctor,Unknown,Unknown,Unknown,13.0386219,80.261844
Dr. Niraj Joshi,"Mylapore, Chennai",Unknown,Unknown,600004,Tamil Nadu,Unknown,doctors,doctor,Unknown,Unknown,Unknown,13.037733,80.261316
Dr. G. Venkatakrishnan,"Mylapore, Chennai",Unknown,Unknown,600004,Tamil Nadu,Unknown,doctors,doctor,Unknown,Unknown,Unknown,13.039965,80.267691
Saanvi Fertility Centre Urology and Stone Centre,Unknown,Unknown,Unknown,600004,Tamil Nadu,Unknown,hospital,hospital,Unknown,Unknown,Unknown,13.0436591,80.2639406
The Crescent Hospital,"Mirsahibpet, Royapettah",Unknown,Unknown,600014,Tamil Nadu,Unknown,hospital,hospital,Unknown,Unknown,Unknown,13.0528771,80.2727865
Chennai Urology Clinic,"Mylapore, Chennai",Unknown,Unknown,600004,Tamil Nadu,Unknown,clinic,clinic,Unknown,Unknown,Unknown,13.0428357,80.2620778
Dr. Sridher,"Karpagambal Nagar, Mylapore, Chennai",Unknown,Unknown,600004,Tamil Nadu,Unknown,doctors,doctor,Unknown,Unknown,Unknown,13.0383898,80.2639336
Syma Hospital,Narayana Krishnaraja Puram,Unknown,Unknown,600005,Tamil Nadu,Unknown,hospital,hospital,Unknown,Unknown,Unknown,13.0546321,80.2774772
Sri Parthasarathy Hospital,"Narayana Krishnaraja Puram, Triplicane",Unknown,Unknown,600005,Tamil Nadu,Unknown,hospital,hospital,Unknown,Unknown,Unknown,13.0547617,80.2756509
Children's Clinic,"Mylapore, Chennai",Unknown,Unknown,600004,Tamil Nadu,Unknown,clinic,clinic,Unknown,Unknown,Unknown,13.0374881,80.2678508
Vijayganga Speciality Care,"Mylapore, Chennai",Unknown,Unknown,600004,Tamil Nadu,Unknown,clinic,clinic,Unknown,Unknown,Unknown,13.042006,80.2665
Homeopathy Clinic,Unknown,Unknown,Unknown,600005,Tamil Nadu,Unknown,clinic,clinic,Unknown,Unknown,Unknown,13.0554568,80.2771022
Revathi Child Care Clinic,"Virugambakkam, Chennai",Unknown,Unknown,600092,Tamil Nadu,Unknown,clinic,clinic,Unknown,Unknown,Unknown,13.056806,80.199977
Aishwarya Clinic,KK Nagar,Unknown,Unknown,600083,Tamil Nadu,Unknown,clinic,clinic,Unknown,Unknown,Unknown,13.0398827,80.1936068
Spn Orthopaedic Clinic,"Vadapalani, Chennai",Unknown,Unknown,600026,Tamil Nadu,Unknown,clinic,clinic,Unknown,Unknown,Unknown,13.052893,80.20767
Clove Dental,"Nungambakkam, Chennai",Unknown,Unknown,600034,Tamil Nadu,Unknown,dentist,dentist,Unknown,Unknown,Unknown,13.0588744,80.2424194
R.S. Hospital,"Vadapalani, Chennai",Unknown,Unknown,600026,Tamil Nadu,Unknown,hospital,hospital,Unknown,Unknown,Unknown,13.0549375,80.2068588
Arun Vijaya Hospitals,"KK Nagar West, K. K. Nagar",Unknown,Unknown,600078,Tamil Nadu,Unknown,hospital,hospital,Unknown,Unknown,Unknown,13.038873,80.192755
Dr. Jayarajah M,"Virrugambakkam, Chennai",Unknown,Unknown,600092,Tamil Nadu,Unknown,doctors,doctor,Unknown,Unknown,Unknown,13.055132,80.198496
Pranic Health,"Seetha Nagar, Nungambakkam, Chennai",Unknown,Unknown,600034,Tamil Nadu,Unknown,clinic,clinic,Unknown,Unknown,Unknown,13.0624604,80.24239
Lakshana Physiotherapy,"Saligramam, Chennai",Unknown,Unknown,600093,Tamil Nadu,Unknown,clinic,clinic,Unknown,Unknown,Unknown,13.051432,80.199068
R.K Dental Care,"Saligramam, Chennai",Unknown,Unknown,600093,Tamil Nadu,Unknown,dentist,dentist,Unknown,Unknown,Unknown,13.0510076,80.1988337
Dr. V Mahadevan,"Elango Nagar, Virugambakkam, Chennai",Unknown,Unknown,600092,Tamil Nadu,Unknown,doctors,doctor,Unknown,Unknown,Unknown,13.0549333,80.1927695
Prime Health Care Clinics,"Kumaran Colony, Vadapalani, Chennai",Unknown,Unknown,600026,Tamil Nadu,Unknown,clinic,clinic,Unknown,Unknown,Unknown,13.0522176,80.2056967
Arun Dental Clinic,"Alwartirunagar, Virugambakkam, Chennai",Unknown,Unknown,600092,Tamil Nadu,Unknown,dentist,dentist,Unknown,Unknown,Unknown,13.0478238,80.1892231
Swathy Clinic,"Virugambakkam, Chennai",Unknown,Unknown,600092,Tamil Nadu,Unknown,clinic,clinic,Unknown,Unknown,Unknown,13.0488672,80.1938731
Jayanthi Skin and Bone Care Clinic,"Alwartirunagar, Valasaravakkam, Chennai",Unknown,Unknown,600095,Tamil Nadu,Unknown,clinic,clinic,Unknown,Unknown,Unknown,13.0463215,80.1862225
Anub Sivam Clinic,KK Nagar,Unknown,Unknown,600083,Tamil Nadu,Unknown,clinic,clinic,Unknown,Unknown,Unknown,13.0385615,80.1959333
Dr. J. Sarojini Homoeopathic Clinic,"Saligramam, Chennai",Unknown,Unknown,600093,Tamil Nadu,Unknown,clinic,clinic,Unknown,Unknown,Unknown,13.0509757,80.2034981
C.M. Hospital,"Shanthi Nagar, Annamalai Colony, Chennai",Unknown,Unknown,600093,Tamil Nadu,Unknown,hospital,hospital,Unknown,Unknown,Unknown,13.0553167,80.2012868
Shri Sai Skin and Eye Clinic,"Virugambakkam, Chennai",Unknown,Unknown,600092,Tamil Nadu,Unknown,clinic,clinic,Unknown,Unknown,Unknown,13.0580674,80.1990412
Pulmo Care,"Virugambakkam, Chennai",Unknown,Unknown,600092,Tamil Nadu,Unknown,clinic,clinic,Unknown,Unknown,Unknown,13.0489648,80.193165
Sucha Eye Cure,Unknown,Unknown,Unknown,600078,Tamil Nadu,Unknown,clinic,clinic,Unknown,Unknown,Unknown,13.0393234,80.1931668
Shali Day & Night Hospital,"Vadapalani, Chennai",Unknown,Unknown,600094,Tamil Nadu,Unknown,hospital,hospital,Unknown,Unknown,Unknown,13.051996,80.204702
Ponni Nursing Home,"Annamalai Colony, Chennai",Unknown,Unknown,600093,Tamil Nadu,Unknown,clinic,clinic,Unknown,Unknown,Unknown,13.0554821,80.1995444
Koncept Hospitals,Unknown,Unknown,Unknown,600017,Tamil Nadu,Unknown,hospital,hospital,Unknown,Unknown,Unknown,13.051051,80.243818
Sri Venkateswara Clinic,"Virugambakkam, Chennai",Unknown,Unknown,600092,Tamil Nadu,Unknown,clinic,clinic,Unknown,Unknown,Unknown,13.0484913,80.1895556
Diawin Multi Speciality Siddha Hospital,"Vadapalani, Chennai",Unknown,Unknown,600026,Tamil Nadu,Unknown,hospital,hospital,Unknown,Unknown,Unknown,13.0520108,80.2076585
Rose Dental Clinic,K.K. Nagar,Unknown,Unknown,600078,Tamil Nadu,Unknown,dentist,dentist,Unknown,Unknown,Unknown,13.041368,80.1959973
JKR Clinic,"Kannabiran Nagar, Saligramam, Chennai",Unknown,Unknown,600093,Tamil Nadu,Unknown,clinic,clinic,Unknown,Unknown,Unknown,13.0510747,80.2007559
Skin Doctor,"Nungambakkam, Chennai",Unknown,Unknown,600034,Tamil Nadu,Unknown,clinic,clinic,Unknown,Unknown,Unknown,13.0567527,80.2462554
G G Hospital,"Tirumurthy Nagar, Nungambakkam, Chennai",Unknown,Unknown,600034,Tamil Nadu,Unknown,hospital,hospital,Unknown,Unknown,Unknown,13.0554543,80.2477343
Madhu Clinic,"Vadapalani, Chennai",Unknown,Unknown,600026,Tamil Nadu,Unknown,clinic,clinic,Unknown,Unknown,Unknown,13.0524295,80.2073763
K R S Hospitals,"Tirumurthy Nagar, Nungambakkam, Chennai",Unknown,Unknown,600034,Tamil Nadu,Unknown,hospital,hospital,Unknown,Unknown,Unknown,13.0616711,80.2434943
Dr. Rajaram Clinic,"Jayalakshmipuram, Nungambakkam, Chennai",Unknown,Unknown,600034,Tamil Nadu,Unknown,clinic,clinic,Unknown,Unknown,Unknown,13.0619929,80.2412336
Sterling Hospitals,"Seetha Nagar, Nungambakkam, Chennai",Unknown,Unknown,600034,Tamil Nadu,Unknown,hospital,hospital,Unknown,Unknown,Unknown,13.0616367,80.243704
GV Dental Clinic,"Saradha Nagar, Virugambakkam, Chennai",Unknown,Unknown,600092,Tamil Nadu,Unknown,dentist,dentist,Unknown,Unknown,Unknown,13.048725,80.193674
Lily Shantha Hospital,"Swarnambigai Nagar, Virugambakkam, Chennai",Unknown,Unknown,600093,Tamil Nadu,Unknown,hospital,hospital,Unknown,Unknown,Unknown,13.0516365,80.1939117
Dr. A. Aravind Clinic,"MGR Nagar, Nesapakkam",Unknown,Unknown,600083,Tamil Nadu,Unknown,clinic,clinic,Unknown,Unknown,Unknown,13.0381951,80.1924907
Chitra Clinic,"Vadapalani, Chennai",Unknown,Unknown,600026,Tamil Nadu,Unknown,clinic,clinic,Unknown,Unknown,Unknown,13.0542711,80.2078101
Rahul Dental Clinic,"Virugambakkam, Chennai",Unknown,Unknown,600092,Tamil Nadu,Unknown,dentist,dentist,Unknown,Unknown,Unknown,13.0490907,80.188543
Dr. Maibbar Hospital,"Tirumurthy Nagar, Nungambakkam, Chennai",Unknown,Unknown,600034,Tamil Nadu,Unknown,hospital,hospital,Unknown,Unknown,Unknown,13.0594426,80.2459459
Ruban Moses Clinic,"Virugambakkam, Chennai",Unknown,Unknown,600092,Tamil Nadu,Unknown,clinic,clinic,Unknown,Unknown,Unknown,13.0486566,80.1920141
Swastik Hospital,"Annamalai Colony, Chennai",Unknown,Unknown,600093,Tamil Nadu,Unknown,hospital,hospital,Unknown,Unknown,Unknown,13.0539266,80.1991968
Cura Health Plus,"Virugambakkam, Chennai",Unknown,Unknown,600092,Tamil Nadu,Unknown,clinic,clinic,Unknown,Unknown,Unknown,13.0518895,80.1919214
Senthil Dental Care,"Saligramam, Chennai",Unknown,Unknown,600093,Tamil Nadu,Unknown,dentist,dentist,Unknown,Unknown,Unknown,13.053266,80.2033729
Sri Varma and Spine Care Centre,"Sector 10, K. K. Nagar",Unknown,Unknown,600083,Tamil Nadu,Unknown,clinic,clinic,Unknown,Unknown,Unknown,13.0422476,80.1943253
Sri Sai Swamy Clinic,"Tirumurthy Nagar, Nungambakkam, Chennai",Unknown,Unknown,600034,Tamil Nadu,Unknown,clinic,clinic,Unknown,Unknown,Unknown,13.0592237,80.243411
American Eye Care Centre,"Santhiniketan Colony, K. K. Nagar",Unknown,Unknown,600078,Tamil Nadu,Unknown,clinic,clinic,Unknown,Unknown,Unknown,13.0417465,80.1954994
SV Vision & Dental Care,"Saligramam, Chennai",Unknown,Unknown,600093,Tamil Nadu,Unknown,clinic,clinic,Unknown,Unknown,Unknown,13.0535204,80.2036821
Wings Dental Care,"Vadapalani, Chennai",Unknown,Unknown,600026,Tamil Nadu,Unknown,dentist,dentist,Unknown,Unknown,Unknown,13.0541919,80.2093081
Sakthi Natural Fertility Care,"Saligramam, Chennai",Unknown,Unknown,600093,Tamil Nadu,Unknown,clinic,clinic,Unknown,Unknown,Unknown,13.0529876,80.2038876
Sakthi Nursing Home,"Saligramam, Chennai",Unknown,Unknown,600093,Tamil Nadu,Unknown,clinic,Unknown,Unknown,Unknown,Unknown,13.0585803,80.2012135
N.R.G. Multispeciality Clinic,"Virugambakkam, Chennai",Unknown,Unknown,600092,Tamil Nadu,Unknown,clinic,clinic,Unknown,Unknown,Unknown,13.0542347,80.1985381
Dr. K. Chandralekha,"Venkatesh Nagar, Virugambakkam, Chennai",Unknown,Unknown,600092,Tamil Nadu,Unknown,doctors,doctor,Unknown,Unknown,Unknown,13.056549,80.196998
Standard Hospital,"Virugambakkam, Chennai",Unknown,Unknown,600092,Tamil Nadu,Unknown,hospital,hospital,Unknown,Unknown,Unknown,13.0526943,80.1899425
Herba Clinic,"Virugambakkam, Chennai",Unknown,Unknown,600093,Tamil Nadu,Unknown,clinic,clinic,Unknown,Unknown,Unknown,13.0554179,80.1972002
Vijay Anand Clinic,"Virugambakkam, Chennai",Unknown,Unknown,600092,Tamil Nadu,Unknown,clinic,clinic,Unknown,Unknown,Unknown,13.0496363,80.1895753
Dr. Srinivasan,"Tirumurthy Nagar, Nungambakkam, Chennai",Unknown,Unknown,600034,Tamil Nadu,Unknown,doctors,doctor,Unknown,Unknown,Unknown,13.0593952,80.2437091
MM Hospital,"Virugambakkam, Chennai",Unknown,Unknown,600092,Tamil Nadu,Unknown,hospital,hospital,Unknown,Unknown,Unknown,13.0527721,80.191781
Lister Metropolis,"Vadapalani, Chennai",Unknown,Unknown,600026,Tamil Nadu,Unknown,clinic,clinic,Unknown,Unknown,Unknown,13.0519687,80.2062705
Dr. R. Muthukumar ENT Surgeon,"Swarnambigai Nagar, Virugambakkam, Chennai",Unknown,Unknown,600092,Tamil Nadu,Unknown,clinic,clinic,Unknown,Unknown,Unknown,13.0519538,80.1922401
Arun Hospital,"Bharathi Nagar, Taramani, Chennai",Unknown,Unknown,600113,Tamil Nadu,Unknown,hospital,hospital,Unknown,Unknown,Unknown,13.0514652,80.2031882
Krishna Geetham Vaidyasala,"Virugambakkam, Chennai",Unknown,Unknown,600093,Tamil Nadu,Unknown,hospital,hospital,Unknown,Unknown,Unknown,13.0538214,80.1989274
Bithi Dental Clinic,"Virugambakkam, Chennai",Unknown,Unknown,600092,Tamil Nadu,Unknown,dentist,dentist,Unknown,Unknown,Unknown,13.055137,80.197119
Ezhilarasi Clinic,Unknown,Unknown,Unknown,600093,Tamil Nadu,Unknown,clinic,clinic,Unknown,Unknown,Unknown,13.053108,80.199343
D` Mas Joint Clinic,"Tirumurthy Nagar, Nungambakkam, Chennai",Unknown,Unknown,600034,Tamil Nadu,Unknown,clinic,clinic,Unknown,Unknown,Unknown,13.0577596,80.2457812
Jayam Diabetes Speciality Clinic,"Virugambakkam, Chennai",Unknown,Unknown,600092,Tamil Nadu,Unknown,clinic,clinic,Unknown,Unknown,Unknown,13.0511518,80.1922599
Dr. K V Sivakumar,"Virugambakkam, Chennai",Unknown,Unknown,600092,Tamil Nadu,Unknown,doctors,doctor,Unknown,Unknown,Unknown,13.0479235,80.1895242
Malar Homeopath Clinic,Unknown,Unknown,Unknown,637001,Tamil Nadu,Unknown,clinic,clinic,Unknown,Unknown,Unknown,13.046215,80.1868077
Dr. Balagopal's Dental Clinic,"Valasaravakkam, Chennai",Unknown,Unknown,600087,Tamil Nadu,Unknown,dentist,dentist,Unknown,Unknown,Unknown,13.0460858,80.1868088
Agm Hospital,Chennai,Unknown,Unknown,600084,Tamil Nadu,Unknown,hospital,hospital,Unknown,Unknown,Unknown,13.0802093,80.2522439
Orient Clinics,"Choolai, Chennai",Unknown,Unknown,600112,Tamil Nadu,Unknown,clinic,clinic,Unknown,Unknown,Unknown,13.0860428,80.2656345
Dr. Sambandam Eye Hospital,"Sanyasipuram, Kilpauk, Chennai",Unknown,Unknown,600010,Tamil Nadu,Unknown,hospital,hospital,Unknown,Unknown,Unknown,13.0886474,80.2416011
Dr. Mrs. Renuka Ramakrishnan,"Egmore, Chennai",Unknown,Unknown,600084,Tamil Nadu,Unknown,doctors,doctor,Unknown,Unknown,Unknown,13.0797155,80.2576802
Sugumar Hospital,Unknown,Unknown,Unknown,600003,Tamil Nadu,Unknown,hospital,hospital,Unknown,Unknown,Unknown,13.0828855,80.2709938
Dr. V.G.K Memorial Homeo Clinic,"Sanyasipuram, Kilpauk, Chennai",Unknown,Unknown,600010,Tamil Nadu,Unknown,clinic,clinic,Unknown,Unknown,Unknown,13.0881756,80.2418747
Ranjith Hospital,"Kilpauk, Chennai",Unknown,Unknown,600010,Tamil Nadu,Unknown,hospital,hospital,Unknown,Unknown,Unknown,13.0888843,80.2418555
Akn Nursing Home,"Kilpauk, Chennai",Unknown,Unknown,600010,Tamil Nadu,Unknown,clinic,clinic,Unknown,Unknown,Unknown,13.0885541,80.2421118
Dr. S. Kalaiselvi and Dr. Raghunathan,"Adikesavarpuram, Chintadripet, Chennai",Unknown,Unknown,600002,Tamil Nadu,Unknown,doctors,doctor,Unknown,Unknown,Unknown,13.0762266,80.2692658
Mythili Hospitals,"Chetpet, Chennai",Unknown,Unknown,600031,Tamil Nadu,Unknown,hospital,hospital,Unknown,Unknown,Unknown,13.0704319,80.2421491
Metropolis Healthcare,"Perambur, Chennai",Unknown,Unknown,600082,Tamil Nadu,Unknown,clinic,clinic,Unknown,Unknown,Unknown,13.07127,80.262082
Navakar I Care,"Periyamedu, Choolai, Chennai",Unknown,Unknown,600012,Tamil Nadu,Unknown,clinic,clinic,Unknown,Unknown,Unknown,13.0864725,80.2656477
Egmore Railway Hospital,"Purasaiwakkam, Egmore, Chennai",Unknown,Unknown,600084,Tamil Nadu,Unknown,hospital,hospital,Unknown,Unknown,Unknown,13.0794103,80.2610415
Nandita's Clinic,"Chetpet, Chennai",Unknown,Unknown,600031,Tamil Nadu,Unknown,clinic,clinic,Unknown,Unknown,Unknown,13.0719723,80.2409391
Santosham Chest Hospital,"Egmore, Chennai",Unknown,Unknown,600008,Tamil Nadu,Unknown,hospital,hospital,Unknown,Unknown,Unknown,13.0746638,80.2537976
Tune 32 Hospital,"Komaleeswaranpet, Egmore, Chennai",Unknown,Unknown,600002,Tamil Nadu,Unknown,hospital,hospital,Unknown,Unknown,Unknown,13.0715459,80.2622655
Pandalai Hospital,"Chetpet, Chennai",Unknown,Unknown,600031,Tamil Nadu,Unknown,hospital,hospital,Unknown,Unknown,Unknown,13.0771575,80.2450769
Premier Health Centre,"Purasaiwakkam, Chennai",Unknown,Unknown,600084,Tamil Nadu,Unknown,clinic,clinic,Unknown,Unknown,Unknown,13.079584,80.257578
Centre For Gastro Esophageal Disorders,Chennai,Unknown,Unknown,600084,Tamil Nadu,Unknown,hospital,hospital,Unknown,Unknown,Unknown,13.0786423,80.2540859
Dental Icons,Chennai,Unknown,Unknown,600003,Tamil Nadu,Unknown,dentist,dentist,Unknown,Unknown,Unknown,13.0840323,80.2698608
Be Well Hospital,"Kilpauk, Chennai",Unknown,Unknown,600010,Tamil Nadu,Unknown,hospital,hospital,Unknown,Unknown,Unknown,13.0807479,80.2340062
Padma Clinic & Nursing Home,"Kilpauk, Chennai",Unknown,Unknown,600010,Tamil Nadu,Unknown,clinic,clinic,Unknown,Unknown,Unknown,13.076912,80.233925
Puttur Kattu Hospital,"Purasaiwakkam, Chennai",Unknown,Unknown,600084,Tamil Nadu,Unknown,hospital,hospital,Unknown,Unknown,Unknown,13.0812406,80.2506114
Vinayagam Clinic,"Chintadripet, Chennai",Unknown,Unknown,600002,Tamil Nadu,Unknown,clinic,clinic,Unknown,Unknown,Unknown,13.0752787,80.2705092
Dr. Ilavarasan Ortho Clinic,"Egmore, Chennai",Unknown,Unknown,600008,Tamil Nadu,Unknown,clinic,clinic,Unknown,Unknown,Mo-Sa 18:00-20:00,13.074758,80.2555444
An-Noor Eye Hospital,"Periyamet, Chennai",Unknown,Unknown,600003,Tamil Nadu,Unknown,hospital,hospital,Unknown,Unknown,Unknown,13.0849581,80.2669979
Nalam Clinic,"Chintadripet, Chennai",Unknown,Unknown,600002,Tamil Nadu,Unknown,clinic,clinic,Unknown,Unknown,Unknown,13.0747088,80.2688425
Dr. Arjun Thomas Clinic,"Chintadripet, Chennai",Unknown,Unknown,600002,Tamil Nadu,Unknown,clinic,clinic,Unknown,Unknown,Unknown,13.0755581,80.27068
TMM Eye Centre,Unknown,Unknown,Unknown,600007,Tamil Nadu,Unknown,clinic,clinic,Unknown,Unknown,Unknown,13.082126,80.263297
Ranganathan Dental Clinic,"Egmore, Chennai",Unknown,Unknown,600008,Tamil Nadu,Unknown,dentist,dentist,Unknown,Unknown,Unknown,13.0732526,80.25379
Herbzalive Ayurveda Hospital,"Kilpauk, Chennai",Unknown,Unknown,600031,Tamil Nadu,Unknown,hospital,hospital,Unknown,Unknown,Unknown,13.0793874,80.2473996
Meta Hospital,Chennai,Unknown,Unknown,600003,Tamil Nadu,Unknown,hospital,hospital,Unknown,Unknown,Unknown,13.0826737,80.2705905
Vardhman Multispeciality,Unknown,Unknown,Unknown,600112,Tamil Nadu,Unknown,clinic,clinic,Unknown,Unknown,Unknown,13.090224,80.267898
Dr. H. Yogish Hospital,"Shenoy Nagar, Aminjikarai, Chennai",Unknown,Unknown,600029,Tamil Nadu,Unknown,hospital,hospital,Unknown,Unknown,Unknown,13.0737332,80.2268354
Neuro Hospital,"Egmore, Chennai",Unknown,Unknown,600008,Tamil Nadu,Unknown,hospital,hospital,Unknown,Unknown,Unknown,13.0713435,80.2625981
Dr. Nitesh Jain,Chennai,Unknown,Unknown,600112,Tamil Nadu,Unknown,doctors,doctor,Unknown,Unknown,Unknown,13.0904206,80.2677974
Murugan Hospitals,"Kilpauk, Chennai",Unknown,Unknown,600010,Tamil Nadu,Unknown,hospital,hospital,Unknown,Unknown,Unknown,13.0833684,80.234299
Amrit Hospital,"Purasaiwakkam, Chennai",Unknown,Unknown,600084,Tamil Nadu,Unknown,hospital,hospital,Unknown,Unknown,Unknown,13.0811868,80.2520834
Mercury Hospital,"Egmore, Chennai",Unknown,Unknown,600008,Tamil Nadu,Unknown,hospital,hospital,Unknown,Unknown,Unknown,13.071832,80.260048
Naz Unani Hospital,"Poongavanapuram, Chennai",Unknown,Unknown,600007,Tamil Nadu,Unknown,hospital,hospital,Unknown,Unknown,Unknown,13.0850158,80.2699983
Vembu Clinic,"Chintadripet, Chennai",Unknown,Unknown,600002,Tamil Nadu,Unknown,clinic,clinic,Unknown,Unknown,Unknown,13.0750341,80.2684334
Dr. S. Ayyappan,"Kilpauk, Chennai",Unknown,Unknown,600010,Tamil Nadu,Unknown,doctors,doctor,Unknown,Unknown,Unknown,13.079104,80.249079
S.K. Selvam Hospital,"Chintadripet, Chennai",Unknown,Unknown,641301,Tamil Nadu,Unknown,hospital,hospital,Unknown,Unknown,Unknown,13.0761303,80.2694819
Kavinaya Dental Care,"KVN Puram, Shenoy Nagar, Chennai",Unknown,Unknown,600030,Tamil Nadu,Unknown,dentist,dentist,Unknown,Unknown,Unknown,13.0828434,80.2288176
Neuro Mind Care Clinic,"Egmore, Chennai",Unknown,Unknown,600084,Tamil Nadu,Unknown,clinic,clinic,Unknown,Unknown,Unknown,13.079529,80.257646
Apollo Hospital,"Periyamet, Chennai",Unknown,Unknown,600003,Tamil Nadu,Unknown,hospital,hospital,Unknown,Unknown,Unknown,13.0825738,80.2710331
Dr. Sridharan Clinic,"Adikesavarpuram, Chintadripet, Chennai",Unknown,Unknown,600002,Tamil Nadu,Unknown,clinic,clinic,Unknown,Unknown,Unknown,13.0763548,80.267103
Kola Saraswathi Agarwal Samaj Health Centre,"Purasaiwakkam, Chennai",Unknown,Unknown,600084,Tamil Nadu,Unknown,hospital,hospital,Unknown,Unknown,Unknown,13.0813334,80.2553965
"Psy Hub, Brain and Behaviour","Kilpauk, Chennai",Unknown,Unknown,600010,Tamil Nadu,Unknown,clinic,clinic,Unknown,Unknown,Unknown,13.0821498,80.2331613
Dr. Sukumar's Skin Clinic,"Chetpet, Chennai",Unknown,Unknown,600031,Tamil Nadu,Unknown,clinic,clinic,Unknown,Unknown,Unknown,13.070275,80.2407506
Dr. A Manivannan Clinic,"Chintadripet, Chennai",Unknown,Unknown,600002,Tamil Nadu,Unknown,clinic,clinic,Unknown,Unknown,Unknown,13.0734625,80.2679228
Demo Hospital,"Kilpauk, Chennai",Unknown,Unknown,600010,Tamil Nadu,Unknown,hospital,hospital,Unknown,Unknown,Unknown,13.0844036,80.2454945
Gremaltes Hospital,"Venkatasamy Nagar, Shenoy Nagar, Chennai",Unknown,Unknown,600030,Tamil Nadu,Unknown,hospital,hospital,Unknown,Unknown,Unknown,13.0793157,80.2290477
Srl Hospital,"Thandavaraya, Kilpauk, Chennai",Unknown,Unknown,600030,Tamil Nadu,Unknown,hospital,hospital,Unknown,Unknown,Unknown,13.0814203,80.2333756
Dr. Sundar's Homoeopathic Clinic,"Kilpauk, Chennai",Unknown,Unknown,600010,Tamil Nadu,Unknown,clinic,clinic,Unknown,Unknown,Unknown,13.0846937,80.2461467
Periyar Maniammai Hospital,"Vepery, Chennai",Unknown,Unknown,600007,Tamil Nadu,Unknown,hospital,hospital,Unknown,Unknown,Unknown,13.0811497,80.2620778
Thirty 2 Dental Centre,"Egmore, Chennai",Unknown,Unknown,600084,Tamil Nadu,Unknown,dentist,dentist,Unknown,Unknown,Unknown,13.07947,80.257265
Red Cross Hospital,"Chintadripet, Chennai",Unknown,Unknown,600002,Tamil Nadu,Unknown,hospital,hospital,Unknown,Unknown,Unknown,13.074301,80.267569
Kabeer Clinic,"Adikesavarpuram, Chintadripet, Chennai",Unknown,Unknown,600002,Tamil Nadu,Unknown,clinic,clinic,Unknown,Unknown,Unknown,13.0756085,80.2693127
Ponmalligai Hospitals,"Alagappa Nagar, Adambakkam, Chennai",Unknown,Unknown,600031,Tamil Nadu,Unknown,hospital,hospital,Unknown,Unknown,Unknown,13.0768584,80.2339377
Kamala Sayee Dental Clinic,"Sarojini Nagar, Kolathur",Unknown,Unknown,600082,Tamil Nadu,Unknown,dentist,dentist,Unknown,Unknown,Unknown,13.1231248,80.2164517
V S Hospital,"Santhi Nagar, Kolathur, Chennai",Unknown,Unknown,600082,Tamil Nadu,Unknown,hospital,hospital,Unknown,Unknown,Unknown,13.1216771,80.2236766
Kottakkal Arya Vaidya Sala Clinic,"Somanathapuram, Kolathur",Unknown,Unknown,600099,Tamil Nadu,Unknown,clinic,clinic,Unknown,Unknown,Unknown,13.1244332,80.2212904
Iyyappa Multi Speciality Hospitals,"Perambur, Chennai",Unknown,Unknown,600039,Tamil Nadu,Unknown,hospital,hospital,Unknown,Unknown,Unknown,13.1160443,80.2454243
GK Hospital,"Perambur, Chennai",Unknown,Unknown,600011,Tamil Nadu,Unknown,hospital,hospital,Unknown,Unknown,Unknown,13.113594,80.2394367
Sunday Dental Clinic,"M.N. Nagar, Kolathur",Unknown,Unknown,600099,Tamil Nadu,Unknown,dentist,dentist,Unknown,Unknown,Unknown,13.1247301,80.2194621
Obg Health Point,"Perambur, Chennai",Unknown,Unknown,600082,Tamil Nadu,Unknown,clinic,clinic,Unknown,Unknown,Unknown,13.1161848,80.2254809
Spectrum Pediatric Therapy,"Perambur, Chennai",Unknown,Unknown,600082,Tamil Nadu,Unknown,clinic,clinic,Unknown,Unknown,Unknown,13.1102844,80.230222
Dr. Kleela Hospital,"Chinnaiyan Colony, Perambur, Chennai",Unknown,Unknown,600039,Tamil Nadu,Unknown,hospital,hospital,Unknown,Unknown,Unknown,13.1155627,80.2457851
Bluemed Healthcare,Kolathur,Unknown,Unknown,600099,Tamil Nadu,Unknown,hospital,hospital,Unknown,Unknown,Unknown,13.1297562,80.2172747
Hiran Eye Retina Centre,"Perambur, Chennai",Unknown,Unknown,600082,Tamil Nadu,Unknown,clinic,clinic,Unknown,Unknown,Unknown,13.1178155,80.2278922
Annai Eye Clinic,"Red Hills Road, Ponniammanmedu",Unknown,Unknown,600099,Tamil Nadu,Unknown,clinic,clinic,Unknown,Unknown,Unknown,13.1262133,80.2197712
St. Joseph Cluny Hospital,"Perambur, Chennai",Unknown,Unknown,600082,Tamil Nadu,Unknown,hospital,hospital,Unknown,Unknown,Unknown,13.1204837,80.2243993
GM Nursing Home,"Perambur, Chennai",Unknown,Unknown,600082,Tamil Nadu,Unknown,clinic,clinic,Unknown,Unknown,Unknown,13.116713,80.2239462
Dr. A C Aruldas Hospital,"Perambur, Chennai",Unknown,Unknown,600011,Tamil Nadu,Unknown,hospital,hospital,Unknown,Unknown,Unknown,13.1102652,80.2418486
Dr. Rao's Clinic,Kolathur,Unknown,Unknown,600099,Tamil Nadu,Unknown,clinic,clinic,Unknown,Unknown,Unknown,13.1293965,80.2161334
Child Care Clinic,"Poompuhar Nagar, Kolathur, Chennai",Unknown,Unknown,600082,Tamil Nadu,Unknown,clinic,clinic,Unknown,Unknown,Unknown,13.1224029,80.2123936
G.R Clinic,"Lakshmanan Nagar, Kolathur, Chennai",Unknown,Unknown,600082,Tamil Nadu,Unknown,clinic,clinic,Unknown,Unknown,Unknown,13.1207062,80.2251062
Maayi Nursing Home,"Jawahar Nagar, Perambur, Chennai",Unknown,Unknown,600099,Tamil Nadu,Unknown,clinic,clinic,Unknown,Unknown,Unknown,13.1175414,80.2286067
Bharathiraja Hospitals,Ponniammanmedu,Unknown,Unknown,600099,Tamil Nadu,Unknown,hospital,hospital,Unknown,Unknown,Unknown,13.1300779,80.216941
Kolathur Multi Speciality and Research Centre,"Kaveri Nagar, Kolathur, Chennai",Unknown,Unknown,600099,Tamil Nadu,Unknown,hospital,hospital,Unknown,Unknown,Unknown,13.1222839,80.2160951
Arul Childs Hospital,"Perambur, Chennai",Unknown,Unknown,600082,Tamil Nadu,Unknown,hospital,hospital,Unknown,Unknown,Unknown,13.1185,80.2258076
American Dental Care,"Vivek Nagar, Kolathur",Unknown,Unknown,600082,Tamil Nadu,Unknown,clinic,clinic,Unknown,Unknown,Unknown,13.1272226,80.2174972
Jaya Eye Clinic,"Kolathur, Chennai",Unknown,Unknown,600082,Tamil Nadu,Unknown,clinic,clinic,Unknown,Unknown,Unknown,13.116675,80.224138
Ramchandras Jussmile Dental Clinic & Dental Implant Centre,"Poompuhar Nagar, Kolathur, Chennai",Unknown,Unknown,600099,Tamil Nadu,Unknown,dentist,dentist,Unknown,Unknown,Unknown,13.1209261,80.214363
KCK Hospital,Ponniammanmedu,Unknown,Unknown,600099,Tamil Nadu,Unknown,hospital,hospital,Unknown,Unknown,Unknown,13.129071,80.2159086
Dr. Kamalakannan,"Meenakshi Nagar, Somanathapuram, Kolathur",Unknown,Unknown,600082,Tamil Nadu,Unknown,doctors,doctor,Unknown,Unknown,Unknown,13.1245223,80.2211847
Sugar Hospital,"Kolathur, Chennai",Unknown,Unknown,600099,Tamil Nadu,Unknown,hospital,hospital,Unknown,Unknown,Unknown,13.121994,80.2236309
Dr. Lakshmanan Saravanan,"Jawahar Nagar, Chennai",Unknown,Unknown,600082,Tamil Nadu,Unknown,doctors,doctor,Unknown,Unknown,Unknown,13.1134209,80.2288966
Retteri Kumaran Hospital,Kolathur,Unknown,Unknown,600099,Tamil Nadu,Unknown,hospital,hospital,Unknown,Unknown,Unknown,13.129869,80.214109
Smileworks Dental Clinic,"Kolathur, Chennai",Unknown,Unknown,600099,Tamil Nadu,Unknown,dentist,dentist,Unknown,Unknown,Unknown,13.1206026,80.2140335
Elangovan ENT Surgeon,"Perambur, Chennai",Unknown,Unknown,600082,Tamil Nadu,Unknown,clinic,clinic,Unknown,Unknown,Unknown,13.1171076,80.2269961
Sastha Dental Clinic,"Sarojini Nagar, Kolathur",Unknown,Unknown,600082,Tamil Nadu,Unknown,dentist,dentist,Unknown,Unknown,Unknown,13.1251973,80.2170726
P.R.K Multispeciality Dental Clinic,"Poompuhar Nagar, Kolathur, Chennai",Unknown,Unknown,600082,Tamil Nadu,Unknown,dentist,dentist,Unknown,Unknown,Unknown,13.1190292,80.2161172
CPL Dental Clinic,"Periyar Nagar, Perambur, Chennai",Unknown,Unknown,600082,Tamil Nadu,Unknown,dentist,dentist,Unknown,Unknown,Unknown,13.11628,80.224767
Cure Plus Clinic,"Siva Parvathi Nagar, Kolathur",Unknown,Unknown,600099,Tamil Nadu,Unknown,clinic,clinic,Unknown,Unknown,Unknown,13.1260152,80.2191464
Sugam Ortho Clinic,"Anjugam Nagar, Kolathur, Chennai",Unknown,Unknown,600099,Tamil Nadu,Unknown,clinic,clinic,Unknown,Unknown,Unknown,13.12251,80.2221769
Government Hospital,"Perambur, Chennai",Unknown,Unknown,600082,Tamil Nadu,Unknown,hospital,hospital,Unknown,Unknown,Unknown,13.1093369,80.2312849
K.H.M. Hospital,"Kolathur, Villivakkam",Unknown,Unknown,600099,Tamil Nadu,Unknown,hospital,hospital,Unknown,Unknown,Unknown,13.129327,80.2152624
Sankar Eye Hospital,"Perambur, Chennai",Unknown,Unknown,600011,Tamil Nadu,Unknown,hospital,hospital,Unknown,Unknown,Unknown,13.1131038,80.2404022
Sendoor Clinic,"Perambur, Chennai",Unknown,Unknown,600082,Tamil Nadu,Unknown,clinic,clinic,Unknown,Unknown,Unknown,13.116533,80.2250502
Niranjana Hospital,"Perambur, Chennai",Unknown,Unknown,600082,Tamil Nadu,Unknown,hospital,hospital,Unknown,Unknown,Unknown,13.1101477,80.2244516
Parvatham Hospital,"Perambur, Chennai",Unknown,Unknown,600039,Tamil Nadu,Unknown,hospital,hospital,Unknown,Unknown,Unknown,13.1148422,80.2441515
Akshita Speciality Clinic,"Perambur Red Hills Road, Girija Nagar, Kolathur",Unknown,Unknown,600099,Tamil Nadu,Unknown,clinic,clinic,Unknown,Unknown,Unknown,13.1277489,80.2168565
Arunz Dental Clinic,"Somanathapuram, Perambur",Unknown,Unknown,600110,Tamil Nadu,Unknown,dentist,dentist,Unknown,Unknown,Unknown,13.1243638,80.2213617
U.S. Hospital,"Balakumaran Nagar, Kolathur",Unknown,Unknown,600099,Tamil Nadu,Unknown,hospital,hospital,Unknown,Unknown,Unknown,13.1263043,80.2192658
Bharani Hospital,"Amrithammal Colony, Perambur, Chennai",Unknown,Unknown,600011,Tamil Nadu,Unknown,hospital,hospital,Unknown,Unknown,Unknown,13.1106227,80.2374461
GR Clinic,"Santhi Nagar, Kolathur",Unknown,Unknown,600082,Tamil Nadu,Unknown,clinic,clinic,Unknown,Unknown,Unknown,13.1220895,80.2210295
G K Clinic,"Kolathur, Chennai",Unknown,Unknown,600099,Tamil Nadu,Unknown,clinic,clinic,Unknown,Unknown,Unknown,13.119731,80.218505
Sir Ivan Stedford Hospital,Unknown,Unknown,Unknown,Unknown,Unknown,Unknown,hospital,hospital,Unknown,Unknown,Unknown,13.1247933,80.1435476
Unknown,Unknown,Unknown,Unknown,Unknown,Unknown,Unknown,hospital,hospital,Unknown,Unknown,Unknown,13.1183857,80.2606286
K.M. Nursing Home,Unknown,"1/459, 31st St, Sector 6, K. K. Nagar, Chennai, Tamil Nadu 600078",Unknown,Unknown,Unknown,Unknown,hospital,hospital,044 4353 0015,Unknown,24/7,13.0371216,80.2013389
Raasi Medicals,Unknown,"30, S.V.Chidambaram Road, Chennai, Tamil Nadu 600084",Unknown,Unknown,Unknown,Unknown,pharmacy,pharmacy,044 2471 6153,Unknown,Mo-Sa 09:00-22:00; Su 09:00-21:30,13.0275307,80.2102579
Military Hospital,Unknown,"Mount Poonamalle High Rd, Seven Wells, St.Thomas Mount, Tamil Nadu 600016",Unknown,Unknown,Unknown,Unknown,hospital,hospital,Unknown,Unknown,24/7,13.0117736,80.1941708
உழைப்பாளி மருத்துவமனை,Unknown,Arunachalam St,Unknown,Unknown,Unknown,Unknown,hospital,hospital,Unknown,Unknown,Mo-Sa 09:00-21:00,13.0487242,80.2036274
KS Bone and Joint Clinic - Ortho,Unknown,"B 50, Gangai Amman Koil St, Jawahar Nagar, West Jafferkhanpet, Chennai, Tamil Nadu 600083",Unknown,Unknown,Unknown,Unknown,hospital,hospital,98842 83582,https://www.ksboneandjointortho.in/,"Mo-Sa 10:00-13:00, 17:00-21:00; Su 10:00-13:00",13.026029,80.212368
Veekays Pet Care Clinic,Unknown,"89, Jawaharlal Nehru Rd, Kasi Estate, West Jafferkhanpet, Chennai, Tamil Nadu 600083",Unknown,Unknown,Unknown,Unknown,clinic,clinic,98410 42412,https://veekayspetcare.com/,Mo-Sa 10:00-20:00; Su 10:00-13:00,13.0290009,80.2085925
Med Pharmacy,Unknown,"Gangai Amman Koil St, Barathi Block, VSM Garden, West Jafferkhanpet, Chennai, Tamil Nadu 600083",Unknown,Unknown,Unknown,Unknown,pharmacy,pharmacy,81444 60555,Unknown,Mo-Su 09:00-22:00,13.0287197,80.212303
Ashok Pharmacy,"89, Jawaharlal Nehru Rd, Kasi Estate, West Jafferkhanpet, Chennai, Tamil Nadu 600083",Unknown,Unknown,Unknown,Unknown,Unknown,pharmacy,pharmacy,72990 91291,http://ashokpharmacy.com/,Mo-Sa 09:00-22:00; Su 09:00-14:00,13.02906,80.2086055
Shens Multi-Speciality Hospital,Unknown,"40, 11th Ave, Mettuppalayam, Ashok Nagar, Chennai, Tamil Nadu 600083",Unknown,Unknown,Unknown,Unknown,hospital,hospital,044 2471 5000,https://shens.in/,24/7,13.0318828,80.2103124
Ashok Nagar Pharmacy,Unknown,"28, 12th St, Mettuppalayam, Ashok Nagar, Chennai, Tamil Nadu 600083",Unknown,Unknown,Unknown,Unknown,pharmacy,pharmacy,Unknown,https://business.google.com/website/ashok-nagar-pharmacy,"Mo-Sa 09:00-22:00; Su 09:00-14:00, 17:00-22:00",13.0312946,80.2116224
Sham's Rheumatic Care Centre,Unknown,"Door No. - 107, Lakshamana Swamy Salai, Next to Punjab National Bank, K. K Nagar West",Chennai,600078,Unknown,Unknown,clinic,clinic,Unknown,https://www.rheumatologistchennai.in/dr-shams-rheumatic-care,Unknown,13.0388056,80.2010012
COVID Vaccination Center,Unknown,Unknown,Unknown,Unknown,Unknown,Unknown,Unknown,vaccination_centre,Unknown,Unknown,Unknown,13.0157487,80.2176066
Unknown,Unknown,Unknown,Unknown,Unknown,Unknown,Unknown,hospital,hospital,Unknown,Unknown,Unknown,13.0381458,80.1619363
Geri care hospital,Unknown,Unknown,Unknown,Unknown,Unknown,Unknown,hospital,hospital,Unknown,Unknown,Unknown,13.0439323,80.2407095
Suguna Clinic,Unknown,"Elango St, Elango Nagar, Murthy Nagar",Chennai,600050,Unknown,Unknown,clinic,clinic,Unknown,Unknown,Unknown,13.0946251,80.1855413
Mohan Clinic,Unknown,Unknown,Unknown,Unknown,Unknown,Unknown,clinic,clinic,Unknown,Unknown,Unknown,13.095401,80.1814241
Manimozhi Medicals,Unknown,Kamarajar High Road,Unknown,Unknown,Unknown,Unknown,Unknown,yes,Unknown,Unknown,Mo-Su 07:00-23:00,13.0549752,80.1862894
Unknown,Unknown,east avenve,Unknown,600080,Unknown,Unknown,clinic,Unknown,Unknown,Unknown,Unknown,13.1076382,80.1868929
Pratibha Dental Clinic,Unknown,Unknown,Unknown,Unknown,Unknown,Unknown,dentist,dentist,Unknown,Unknown,Unknown,13.058583,80.2434046
Shreyas hospital,Unknown,Unknown,Unknown,Unknown,Unknown,Unknown,hospital,hospital,Unknown,Unknown,Unknown,13.1266701,80.2014392
MedPlus,Unknown,Unknown,Unknown,Unknown,Unknown,Unknown,pharmacy,pharmacy,Unknown,Unknown,Unknown,13.1279965,80.2015444
Sri sai baba,Unknown,Unknown,Unknown,Unknown,Unknown,Unknown,dentist,dentist,Unknown,Unknown,Unknown,13.1236904,80.2014984
Trident medicare center,Unknown,Unknown,Unknown,Unknown,Unknown,Unknown,clinic,clinic,Unknown,Unknown,Unknown,13.1245764,80.201478
Dr. Hidayathullah,Unknown,Unknown,Unknown,Unknown,Unknown,Unknown,doctors,doctor,Unknown,Unknown,Unknown,13.094975,80.2865618
Fakhri Dental Clinic,Unknown,Unknown,Unknown,Unknown,Unknown,Unknown,dentist,dentist,Unknown,Unknown,Unknown,13.0937726,80.287202
Azeez Medicals,Unknown,Unknown,Unknown,Unknown,Unknown,Unknown,pharmacy,pharmacy,Unknown,Unknown,Unknown,13.0957863,80.289305
City Medicals,Unknown,Unknown,Unknown,Unknown,Unknown,Unknown,pharmacy,pharmacy,Unknown,Unknown,Unknown,13.0963862,80.2890778
S.S.R. Clinic,Unknown,Unknown,Unknown,Unknown,Unknown,Unknown,doctors,doctor,Unknown,Unknown,Unknown,13.0959434,80.2878228
Chindamani Dentral Centre,Unknown,Unknown,Unknown,Unknown,Unknown,Unknown,dentist,dentist,Unknown,Unknown,Unknown,13.0984314,80.2867438
Dr. S. Aadil Ahamed,Unknown,Unknown,Unknown,Unknown,Unknown,Unknown,dentist,dentist,Unknown,Unknown,Unknown,13.0964031,80.2902257
Sri Lakshmi Clinic,Unknown,Unknown,Unknown,Unknown,Unknown,Unknown,clinic,clinic,Unknown,Unknown,Unknown,13.0969386,80.2875876
Alahu Pharmacy,Unknown,Unknown,Unknown,Unknown,Unknown,Unknown,pharmacy,pharmacy,Unknown,Unknown,Unknown,13.0966093,80.2896858
S. R. Dental Care,Unknown,Unknown,Unknown,Unknown,Unknown,Unknown,dentist,dentist,Unknown,Unknown,Unknown,13.0965427,80.2896739
Women And Children Foundation Hospital,Unknown,Poompuhar Nagar 1st Main Road,Unknown,600099,Unknown,Unknown,hospital,hospital,"04425508210, 8939957777, 8939917777",http://www.wcfkolathur.in/,24/7,13.1180276,80.2126037
Medplus Pharmacy,Unknown,"Mahatma Gandhi Road, VGN, Ambattur, Chennai",Unknown,Unknown,Unknown,Unknown,pharmacy,Unknown,Unknown,Unknown,Unknown,13.0999545,80.1569836
Frame of Mind - SCARF Psychiatric Hospital,Unknown,"N Main Rd, Kailash Colony, Sector A, Anna Nagar West Extension, Chennai, Tamil Nadu 600101",Unknown,Unknown,Unknown,Unknown,hospital,Unknown,+919150587361;04426151073; 04426153971,https://www.scarfindia.org/,"Mo, We-Sa 09:30-13:30",13.0972767,80.1982422
Vasantha Memorial Cancer Centre,Unknown,"35th Street, Opp JFA Showroom, Ashok Nagar",Chennai,600083,Unknown,Unknown,hospital,hospital,+91 9791048379,Unknown,Unknown,13.040756,80.2146876
Right Pharmacy,Unknown,Unknown,Unknown,Unknown,Unknown,Unknown,pharmacy,pharmacy,Unknown,Unknown,Unknown,13.1020684,80.2762181
Rajeshwar Medicals,Unknown,Unknown,Unknown,Unknown,Unknown,Unknown,pharmacy,pharmacy,Unknown,Unknown,Unknown,13.1023245,80.2775936
K. S. Medicals,Unknown,Unknown,Unknown,Unknown,Unknown,Unknown,pharmacy,pharmacy,Unknown,Unknown,Unknown,13.1010225,80.2922949
MAS Medicals,Unknown,Unknown,Unknown,Unknown,Unknown,Unknown,pharmacy,pharmacy,Unknown,Unknown,Unknown,13.0963175,80.285492
London Medicals,Unknown,Unknown,Unknown,Unknown,Unknown,Unknown,pharmacy,pharmacy,Unknown,Unknown,Unknown,13.0996018,80.2885735
Gangasri Dental Clinic,Unknown,Unknown,Unknown,Unknown,Unknown,Unknown,dentist,dentist,Unknown,Unknown,Unknown,13.098707,80.2796729
Dr. V. Dilip Jain,Unknown,Unknown,Unknown,Unknown,Unknown,Unknown,doctors,doctor,Unknown,Unknown,Unknown,13.0987204,80.2796089
Shree Ortho Clinic,Unknown,Unknown,Unknown,Unknown,Unknown,Unknown,doctors,doctor,Unknown,Unknown,Unknown,13.0992167,80.2800372
The Homeopathic Centre,Unknown,Unknown,Unknown,Unknown,Unknown,Unknown,Unknown,alternative,Unknown,Unknown,Unknown,13.0892841,80.2845422
Mahaveer Pharmacy,Unknown,Unknown,Unknown,Unknown,Unknown,Unknown,pharmacy,pharmacy,Unknown,Unknown,Unknown,13.0998732,80.2801353
Lakshmi Pain and Palliative CareTrust,Unknown,Poonamallee High Road,"Egmore, Chennai",600084,Unknown,Unknown,Unknown,yes,7305625469,http://www.lakshmitrust.org,Unknown,13.0793203,80.2560416
Malick Medicals,Unknown,Unknown,Unknown,Unknown,Unknown,Unknown,pharmacy,pharmacy,Unknown,Unknown,Unknown,13.0886282,80.2821469
Shriram Dental Clinic,Unknown,Unknown,Unknown,Unknown,Unknown,Unknown,dentist,dentist,Unknown,Unknown,Mo-Sa 10:30-13:00; Mo-Sa 18:00-20:00,13.0404708,80.2592658
Arrahman Medicals and Surgicals,Unknown,Unknown,Unknown,Unknown,Unknown,Unknown,pharmacy,pharmacy,Unknown,Unknown,Unknown,13.1047093,80.2846756
Taj Medicals,Unknown,Unknown,Unknown,Unknown,Unknown,Unknown,pharmacy,pharmacy,Unknown,Unknown,Unknown,13.1041557,80.2845635
Sree Sai Medicals,Unknown,Unknown,Unknown,Unknown,Unknown,Unknown,pharmacy,pharmacy,Unknown,Unknown,Unknown,13.104237,80.2845792
Shri Rajeshwar Medical,Unknown,Unknown,Unknown,Unknown,Unknown,Unknown,pharmacy,pharmacy,Unknown,Unknown,Unknown,13.094219,80.2801324
Gem Medicals,Unknown,Unknown,Unknown,Unknown,Unknown,Unknown,pharmacy,pharmacy,Unknown,Unknown,Unknown,13.0943423,80.2844478
Sharma Medicals,Unknown,Unknown,Unknown,Unknown,Unknown,Unknown,pharmacy,pharmacy,Unknown,Unknown,Unknown,13.0980692,80.2800895
Sri Medicare,Unknown,Unknown,Unknown,Unknown,Unknown,Unknown,doctors,doctor,Unknown,Unknown,Unknown,13.0967999,80.2800251
MedPlus,Unknown,Unknown,Unknown,Unknown,Unknown,Unknown,pharmacy,pharmacy,Unknown,Unknown,Unknown,13.0950834,80.280902
Pooja Medical Store,Unknown,Unknown,Unknown,Unknown,Unknown,Unknown,pharmacy,pharmacy,Unknown,Unknown,Unknown,13.0951375,80.2805799
Sri Lakhsmi Medical,Unknown,Unknown,Unknown,Unknown,Unknown,Unknown,pharmacy,pharmacy,Unknown,Unknown,Unknown,13.0985389,80.2829543
Raj Pharma,Unknown,Unknown,Unknown,Unknown,Unknown,Unknown,pharmacy,pharmacy,Unknown,Unknown,Unknown,13.0966762,80.2798882
MedPlus,Unknown,Unknown,Unknown,Unknown,Unknown,Unknown,pharmacy,pharmacy,Unknown,Unknown,Unknown,13.0971475,80.2799116
Kumaran Physiotherapy & Pain Relief Clinic,Unknown,Unknown,Unknown,Unknown,Unknown,Unknown,clinic,clinic,Unknown,Unknown,Unknown,13.0974459,80.2799297
Maruti Dental Clinic,Unknown,Unknown,Unknown,Unknown,Unknown,Unknown,dentist,dentist,Unknown,Unknown,Unknown,13.0976149,80.2799422
Sree Krishna Dental Clinic,Unknown,Unknown,Unknown,Unknown,Unknown,Unknown,dentist,dentist,Unknown,Unknown,Unknown,13.0980336,80.2798983
Shaarave Pharmacy,Unknown,Unknown,Unknown,Unknown,Unknown,Unknown,pharmacy,pharmacy,Unknown,Unknown,Unknown,13.0983705,80.2799933
Shub Pharmacy,Unknown,Mint Street,CHENNAI,600001,Unknown,Unknown,pharmacy,pharmacy,Unknown,Unknown,Mo-Sa 09:00-22:00,13.0984538,80.2800047
Raj Pharmacy,Unknown,Unknown,Unknown,Unknown,Unknown,Unknown,pharmacy,pharmacy,Unknown,Unknown,Unknown,13.0965461,80.279267
Mahaveer Health Care Services,Unknown,Unknown,Unknown,Unknown,Unknown,Unknown,clinic,clinic,Unknown,Unknown,Unknown,13.0965132,80.279272
Shri Soni Medicals,Unknown,Unknown,Unknown,Unknown,Unknown,Unknown,pharmacy,pharmacy,Unknown,Unknown,Unknown,13.0946147,80.279622
G.T. Clinic,Unknown,Unknown,Unknown,Unknown,Unknown,Unknown,clinic,clinic,Unknown,Unknown,Unknown,13.0958069,80.2798213
Lal Medicals,Unknown,Unknown,Unknown,Unknown,Unknown,Unknown,pharmacy,pharmacy,Unknown,Unknown,Unknown,13.0958575,80.2798307
Aakash Dental Care,Unknown,Unknown,Unknown,Unknown,Unknown,Unknown,dentist,dentist,Unknown,Unknown,Unknown,13.0945066,80.2792587
Renuka Medicals,Unknown,Unknown,Unknown,Unknown,Unknown,Unknown,pharmacy,pharmacy,Unknown,Unknown,Unknown,13.0966294,80.2789801
Unknown,Unknown,Unknown,Unknown,Unknown,Unknown,Unknown,clinic,Unknown,Unknown,Unknown,Mo-Sa 09:00-19:00,13.1225226,80.209299
Rajeshwar Medical,Unknown,Unknown,Unknown,Unknown,Unknown,Unknown,pharmacy,pharmacy,Unknown,Unknown,Unknown,13.0949718,80.2815594
Eswari Medicals,Unknown,Unknown,Unknown,Unknown,Unknown,Unknown,pharmacy,pharmacy,Unknown,Unknown,Unknown,13.1024943,80.2843568
J.K. Medicals,Unknown,Unknown,Unknown,Unknown,Unknown,Unknown,pharmacy,pharmacy,Unknown,Unknown,Unknown,13.098293,80.2804979
Sakthi Clinic - Dr. B. Palani,Unknown,Unknown,Unknown,Unknown,Unknown,Unknown,clinic,clinic,Unknown,Unknown,Unknown,13.0974018,80.2806005
Akshathaa Medical,Unknown,Unknown,Unknown,Unknown,Unknown,Unknown,pharmacy,pharmacy,Unknown,Unknown,Unknown,13.0973731,80.2805193
Prem Medicals,Unknown,Unknown,Unknown,Unknown,Unknown,Unknown,pharmacy,pharmacy,Unknown,Unknown,Unknown,13.0976163,80.2844014
Mahaveer Medicals,Unknown,Unknown,Unknown,Unknown,Unknown,Unknown,pharmacy,pharmacy,Unknown,Unknown,Unknown,13.0926295,80.2798674
Apollo Pharmacy,Unknown,Unknown,Unknown,Unknown,Unknown,Unknown,pharmacy,pharmacy,Unknown,Unknown,Unknown,13.0853533,80.2128093
KHM,Unknown,Unknown,Unknown,Unknown,Unknown,Unknown,hospital,hospital,Unknown,Unknown,Unknown,13.084556,80.2130458
Dr. Vijay's Hospital,Unknown,Unknown,Unknown,Unknown,Unknown,Unknown,hospital,hospital,Unknown,Unknown,Unknown,13.0856699,80.1797716
Apollo Pharmacy,Unknown,Unknown,Unknown,Unknown,Unknown,Unknown,pharmacy,pharmacy,Unknown,Unknown,Unknown,13.0850035,80.1747522
Easwar medicals,Unknown,Unknown,Unknown,Unknown,Unknown,Unknown,pharmacy,pharmacy,Unknown,Unknown,Unknown,13.0414646,80.2217887
Apollo Pharmacy,Unknown,Unknown,Unknown,Unknown,Unknown,Unknown,pharmacy,pharmacy,Unknown,Unknown,Unknown,13.0439094,80.2223127
Apollo Pharmacy,Unknown,Unknown,Unknown,Unknown,Unknown,Unknown,pharmacy,pharmacy,Unknown,Unknown,Unknown,13.0467824,80.2263207
Jayalaksmi medicals,Unknown,Unknown,Unknown,Unknown,Unknown,Unknown,pharmacy,pharmacy,Unknown,Unknown,Unknown,13.0454549,80.2258794
MedPlus,Unknown,Unknown,Unknown,Unknown,Unknown,Unknown,pharmacy,pharmacy,Unknown,Unknown,Unknown,13.0427579,80.2252034
Velavan medical shop,Unknown,Unknown,Unknown,Unknown,Unknown,Unknown,pharmacy,pharmacy,Unknown,Unknown,Unknown,13.0426041,80.2251597
Apollo,Unknown,Unknown,Unknown,Unknown,Unknown,Unknown,clinic,clinic,Unknown,Unknown,24/7,13.0826167,80.2752744
Unknown,Unknown,Unknown,Unknown,Unknown,Unknown,Unknown,clinic,clinic,Unknown,Unknown,Unknown,13.0061507,80.2576709
SMF,Unknown,1st Avenue,Unknown,Unknown,Unknown,Unknown,hospital,Unknown,Unknown,Unknown,Unknown,13.0868727,80.1697458
M.K. Dental Clinic,Unknown,Unknown,Unknown,Unknown,Unknown,Unknown,dentist,dentist,Unknown,Unknown,Unknown,13.1021903,80.2819289
K.M Medicals,Unknown,Unknown,Unknown,Unknown,Unknown,Unknown,pharmacy,pharmacy,Unknown,Unknown,Unknown,13.1017714,80.2821281
Sugam Medicals,Unknown,Unknown,Unknown,Unknown,Unknown,Unknown,pharmacy,pharmacy,Unknown,Unknown,Unknown,13.1026634,80.2798772
SIVA,Unknown,Unknown,Unknown,Unknown,Unknown,Unknown,pharmacy,pharmacy,Unknown,Unknown,Unknown,13.1317646,80.2487015
Ameer Medicals,Unknown,Unknown,Unknown,Unknown,Unknown,Unknown,pharmacy,pharmacy,Unknown,Unknown,Unknown,13.1003427,80.2837444
Broadway Dental & Face Care,Unknown,Unknown,Unknown,Unknown,Unknown,Unknown,dentist,dentist,Unknown,Unknown,Unknown,13.0993143,80.2866002
Raghavendra Medicals,Unknown,Unknown,Unknown,Unknown,Unknown,Unknown,pharmacy,pharmacy,Unknown,Unknown,Unknown,13.1029082,80.2842053
Ram Dental Clinic,Unknown,Unknown,Unknown,Unknown,Unknown,Unknown,dentist,dentist,Unknown,Unknown,Unknown,13.1014448,80.2832858
Globe Dental Care,Unknown,Unknown,Unknown,Unknown,Unknown,Unknown,dentist,dentist,Unknown,Unknown,Unknown,13.1000792,80.2848974
Rithick Medicals,Unknown,Unknown,Unknown,Unknown,Unknown,Unknown,pharmacy,pharmacy,Unknown,Unknown,Unknown,13.0994602,80.2836839
Sahar's Rehab,Unknown,Unknown,Unknown,Unknown,Unknown,Unknown,Unknown,physiotherapist,Unknown,Unknown,Unknown,13.0022797,80.2588351
Lister Metropolis,Unknown,Unknown,Unknown,Unknown,Unknown,Unknown,Unknown,laboratory,Unknown,Unknown,Unknown,13.001715,80.259994
Neroor Eye Centre,Unknown,Unknown,Unknown,Unknown,Unknown,Unknown,doctors,doctor,Unknown,Unknown,Unknown,13.0235693,80.2626733
RR Pharmacy,Unknown,Unknown,Unknown,Unknown,Unknown,Unknown,pharmacy,Unknown,Unknown,Unknown,Unknown,13.0374893,80.2670713
"Commissioner of Police office, Greater chennai Police",Unknown,Unknown,Unknown,Unknown,Unknown,Unknown,hospital,hospital,Unknown,Unknown,Unknown,13.081276,80.2631177
Building bridges therapeautic center,Unknown,Unknown,Unknown,Unknown,Unknown,Unknown,Unknown,occupational_therapist,Unknown,Unknown,Unknown,13.0897323,80.2147011
Unknown,Unknown,Unknown,Unknown,Unknown,Unknown,Unknown,hospital,hospital,Unknown,Unknown,Unknown,13.0920988,80.2588062
Jeevodaya Hospice for Cancer Patients,Unknown,Link to Kamarajar Salai,"Periya Mathur, Mathur",600051,Unknown,Unknown,Unknown,hospice,04425559671,Unknown,Unknown,13.1675126,80.2419301
Medplus,Unknown,Vaidhanathan Street,Unknown,Unknown,Unknown,Unknown,pharmacy,Unknown,Unknown,Unknown,Unknown,13.070634,80.2318455
Saffra Medicals,Unknown,Kanthan Street,Unknown,Unknown,Unknown,Unknown,pharmacy,Unknown,Unknown,Unknown,Unknown,13.0720446,80.230545
