Name,Full Address,Street,City,Postcode,State,Country,Amenity,Healthcare,Phone,Website,Opening Hours,Latitude,Longitude
Chinthamani Medical Department,Unknown,Unknown,Unknown,Unknown,Unknown,Unknown,pharmacy,pharmacy,Unknown,Unknown,Unknown,11.347629,77.7190874
Dr.R. Gnanasekaran,Unknown,Unknown,Unknown,Unknown,Unknown,Unknown,doctors,doctor,Unknown,Unknown,Unknown,11.3456558,77.7215197
Pasumai Pharmacy,Unknown,Unknown,Unknown,Unknown,Unknown,Unknown,pharmacy,pharmacy,Unknown,Unknown,Unknown,11.3452083,77.7183883
Deepa Medicals,Unknown,Unknown,Unknown,Unknown,Unknown,Unknown,pharmacy,pharmacy,Unknown,Unknown,Unknown,11.3466632,77.718547
Lotus Hospital,Unknown,Unknown,Unknown,Unknown,Unknown,Unknown,hospital,hospital,Unknown,Unknown,Unknown,11.3266236,77.7306301
Government Hospital,"Pallipalayam, Near Bus Stand",Unknown,Unknown,638006,Tamil Nadu,Unknown,hospital,Unknown,Unknown,Unknown,Unknown,11.3608508,77.747453
Pharmacy,Unknown,Unknown,Unknown,Unknown,Unknown,Unknown,pharmacy,Unknown,Unknown,Unknown,Unknown,11.3652161,77.7486375
Maruthi Medical Centre(Mmch Hospital),"Perundurai Road, Erode",Unknown,Unknown,638011,Tamil Nadu,Unknown,hospital,hospital,Unknown,Unknown,Unknown,11.3384018,77.7130616
"Kovai Medical Centre And Hospital, Perundurai",301 Bhavani Main Road Perundurai,Unknown,Unknown,638052,Tamil Nadu,Unknown,hospital,hospital,Unknown,Unknown,Unknown,11.3381361,77.7139593
Senthil Multispeciality Hospital,"547, Perundurai Road",Unknown,Unknown,638011,Tamil Nadu,Unknown,hospital,hospital,Unknown,Unknown,Unknown,11.338983,77.7138529
Acchutha Eye Care,"H-3, E.V.N. Road, Periyar Nagar, Near Surampatty Nall Road, Erode - 638 009",EVN Road,Unknown,638009,Tamil Nadu,Unknown,hospital,hospital,0424 403 0804,http://www.acchuthaeyecare.com,Unknown,11.33176,77.7202562
Unknown,Unknown,Unknown,Unknown,Unknown,Unknown,Unknown,clinic,clinic,Unknown,Unknown,Unknown,11.3367518,77.7282991
Kumarasamy Hospital,"H-137, Periyar Nagar, , Periyar Nagar",Unknown,Unknown,638001,Tamil Nadu,Unknown,hospital,hospital,Unknown,Unknown,Unknown,11.334273,77.7259118
"Thangam Hospital, Erode",H-123. Periyar Nagar,Unknown,Unknown,638001,Tamil Nadu,Unknown,hospital,hospital,Unknown,Unknown,Unknown,11.3340961,77.7262437
Unknown,Unknown,Gandhiji Road,Unknown,638001,Unknown,Unknown,clinic,clinic,Unknown,Unknown,Unknown,11.3368151,77.7268262
Unknown,Unknown,Unknown,Unknown,Unknown,Unknown,Unknown,hospital,hospital,Unknown,Unknown,Unknown,11.3405723,77.7188786
Vsm Hospital Atho And Maternity Centre,"Perundurai Road, Erode, Sathyamoorthi Hospital Road",Unknown,Unknown,638011,Tamil Nadu,Unknown,hospital,hospital,Unknown,Unknown,Unknown,11.3374641,77.7117842
Unknown,"Cauvery Rd, Janakiammal Layout, Karungalpalayam",Unknown,Unknown,638003,Tamil Nadu,Unknown,hospital,hospital,Unknown,Unknown,Unknown,11.350096,77.7325083
Unknown,Unknown,Unknown,Unknown,Unknown,Unknown,Unknown,pharmacy,pharmacy,Unknown,Unknown,Unknown,11.3335186,77.7186437
Bharani Paventhan Multi Speciality Hospital,"#74, Sampath Nagar,Opposite District Court",Unknown,Unknown,638011,Tamil Nadu,Unknown,hospital,hospital,Unknown,Unknown,Unknown,11.3358357,77.7081187
City Hospital,"87, Rkv Road, Near Chennai Silks",Unknown,Unknown,638003,Tamil Nadu,Unknown,hospital,hospital,Unknown,Unknown,Unknown,11.3451151,77.7300887
Arasan Eye Hospital,"26 Annamalai Lay-Out, Opposite Royal Theatre, New Bus Stand",Unknown,Unknown,638011,Tamil Nadu,Unknown,hospital,hospital,Unknown,Unknown,Unknown,11.3464182,77.7163893
"Vikram Hospital, Erode","12/29, State Bank Road",Unknown,Unknown,638001,Tamil Nadu,Unknown,hospital,hospital,Unknown,Unknown,Unknown,11.3356411,77.7280569
Valli Hospital,"20, Evn Road, Surampatty Four Roads",Unknown,Unknown,638009,Tamil Nadu,Unknown,hospital,hospital,Unknown,Unknown,Unknown,11.3338081,77.7185297
Vadivu Subramanian Nursing Home,"2, O.A. Ramasamy Street, Gandhi Nagar",Unknown,Unknown,638009,Tamil Nadu,Unknown,clinic,clinic,Unknown,Unknown,Unknown,11.337507,77.7152038
Sri Shanmuga Hospital,"14 / A Thiruchengode Main Road, Pallipalayam Erode",Unknown,Unknown,638006,Tamil Nadu,Unknown,hospital,Unknown,Unknown,Unknown,Unknown,11.3659792,77.7527426
Visaalam Hospitals,"9A, Sankagiri Bye Pass Road, Pallipalayam Road",Unknown,Unknown,638006,Tamil Nadu,Unknown,hospital,Unknown,Unknown,Unknown,Unknown,11.3651528,77.747808
"National Hospital, Erode","Saveetha Hospital Complex,#333, Brough Road",Unknown,Unknown,638001,Tamil Nadu,Unknown,hospital,hospital,Unknown,Unknown,Unknown,11.3344445,77.7181099
K.B.N. Nursing Home,"#49/1, Mosikeeranar Street,Near Krishna Theatre",Unknown,Unknown,638003,Tamil Nadu,Unknown,clinic,clinic,Unknown,Unknown,Unknown,11.344835,77.7310771
Kalyani Kidney Care Centre,"104,Main Road,Sampath Nagar,OppositeKongu Kalairangam",Unknown,Unknown,638011,Tamil Nadu,Unknown,hospital,hospital,Unknown,Unknown,Unknown,11.3383604,77.7080879
Unknown,Unknown,Unknown,Unknown,Unknown,Unknown,Unknown,dentist,dentist,Unknown,Unknown,Unknown,11.3240676,77.7410006
Arul Siddha Clinic,Unknown,Unknown,Unknown,Unknown,Unknown,Unknown,hospital,hospital,Unknown,Unknown,Unknown,11.3241935,77.7415856
Dr. Agarwal's Eye Hospital Ltd. - Erode,"No-397/1, Perundurai Main Road,Opposite To Kpk Petrol Pump",Unknown,Unknown,638011,Tamil Nadu,Unknown,hospital,hospital,Unknown,Unknown,Unknown,11.3421842,77.7173066
Dr.K.M. Nallaswamy Hospital,"Erode, Power House Road",Unknown,Unknown,638001,Tamil Nadu,Unknown,hospital,hospital,Unknown,Unknown,Unknown,11.3367022,77.7184211
Sri Jothi Hospitals,"Nehruji Street, Nadar Medu",Unknown,Unknown,638001,Tamil Nadu,Unknown,hospital,hospital,Unknown,Unknown,Unknown,11.3217208,77.7275956
"Nishant Hospital, Erode","350,E.V.N Road,Near Pazhamudhir Nailayam,Opp Power House",Unknown,Unknown,638009,Tamil Nadu,Unknown,hospital,hospital,Unknown,Unknown,Unknown,11.3365931,77.7179866
Universal Hospital,"447, Brough Road",Unknown,Unknown,638001,Tamil Nadu,Unknown,hospital,hospital,Unknown,Unknown,Unknown,11.3411046,77.7185217
Ck Hospital,"41, Balasubbarayalu Street",Unknown,Unknown,638001,Tamil Nadu,Unknown,hospital,hospital,Unknown,Unknown,Unknown,11.3326562,77.7282011
Cheran Hospital,"#27-A, Sankari Bye-Pass Road,Pallipalayam",Unknown,Unknown,638006,Tamil Nadu,Unknown,hospital,Unknown,Unknown,Unknown,Unknown,11.3680302,77.7481976
Ranm Malathy Vijayakumar Hospital,"66, Sampath Nagar, Main Road",Unknown,Unknown,638011,Tamil Nadu,Unknown,hospital,hospital,Unknown,Unknown,Unknown,11.3413334,77.708922
L.V.S. Eye Hospital,"13-A, Palaniappa Street, Opposite Govt Hospital, Near Shri Preethe Hospital",Unknown,Unknown,638009,Tamil Nadu,Unknown,hospital,hospital,Unknown,Unknown,Unknown,11.3385839,77.7156597
Sri Hari Sakthivel Hospital,"61/82, Vinayakar Kovil Street , Karungalpalayam",Unknown,Unknown,638003,Tamil Nadu,Unknown,hospital,hospital,Unknown,Unknown,Unknown,11.3526901,77.7323055
Naseer Nursing Home,Ghandhiji Road,Unknown,Unknown,638001,Tamil Nadu,Unknown,clinic,clinic,Unknown,Unknown,Unknown,11.3364485,77.7271691
K G Nursing Home,"47 Mettur Road Erode Ii, Tn 63804 Land Mark Adjacent To Bus Stand",Unknown,Unknown,638011,Tamil Nadu,Unknown,clinic,clinic,Unknown,Unknown,Unknown,11.3456845,77.7188784
Erode Trust Hospital,"42/14, Chinnamuthu Li Street, Natersar Mill Enclave, Perundurai Road, Erode",Unknown,Unknown,638011,Tamil Nadu,Unknown,hospital,hospital,Unknown,Unknown,Unknown,11.3399422,77.7134188
Erode Kidney's Centre,"No.13, Muthukaruppan Street, Gandhi Nagar, Ngo Colony, Erode",Unknown,Unknown,638009,Tamil Nadu,Unknown,hospital,hospital,Unknown,Unknown,Unknown,11.3383801,77.7164201
Erode Ortho Centre,"Old No.803, New No.384, Near Railway Station, Evn Road, Erode",Unknown,Unknown,638001,Tamil Nadu,Unknown,hospital,hospital,Unknown,Unknown,Unknown,11.3294487,77.7230172
Duraisamy Hospital,"36, Kalaimagal Kalvi Nilayam Road",Unknown,Unknown,638001,Tamil Nadu,Unknown,hospital,hospital,Unknown,Unknown,Unknown,11.3391625,77.7187054
Sabari Speciality Hospital,"402A, Surampatty Nall Road, Erode, Evn Road",Unknown,Unknown,638009,Tamil Nadu,Unknown,hospital,hospital,Unknown,Unknown,Unknown,11.3343025,77.7187054
Shabeer Hospital,"No.28 & 30, State Bank Road, Behind Central Theatre",Unknown,Unknown,638001,Tamil Nadu,Unknown,hospital,hospital,Unknown,Unknown,Unknown,11.33529,77.7285236
"Vijaya Hospital, Erode","947, Evn Road",Unknown,Unknown,638009,Tamil Nadu,Unknown,hospital,hospital,Unknown,Unknown,Unknown,11.3343511,77.7183037
"Vasan Eye Care Hospital, Erode","New No:285, Old No 352, E V Nanjappa Road",Unknown,Unknown,638009,Tamil Nadu,Unknown,hospital,hospital,Unknown,Unknown,Unknown,11.3364301,77.7181274
Dhanvantri Critical Care Center,"Old No - 60-61 New No. 27-28, Poonkundramar Street Karungal Palayam",Unknown,Unknown,638003,Tamil Nadu,Unknown,hospital,hospital,Unknown,Unknown,Unknown,11.3504266,77.7311274
Annai Ent and Head and Neck Care Center,"12 D, Palaniappa Street, Perundurai Road, Opp-Federal Bank",Unknown,Unknown,638009,Tamil Nadu,Unknown,hospital,hospital,Unknown,Unknown,Unknown,11.3387785,77.7149034
Madhu Surgical Clinic,"399,Perundurai Road",Unknown,Unknown,638011,Tamil Nadu,Unknown,clinic,clinic,Unknown,Unknown,Unknown,11.3386602,77.7143441
M.R Nursing Home,"246,Netaji Street",Unknown,Unknown,638001,Tamil Nadu,Unknown,clinic,clinic,Unknown,Unknown,Unknown,11.3386746,77.7294262
Sri Athi Sathya Hospital,"Dr. Gopinath, Perundurai Road",Unknown,Unknown,638011,Tamil Nadu,Unknown,hospital,hospital,Unknown,Unknown,Unknown,11.3392651,77.7126583
Neuro Speciality Hospital,"N0:281,Sabari Hospital Complex, E.V.N. Road, Surampatti Nall Road",Unknown,Unknown,638009,Tamil Nadu,Unknown,hospital,hospital,Unknown,Unknown,Unknown,11.3341986,77.7187268
Shri Preethe Hospital,"15, Palaniappa Street 1st Road, Opp: Gh",Unknown,Unknown,638009,Tamil Nadu,Unknown,hospital,hospital,Unknown,Unknown,Unknown,11.3385944,77.7157979
Ashwin Hospital,"212/545, Skc Road, Surampatty Nall Road",Unknown,Unknown,638001,Tamil Nadu,Unknown,hospital,hospital,Unknown,Unknown,Unknown,11.3330395,77.7197233
Sudha Institute of Medical Sciences Hospital,"Perundurai Road, Erode",Unknown,Unknown,638011,Tamil Nadu,Unknown,hospital,hospital,Unknown,Unknown,Unknown,11.3371539,77.7109247
V K Hospital,"33, Krishnampalayam Road, Karungalpalayam",Unknown,Unknown,638003,Tamil Nadu,Unknown,hospital,hospital,Unknown,Unknown,Unknown,11.3513792,77.7313976
Dr Nsk Hospital,"No 5, Muthukaruppana Street, Gandhi Nagar, Near Government Hospital & Behind Power Station",Unknown,Unknown,638009,Tamil Nadu,Unknown,hospital,hospital,Unknown,Unknown,Unknown,11.3381737,77.7153821
Srimathi Murugeshan Hospital,"Brough Road, Erode, Kalaimahal Kalvi Nillyam Road",Unknown,Unknown,638009,Tamil Nadu,Unknown,hospital,hospital,Unknown,Unknown,Unknown,11.3389205,77.7187791
Sri Harini Hospital,"#10/1, Perundurai Road,Behind Reliance Web World",Unknown,Unknown,638011,Tamil Nadu,Unknown,hospital,hospital,Unknown,Unknown,Unknown,11.335935,77.7112643
J.B. Clinic And Hospital,"#23, Veterinary Hospital Road",Unknown,Unknown,638001,Tamil Nadu,Unknown,hospital,hospital,Unknown,Unknown,Unknown,11.3351769,77.7282031
SIMS Children Hospital,"Edayankattuvalasu, Erode",Unknown,Unknown,638011,Tamil Nadu,Unknown,hospital,hospital,Unknown,Unknown,Unknown,11.3376687,77.7106065
Sholai Medical Centre,"Near Colletrate, Erode, Perundurai Road",Unknown,Unknown,638011,Tamil Nadu,Unknown,hospital,hospital,Unknown,Unknown,Unknown,11.3364905,77.7107674
Sri Kumaran E N T Hospital,"SH 79A, Pallipalayam",Unknown,Unknown,638008,Tamil Nadu,Unknown,hospital,Unknown,Unknown,Unknown,Unknown,11.3657814,77.7477763
Sri Krishna Hospital,"SH 79A, Pallipalayam",Unknown,Unknown,638008,Tamil Nadu,Unknown,hospital,Unknown,Unknown,Unknown,Unknown,11.3656648,77.7477783
Veerappanchataram Government Hospital,"Near Water Tank, V.Chatram(Po), Ganthiji Road",Unknown,Unknown,638004,Tamil Nadu,Unknown,hospital,hospital,Unknown,Unknown,Unknown,11.34858,77.713203
SG MET Hospital,"Erode, Nachiyappa 2 nd Street",Unknown,Unknown,638001,Tamil Nadu,Unknown,hospital,hospital,Unknown,Unknown,Unknown,11.34467,77.720405
Uphc Pallipalayam,Pallipalayam,Unknown,Unknown,638006,Tamil Nadu,Unknown,Unknown,centre,Unknown,Unknown,Unknown,11.3609629,77.7493441
Rajajipuram PHC,"Near Coporation Elementary School, Erode, Thirunagar Colony",Unknown,Unknown,638003,Tamil Nadu,Unknown,Unknown,centre,Unknown,Unknown,Unknown,11.35181,77.73336
Kumudha Hospital,"Karungalpalayam, Erode, Rvk Road",Unknown,Unknown,638003,Tamil Nadu,Unknown,hospital,hospital,Unknown,Unknown,Unknown,11.3467172,77.7306797
Kpn Nursing Home,"1, Krishna Theatre Road, Marapalam",Unknown,Unknown,638001,Tamil Nadu,Unknown,clinic,clinic,Unknown,Unknown,Unknown,11.3437022,77.7304525
Devi Hospital,"Brough Road, Erode",Unknown,Unknown,638001,Tamil Nadu,Unknown,hospital,hospital,Unknown,Unknown,Unknown,11.34116,77.718307
S R Hospital,"56/3, Sathy Road, Sulai Erode, Poosari Thottam",Unknown,Unknown,638004,Tamil Nadu,Unknown,hospital,hospital,Unknown,Unknown,Unknown,11.3587931,77.7030647
Arun Hospital,"Near Lakshmi Vilas Bank Atm,Municipal Colony, Edayankattuvalasu, Veerappanchatram",Unknown,Unknown,638009,Tamil Nadu,Unknown,hospital,hospital,Unknown,Unknown,Unknown,11.3447248,77.7138215
Abisek Medical Centre,"Erode Fort, Erode",Unknown,Unknown,638001,Tamil Nadu,Unknown,hospital,hospital,Unknown,Unknown,Unknown,11.3415975,77.7191789
Dhanvantri Critical Care Centre,"Sbi Colony, Karungalpalayam, Thirunagar Colony",Unknown,Unknown,638003,Tamil Nadu,Unknown,hospital,hospital,Unknown,Unknown,Unknown,11.35099,77.730508
Janet Nursing Home,"279, Brough Road, Kaikolar Thottam, Chidambaram Colony, Erode",Unknown,Unknown,638001,Tamil Nadu,Unknown,clinic,clinic,Unknown,Unknown,Unknown,11.3396455,77.7203698
"Government Maternity Hospital, Agathiar","Near Hdfc Bank , Erode, Agathiyar",Unknown,Unknown,638001,Tamil Nadu,Unknown,hospital,hospital,Unknown,Unknown,Unknown,11.33716,77.727075
Baby Hospital,"171, Nethaji Road, Marappaalam",Unknown,Unknown,638001,Tamil Nadu,Unknown,hospital,hospital,Unknown,Unknown,Unknown,11.335873,77.7315099
Dr Kokilasekar Nursing Hospital,"Paneerselvam Park, Erode, Prakasam St",Unknown,Unknown,638001,Tamil Nadu,Unknown,hospital,hospital,Unknown,Unknown,Unknown,11.3395874,77.7269838
Lakshmi Hospital,"Evn Road, Erode",Unknown,Unknown,638109,Tamil Nadu,Unknown,hospital,hospital,Unknown,Unknown,Unknown,11.3329461,77.7179248
Joseph Hospital,"Erode - Chennimalai Road, Cheran Nagar, Rangampalayam",Unknown,Unknown,638112,Tamil Nadu,Unknown,hospital,hospital,Unknown,Unknown,Unknown,11.30801,77.704584
"PHC, Kokkarayanpettai","Near Veterinary Hospital, Kokkarayanpet To Tiruchengode Road, Kokkarayanpet",Unknown,Unknown,638007,Tamil Nadu,Unknown,Unknown,centre,Unknown,Unknown,Unknown,11.31478,77.793148
Chinnu Hospital,"Kumarasami St, Erode",Unknown,Unknown,638001,Tamil Nadu,Unknown,hospital,hospital,Unknown,Unknown,Unknown,11.3352924,77.7197145
KMCH Speciality Hospital,"16, Palaniyappa Street, Opposite To Government Hospital, Nggo Colony, Erode",Unknown,Unknown,638009,Tamil Nadu,Unknown,hospital,hospital,Unknown,Unknown,Unknown,11.33911,77.716284
Kavin Hospital,"Perundurai Rd, Erode",Unknown,Unknown,638001,Tamil Nadu,Unknown,hospital,hospital,Unknown,Unknown,Unknown,11.3383568,77.7138882
Soorampettai UPHC,"Opposite To Police Station, Gandhiji Rd, Thiruvika St",Unknown,Unknown,638009,Tamil Nadu,Unknown,Unknown,centre,Unknown,Unknown,Unknown,11.32797,77.710921
Arcees Hospital,"Balasubramanya Nagar, Perundurai Road",Unknown,Unknown,638011,Tamil Nadu,Unknown,hospital,hospital,Unknown,Unknown,Unknown,11.3381082,77.7110478
Maragathavalli Hospital,"Surampatty Nall Road, Erode, Evn Road",Unknown,Unknown,638009,Tamil Nadu,Unknown,hospital,hospital,Unknown,Unknown,Unknown,11.3328528,77.7193915
Lkm Hospital,"No 243, Thiruvenkada Nagar, Erode",Unknown,Unknown,638001,Tamil Nadu,Unknown,hospital,hospital,Unknown,Unknown,Unknown,11.3335626,77.7190368
JJ hospital,"Thanga Perumal Street, Surampattivalasu, Erode",Unknown,Unknown,638001,Tamil Nadu,Unknown,hospital,hospital,Unknown,Unknown,Unknown,11.33168,77.728823
SCS Hospital And Urology Clinic,"Erode Fort, Erode, Brough Road",Unknown,Unknown,638001,Tamil Nadu,Unknown,hospital,hospital,Unknown,Unknown,Unknown,11.3410253,77.718043
Anusha Hospital,"Evn Rd, Chidambaram Colony, Erode",Unknown,Unknown,638001,Tamil Nadu,Unknown,hospital,hospital,Unknown,Unknown,Unknown,11.3397168,77.7166805
Jai Maaruthi Hospital,"146/1, Gandhiji Road, Near Fire Service, Erode",Unknown,Unknown,638001,Tamil Nadu,Unknown,hospital,hospital,Unknown,Unknown,Unknown,11.332,77.727272
Children Dental Hospital,Mettur,Unknown,Unknown,638001,Tamil Nadu,Unknown,dentist,dentist,Unknown,Unknown,Unknown,11.3477559,77.7187031
Kaviraj Ayurveda Hospital,"Periyar Street, Marapalam",Unknown,Unknown,638001,Tamil Nadu,Unknown,hospital,hospital,Unknown,Unknown,Unknown,11.3400349,77.7298199
Mayil Skin Laser Clinic,"Kaikolar Thottam, Erode",Unknown,Unknown,638001,Tamil Nadu,Unknown,clinic,clinic,Unknown,Unknown,Unknown,11.33349,77.719062
Vanalikaa Homoeo Centre,"Erode Fort, Erode",Unknown,Unknown,638001,Tamil Nadu,Unknown,clinic,clinic,Unknown,Unknown,Unknown,11.341349,77.717987
Dr. R Kumaraswamy Sexologist Clinic,Erode,Unknown,Unknown,638001,Tamil Nadu,Unknown,clinic,clinic,Unknown,Unknown,Unknown,11.3396057,77.7221701
Om Shakthi Hospital,"Chettipalayam, Erode",Unknown,Unknown,638002,Tamil Nadu,Unknown,hospital,Unknown,Unknown,Unknown,Unknown,11.3108011,77.7259973
Dr. Jawahar Homeopathy Clinic,"Chidambaram Colony, Erode",Unknown,Unknown,638001,Tamil Nadu,Unknown,clinic,clinic,Unknown,Unknown,Unknown,11.336223,77.719616
KB Hospital,Erode,Unknown,Unknown,638009,Tamil Nadu,Unknown,hospital,hospital,Unknown,Unknown,Unknown,11.32748,77.708083
Dr. K. Sathya Moorthy,"Edayankattuvalasu, Erode",Unknown,Unknown,638011,Tamil Nadu,Unknown,doctors,doctor,Unknown,Unknown,Unknown,11.3372082,77.7114466
Naveen Balaji Maternity Nursing Home,"Periyar Salai, Erode",Unknown,Unknown,638011,Tamil Nadu,Unknown,clinic,clinic,Unknown,Unknown,Unknown,11.3319733,77.7152293
Dr. Snm Siddha Hospital,Erode,Unknown,Unknown,638009,Tamil Nadu,Unknown,hospital,hospital,Unknown,Unknown,Unknown,11.3306597,77.7196144
Dr. Padmanaban Heart Clinic,"Chidambaram Colony, Erode",Unknown,Unknown,638001,Tamil Nadu,Unknown,clinic,clinic,Unknown,Unknown,Unknown,11.337426,77.7184453
Sri Vijaya Hitech Hospital,"Chidambaram Colony, Erode",Unknown,Unknown,638001,Tamil Nadu,Unknown,hospital,hospital,Unknown,Unknown,Unknown,11.3400011,77.7192251
Rahat Acu Clinic,"Edayankattuvalasu, Erode",Unknown,Unknown,638009,Tamil Nadu,Unknown,clinic,clinic,Unknown,Unknown,Unknown,11.3378679,77.7123699
Dr. R.M. Habibullah Hospital,"Periyar Nagar, Erode",Unknown,Unknown,638001,Tamil Nadu,Unknown,hospital,hospital,Unknown,Unknown,Unknown,11.335246,77.7266028
Aditi Ent Hospital,"Periyar Nagar, Erode",Unknown,Unknown,638001,Tamil Nadu,Unknown,hospital,hospital,Unknown,Unknown,Unknown,11.3300862,77.7236924
Nalli Hospital,Veerappanchatram,Unknown,Unknown,638001,Tamil Nadu,Unknown,hospital,hospital,Unknown,Unknown,Unknown,11.3463567,77.7171556
Mercury Hospital,"Periyar Nagar, Erode",Unknown,Unknown,638003,Tamil Nadu,Unknown,hospital,hospital,Unknown,Unknown,Unknown,11.3328384,77.7240531
Onco Foundation Cancer Hospital,Erode,Unknown,Unknown,638001,Tamil Nadu,Unknown,hospital,hospital,Unknown,Unknown,Unknown,11.3340957,77.7183601
Pulze Health Clinic,"Moolapalayam, Erode",Unknown,Unknown,638002,Tamil Nadu,Unknown,clinic,Unknown,Unknown,Unknown,Unknown,11.3179874,77.7288603
Senthil Prakash Hospital,"Ramamoorthy Nagar, Erode",Unknown,Unknown,638003,Tamil Nadu,Unknown,hospital,hospital,Unknown,Unknown,Unknown,11.352639,77.732267
Arc Fertility Hospital,Erode,Unknown,Unknown,638011,Tamil Nadu,Unknown,hospital,hospital,Unknown,Unknown,Unknown,11.3397231,77.7130655
Rathnam Maternity Clinic,"Teachers Colony, Erode",Unknown,Unknown,638011,Tamil Nadu,Unknown,clinic,clinic,Unknown,Unknown,Unknown,11.3304571,77.7064606
Suriya Hospital,"Chidambaram Colony, Erode",Unknown,Unknown,638001,Tamil Nadu,Unknown,hospital,hospital,Unknown,Unknown,Unknown,11.340248,77.7186452
Sreedhareeam Eye Hospital,Pavalathampalayam,Unknown,Unknown,638001,Tamil Nadu,Unknown,hospital,hospital,Unknown,Unknown,Unknown,11.352858,77.722408
KS Eye Hospital,Veerappanchatram,Unknown,Unknown,638001,Tamil Nadu,Unknown,hospital,hospital,Unknown,Unknown,Unknown,11.3465289,77.7175494
KS Hospital,Erode,Unknown,Unknown,638002,Tamil Nadu,Unknown,hospital,hospital,Unknown,Unknown,Unknown,11.3138357,77.7158992
Sakthipriya Hospital,"Balasubramania Nagar, Erode",Unknown,Unknown,638009,Tamil Nadu,Unknown,hospital,hospital,Unknown,Unknown,Unknown,11.337874,77.711363
Sri Indra Hospital,"Jaganathapuram Colony, Erode",Unknown,Unknown,638001,Tamil Nadu,Unknown,hospital,hospital,Unknown,Unknown,Unknown,11.328458,77.7128578
Skin Care Clinic,Erode,Unknown,Unknown,638009,Tamil Nadu,Unknown,clinic,clinic,Unknown,Unknown,Unknown,11.3409042,77.7178413
RB Kids Clinic,Erode,Unknown,Unknown,638011,Tamil Nadu,Unknown,clinic,clinic,Unknown,Unknown,Unknown,11.339221,77.713915
Kaviraj Siddha Hospital,Erode,Unknown,Unknown,638003,Tamil Nadu,Unknown,hospital,hospital,Unknown,Unknown,Unknown,11.347153,77.720863
Agathiyar Siddha Hospital,"Moolapalayam, Erode",Unknown,Unknown,638002,Tamil Nadu,Unknown,hospital,hospital,Unknown,Unknown,Unknown,11.3174229,77.7254599
Vasanth Clinic,"Moolapalayam, Nadarmedu",Unknown,Unknown,638002,Tamil Nadu,Unknown,clinic,clinic,Unknown,Unknown,Unknown,11.3195299,77.727194
Arun Fracture Hospital,Gandhinagar,Unknown,Unknown,638001,Tamil Nadu,Unknown,hospital,hospital,Unknown,Unknown,Unknown,11.3378114,77.7152632
Roja Hospital,Thirunagar Colony,Unknown,Unknown,638003,Tamil Nadu,Unknown,hospital,hospital,Unknown,Unknown,Unknown,11.3509181,77.7282478
Ajay Gastro Hospital,"Periyar Nagar, Erode",Unknown,Unknown,638001,Tamil Nadu,Unknown,hospital,hospital,Unknown,Unknown,Unknown,11.331873,77.720727
Indrajith Yoga Nature Cure Hospital,Erode,Unknown,Unknown,638003,Tamil Nadu,Unknown,hospital,hospital,Unknown,Unknown,Unknown,11.3499973,77.732974
Care Hospital,"Ngo Colony, Erode",Unknown,Unknown,638009,Tamil Nadu,Unknown,hospital,hospital,Unknown,Unknown,Unknown,11.338443,77.716511
Dr. Pondiperumal Hospital,"Kaikolar Thottam, Erode",Unknown,Unknown,638001,Tamil Nadu,Unknown,hospital,hospital,Unknown,Unknown,Unknown,11.3390924,77.7205408
Bethesda Hospital,"Periyar Nagar, Erode",Unknown,Unknown,638001,Tamil Nadu,Unknown,hospital,hospital,Unknown,Unknown,Unknown,11.3314183,77.7266231
Bharath Hospital,Erode,Unknown,Unknown,638001,Tamil Nadu,Unknown,hospital,hospital,Unknown,Unknown,Unknown,11.3370288,77.7186516
Monika Diabetes Centre,"Erode, Vinay Nagar, Nadarmedu",Unknown,Unknown,638002,Tamil Nadu,Unknown,clinic,clinic,Unknown,Unknown,Unknown,11.3229084,77.7269179
Abitha Eye Hospital,"Kaikolar Thottam, Erode",Unknown,Unknown,638001,Tamil Nadu,Unknown,hospital,hospital,Unknown,Unknown,Unknown,11.34021,77.7187589
Sri Kumaran Hospital,"Anna Nagar, Erode",Unknown,Unknown,638001,Tamil Nadu,Unknown,hospital,hospital,Unknown,Unknown,Unknown,11.3310559,77.7183
Ortho Life Hospital,Erode,Unknown,Unknown,638009,Tamil Nadu,Unknown,hospital,hospital,Unknown,Unknown,Unknown,11.3395729,77.7167329
SS Hospital,"Kalukadimedu, Surampattivalasu, Marapalam",Unknown,Unknown,638001,Tamil Nadu,Unknown,hospital,hospital,Unknown,Unknown,Unknown,11.334839,77.732254
Maternity Hospital,Palayapalayam,Unknown,Unknown,638011,Tamil Nadu,Unknown,hospital,hospital,Unknown,Unknown,Unknown,11.3299275,77.7065985
Shri Vijaiah Trauma Care Hospital,Erode,Unknown,Unknown,638001,Tamil Nadu,Unknown,hospital,hospital,Unknown,Unknown,Unknown,11.3418935,77.7193036
Srinivasa Speciality Hospital,Erode,Unknown,Unknown,638001,Tamil Nadu,Unknown,hospital,hospital,Unknown,Unknown,Unknown,11.337577,77.715527
Sri Ohm Dental Hospital,Nadarmedu,Unknown,Unknown,638002,Tamil Nadu,Unknown,dentist,dentist,99522 89098,Unknown,Unknown,11.3208692,77.7275523
Sathyavathi Ramalingam Clinic,Erode,Unknown,Unknown,638001,Tamil Nadu,Unknown,clinic,clinic,Unknown,Unknown,Unknown,11.3380366,77.7166875
Velavan Hospital,Erode,Unknown,Unknown,638001,Tamil Nadu,Unknown,hospital,hospital,Unknown,Unknown,Unknown,11.3384075,77.7123677
SRC Hospital,"Erode Fort, Erode",Unknown,Unknown,638001,Tamil Nadu,Unknown,hospital,hospital,Unknown,Unknown,Unknown,11.3413999,77.7177834
Newlife Fertility Centre,"Chidambaram Colony, Erode",Unknown,Unknown,638001,Tamil Nadu,Unknown,clinic,clinic,Unknown,Unknown,Unknown,11.3389396,77.7213358
R.L Hospital,Erode,Unknown,Unknown,638001,Tamil Nadu,Unknown,hospital,hospital,Unknown,Unknown,Unknown,11.3340506,77.7158268
Cauvery Nature Cure Hospital,Unknown,Unknown,Unknown,638107,Tamil Nadu,Unknown,hospital,hospital,Unknown,Unknown,Unknown,11.3459862,77.7171349
Erode Women and Children Clinic,"Edayankattuvalasu, Erode",Unknown,Unknown,638011,Tamil Nadu,Unknown,clinic,clinic,Unknown,Unknown,Unknown,11.3420279,77.7116815
Gnanaganesh Hospital,Palayapalayam,Unknown,Unknown,638011,Tamil Nadu,Unknown,hospital,hospital,Unknown,Unknown,Unknown,11.3340114,77.706332
Siddhvedam Siddha Hospital,"Teachers Colony, Erode",Unknown,Unknown,638011,Tamil Nadu,Unknown,hospital,hospital,Unknown,Unknown,Unknown,11.3336526,77.7063319
Keran Hospital,Erode,Unknown,Unknown,638001,Tamil Nadu,Unknown,hospital,hospital,Unknown,Unknown,Unknown,11.3400456,77.7154808
Sukeerthi Skin Care,"Pari Nagar, Kumalan Kuttai, Erode",Unknown,Unknown,638011,Tamil Nadu,Unknown,clinic,clinic,Unknown,Unknown,Unknown,11.3342224,77.7051196
Divisional Railway Hospital,"Railway Colony, Erode",Unknown,Unknown,638002,Tamil Nadu,Unknown,hospital,hospital,Unknown,Unknown,Unknown,11.3237354,77.7204487
Aditya Clinic,"Chidambaram Colony, Erode",Unknown,Unknown,638001,Tamil Nadu,Unknown,clinic,clinic,Unknown,Unknown,Unknown,11.3362752,77.7192937
Arul Siddha Care Hospital,Unknown,Unknown,Unknown,638002,Tamil Nadu,Unknown,Unknown,alternative,Unknown,Unknown,Unknown,11.3245514,77.7414538
Priya Hospital,Veerappanchatram,Unknown,Unknown,638001,Tamil Nadu,Unknown,hospital,hospital,Unknown,Unknown,Unknown,11.346512,77.718023
Dr. K Subashini,Unknown,Unknown,Unknown,638011,Tamil Nadu,Unknown,doctors,doctor,Unknown,Unknown,Unknown,11.3378987,77.7117672
ESI Dispensary,"Surampattivalasu, Erode",Unknown,Unknown,638001,Tamil Nadu,Unknown,Unknown,centre,Unknown,Unknown,Unknown,11.3431721,77.7111184
Gem Hospital,"Gandhi Nagar, Erode",Unknown,Unknown,638009,Tamil Nadu,Unknown,hospital,hospital,Unknown,Unknown,Unknown,11.338106,77.7155077
V.S.M. Hospital,"Edayankattuvalasu, Erode",Unknown,Unknown,638011,Tamil Nadu,Unknown,hospital,hospital,Unknown,Unknown,Unknown,11.337176,77.7113816
Shubiksha Hospital,"Kalukadimedu, Konavaikkal, Surampattivalasu, Marapalam",Unknown,Unknown,638001,Tamil Nadu,Unknown,hospital,hospital,Unknown,Unknown,Unknown,11.3318174,77.7299544
Dharshaan Hospital,"Periyar Nagar, Erode",Unknown,Unknown,638001,Tamil Nadu,Unknown,hospital,hospital,Unknown,Unknown,Unknown,11.3320016,77.7204888
Dr. Nagarajan,Kollampalayam,Unknown,Unknown,638002,Tamil Nadu,Unknown,doctors,doctor,Unknown,Unknown,Unknown,11.3259841,77.7305795
Dr. Navaneetha Krishnan,Erode,Unknown,Unknown,638001,Tamil Nadu,Unknown,doctors,doctor,Unknown,Unknown,Unknown,11.3390199,77.7162674
Milan Hospital,Erode,Unknown,Unknown,638001,Tamil Nadu,Unknown,hospital,hospital,Unknown,Unknown,Unknown,11.343591,77.733182
Dr. Soundhararajan,"Moolapatrai, Thirunagar Colony",Unknown,Unknown,638001,Tamil Nadu,Unknown,doctors,doctor,Unknown,Unknown,Unknown,11.3501268,77.7232986
TAT Ent Hospital,Unknown,Unknown,Unknown,638011,Tamil Nadu,Unknown,hospital,hospital,Unknown,Unknown,Unknown,11.34639,77.716936
Nalan Hospital,Erode,Unknown,Unknown,638009,Tamil Nadu,Unknown,hospital,hospital,Unknown,Unknown,Unknown,11.3399703,77.716773
Ajay Hospital,"Periyar Nagar, Erode",Unknown,Unknown,638001,Tamil Nadu,Unknown,clinic,clinic,Unknown,Unknown,Unknown,11.3318814,77.7205741
P.K. Hospital,Erode,Unknown,Unknown,638009,Tamil Nadu,Unknown,Unknown,hospital,Unknown,Unknown,Unknown,11.3385785,77.7144442
Guhan ENT Hospital,Erode,Unknown,Unknown,638001,Tamil Nadu,Unknown,hospital,hospital,Unknown,Unknown,Unknown,11.339489,77.721001
KRN Hospital,"Periyar Nagar, Erode",Unknown,Unknown,638001,Tamil Nadu,Unknown,hospital,hospital,Unknown,Unknown,Unknown,11.330054,77.723136
Surya Hospital,"Kaikolar Thottam, Erode",Unknown,Unknown,638009,Tamil Nadu,Unknown,hospital,hospital,Unknown,Unknown,Unknown,11.3400026,77.7190977
APN Clinic,Veerappanchatram,Unknown,Unknown,638001,Tamil Nadu,Unknown,clinic,clinic,Unknown,Unknown,Unknown,11.3515168,77.7135642
Dr. Chandran Skin Laser Centre,"Near MGR Statue, Edayankattuvalasu, Erode",Unknown,Unknown,638011,Tamil Nadu,Unknown,clinic,clinic,Unknown,Unknown,Unknown,11.3413527,77.7174891
Sri Hari Hospital,Erode,Unknown,Unknown,638001,Tamil Nadu,Unknown,hospital,hospital,Unknown,Unknown,Unknown,11.338357,77.7164204
"Sri Jai Shakthi Dentistry, Speciality Children Dental Hospital",Veerappanchatram,Unknown,Unknown,638001,Tamil Nadu,Unknown,hospital,hospital,Unknown,Unknown,Unknown,11.3476429,77.7186408
Sri Indhu Hospital,"Jaganathapuram Colony, Erode",Unknown,Unknown,638001,Tamil Nadu,Unknown,hospital,hospital,Unknown,Unknown,Unknown,11.3285353,77.7130688
Immick Hospital,Erode,Unknown,Unknown,638001,Tamil Nadu,Unknown,hospital,hospital,Unknown,Unknown,Unknown,11.332617,77.728073
Sri Vaishnavi Dental Clinic,"Mettur Road, Erode",Unknown,Unknown,638011,Tamil Nadu,Unknown,dentist,dentist,Unknown,Unknown,Unknown,11.3464928,77.7179217
Curie Hospital,"Gandhi Nagar, Narayanavalasu, Erode",Unknown,Unknown,638009,Tamil Nadu,Unknown,hospital,hospital,Unknown,Unknown,Unknown,11.3380517,77.7140038
Janani Hospital,"Mudhali Thottam, Periya Semur",Unknown,Unknown,638004,Tamil Nadu,Unknown,hospital,hospital,Unknown,Unknown,Unknown,11.3611499,77.7011804
Government Hospital,Unknown,Unknown,Unknown,638005,Tamil Nadu,Unknown,hospital,hospital,Unknown,Unknown,Unknown,11.371101,77.703436
Shifa Free Hospital,B P Agraharam,Unknown,Unknown,638005,Tamil Nadu,Unknown,hospital,hospital,Unknown,Unknown,Unknown,11.3683589,77.7070167
Christhu Jothi Hospital,Erode,Unknown,Unknown,638005,Tamil Nadu,Unknown,hospital,hospital,Unknown,Unknown,Unknown,11.364103,77.7098785
Vanjee Multispecality Dental Centre,Unknown,Chinnamuthu main street,Erode,638011,Unknown,Unknown,hospital,hospital,Unknown,Unknown,Unknown,11.3418385,77.7132218
Sukra medicals,Unknown,Opposite Carmel School,Unknown,Unknown,Unknown,Unknown,pharmacy,pharmacy,Unknown,Unknown,Unknown,11.3230763,77.7386608
Tava Drug Mart,Unknown,Unknown,Unknown,Unknown,Unknown,Unknown,pharmacy,pharmacy,Unknown,Unknown,Unknown,11.3436578,77.7182673
