Name,Full Address,Street,City,Postcode,State,Country,Amenity,Healthcare,Phone,Website,Opening Hours,Latitude,Longitude
Shivam Hospital,"525/35, Phagwara Road Sukhdev Nagar, Near T B Hospital Khanpuri Gate",Unknown,Unknown,146001,Punjab,Unknown,hospital,Unknown,Unknown,http://www.shivamhospital.in/,Unknown,31.520966,75.9002785
New Saini Hospital,"Near Government College, Guru Nanak Avenue, Sutehri Road, Phagwara Chowk",Unknown,Unknown,146001,Punjab,Unknown,hospital,Unknown,Unknown,Unknown,Unknown,31.5242997,75.9141728
Sood Ent Hospital,"Near Banga Chowk, Railway Road, Garhshanker",Unknown,Unknown,146001,Punjab,Unknown,hospital,Unknown,Unknown,Unknown,Unknown,31.5362424,75.9048381
B.R. Chowdhary Hospital,"Near Pseb, Sub Urban, Jalandhar Road, ,Near Prabhat Chowk",Unknown,Unknown,146001,Punjab,Unknown,hospital,Unknown,Unknown,Unknown,Unknown,31.5319113,75.908276
Gulati Surgical Hospital,Hira Colony,Unknown,Unknown,146001,Punjab,Unknown,hospital,Unknown,Unknown,gulatisurgicalhospital.com,Unknown,31.5367139,75.9051499
RRM Central Hospital,"St No.3 Opp. Manavta Mandir, Central Town, Hoshiarpur",Unknown,Unknown,146001,Punjab,Unknown,hospital,Unknown,Unknown,https://www.centralhospitalhoshiarpur.com/,Unknown,31.5284077,75.9084678
Singla Children Hospital,"Hira Colony Road, Hira Colony Road",Unknown,Unknown,146001,Punjab,Unknown,hospital,Unknown,Unknown,Unknown,Unknown,31.5293752,75.9044511
Satnam Hospital,"Opposite Shivam Hospital, New Deep Nagar",Unknown,Unknown,146001,Punjab,Unknown,hospital,Unknown,Unknown,Unknown,Unknown,31.5193247,75.9009802
Sethi Hospital and Maternity Home,"B-17/568, Sutheri Rd, Central Town, Manavta Nagar",Unknown,Unknown,146001,Punjab,Unknown,hospital,Unknown,Unknown,Unknown,Unknown,31.5282397,75.9085549
Gur Charan Kanwal Hospital,Gokal Nagar,Unknown,Unknown,146001,Punjab,Unknown,hospital,Unknown,Unknown,Unknown,Unknown,31.5273056,75.9003594
Principal Raj Kumar Memorial Modern Hospital,Near Govt College,Unknown,Unknown,146001,Punjab,Unknown,hospital,Unknown,Unknown,Unknown,Unknown,31.5274895,75.9042866
Saini Hospital / Saini I.V.F. and Fertility Research Centre,"Shaheed Udham Singh Park, Model Town Opposite Shahid, near Roshan Ground",Unknown,Unknown,146001,Punjab,Unknown,hospital,Unknown,Unknown,Unknown,Unknown,31.5348201,75.9028585
Goyal Hospital and Heart Care Centre,"Chandigarh Road, Aslamabad",Unknown,Unknown,146001,Punjab,Unknown,hospital,Unknown,Unknown,Unknown,Unknown,31.5446891,75.9021084
Gursimran Hospital,"Naloian Chowk, Dasuya Road",Unknown,Unknown,146001,Punjab,Unknown,hospital,Unknown,Unknown,Unknown,Unknown,31.5528694,75.9002446
"Kanwar Hospital, Hoshiarpur","Fatehgarh road, Street No 3, Guru Nanak Avenue, Near Prabhat Chowk",Unknown,Unknown,146001,Punjab,Unknown,hospital,Unknown,Unknown,Unknown,Unknown,31.5244451,75.9141285
Bhagya Tara Hospital,"New Shastri Nagar, Hoshiarpur",Unknown,Unknown,146001,Punjab,Unknown,hospital,Unknown,Unknown,Unknown,Unknown,31.542134,75.909666
Bahti Clinic,Hoshiarpur,Unknown,Unknown,146024,Punjab,Unknown,clinic,Unknown,Unknown,Unknown,Unknown,31.583518,75.963131
Narad Hospital,"Manavta Nagar, Hoshiarpur",Unknown,Unknown,146001,Punjab,Unknown,hospital,Unknown,Unknown,Unknown,Unknown,31.5289124,75.9098501
Dr. Vijayendra's Urology Clinic,Hoshiarpur,Unknown,Unknown,146001,Punjab,Unknown,clinic,Unknown,Unknown,Unknown,Unknown,31.5242734,75.9141693
Kalia Nursing Home,Krishna Nagar,Unknown,Unknown,146001,Punjab,Unknown,hospital,Unknown,Unknown,Unknown,Unknown,31.529988,75.919878
Police Hospital,Hoshiarpur,Unknown,Unknown,146001,Punjab,Unknown,hospital,Unknown,Unknown,Unknown,Unknown,31.523913,75.927286
Dr. Gulzar's Eyemax Clinic,Hoshiarpur,Unknown,Unknown,146001,Punjab,Unknown,clinic,Unknown,Unknown,Unknown,Unknown,31.527622,75.9166142
TGM Gulati Surgical Hospital,"Ravidass Nagar, Aslamabad, Hoshiarpur",Unknown,Unknown,146001,Punjab,Unknown,hospital,Unknown,Unknown,Unknown,Unknown,31.513582,75.929506
Purewal Bone & Joint Treatment,"Aslamabad, Hoshiarpur",Unknown,Unknown,146001,Punjab,Unknown,clinic,Unknown,Unknown,Unknown,Unknown,31.514069,75.929304
S.D Homeopathic Hospital,Hoshiarpur,Unknown,Unknown,146001,Punjab,Unknown,hospital,Unknown,Unknown,Unknown,Unknown,31.53348,75.911493
Aggarwal Nursing Home,"Manavta Nagar, Hoshiarpur",Unknown,Unknown,146001,Punjab,Unknown,clinic,Unknown,Unknown,Unknown,Unknown,31.528855,75.907507
Ravjot Hospital & Cardiac Centre,"Shaheed Udham Singh Park, Hoshiarpur",Unknown,Unknown,146001,Punjab,Unknown,hospital,Unknown,Unknown,Unknown,Unknown,31.5345257,75.9009238
Child Care Hospital,Hoshiarpur,Unknown,Unknown,146001,Punjab,Unknown,hospital,Unknown,Unknown,Unknown,Unknown,31.5379716,75.9061659
J J Children Hospital and Women Wellness Centre,"Manavta Nagar, Hoshiarpur",Unknown,Unknown,146001,Punjab,Unknown,hospital,Unknown,Unknown,Unknown,Unknown,31.5307664,75.9067002
Sethi Hospital,"Manavta Nagar, Hoshiarpur",Unknown,Unknown,146001,Punjab,Unknown,hospital,Unknown,Unknown,Unknown,Unknown,31.5289413,75.9089543
Shri Nageshwar Hospital,"Indira Colony, Hoshiarpur",Unknown,Unknown,146001,Punjab,Unknown,hospital,Unknown,Unknown,Unknown,Unknown,31.5158199,75.9261466
Ahuja Children Hospital,Hoshiarpur,Unknown,Unknown,146001,Punjab,Unknown,hospital,Unknown,Unknown,Unknown,Unknown,31.5257397,75.921375
Bedi Bones and Joint's Care,Hoshiarpur,Unknown,Unknown,146001,Punjab,Unknown,clinic,Unknown,Unknown,Unknown,Unknown,31.525275,75.913973
Kapila Hospital,"Manavta Nagar, Hoshiarpur",Unknown,Unknown,146001,Punjab,Unknown,hospital,Unknown,Unknown,Unknown,Unknown,31.528942,75.905494
District Hospital,"Kamalpur, Hoshiarpur",Unknown,Unknown,146001,Punjab,Unknown,hospital,Unknown,Unknown,Unknown,Unknown,31.5302073,75.9002693
Sbm Memorial Hospital,"Bajwara, Hoshiarpur",Unknown,Unknown,146023,Punjab,Unknown,hospital,Unknown,Unknown,Unknown,Unknown,31.523265,75.953663
Goswami Dental and Sarago Sleep Care,Hoshiarpur,Unknown,Unknown,146001,Punjab,Unknown,clinic,Unknown,Unknown,Unknown,Unknown,31.522239,75.9264918
Shree Narayn Hospital,Hoshiarpur,Unknown,Unknown,146001,Punjab,Unknown,hospital,Unknown,Unknown,Unknown,Unknown,31.539168,75.9139935
New Saini Hospital,Hoshiarpur,Unknown,Unknown,146001,Punjab,Unknown,hospital,Unknown,Unknown,Unknown,Unknown,31.52541,75.9139
Mahavir Jain Charitable Clinic,"Shakti Nagar, Hoshiarpur",Unknown,Unknown,146001,Punjab,Unknown,clinic,Unknown,Unknown,Unknown,Unknown,31.534635,75.919623
Mehta Clinic,Hoshiarpur,Unknown,Unknown,146001,Punjab,Unknown,clinic,Unknown,Unknown,Unknown,Unknown,31.5330633,75.9066771
Bal Krishan Hospital,"Krishna Nagar, Hoshiarpur",Unknown,Unknown,146001,Punjab,Unknown,hospital,Unknown,Unknown,Unknown,Unknown,31.529301,75.916314
Mata Devi Labh Chand Jain Charitable Health Care,"Shakti Nagar, Hoshiarpur",Unknown,Unknown,146001,Punjab,Unknown,clinic,Unknown,Unknown,Unknown,Unknown,31.534171,75.9196475
Gynae Clinic,"Maharaja Ranjit Singh Nagar, Hoshiarpur",Unknown,Unknown,146001,Punjab,Unknown,clinic,Unknown,Unknown,Unknown,Unknown,31.521012,75.9004107
Kumar Hospital,"Shalimar Nagar, Hoshiarpur",Unknown,Unknown,146001,Punjab,Unknown,hospital,Unknown,Unknown,Unknown,Unknown,31.527473,75.930054
Kanwar Hospital,"Vijay Nagar, Hoshiarpur",Unknown,Unknown,146001,Punjab,Unknown,hospital,Unknown,Unknown,Unknown,Unknown,31.5117402,75.9098236
Agarwal Hospital,"Tulsi Nagar, Kamalpur, Hoshiarpur",Unknown,Unknown,146001,Punjab,Unknown,hospital,Unknown,Unknown,Unknown,Unknown,31.527182,75.903705
HIS Clinic,"Jagat Pura, Hoshiarpur",Unknown,Unknown,146001,Punjab,Unknown,clinic,Unknown,Unknown,Unknown,Unknown,31.5341927,75.9080371
Urology Clinic,Hoshiarpur,Unknown,Unknown,146001,Punjab,Unknown,clinic,Unknown,Unknown,Unknown,Unknown,31.5243176,75.9141664
SPS Children Hospital,"Shakti Nagar, Hoshiarpur",Unknown,Unknown,146001,Punjab,Unknown,hospital,Unknown,Unknown,Unknown,Unknown,31.538394,75.920093
Jaswal Homeopathic & Acupuncture Hospital,Hoshiarpur,Unknown,Unknown,146001,Punjab,Unknown,hospital,Unknown,Unknown,Unknown,Unknown,31.5264393,75.9034139
Dr. Karnail Clinic,"Budh Ram Colony, Hoshiarpur",Unknown,Unknown,146001,Punjab,Unknown,clinic,Unknown,Unknown,Unknown,Unknown,31.522952,75.926046
Dr. Prashar's Hospital,"Model colony, Hoshiarpur",Unknown,Unknown,146001,Punjab,Unknown,hospital,Unknown,Unknown,Unknown,Unknown,31.536472,75.901954
Aman Hospital,"Govind Nagar, Hoshiarpur",Unknown,Unknown,146001,Punjab,Unknown,hospital,Unknown,Unknown,Unknown,Unknown,31.519778,75.918562
Khanna Eye & Skin Hospital,Hoshiarpur,Unknown,Unknown,146001,Punjab,Unknown,hospital,Unknown,Unknown,Unknown,Unknown,31.5292264,75.9041313
Royal Multispeciality Hospital,"Bhawani Nagar, Hoshiarpur",Unknown,Unknown,146001,Punjab,Unknown,hospital,Unknown,Unknown,Unknown,Unknown,31.5432629,75.9108891
Lata Ravindera Nursing Home,"Hari Nagar, Hoshiarpur",Unknown,Unknown,146001,Punjab,Unknown,clinic,Unknown,Unknown,Unknown,Unknown,31.5314873,75.9190816
Saini Hospital & Test Tube Baby Centre,"Model Colony, Hoshiarpur",Unknown,Unknown,146001,Punjab,Unknown,hospital,Unknown,Unknown,Unknown,Unknown,31.5346726,75.901659
Shaant Nursing Home,Hoshiarpur,Unknown,Unknown,146001,Punjab,Unknown,hospital,Unknown,Unknown,Unknown,Unknown,31.5144914,75.9278183
Sharma Maternity Hospital,Hoshiarpur,Unknown,Unknown,146001,Punjab,Unknown,hospital,Unknown,Unknown,Unknown,Unknown,31.525272,75.923624
Deepak Family Care Hospital,"Bhawani Nagar, Hoshiarpur",Unknown,Unknown,146001,Punjab,Unknown,hospital,Unknown,Unknown,Unknown,Unknown,31.5499077,75.9183098
Universal Hospital and Trauma Centre,Hoshiarpur,Unknown,Unknown,146001,Punjab,Unknown,hospital,Unknown,Unknown,Unknown,Unknown,31.510877,75.933507
Pathak Clinic,Hoshiarpur,Unknown,Unknown,146001,Punjab,Unknown,clinic,Unknown,Unknown,Unknown,Unknown,31.5295242,75.9156867
Acharya Sushil Muni Charitable Hospital,"Ajjowal, Hoshiarpur",Unknown,Unknown,146001,Punjab,Unknown,hospital,Unknown,Unknown,Unknown,Unknown,31.568477,75.919614
Nanda Nursing Home,Hoshiarpur,Unknown,Unknown,146001,Punjab,Unknown,hospital,Unknown,Unknown,Unknown,Unknown,31.5329774,75.9012279
Sai Hospital,Hoshiarpur,Unknown,Unknown,146001,Punjab,Unknown,hospital,Unknown,Unknown,Unknown,Unknown,31.536621,75.915391
"SubCentre, Ajjowal",Ajjowal,Unknown,Unknown,146001,Punjab,Unknown,Unknown,centre,Unknown,Unknown,Unknown,31.5609321,75.919784
"SubCentre, Nandan",Nandan,Unknown,Unknown,146021,Punjab,Unknown,Unknown,centre,Unknown,Unknown,Unknown,31.5264203,75.9629361
"SubCentre,Brahmjit",Brahmjit,Unknown,Unknown,146001,Punjab,Unknown,Unknown,centre,Unknown,Unknown,Unknown,31.5600894,75.9004426
"SubCentre,Bassi Maruf Siala",Bassi Maruf Siala,Unknown,Unknown,146001,Punjab,Unknown,Unknown,centre,Unknown,Unknown,Unknown,31.5869703,75.9045947
"Primary Health Centre,Mehlanwali",Mehlanwali,Unknown,Unknown,146110,Punjab,Unknown,Unknown,centre,Unknown,Unknown,Unknown,31.5101255,75.9922104
"SubCentre,Bajwara",Bajwara,Unknown,Unknown,146023,Punjab,Unknown,Unknown,centre,Unknown,Unknown,Unknown,31.5185877,75.953498
"SubCentre,Manjhi",Manjhi,Unknown,Unknown,146021,Punjab,Unknown,Unknown,centre,Unknown,Unknown,Unknown,31.5407533,75.9852621
"SubCentre, Salern",Salern,Unknown,Unknown,146024,Punjab,Unknown,Unknown,centre,Unknown,Unknown,Unknown,31.5872787,75.9743482
