Name,Full Address,Street,City,Postcode,State,Country,Amenity,Healthcare,Phone,Website,Opening Hours,Latitude,Longitude
Dental Care Centre 1,Unknown,"hanuman Vatika-2, Tagore Nagar, Ajmer Road,",Unknown,Unknown,Unknown,Unknown,Unknown,dentist,Unknown,Unknown,Unknown,26.8932773,75.7406137
Dental Care Centre 2,Unknown,"Gopal Bari, Ajmer Road",Unknown,Unknown,Unknown,Unknown,doctors,doctor,Unknown,Unknown,Unknown,26.9149,75.7947041
Soni Manipal Hospital,Unknown,Unknown,Unknown,Unknown,Unknown,Unknown,hospital,hospital,Unknown,Unknown,Unknown,26.968861,75.7734203
"ALCS: Cosmetic Surgery, Hair Transplant & Laser Clinic in Jaipur",Unknown,"1 Shivaji Nagar, Civil Lines",Jaipur,302006,Unknown,Unknown,hospital,hospital,Unknown,Unknown,Unknown,26.9047068,75.7805686
Dr. Radha Krishnan Shiksha Sankul,Unknown,Unknown,Unknown,Unknown,Unknown,Unknown,doctors,doctor,Unknown,Unknown,Unknown,26.8705282,75.806526
Prakritik Chikitsalaya,Unknown,Unknown,Unknown,Unknown,Unknown,Unknown,hospital,hospital,Unknown,Unknown,Unknown,26.8894783,75.8123403
Santokba Durlabhji Memorial Hospital,Unknown,Unknown,Unknown,Unknown,Unknown,Unknown,hospital,hospital,Unknown,Unknown,Unknown,26.8935138,75.813656
ESIC Hospital,Unknown,Unknown,Unknown,Unknown,Unknown,Unknown,hospital,hospital,Unknown,Unknown,Unknown,26.9072246,75.7771383
Saket Hospital,"Sector - 10, Meera Bagh, Agarwal Farm, Mansarovar",Unknown,Jaipur,302020,Rajasthan,IN,hospital,Unknown,Unknown,Unknown,Unknown,26.8490145,75.7653843
Curewell Hospital,"1/51-53, S.F.S., Mansrovar",Unknown,Jaipur,302020,Rajasthan,IN,hospital,Unknown,Unknown,Unknown,Unknown,26.8399146,75.7696685
Goverment Rukmani Devi Japuria Hospital,Jaipur,"Basant Vihar, Bajaj Nagar",Jaipur,302005,Rajasthan,Unknown,hospital,Unknown,Unknown,Unknown,Unknown,26.8569226,75.8009531
MNIT college Dispensary,Unknown,Unknown,Unknown,Unknown,Unknown,Unknown,hospital,Unknown,Unknown,Unknown,Unknown,26.8621894,75.812195
Unknown,Unknown,Unknown,Unknown,Unknown,Unknown,Unknown,pharmacy,pharmacy,Unknown,Unknown,Unknown,26.9173922,75.7951707
Unknown,Unknown,Unknown,Unknown,Unknown,Unknown,Unknown,pharmacy,pharmacy,Unknown,Unknown,Unknown,26.9174637,75.797276
Sanjay Medical Store,Unknown,Unknown,Unknown,Unknown,Unknown,Unknown,pharmacy,pharmacy,Unknown,Unknown,Unknown,26.9161685,75.8107981
Apex Hospitals Pvt Ltd,"Sp-6, Malviya Industrial Area, Malviya Nagar, Apex Circle",Unknown,Unknown,302017,Rajasthan,Unknown,hospital,Unknown,Unknown,https://www.apexhospitals.com/,Unknown,26.8547506,75.8252712
Krishna Ram Charitable Hospital,Unknown,Unknown,Unknown,302017,Unknown,Unknown,hospital,Unknown,Unknown,Unknown,Unknown,26.8228017,75.8482272
Unknown,Unknown,Unknown,Unknown,Unknown,Unknown,Unknown,hospital,hospital,Unknown,Unknown,Unknown,26.9604096,75.7605386
SDMH,Unknown,Unknown,Unknown,Unknown,Unknown,Unknown,hospital,hospital,Unknown,Unknown,Unknown,26.893253,75.812105
soni hospital,Unknown,Unknown,Unknown,Unknown,Unknown,Unknown,hospital,hospital,Unknown,Unknown,Unknown,26.8951673,75.8149318
jaipur dental hospital,Unknown,"9, Gopinath Marg, New Colony, Near Panch Batti",Unknown,302001,Unknown,Unknown,hospital,hospital,+91-141-2368183,https://jaipurdentalhospital.com/,Mo-Su 10:00-20:00,26.9185644,75.8077715
Unknown,Unknown,Unknown,Unknown,Unknown,Unknown,Unknown,pharmacy,Unknown,Unknown,Unknown,Unknown,26.8933272,75.7694168
Sparsh Hospital,Unknown,Unknown,Unknown,Unknown,Unknown,Unknown,hospital,Unknown,Unknown,Unknown,Unknown,26.8225833,75.7798425
Unknown,Unknown,Unknown,Unknown,Unknown,Unknown,Unknown,hospital,hospital,Unknown,Unknown,Unknown,26.9063113,75.8150111
"Sawai Man Singh Hospital, Jaipur","Jawahar Lal Nehru Marg,Jaipur",Unknown,Unknown,302004,Rajasthan,Unknown,hospital,hospital,Unknown,Unknown,Unknown,26.9060159,75.8161049
SMS Trauma Center,Unknown,Unknown,Unknown,Unknown,Unknown,Unknown,hospital,hospital,Unknown,Unknown,Unknown,26.90734,75.8146282
Unknown,Unknown,Sikar Road,Unknown,302039,Unknown,Unknown,pharmacy,pharmacy,9772222290,https://imcbusiness.com/,24/7,26.9662724,75.7824328
Unknown,Unknown,kisan marg,Unknown,302015,Unknown,Unknown,hospital,hospital,01412595176,Unknown,Mo-Su 09:30-12:59,26.875564,75.792605
Face kraft - Centre for advanced dentistry,Unknown,Calgary Road,Jaipur,302017,Unknown,Unknown,hospital,hospital,+917023271994,Unknown,Unknown,26.8589685,75.8086772
Dr. Ramani's Dental Practice,Unknown,Rajendra Marg,Jaipur,302015,Unknown,Unknown,hospital,dentist,097838 11114,http://dentalpracticejaipur.com,Unknown,26.8918721,75.8101422
Sanjavani hospital,Unknown,Unknown,Unknown,Unknown,Unknown,Unknown,hospital,hospital,Unknown,Unknown,Unknown,26.931796,75.7918159
Eternal Heart Care Center,Unknown,Unknown,Unknown,Unknown,Unknown,Unknown,hospital,hospital,Unknown,Unknown,Unknown,26.8401687,75.8058755
Thaper Dental Clinic,"B-45, Imli Phatak, Jyoti Nagar",Sahakar Marg,Unknown,302005,Rajasthan,Unknown,dentist,dentist,+91 141 274 3788,https://www.thaperdentalclinic.com/,Mo-Sa 09:00-21:00,26.8902737,75.7946599
Government Mahila Chikitsalaya Blood Bank,"Opposite Sangneri Gate, Adarsh Nagar",Unknown,Jaipur,302003,Rajasthan,Unknown,Unknown,blood_donation,Unknown,Unknown,24/7,26.914766,75.824575
JNU Hospital and Medical College,Unknown,Kho Nagariya,Jaipur,302017,Unknown,Unknown,hospital,hospital,0141 298 1400,https://jnuhealthcare.com/,Unknown,26.8553877,75.8769124
Asopa Hospital,"93-B, Tagore Nagar, Ajmer Road",Unknown,Unknown,302024,Rajasthan,Unknown,hospital,hospital,Unknown,Unknown,Unknown,26.8915644,75.7414192
Shiv Medical & General Store,Unknown,Unknown,Unknown,Unknown,Unknown,Unknown,pharmacy,pharmacy,Unknown,Unknown,Unknown,26.9109778,75.743896
ECHS,Unknown,Unknown,Unknown,Unknown,Unknown,Unknown,Unknown,hospice,Unknown,Unknown,Unknown,26.9174825,75.7657543
"Shalby Multi-Specialty Hospital, Jaipur",Unknown,Unknown,Unknown,Unknown,Unknown,Unknown,hospital,hospital,Unknown,https://www.shalby.org/,Unknown,26.9034734,75.7292121
Sharad Hospital,B 36 Shyam Nagar Sodala,Unknown,Unknown,302019,Rajasthan,Unknown,hospital,Unknown,Unknown,Unknown,Unknown,26.8944983,75.7640308
R.P. Memorial Hospital,"5- Tha- 8, Jawahar Nagar, Opposite Vivekanand School",Unknown,Unknown,302001,Rajasthan,Unknown,hospital,hospital,Unknown,Unknown,Unknown,26.8880586,75.8305617
Sharda General Hospital,"112/15, Madhyam Marg, Agarwal Farm, Mansarovar",Unknown,Unknown,302020,Rajasthan,Unknown,hospital,Unknown,Unknown,Unknown,Unknown,26.8453338,75.7706899
R.A.G. Hospital,"Shipra Path, ( OppositeV.T. Road),Mansrovar",Unknown,Unknown,302020,Rajasthan,Unknown,hospital,hospital,Unknown,https://raghospital.webs.com/,Unknown,26.8675199,75.7702032
"Sharma Hospital, Jaipur","C-17, Deepak Marg, Adarsh Nagar",Unknown,Unknown,302004,Rajasthan,Unknown,hospital,hospital,Unknown,Unknown,Unknown,26.9068181,75.8245965
R.G.S Eye Centre and Retina Foundation,"N86,Adinath Nagar,J.L.N Marg",Unknown,Unknown,302015,Rajasthan,Unknown,hospital,Unknown,Unknown,rgseyecentre.com,Unknown,26.8525438,75.8017749
Bani Park Hospital,"D-9, Kabir Marg, Bani Park",Unknown,Unknown,302016,Rajasthan,Unknown,hospital,hospital,Unknown,Unknown,Unknown,26.9245242,75.788056
K.M.S.Hospital,"B-2, Dhruv Marg, Tilak Nagar",Unknown,Unknown,302004,Rajasthan,Unknown,hospital,hospital,Unknown,Unknown,Unknown,26.8953299,75.8208033
Archana Hospital,"26-27, Shiv Colony, Airport Road, Thana Cirlce,Sanganer",Unknown,Unknown,302015,Rajasthan,Unknown,hospital,Unknown,Unknown,Unknown,Unknown,26.8189131,75.7986467
"Anurag Nursing Home, Mansarovar","No. 60/181, Rajat Path,New Sanganer Road,Mansarovar",Unknown,Unknown,302020,Rajasthan,Unknown,clinic,clinic,Unknown,Unknown,Unknown,26.8620322,75.7549683
Anita Maternity Home,"29, Girdhar Marg, Sunder Nagar Opposite Hotel Clarks Amer",Unknown,Unknown,302017,Rajasthan,Unknown,hospital,Unknown,Unknown,Unknown,Unknown,26.8479288,75.8053221
Anshu Hospital,"B-209,Rajendra Marg,Bapu Nagar",Unknown,Unknown,302015,Rajasthan,Unknown,hospital,hospital,Unknown,https://anshudentalcare.com/,Unknown,26.8873756,75.8079158
Anil Hospital,"C 13, Deepak Marg, Moti Dungri Road",Unknown,Unknown,302004,Rajasthan,Unknown,hospital,hospital,Unknown,Unknown,Unknown,26.9075955,75.8238333
Anita Children's Hospital,"189, Heera Nagar, Ajmer Road",Unknown,Unknown,302006,Rajasthan,Unknown,hospital,Unknown,Unknown,Unknown,Unknown,26.8962948,75.7448383
Anand Maternity Hospital,"Kalwar Rd,Jhotwara,Jaipur",Unknown,Unknown,302012,Rajasthan,Unknown,hospital,hospital,Unknown,Unknown,Unknown,26.944793,75.7478651
Anand Eye Hospital,"21,Near Bagadia Bhawan, Jamna Lal Bajaj Marg, C-Scheme, Jaipur",Unknown,Unknown,302005,Rajasthan,Unknown,hospital,Unknown,Unknown,https://anandeyehospital.com/,Unknown,26.9081588,75.7963179
Amar Medical and Research Centre,"Kiran Path Circle, Mansarovar",Unknown,Unknown,302020,Rajasthan,Unknown,hospital,hospital,Unknown,Unknown,Unknown,26.8681845,75.7577665
Amodh Hospital,"Raja Park,Govind Marg",Unknown,Unknown,302004,Rajasthan,Unknown,hospital,hospital,Unknown,Unknown,Unknown,26.8977635,75.8322018
Amarnath Allergy And General Hospital,"Gopalpura By Pass, Near Police Chowki , Mahavir Nagar",Unknown,Unknown,302019,Rajasthan,Unknown,hospital,hospital,Unknown,Unknown,Unknown,26.8620783,75.7926258
Amar Jain Hospital,"4-J-5, Jawahar Nagar, Choura Rasta",Unknown,Unknown,302003,Rajasthan,Unknown,hospital,hospital,Unknown,Unknown,Unknown,26.9204054,75.821414
"Satellite Hospital, Sethi Colony",Sethi Colony,Unknown,Unknown,302004,Rajasthan,Unknown,hospital,hospital,Unknown,Unknown,Unknown,26.9021049,75.8416218
"Raj Hospital, Jaipur","Opposite Railway Station, Sanganer",Unknown,Unknown,303007,Rajasthan,Unknown,hospital,Unknown,Unknown,Unknown,Unknown,26.8155385,75.7741803
Dr Roy Chowdary's Institute Of Urology,"4/A, Tilak Marg",Unknown,Unknown,302003,Rajasthan,Unknown,hospital,hospital,Unknown,https://instituteofurology.in/,Unknown,26.901251,75.7969281
"Radha Nursing Home, Jotwara","Joshi Marg, Kalwar Road, Jotwara",Unknown,Unknown,302021,Rajasthan,Unknown,hospital,Unknown,Unknown,Unknown,Unknown,26.9460902,75.7357603
R.K.Yadav Memorial Hospital,"B-6, Hanuman Nagar, Main Sirsi Road , Khatipura",Unknown,Unknown,302021,Rajasthan,Unknown,hospital,hospital,Unknown,Unknown,Unknown,26.9215199,75.7426026
"J P Eye Hospital, Jaipur","B - 14, Lal Kothi Shopping Centre, Behind Times Of India, Tonk Road, Near Laxmi Mandir Cinema",Unknown,Unknown,302015,Rajasthan,Unknown,hospital,hospital,Unknown,https://jpkabraeyehospital.com/,Unknown,26.8815962,75.7987918
Shubham Hospital and Maternity Centre,"Bajrang Colony,Jhotwara",Unknown,Unknown,302012,Rajasthan,Unknown,hospital,hospital,Unknown,Unknown,Unknown,26.9421067,75.7639946
J. K. Loan Hospital,Adarsh Nagar,Unknown,Unknown,302004,Rajasthan,Unknown,hospital,hospital,Unknown,Unknown,Unknown,26.9014055,75.8177174
International Fertility and Health Care Centre,"456 Dr.Garg Tower,Near RBI",Unknown,Unknown,303103,Rajasthan,Unknown,hospital,hospital,Unknown,fertilitytreatmentindia.com,Unknown,26.8973018,75.8109118
J. N. Mishra Memorial Hospital,"B-52, Gautam Marg, Near Vaishali Circle, Hanuman Nagar, Khatipura",Unknown,Unknown,302021,Rajasthan,Unknown,hospital,hospital,Unknown,Unknown,Unknown,26.9194554,75.743105
Indowestern Brain and Spine Hospital,"C-18, Near New Vidhan Sabha, Lalkothi",Unknown,Unknown,302020,Rajasthan,Unknown,hospital,hospital,Unknown,Unknown,Unknown,26.8917103,75.8002755
"Holy Family Hospital, Jaipur","337/5, Vyas Marg,Prabhu Marg, Opp A/C Market, Jaipur",Unknown,Unknown,302004,Rajasthan,Unknown,hospital,hospital,Unknown,https://holyfamilyhospitaljaipur.in/,Unknown,26.8935881,75.8243215
"Hi Tech Hospital, Jaipur","No. 2 / 154, Dwarka Path, S F S, Mansarover",Unknown,Unknown,302020,Rajasthan,Unknown,hospital,Unknown,Unknown,Unknown,Unknown,26.8402031,75.7717831
Heart and General Hospital,"7, Vivekanand Marg, C-Scheme",Unknown,Unknown,302001,Rajasthan,Unknown,hospital,Unknown,Unknown,https://heartandgeneralhospital.com/,Unknown,26.9086623,75.8108716
"Vardhman Hospital, Jaipur","D-27, Shyam Nagar, New Sanganer Road, Sodala",Unknown,Unknown,302019,Rajasthan,Unknown,hospital,Unknown,Unknown,Unknown,Unknown,26.8940283,75.7694166
Health Hospital,"60 Feet Rd, C-Block,Mahesh Nagar",Unknown,Unknown,302015,Rajasthan,Unknown,hospital,Unknown,Unknown,Unknown,Unknown,26.8784928,75.7792993
Uniara Hospital,"20 Uniara Garden, J.N.L. Road",Unknown,Unknown,302004,Rajasthan,Unknown,hospital,hospital,Unknown,Unknown,Unknown,26.8979427,75.8178108
Tyagi Eye Hospital,"A -100, Bhan Nagar, Main Vidhut Nagar, Queens Roads",Unknown,Unknown,302021,Rajasthan,Unknown,hospital,Unknown,Unknown,https://tyagieyehospital.com/,Unknown,26.9003251,75.7516079
Kamdar Children Hospital,"Suraj Nagar (West), Civil Lines",Unknown,Unknown,302006,Rajasthan,Unknown,hospital,hospital,Unknown,Unknown,Unknown,26.9055068,75.7780299
Getwell Poly Clinic and Hospital,J.L.N Marg Jaipur,Unknown,Unknown,302017,Rajasthan,Unknown,clinic,hospital,Unknown,Unknown,Unknown,26.902255,75.8167071
Advanced Heart Care Center,Unknown,Unknown,Unknown,Unknown,Unknown,Unknown,hospital,hospital,Unknown,Unknown,Unknown,26.8676258,75.8034563
Bhandari Hospital and Research Centre,"138-A, Vasundhra Colony, Gopalpura ByPass, Tonk Road",Unknown,Unknown,302018,Rajasthan,Unknown,hospital,hospital,Unknown,https://bhandarihospital.net/,Unknown,26.8636395,75.7937336
Bhiwani Eye Care Centre,"434, Adarsh Nagar",Unknown,Unknown,302004,Rajasthan,Unknown,hospital,hospital,Unknown,Unknown,Unknown,26.9025702,75.8257002
C.B.L. Memorial Holy Family Hospital,"43, Ashok Vihar, Ambabari Bridge, Behind Petrol Pump, Jhotwara",Unknown,Unknown,302012,Rajasthan,Unknown,hospital,hospital,Unknown,Unknown,Unknown,26.9388918,75.7810803
Dr Satish Chandra Mathur,"267-A, Vasundhara Colony, Tonk Road",Unknown,Unknown,302018,Rajasthan,Unknown,doctors,doctor,Unknown,Unknown,Unknown,26.8640511,75.7916602
Carewell Hospital,"471, Adarsh Nagar",Unknown,Unknown,302004,Rajasthan,Unknown,hospital,hospital,Unknown,Unknown,Unknown,26.9009951,75.8267596
Centre For Sight,"Centre for Sight, Malviya Nagar Main Road, Opposite Petrol Pump",Unknown,Unknown,302017,Rajasthan,Unknown,hospital,Unknown,Unknown,https://www.centreforsight.net/,Unknown,26.8593131,75.8081784
"Government Dental College and Hospital, Jaipur",Shastri Nagar,Unknown,Unknown,302013,Rajasthan,Unknown,hospital,hospital,Unknown,Unknown,Unknown,26.9378,75.7929099
Jaipur Fertility Centre,"Bani Park, Jaipur",Unknown,Unknown,302016,Rajasthan,Unknown,hospital,hospital,Unknown,Unknown,Unknown,26.9354644,75.7881075
Zanana Hospital,"Chand-Pole Gate,Near Police Lines",Unknown,Unknown,302001,Rajasthan,Unknown,hospital,hospital,Unknown,health.rajasthan.gov.in,Unknown,26.9263698,75.806627
Jaipur Calgary Eye Hospital,Malviya Nagar,Unknown,Unknown,302017,Rajasthan,Unknown,hospital,Unknown,Unknown,Unknown,Unknown,26.8559437,75.8222223
"Jain Hospital, Jaipur","605-606,Shanti Path, Sindhi Colony, Raja Park",Unknown,Unknown,302004,Rajasthan,Unknown,hospital,hospital,Unknown,Unknown,Unknown,26.8968605,75.8372819
"Jain Nursing Home, Jaipur","4 Kh , 2 Housing Board, Shastri Nagar",Unknown,Unknown,302016,Rajasthan,Unknown,clinic,Unknown,Unknown,Unknown,Unknown,26.9474949,75.8030704
"Rawal Hospital, Jaipur","Ajmer Road, Bhankrota",Unknown,Unknown,302026,Rajasthan,Unknown,hospital,Unknown,Unknown,Unknown,Unknown,26.8715679,75.7009154
Jain Eye Clinic and Hospital,"K-4A, Fatehtiba, Adarsh Nagar Road",Unknown,Unknown,302004,Rajasthan,Unknown,clinic,clinic,Unknown,mrj-jaineye.com,Unknown,26.9090904,75.8244556
Jain Fertility and Mother Care Hospital,"D-253, Amrapali Marg, Hanuman Nagar, Vaishali Nagar",Unknown,Unknown,302021,Rajasthan,Unknown,hospital,hospital,Unknown,https://www.jainfertility.com/,Unknown,26.9118613,75.7502174
"Jain ENT Hospital, Jaipur","23-24, Satya Vihar Colony, Pankaj Singhavi Marg, Near New Vidhan Sabha, Lal Kothi",Unknown,Unknown,302015,Rajasthan,Unknown,hospital,hospital,Unknown,Unknown,Unknown,26.8915847,75.800187
Khandaka Hospital,"160-161, Kailash Puri Tonk Road",Unknown,Unknown,302018,Rajasthan,Unknown,hospital,Unknown,Unknown,Unknown,Unknown,26.8564929,75.7960518
Sita Devi Hospital,"#18, Nandpuri Extension, Behind Chambal Grid,Hawa Sadak",Unknown,Unknown,302019,Rajasthan,Unknown,hospital,hospital,Unknown,sitadevihospitals.com,Unknown,26.898157,75.7805492
Monika Hospital,"Kalwar Road, Jhotwara",Unknown,Unknown,302012,Rajasthan,Unknown,hospital,hospital,Unknown,Unknown,Unknown,26.9434985,75.7528141
Somvati Memorial Hospital,"74-B, Jawahar Nagar, Near Glass Factory,Tonk Road",Unknown,Unknown,302015,Rajasthan,Unknown,clinic,clinic,Unknown,Unknown,Unknown,26.8678938,75.7970676
Madan Parnami Memorial Hospital,"Near Parnami Mandir, Raja Park, Adarsh Nagar",Unknown,Unknown,302004,Rajasthan,Unknown,hospital,hospital,Unknown,Unknown,Unknown,26.8976523,75.8240989
K K Diagnostic Centre,"Khawasaji Ka Rasta, Near Hawa Mahal Road",Unknown,Unknown,302002,Rajasthan,Unknown,hospital,Unknown,Unknown,Unknown,Unknown,26.9260733,75.8314803
K.C. Memorial Eye Hospital,"K-20, Malan Ka Chauraha, Malviya Marg, C Scheme",Unknown,Unknown,302001,Rajasthan,Unknown,hospital,hospital,Unknown,kcmemorial.com,Unknown,26.9136622,75.8025286
Jyotiba Hospital,"Opposite Amber Tower,Sansarchandra Rd",Unknown,Unknown,302001,Rajasthan,Unknown,clinic,clinic,Unknown,Unknown,Unknown,26.9213178,75.803289
Vasundhra Hospital,"No. B-9 (D), Govind Marg,Adarsh Nagar",Unknown,Unknown,302004,Rajasthan,Unknown,hospital,hospital,Unknown,https://www.drjollyarora.com/,Unknown,26.898218,75.8236563
Jindal Eye Hospital,"No. 10/62, Janki Marg,Chitrakoot Scheme,Opposite Stadium,Vaishali Nagar",Unknown,Unknown,302021,Rajasthan,Unknown,hospital,hospital,Unknown,Unknown,Unknown,26.8996424,75.7368386
Jha Hospital,"Near Panchayat Samiti,Kalwar Road,Jhotwara",Unknown,Unknown,302012,Rajasthan,Unknown,hospital,hospital,Unknown,Unknown,Unknown,26.9772622,75.7726796
Sadhana Hospital Pvt. Ltd.,"Jharkhand Moad, Khati Pura Road",Unknown,Unknown,302012,Rajasthan,Unknown,hospital,hospital,Unknown,Unknown,Unknown,26.9225486,75.7534271
Shubh Hospital,"A-35, Vidhyut Nagar, Ajmer Road,Purani Chungi",Unknown,Unknown,302021,Rajasthan,Unknown,hospital,Unknown,Unknown,Unknown,Unknown,26.8972552,75.7522546
Gopinath Hospital,"Sector-8, Pratapnagar, Sanganer",Unknown,Unknown,302033,Rajasthan,Unknown,hospital,Unknown,Unknown,Unknown,Unknown,26.8019159,75.8131447
Shri Ram Hospital,"A-95, Shriniwas Nagar, Road No. 6, Opposite Om Toyota, Vishwakarma, Sikar Road",Unknown,Unknown,302013,Rajasthan,Unknown,hospital,hospital,Unknown,Unknown,Unknown,26.9820428,75.7721069
Gem Hospital,"60/7, New Sanganer Road, Rajat Path, Mansarovar",Unknown,Unknown,302020,Rajasthan,Unknown,hospital,hospital,Unknown,Unknown,Unknown,26.8631478,75.7544397
Gem Nursing Home,Ambabari,Unknown,Unknown,302012,Rajasthan,Unknown,clinic,clinic,Unknown,Unknown,Unknown,26.9412715,75.7741056
Shri Niddan Hospital and Hope Fertility Centre,"27,Vidhyut Nagar-A,Ajmer Road",Unknown,Unknown,302021,Rajasthan,Unknown,hospital,Unknown,Unknown,Unknown,Unknown,26.897425,75.7516202
Gautam Hospital and Research Center,"1, Jacob Road, Civil Lines",Unknown,Unknown,302006,Rajasthan,Unknown,hospital,hospital,Unknown,Unknown,Unknown,26.9096883,75.7899821
Jeevan Shri Hospital and Fertility Center,"5, Gulab Bari,kalwar road,kumasiya, Jhotwara",Unknown,Unknown,302001,Rajasthan,Unknown,hospital,hospital,Unknown,Unknown,Unknown,26.9429908,75.7496845
M.D.D. Hospital,"Near Kedia Palace, Muralipura Scheme",Unknown,Unknown,302012,Rajasthan,Unknown,hospital,hospital,Unknown,Unknown,Unknown,26.971395,75.760497
Soni Hospital,"38, Kanota Bagh, J.L.N.Marg",Unknown,Unknown,302004,Rajasthan,Unknown,hospital,hospital,Unknown,Unknown,Unknown,26.8957806,75.8146733
Royal Eye Care and Research Centre,"B-15, Govind Marg Opp Ice Factory Adarsh Nagar",Unknown,Unknown,302004,Rajasthan,Unknown,hospital,hospital,Unknown,Unknown,Unknown,26.899285,75.8339544
Chawla Hospital and Laparoscopy Centre,"692,Frontier Colony,Adarsh Nagar,Near Baraf Khana Pani Ki Tanki",Unknown,Unknown,302004,Rajasthan,Unknown,hospital,hospital,Unknown,Unknown,Unknown,26.8995779,75.8318694
Sarvgya Nursing Home,"46, Everest Vihar, King's Road Nirman Nagar",Unknown,Unknown,302019,Rajasthan,Unknown,clinic,Unknown,Unknown,Unknown,Unknown,26.8832814,75.7549212
Dr Mahendra Orthopaedic Centre,"C-172, Vaishali Nagar, Behind Vaibhav Cine-Multi Plex",Unknown,Unknown,302021,Rajasthan,Unknown,hospital,Unknown,Unknown,Unknown,Unknown,26.9013367,75.739079
Gangori Hospital,"Near Chaugan Stadium, Tripolia Bazar, Gangori Bazaar",Unknown,Unknown,302001,Rajasthan,Unknown,hospital,Unknown,Unknown,Unknown,Unknown,26.9303934,75.8203457
Ganadhipati Purushottam Shekhawati Hospital and Research Center,"A/2, Opposite, Time Square, Central Spine Vidhyadhar Nagar",Unknown,Unknown,302039,Rajasthan,Unknown,hospital,hospital,Unknown,Unknown,Unknown,26.9599811,75.7773485
Girdhar Hospital and Research Centre,"11/34, Girdhar Marg, Malviya Nagar,Jaipur-302017",Unknown,Unknown,302018,Rajasthan,Unknown,hospital,Unknown,Unknown,Unknown,Unknown,26.8454675,75.8131608
Global Advanced Ent Surgery Centre,"Mall,Lal Kothi,Tonk Road",Unknown,Unknown,302006,Rajasthan,Unknown,hospital,hospital,Unknown,Unknown,Unknown,26.889592,75.8037262
Ghiya Hospital,"68, Siddharth Nagar E-Block, Sector 12 Main Road",Unknown,Unknown,302017,Rajasthan,Unknown,hospital,Unknown,Unknown,Unknown,Unknown,26.8467981,75.8101729
Gupta Dental Clinic and Perio Surgery Hospital,"F-27, Ruchika Shopping Complix, Madhuban Colony, Kisan Marg, Tonk Road",Unknown,Unknown,302015,Rajasthan,Unknown,clinic,clinic,Unknown,Unknown,Unknown,26.8735212,75.7962294
Ginni Devi Memorial Hospital,"94/49-50, Agarwal Farm, Mansarover",Unknown,Unknown,302020,Rajasthan,Unknown,hospital,Unknown,Unknown,Unknown,Unknown,26.8502608,75.7695696
Gupta Hospital,"1- A- 110 Shiv Shakti Colony , Opposite P&T Quarters, Near Khandelwal College, Shastri Nagar",Unknown,Unknown,302016,Rajasthan,Unknown,hospital,Unknown,Unknown,Unknown,Unknown,26.9434696,75.803289
Gupta Hospital and Diagnostic Centre Jaipur,Madhyam Marg Mansarovar,Unknown,Unknown,302020,Rajasthan,Unknown,hospital,Unknown,Unknown,Unknown,Unknown,26.8516129,75.7679455
Gupta Fracture Clinic and Spine Centre,Tonk Road,Unknown,Unknown,302018,Rajasthan,Unknown,clinic,Unknown,Unknown,Unknown,Unknown,26.8545443,75.7938503
"Goyal Hospital, Jaipur","A-1, Pani Ki Tanki Circle,Shastri Nagar",Unknown,Unknown,302016,Rajasthan,Unknown,hospital,Unknown,Unknown,Unknown,Unknown,26.9379927,75.8008106
Gupta Child andGenral,S-8 Amrapali Marg Vaishali Nagar,Unknown,Unknown,302021,Rajasthan,Unknown,hospital,hospital,Unknown,Unknown,Unknown,26.9112107,75.7420742
Gupta Chest And General Hospital,"3, Kalwar Road, Near Lata Cinema, Jhotwara",Unknown,Unknown,302012,Rajasthan,Unknown,hospital,hospital,Unknown,Unknown,Unknown,26.9431014,75.7600585
Durgapura Hospital,Tonk Road Durgapura,Unknown,Unknown,302015,Rajasthan,Unknown,hospital,Unknown,Unknown,Unknown,Unknown,26.8461836,75.7938087
Shree Narayan Chikitsalay,"219, Mahaveer Nagar,Durgapur Railway Station,Tonk Raod",Unknown,Unknown,302015,Rajasthan,Unknown,hospital,Unknown,Unknown,Unknown,Unknown,26.8535082,75.7898913
Shri Brij Fracture Hospital,"C-92, Near Rajasthan Bank, Kalwara Road, Jhotwara",Unknown,Unknown,302012,Rajasthan,Unknown,hospital,hospital,Unknown,Unknown,Unknown,26.9429962,75.7505755
Shri Hospital,"#4, Vishnupuri, Jagatpura Road",Unknown,Unknown,302017,Rajasthan,Unknown,hospital,Unknown,Unknown,Unknown,Unknown,26.8475232,75.8270252
Marudhar Hospital,"A-93, Singh Bhoomi Khatipura",Unknown,Unknown,302003,Rajasthan,Unknown,hospital,hospital,Unknown,Unknown,Unknown,26.9269572,75.7463547
Ram Avtar Eye Hospital and Glaucoma Pavilion,"C-17, Bhagat Singh Marg, Near Lbs College, Tilak Nagarm",Unknown,Unknown,302004,Rajasthan,Unknown,hospital,hospital,Unknown,Unknown,Unknown,26.89272,75.8242251
Ram Janki Memorial Vijayvergia Hospital,"9, Vishnupuri, Jagatpura Road,Near Reliance Petroleum, Malviya nagar",Unknown,Unknown,302017,Rajasthan,Unknown,hospital,Unknown,Unknown,Unknown,Unknown,26.8470661,75.827457
Retina Care Foundation and Eye Hospital,"D-7, Opposite Samudayik Kendra, Dev Nagar, Tonk Road",Unknown,Unknown,302018,Rajasthan,Unknown,hospital,hospital,Unknown,Unknown,Unknown,26.8691625,75.79438
Roma Nursing Home,Opp Dcm Ajmer Road,Unknown,Unknown,302019,Rajasthan,Unknown,clinic,clinic,Unknown,Unknown,Unknown,26.892304,75.7452894
Dr.Mehta's Dignostic Clinic,"C- 52, Near Parnami Mandir, Raja Park, Near Ganesh Temple",Unknown,Unknown,302004,Rajasthan,Unknown,clinic,clinic,Unknown,Unknown,Unknown,26.8967648,75.8207528
Military hospital Jaipur,Unknown,Unknown,Unknown,Unknown,Unknown,Unknown,hospital,hospital,Unknown,Unknown,Unknown,26.929235,75.783441
Dr.Mamodias Proctology and IRC Centre,"264, Near Parnami Mandir, Raja Park",Unknown,Unknown,302004,Rajasthan,Unknown,hospital,hospital,9414060257,pilescenter.com,Unknown,26.8970829,75.8233532
Kshitij Hospital and Medical Research Centre,"52,Udai Nagar - A, Near Kissan Dharamkanta,Gopalpura Byepass",Unknown,Unknown,302019,Rajasthan,Unknown,hospital,Unknown,Unknown,Unknown,Unknown,26.8823278,75.7471061
Krishna Ram Hospital and Research Centre,"A-31B, Anita Colony.Bajaj Nagar,Jaipur",Unknown,Unknown,302015,Rajasthan,Unknown,hospital,hospital,Unknown,Unknown,Unknown,26.8710868,75.8003439
Krishna Mother and Child Hospital,"23, Kailashpuri, Kanta Circle, Kalwar Road, Jhotwara",Unknown,Unknown,302012,Rajasthan,Unknown,hospital,Unknown,Unknown,Unknown,Unknown,26.9452139,75.7429527
Krishna Clinic and Nursing Home,"B-11, Major Shaitan Singh Colony, Shastri Nagar",Unknown,Unknown,302016,Rajasthan,Unknown,clinic,Unknown,Unknown,Unknown,Unknown,26.9455749,75.7971467
Diwakar Orthopedic and General Hospital,"Plot No. 145, Indra Colony, Jhotwara Road",Unknown,Unknown,302016,Rajasthan,Unknown,hospital,hospital,Unknown,Unknown,Unknown,26.9372945,75.7896405
Rajat Maternity and General Hospital,"2, Commander Colony, Panchyawala, Sirsi Road",Unknown,Unknown,302021,Rajasthan,Unknown,hospital,Unknown,Unknown,Unknown,Unknown,26.9229847,75.7236005
Dwarka Orthopaedic and Trauma Hospital,"S-9, Ajmer Road, Shyam Nagar, Near Vipul Motors, Sodala",Unknown,Unknown,302003,Rajasthan,Unknown,hospital,Unknown,Unknown,Unknown,Unknown,26.8982742,75.765447
Sevayatan Hospital,"Sodala, Ajmer Road",Unknown,Unknown,302006,Rajasthan,Unknown,hospital,Unknown,Unknown,Unknown,Unknown,26.9012953,75.7702173
Kcj Diagnostic and Research Center,Jaipur,Unknown,Unknown,302004,Rajasthan,Unknown,hospital,hospital,Unknown,Unknown,Unknown,26.9059822,75.8130455
Dr Agarwals Eye Hospital,"A-2, Jamnnalal Bazaz Marg, C-Scheme",Unknown,Unknown,302001,Rajasthan,Unknown,hospital,hospital,Unknown,Unknown,Unknown,26.9080954,75.7908113
Agarwal Hospital and Fertility Research Centre,"No. 166, Doctor's Colony,D.C.M.,Ajmer Road",Unknown,Unknown,302024,Rajasthan,Unknown,hospital,Unknown,Unknown,Unknown,Unknown,26.8973861,75.7438412
Deshbandhu E.N.T. Hospital,"Heera Path, Mansarovar",Unknown,Unknown,302020,Rajasthan,Unknown,hospital,hospital,Unknown,Unknown,Unknown,26.8598745,75.7565609
Bagree Hospital and Research Centre,"53,54-B, Sanjay Nagar, Kalwar Road, Jhotwara",Unknown,Unknown,302012,Rajasthan,Unknown,hospital,hospital,Unknown,Unknown,Unknown,26.9699057,75.7446559
Nirmala Hospital and Research Center,"J-62 Krishna Marg, C-Scheme",Unknown,Unknown,302005,Rajasthan,Unknown,hospital,Unknown,Unknown,Unknown,Unknown,26.9098833,75.8023066
Raj Khurana Memorial Hospital,"B-14/D Govind Marg, Adarsh Nagar",Unknown,Unknown,302004,Rajasthan,Unknown,hospital,hospital,Unknown,Unknown,Unknown,26.8972528,75.8260462
Vinayak Nursing Home,"3/109, Jawahar Nagar Opp Main Post Office",Unknown,Unknown,302004,Rajasthan,Unknown,clinic,clinic,Unknown,Unknown,Unknown,26.891129,75.840518
Jeevan Rekha Critical Care and Trauma Hospital,"Jeevan Rehka Marg,S-24,Mahal Yojna,Jagatpura",Unknown,Unknown,302025,Rajasthan,Unknown,hospital,Unknown,Unknown,Unknown,Unknown,26.8007644,75.8619395
Khetan Hospital,"Deher Ke Balaji Area, Sikar Road",Unknown,Unknown,302016,Rajasthan,Unknown,hospital,hospital,Unknown,Unknown,Unknown,26.9590726,75.7710944
Malpani Multispeciality Hospital,"Sp-6 Road No-1, Viswakarama Industrial Area, Sikar Road",Unknown,Unknown,302004,Rajasthan,Unknown,hospital,hospital,Unknown,Unknown,Unknown,26.9736181,75.7763448
Pragati Orthopaedic and General Hospital,"B-10, Janta Colony , Jaipur",Unknown,Unknown,302004,Rajasthan,Unknown,hospital,hospital,Unknown,Unknown,Unknown,26.9032106,75.8354983
Atulya Hospital,"18-19, Kailash Puri - A, New Sanganer Road, Opposite Bank Of Baroda, Sodala",Unknown,Unknown,302019,Rajasthan,Unknown,hospital,Unknown,Unknown,Unknown,Unknown,26.8974788,75.7717301
Ayush Hospital,"34, Shiv Shakti Mnagar, Nirman Nagar",Unknown,Unknown,302019,Rajasthan,Unknown,hospital,Unknown,Unknown,Unknown,Unknown,26.8860287,75.7525188
Atal Hospital and Reseach Center,"B-494, 80 Feet Road, Mahesh Nagar, Jaipur",Unknown,Unknown,302005,Rajasthan,Unknown,hospital,hospital,Unknown,Unknown,Unknown,26.8811209,75.7815757
Arya Hospital- Jaipur,"24, Chetak Marg Near J.K. Lon Hospital, J.L.N. Marg",Unknown,Unknown,302017,Rajasthan,Unknown,hospital,hospital,Unknown,Unknown,Unknown,26.9003923,75.8190637
"Swastik Hospital, Jaipur","3-Kh-5A, Petrol Pump Lane, Opposite Bsnl Office, Jawahar Nagar",Unknown,Unknown,302004,Rajasthan,Unknown,hospital,hospital,Unknown,Unknown,Unknown,26.8916923,75.8398126
Nova Specialty Surgery,"J-2/37, Mahaveer Marg",Unknown,Unknown,302004,Rajasthan,Unknown,hospital,hospital,Unknown,Unknown,Unknown,26.9136323,75.8127075
"Shah Hospital, Jaipur","Ke-3, Kabir Marg , Bani Park",Unknown,Unknown,302001,Rajasthan,Unknown,hospital,hospital,Unknown,Unknown,Unknown,26.9243777,75.7892007
Sr Kalla Memorial Gastro and General Hospital,"R 8/A, Yudhishtar Marg Behind Ashok Nagar Police Station",Unknown,Unknown,302001,Rajasthan,Unknown,hospital,hospital,Unknown,Unknown,Unknown,26.9128574,75.7970139
Dhuleshwar Hospital and Laser Skin Centre,"50,Dhuleshwar Bagh, C-Scheme",Unknown,Unknown,302001,Rajasthan,Unknown,hospital,hospital,Unknown,Unknown,Unknown,26.9139408,75.7984489
Poonam Nursing Home,99 Kanwar Nagar,Unknown,Unknown,303103,Rajasthan,Unknown,clinic,Unknown,Unknown,Unknown,Unknown,26.9319799,75.8276729
"Welfare Clinic, Jaipur","15-16, Hathroi Market, Ajmer Road",Unknown,Unknown,302001,Rajasthan,Unknown,clinic,clinic,Unknown,Unknown,Unknown,26.9147732,75.7955489
Vivekanand Hospital and Fertility Centre,"62-A,Dhuleshwar Garden,C-Scheme",Unknown,Unknown,302001,Rajasthan,Unknown,hospital,hospital,Unknown,https://www.vivekanandfertility.com,Unknown,26.9144575,75.7962348
"Dhanvantari Hospital,Jaipur","67/56 -A, Near Mandra Bus Stand, New Sanganer Road, Mansarovar",Unknown,Unknown,302020,Rajasthan,Unknown,hospital,hospital,Unknown,https://dhanwantrihospital.com/,Unknown,26.858026,75.7572716
Pink City Heart and General Hospital,"Murlipura, Sikar Road",Unknown,Unknown,302013,Rajasthan,Unknown,hospital,hospital,Unknown,Unknown,Unknown,26.9715839,75.7708263
Prakash Mother and Child Hospital,"Sector-6, Zone -68 Pratap Nagar Sanganer",Unknown,Unknown,302033,Rajasthan,Unknown,hospital,Unknown,Unknown,Unknown,Unknown,26.8042285,75.8093964
Sahai Hospital and Research Centre,"Bhabha Marg, Moti Dungri",Unknown,Unknown,302005,Rajasthan,Unknown,hospital,hospital,Unknown,Unknown,Unknown,26.8959216,75.8198114
Agrasen Orthopaedic Hospital,"C-6, Malviya Nagar, Opp.Saint Anselam School",Unknown,Unknown,302017,Rajasthan,Unknown,hospital,Unknown,Unknown,Unknown,Unknown,26.857502,75.8131421
Agrawal Hospital,"Sp-3 Central Road, Malviya Industrial Area, Near Calgary Eye Hospital Malviya Nagar",Unknown,Unknown,302017,Rajasthan,Unknown,hospital,Unknown,Unknown,Unknown,Unknown,26.8546041,75.8248325
Agrasen Hospital,"76, Devi Nagar, New Sanganer Road, Sadola",Unknown,Unknown,302019,Rajasthan,Unknown,hospital,Unknown,Unknown,Unknown,Unknown,26.886207,75.764979
Advanced Neurology and Superspeciality Hospital,"Brain - Tower, D-358, Malviyanagar, Near Gaurav Tower",Unknown,Unknown,302017,Rajasthan,Unknown,hospital,Unknown,Unknown,https://www.thebraintower.com/,Unknown,26.8521418,75.8103311
Aditi General and Eye Hospital,"No. B-9/632, Chitrakoot Scheme,Ajmer Road",Unknown,Unknown,302021,Rajasthan,Unknown,hospital,Unknown,Unknown,Unknown,Unknown,26.8972534,75.7392506
Mansarovar Hospital,"111/196, Vijay Path Chauraha, Agarwal Farm, Mansarovar",Unknown,Unknown,302020,Rajasthan,Unknown,hospital,Unknown,Unknown,Unknown,Unknown,26.8477082,75.7698276
"Aditya Hospital, Jaipur","R-5, Indrapuri, Lal-Kothi",Unknown,Unknown,302015,Rajasthan,Unknown,hospital,hospital,Unknown,adityahospitaljaipur.in,Unknown,26.8902546,75.7993931
Malpani Nursing Home,Gangori Bazar,Unknown,Unknown,302001,Rajasthan,Unknown,clinic,Unknown,Unknown,Unknown,Unknown,26.9310577,75.8198824
Swasthya Mangalam Family Health Centre,"4, Moti Nagar, Gurjar Ki Thadi, New Sanganer Road",Unknown,Unknown,302019,Rajasthan,Unknown,hospital,Unknown,Unknown,Unknown,Unknown,26.8785299,75.7667412
"Aarogya Hospital, Jaipur","195, Gandhi Path , Queens Road",Unknown,Unknown,302001,Rajasthan,Unknown,hospital,hospital,Unknown,Unknown,Unknown,26.9057163,75.7493268
"Adarsh Hospital, Jaipur","Gandhi Path ,Vidhyut Nagar",Unknown,Unknown,302021,Rajasthan,Unknown,hospital,Unknown,Unknown,Unknown,Unknown,26.9026778,75.7394618
Tagore Hospital and Research Institute,"Sec-7, Shipa Path, Madhyam Marg, Mansarovar",Unknown,Unknown,302020,Rajasthan,Unknown,hospital,hospital,Unknown,Unknown,Unknown,26.8589843,75.7696433
Pooja Hospital and Medical Research Centre,"#23, Brij Colony,Behind Rseb Office, ,Hawa Sadak, Civil Lines",Unknown,Unknown,302006,Rajasthan,Unknown,hospital,hospital,Unknown,Unknown,Unknown,26.8990259,75.779359
Narmada Hospital and Diagnostic Centre,"E-466, Lal Dibba Bus Stop,Murlipura Scheme,Opposite Vki Road No.2,Sikar Road",Unknown,Unknown,302001,Rajasthan,Unknown,hospital,hospital,Unknown,Unknown,Unknown,26.9754061,75.7651426
Bhagwan Mahaveer Cancer Hospital and Research Center,Jawahar Lal Nehru Marg,Unknown,Unknown,302015,Rajasthan,Unknown,hospital,Unknown,Unknown,Unknown,Unknown,26.8630701,75.8055353
"Meera Hospital, Jaipur","Kartavya, B-13 Shiv Marg,Bani Park Jaipur",Unknown,Unknown,302016,Rajasthan,Unknown,hospital,hospital,Unknown,Unknown,Unknown,26.929878,75.8011875
Deep Hospital and Research Centre,"Plot No:- 1 & 2, Ashok Watika Khatipur Road Jhotwara",Unknown,Unknown,302012,Rajasthan,Unknown,hospital,hospital,Unknown,Unknown,Unknown,26.936564,75.7563302
Chirag Hospital,"Mohana Road, Jai Singh Pura, Ajmer Road, Near Anukampa Group",Unknown,Unknown,302001,Rajasthan,Unknown,hospital,hospital,Unknown,Unknown,Unknown,26.8662829,75.7643916
Solomon Hospital,"Main Road, Sector 9, Malviya Nagar",Unknown,Unknown,302018,Rajasthan,Unknown,hospital,Unknown,Unknown,Unknown,Unknown,26.8471475,75.8087178
Maharshi Child Hospital,"103, Shastri Nagar Road Near Pital Factory",Unknown,Unknown,302016,Rajasthan,Unknown,hospital,hospital,Unknown,Unknown,Unknown,26.9359662,75.7957385
Manu Hospital and Research Center,A-1-A Shyam Nagar Sodala,Unknown,Unknown,302019,Rajasthan,Unknown,hospital,Unknown,Unknown,Unknown,Unknown,26.8979859,75.7679924
Purvi Nursing Home and Diagnostic Center,"48/110, Rajat Path, Mansarovar",Unknown,Unknown,302020,Rajasthan,Unknown,clinic,clinic,Unknown,Unknown,Unknown,26.8636772,75.754806
Sonkhiya Hospital,"A 53a, Near Jain Mandir,Amanisha Road Shastri Nagar",Unknown,Unknown,302016,Rajasthan,Unknown,hospital,Unknown,Unknown,Unknown,Unknown,26.9469485,75.79714
"Satellite Hospital, Jaipur","B-5,Shiv Marg,Bani Park",Unknown,Unknown,302016,Rajasthan,Unknown,hospital,hospital,Unknown,Unknown,Unknown,26.928861,75.7972808
Rajasthan Hopsital and Gastroenology Centre,B-35-36 Lalkothi Shopping Centre Tank Road,Unknown,Unknown,302015,Rajasthan,Unknown,hospital,hospital,Unknown,Unknown,Unknown,26.8823601,75.7991289
Sun Hospital,"1, J.P. Colony, Main Road, Laxmi Mandir Phatak, Tonk Road",Unknown,Unknown,302001,Rajasthan,Unknown,hospital,hospital,Unknown,Unknown,Unknown,26.8830108,75.7929209
"Bansal Hospital,Jaipur","B, 106, Janpath, Shyam Nagar",Unknown,Unknown,302019,Rajasthan,Unknown,hospital,Unknown,Unknown,Unknown,Unknown,26.893209,75.7630987
Somani Hospital,"277, Shri Gopal Nagar, 80 Feet Road, Gopal Pura, Byepass Road",Unknown,Unknown,302019,Rajasthan,Unknown,hospital,Unknown,Unknown,Unknown,Unknown,26.8794587,75.7739865
Metro Hospital and Research Centre,"No. 203, Officers Campus,Sirsi Road,Khatipura",Unknown,Unknown,302021,Rajasthan,Unknown,hospital,hospital,Unknown,Unknown,Unknown,26.9212879,75.7412669
Siddham E N T Center,"377, Shri Gopal Nagar, Gujjar Ki Thadi, Gopalpura Bypass",Unknown,Unknown,302019,Rajasthan,Unknown,hospital,Unknown,Unknown,Unknown,Unknown,26.8798062,75.7574882
Eye Surgery and Laser Centre,"C-401, Malviya Nagar",Unknown,Unknown,302017,Rajasthan,Unknown,hospital,Unknown,Unknown,Unknown,Unknown,26.8511271,75.8070253
G M R C Hospital,"116/208, Shipra Path, Agarwal Farm, Mansarover",Unknown,Unknown,302020,Rajasthan,Unknown,hospital,Unknown,Unknown,Unknown,Unknown,26.8472755,75.7756864
"Liberty Hospital, Jaipur","115, Tagor Path Sector 8, Agarwal Farm Mansarowar",Unknown,Unknown,302001,Rajasthan,Unknown,hospital,Unknown,Unknown,Unknown,Unknown,26.8444073,75.7739791
"CGHS Polyclinic, A.G.Colony",Bajaj Nagar,Unknown,Unknown,Unknown,Rajasthan,Unknown,clinic,clinic,Unknown,http://nb.bsf.gov.in/CGHS%20DIspenseries.pdf,Unknown,26.874099,75.804105
Swaroop Hospital,"1, Hawa Sarak, Civil Lines",Unknown,Unknown,302006,Rajasthan,Unknown,hospital,hospital,Unknown,Unknown,Unknown,26.9024888,75.7763958
Dr. Goyal's Path Lab and Imaging Centre,"D-135, Jawpath, New Sanganer Road",Unknown,Unknown,302019,Rajasthan,Unknown,hospital,Unknown,Unknown,Unknown,Unknown,26.8941293,75.7708476
"Dr. K.C. KASLIWAL Ear,Nose and Throat Centre","B-6(F)Adinath Marg,C-Scheme",Unknown,Unknown,302001,Rajasthan,Unknown,clinic,clinic,Unknown,Unknown,Unknown,26.905334,75.8132896
Pawan Hospital Pvt. Ltd.,"No.27, Govindpuri East,Near Ramgarh Mode",Unknown,Unknown,302001,Rajasthan,Unknown,hospital,Unknown,Unknown,Unknown,Unknown,26.9457016,75.8421032
Dr Naresh Goyal Orthopadic Hospital,93 60 Shipra Path Mansarover,Unknown,Unknown,302020,Rajasthan,Unknown,hospital,Unknown,Unknown,Unknown,Unknown,26.8504637,75.7729371
Star Women and General Hospital,"Sector 5, Tork Road, Pratap Nagar, Sanganer",Unknown,Unknown,302005,Rajasthan,Unknown,hospital,Unknown,Unknown,Unknown,Unknown,26.8025515,75.8086145
Dr. Virendra Laser and Phaco Surgery Centre - Jaipur,"Tonk Phatak, Behind Mahindra Showroom, Opp Sahara Chambers, Gandhi Nagar, Tonk Road, Jaipur Clinic - 104, Shyam Anukampa, Opp Hdfc, Ashok Marg, C-Scheme",Unknown,Unknown,302015,Rajasthan,Unknown,hospital,hospital,Unknown,Unknown,Unknown,26.8810467,75.8007932
Mendiratta Hospital,"23,Krishna Colony, Near Ambedkar Circle",Unknown,Unknown,301001,Rajasthan,Unknown,hospital,Unknown,Unknown,Unknown,Unknown,26.9476694,75.8520998
Om Ent Hospital,"5, Kalyan Nagar, Opposite Road No.4, Vk I Area, Sikar Road",Unknown,Unknown,302013,Rajasthan,Unknown,hospital,hospital,Unknown,Unknown,Unknown,26.9778323,75.7729612
Dr Sardar Singh Memorial Hospital(Managed By M/S Kamal Clinic and Nursing Home),"D-78 Ghiya Marg, Bani Park",Unknown,Unknown,302016,Rajasthan,Unknown,hospital,hospital,Unknown,Unknown,Unknown,26.9318006,75.793002
Kabra Eye Hospital,Sodala,Unknown,Unknown,302019,Rajasthan,Unknown,hospital,Unknown,Unknown,Unknown,Unknown,26.9026061,75.7708114
Jee Hospital and Research Centre,"4, Vishwa Nagar, New Sanganer Road, Sodala",Unknown,Unknown,302019,Rajasthan,Unknown,hospital,Unknown,Unknown,Unknown,Unknown,26.8863068,75.7681916
Dr.Chauhan Orthopadic centre,Near Ambawari Bridge Jhotwara Road,Unknown,Unknown,302012,Rajasthan,Unknown,hospital,hospital,Unknown,Unknown,Unknown,26.9390102,75.7809287
"CGHS Dispensary No.5, Income Tax Colony",Jyoti Nagar,Unknown,Unknown,Unknown,Rajasthan,Unknown,clinic,centre,Unknown,http://nb.bsf.gov.in/CGHS%20DIspenseries.pdf,Unknown,26.8948679,75.7963836
Neha Maternity and Ent Hospital,"413, Vivek Vihar, New Sanganer Road",Unknown,Unknown,302019,Rajasthan,Unknown,hospital,Unknown,Unknown,Unknown,Unknown,26.8860078,75.7655959
Max Vision Eye Care Centre,"305, Vinayak Enclave, Opposite Post Office, Between Nursery & Amrapali Circle, Vaishali Nagar",Unknown,Unknown,302021,Rajasthan,Unknown,hospital,Unknown,Unknown,Unknown,Unknown,26.9086862,75.7388422
Dr Atuls Child Hospital,"37, Shopping Centre Shastri Nagar Road Near Peetal Factory",Unknown,Unknown,302016,Rajasthan,Unknown,hospital,hospital,Unknown,Unknown,Unknown,26.9344657,75.7975852
"Raj Nursing Home, Jaipur","P.N. 50 Laxmi Nagar, Near Hanuman Mandir 80 Feet Road Kanta Circle Jhotwara",Unknown,Unknown,302012,Rajasthan,Unknown,clinic,Unknown,Unknown,Unknown,Unknown,26.9481632,75.7444661
Chandra Bhan Hospital,"D-18, Sundervihar Swej Farm",Unknown,Unknown,302006,Rajasthan,Unknown,hospital,hospital,Unknown,Unknown,Unknown,26.8924184,75.7791491
Metro Mas Heart Care and Miltispeciality Hospital,"Manas Arogya Sadan,Shipra Path,Near Technology Park,Mansarovar",Unknown,Unknown,302020,Rajasthan,Unknown,hospital,hospital,Unknown,Unknown,Unknown,26.8679919,75.7683358
Puru Eye Hospital and Phaco Surgery Centre,"51/29, Shipra Path, Opposite Technology Park, Mansarovar",Unknown,Unknown,302020,Rajasthan,Unknown,hospital,hospital,Unknown,Unknown,Unknown,26.867048,75.7666688
Mahila Chikitsalya,Sanganeri Gate,Unknown,Unknown,302003,Rajasthan,Unknown,hospital,hospital,Unknown,Unknown,Unknown,26.9143851,75.8241183
Misra Eye Hospital,"71/79, Agarwal Farm,Opp - Kendriya Vidyalaya - No.5, Mansarovar",Unknown,Unknown,302020,Rajasthan,Unknown,hospital,hospital,Unknown,Unknown,Unknown,26.8564198,75.767114
Balaji Hospital and Orthopaedic,"27 Dehar Ka Balaji Ratan Nagar ,Kalwar Road",Unknown,Unknown,302012,Rajasthan,Unknown,hospital,hospital,Unknown,Unknown,Unknown,26.9541386,75.7699947
Thar Hospital Pvt. Ltd.,"B-67, Main Road",Unknown,Unknown,302012,Rajasthan,Unknown,hospital,hospital,Unknown,Unknown,Unknown,26.9212045,75.7422278
Nalini Hospital,"E-19, New Light Colony, Tonk Phatak",Unknown,Unknown,302015,Rajasthan,Unknown,hospital,hospital,Unknown,Unknown,Unknown,26.8650943,75.8007684
Bansal Hospital and Research Center,"4, Janakpuri First, Imliwala Phatak Imliwala Phatak",Unknown,Unknown,302005,Rajasthan,Unknown,hospital,hospital,Unknown,Unknown,Unknown,26.887387,75.7925528
Deenbandhu Hospital,"11, Vidhyut Nagar, Ajmer Road",Unknown,Unknown,302019,Rajasthan,Unknown,hospital,Unknown,Unknown,Unknown,Unknown,26.8967008,75.7520065
D. C. Hospital,"68, Vishvaisariya Nagar, Triveni Nagar Mod, Gopalpura Bye Pass",Unknown,Unknown,302018,Rajasthan,Unknown,hospital,hospital,Unknown,Unknown,Unknown,26.8669499,75.7819151
CGHS Dispensary No.4,"D-143/A, Kaushalya Path, Basant Marg, Banipark",Unknown,Unknown,Unknown,Rajasthan,Unknown,clinic,centre,Unknown,http://nb.bsf.gov.in/CGHS%20DIspenseries.pdf,Unknown,26.9264941,75.7856145
Dugra Devi Memorial Hospital,"A-7, Mukherjee Colony Shastri Nagar",Unknown,Unknown,302016,Rajasthan,Unknown,hospital,hospital,Unknown,Unknown,Unknown,26.9342445,75.7985401
Cocoon Hospital,"Plot No. 14, Airport Plaza,Tonk Road , Durgapura",Unknown,Unknown,302016,Rajasthan,Unknown,hospital,Unknown,Unknown,https://www.cocoon.co.in/,Unknown,26.8436989,75.7945731
Tb Hospital,"c-630,Gandhi Nagar",Unknown,Unknown,302016,Rajasthan,Unknown,hospital,hospital,Unknown,Unknown,Unknown,26.8816311,75.805087
Priti Maternity and General Hospital,"56/122, Sector - 5, Vidhyanchal Marg, Rajat Path, Mansarovar",Unknown,Unknown,302020,Rajasthan,Unknown,hospital,hospital,Unknown,Unknown,Unknown,26.8648838,75.7591787
Dr. Panicker's Sanjeevani Hospital Pvt. Ltd.,"F-58, Kalidas Marg, Bani Park",Unknown,Unknown,302016,Rajasthan,Unknown,hospital,hospital,Unknown,Unknown,Unknown,26.9322525,75.7918172
Rajdhani Clinic and Nursing Home,"C-30, Bhagwandas Road, C- Scheme",Unknown,Unknown,302001,Rajasthan,Unknown,clinic,Unknown,Unknown,Unknown,Unknown,26.9116018,75.8070669
T.B. Cenetorium,Subhash Nagar Jhotwara,Unknown,Unknown,303103,Rajasthan,Unknown,hospital,hospital,Unknown,Unknown,Unknown,26.9372802,75.795701
"Lifecare Hospital, Jaipur","119, Keshav Vihar, Gopalpura Bypass",Unknown,Unknown,302018,Rajasthan,Unknown,hospital,hospital,Unknown,Unknown,Unknown,26.8695507,75.773275
Dr.M.R.Grewal Memorial Hospital,Shastri Nagar Jaipur,Unknown,Unknown,302016,Rajasthan,Unknown,hospital,hospital,Unknown,Unknown,Unknown,26.93543,75.7980855
Tarani General Hospital,"122/218- 219, Agrawal Farm, Mansarover",Unknown,Unknown,302020,Rajasthan,Unknown,hospital,Unknown,Unknown,Unknown,Unknown,26.8456402,75.7701077
Railway Hospital,Unknown,Unknown,Unknown,Unknown,Unknown,Unknown,hospital,hospital,Unknown,Unknown,Unknown,26.9162526,75.7866588
MAXX Hospital,Unknown,Unknown,Unknown,Unknown,Unknown,Unknown,hospital,hospital,Unknown,Unknown,Unknown,26.9450782,75.7352074
Medical store,Unknown,Unknown,Unknown,302017,Unknown,Unknown,pharmacy,Unknown,Unknown,Unknown,Unknown,26.835025,75.8335582
Vishal Medical & General Stores,Unknown,Unknown,Unknown,Unknown,Unknown,Unknown,pharmacy,pharmacy,Unknown,Unknown,Unknown,26.9055601,75.7391528
Global hospital,Unknown,Unknown,Unknown,Unknown,Unknown,Unknown,pharmacy,pharmacy,Unknown,Unknown,Unknown,26.905665,75.7388702
City Dispensary Session Court,"Session And District Court, Gopalbari, Banipark, Near Collectorate Circle",Unknown,Unknown,302016,Rajasthan,Unknown,Unknown,centre,Unknown,Unknown,Unknown,26.924173,75.792706
Air Force Hospital,"1417, Gujarghati, Parasrampuri, Jaipur",Unknown,Unknown,302002,Rajasthan,Unknown,hospital,Unknown,Unknown,Unknown,Unknown,26.960627,75.84289
"ESIC Dispensary, Jhotwara","D-138,B-4B, Durga Path, Ambabari, Vidyadhar Nagar",Unknown,Unknown,302032,Rajasthan,Unknown,Unknown,centre,Unknown,Unknown,Unknown,26.941833,75.774744
City Dispensary Govind Nagar,"Amer Road, Govind Nagar West",Unknown,Unknown,302002,Rajasthan,Unknown,Unknown,centre,Unknown,Unknown,Unknown,26.938614,75.83295
"Government Hospital, Amer","Amer Road, Near Panchayat Samiti, Amer",Unknown,Unknown,302028,Rajasthan,Unknown,hospital,Unknown,Unknown,Unknown,Unknown,26.989942,75.85567
TB Hospital,"Near Shastri Nagar, Jaipur",Unknown,Unknown,302016,Rajasthan,Unknown,hospital,hospital,Unknown,Unknown,Unknown,26.9379473,75.7948581
"ESIC Dispensary, Nahari Ka Naka","A-35, Shastri Nagar",Unknown,Unknown,302032,Rajasthan,Unknown,Unknown,centre,Unknown,Unknown,Unknown,26.938425,75.800644
"UPHC, Murlipura","Road No. 2, Budaniya Choraha, Murlipura",Unknown,Unknown,302032,Rajasthan,Unknown,Unknown,centre,Unknown,Unknown,Unknown,26.974285,75.761123
"Government Satellite Hospital, Banipark","Todarmal Marg, Near Shiv Circle, Bani Park, Jaipur",Unknown,Unknown,302016,Rajasthan,Unknown,hospital,hospital,Unknown,Unknown,Unknown,26.928678,75.7972582
"City Dispensary, Dhahar Ka Balaji","Near Pnb Bank Street, Sikar Road, Maharaja Colony",Unknown,Unknown,302032,Rajasthan,Unknown,Unknown,centre,Unknown,Unknown,Unknown,26.956249,75.770265
"UPHC, Mini Secretariat","3/341, Vidhyadhar Nagar Marg, Shastri Nagar",Unknown,Unknown,302016,Rajasthan,Unknown,Unknown,centre,Unknown,Unknown,Unknown,26.9401663,75.8013466
Motikatla Dispensary,"Mohalla Handipura, Pink City",Unknown,Unknown,302002,Rajasthan,Unknown,Unknown,centre,Unknown,Unknown,Unknown,26.9265158,75.83371
CHC Sanganer,"Dada Gurudev Nagar, Sanganer",Unknown,Unknown,302029,Rajasthan,Unknown,Unknown,centre,Unknown,Unknown,Unknown,26.813043,75.7849383
"PHC, Mansarovar Sector 8","Mansarowar Agarawal Farm, Ward 27, Mansarovar Sector 8, Mansarovar",Unknown,Unknown,302020,Rajasthan,Unknown,Unknown,centre,Unknown,Unknown,Unknown,26.852857,75.762184
"PHC, Pratap Nagar Sector 11","Kumbha Marg, Sanganer, Pratap Nagar Sector 11",Unknown,Unknown,302033,Rajasthan,Unknown,Unknown,centre,Unknown,Unknown,Unknown,26.8017176,75.8253438
"Govt. Dispensary, Durgapura","Chandrakala Colony, Durgapura",Unknown,Unknown,302018,Rajasthan,Unknown,Unknown,centre,Unknown,Unknown,Unknown,26.8465084,75.7940003
City Dispensary,"5/85, Sector 5, Malviya Nagar, Jaipur",Unknown,Unknown,302017,Rajasthan,Unknown,Unknown,centre,Unknown,Unknown,Unknown,26.8454183,75.8068782
City Dispensary Jyothi Nagar,"Income Tax Colony, Jyothi Nagar, Lalkothi",Unknown,Unknown,302007,Rajasthan,Unknown,Unknown,centre,Unknown,Unknown,Unknown,26.895336,75.795674
"UPHC, Barkat Nagar","Radha Govind Marg, Near Radha Govindh Mandir, Barkat Nagar",Unknown,Unknown,302015,Rajasthan,Unknown,Unknown,centre,Unknown,Unknown,Unknown,26.8762349,75.7920263
"UPHC, Gandhi Nagar","Gandhi Nagar, Jaipur",Unknown,Unknown,302007,Rajasthan,Unknown,Unknown,centre,Unknown,Unknown,Unknown,26.8814281,75.8051273
"ESI Dispensary, Ramganj","2, Surajpol Bazar Road, Hida Ki Mori, Laxmi Narayan Puri",Unknown,Unknown,302007,Rajasthan,Unknown,Unknown,centre,Unknown,Unknown,Unknown,26.921431,75.835351
"UPHC, Jawahar Nagar","Near Mps School Sector 6, Jawahar Nagar",Unknown,Unknown,302004,Rajasthan,Unknown,Unknown,centre,Unknown,Unknown,Unknown,26.889859,75.833433
ESI Dispensary 1 Jaipur,"Suraj Nagar, Civil Lines, Jaipur, Rajasthan",Unknown,Unknown,302007,Rajasthan,Unknown,Unknown,centre,Unknown,Unknown,Unknown,26.903488,75.787875
City Dispensary Shanti Nagar,"Hasanpura, Nbc Road",Unknown,Unknown,302006,Rajasthan,Unknown,Unknown,centre,Unknown,Unknown,Unknown,26.912666,75.7739
City Dispensary Vidhyut Nagar,Vidhyut Nagar,Unknown,Unknown,302021,Rajasthan,Unknown,Unknown,centre,Unknown,Unknown,Unknown,26.897467,75.746716
Government Homeopathic Centre,"Raj Bhavan, Civil Lines, Madrampur, Raj Bhavan Road",Unknown,Unknown,302006,Rajasthan,Unknown,hospital,hospital,Unknown,Unknown,Unknown,26.907893,75.783374
Government Hospital,"Opposite Pink Square Mall, Rajapark Road, Sethi Colony, Jaipur",Unknown,Unknown,302004,Rajasthan,Unknown,hospital,hospital,Unknown,Unknown,Unknown,26.903108,75.838214
"UPHC, Devi Nagar","Near Shyam Nagar Post Office, New Sanganer Road, Laxman Path, Devi Nagar",Unknown,Unknown,302019,Rajasthan,Unknown,Unknown,centre,Unknown,Unknown,Unknown,26.8894471,75.7584702
"Govt. Dispensary, Gandhi Nagar","Gandhi Nagar, Near Mahila Police Thana",Unknown,Unknown,302007,Rajasthan,Unknown,Unknown,centre,Unknown,Unknown,Unknown,26.882181,75.803774
City Dispensary Topkhana Huzuri,"Ghatgate, Behind Madina Hotel, Kaji Ka Nala",Unknown,Unknown,302007,Rajasthan,Unknown,Unknown,centre,Unknown,Unknown,Unknown,26.9167387,75.8347016
City Dispensary Tilak Nagar,"Behind Lbs College, Tilak Nagar, Sundar Marg, Near Bhrigu Sadan,",Unknown,Unknown,302004,Rajasthan,Unknown,Unknown,centre,Unknown,Unknown,Unknown,26.890235,75.824723
Government Unani Dispensary,"Ghat Gate Bazar, Pink City, Jaipur",Unknown,Unknown,302003,Rajasthan,Unknown,Unknown,centre,Unknown,Unknown,Unknown,26.914957,75.832379
City Dispensary Vidhayak Niwas,"Sector 6, Jawahar Nagar",Unknown,Unknown,302004,Rajasthan,Unknown,Unknown,centre,Unknown,Unknown,Unknown,26.889896,75.83347
Sawai Man Singh Hospital's Diagnostics,"Dusadon Ka Bagh, Rambagh, Jaipur",Unknown,Jaipur,302007,Rajasthan,Unknown,Unknown,laboratory,Unknown,https://rajasthan.gov.in/,Unknown,26.9053639,75.8159772
Naila Clinic,Jaisinghpura Khor,Unknown,Unknown,302027,Rajasthan,Unknown,clinic,Unknown,Unknown,Unknown,Unknown,26.9476019,75.8965102
Krishna Hospital,Amer,Unknown,Unknown,302028,Rajasthan,Unknown,hospital,Unknown,Unknown,Unknown,Unknown,26.990482,75.854497
Advance Hospital,"Gurudev Nagar, Sanganer, Jaipur",Unknown,Unknown,302029,Rajasthan,Unknown,hospital,Unknown,Unknown,Unknown,Unknown,26.8008059,75.772354
Singodiya Hospital,Sumel,Unknown,Unknown,302027,Rajasthan,Unknown,hospital,Unknown,Unknown,Unknown,Unknown,26.954477,75.884311
Kedawat Homoeopathy,"Khandelwal Nagar, Prem Nagar",Unknown,Unknown,302031,Rajasthan,Unknown,clinic,Unknown,Unknown,Unknown,Unknown,26.8846023,75.8836511
Meeta Clinic,"J D A Colony, Paldi Meena, Jaipur",Unknown,Unknown,302031,Rajasthan,Unknown,clinic,Unknown,Unknown,Unknown,Unknown,26.87592,75.8946125
Raj Clinic,"Amer Road, Devisinghpura",Unknown,Unknown,302028,Rajasthan,Unknown,clinic,Unknown,Unknown,Unknown,Unknown,26.9886413,75.858799
Kanchan Hospital,"Ganga Vihar, Sumel, Jaipur",Unknown,Unknown,302021,Rajasthan,Unknown,hospital,Unknown,Unknown,Unknown,Unknown,26.9091383,75.8950179
Sahara Cilnic,Jaisinghpura Khor,Unknown,Unknown,302027,Rajasthan,Unknown,clinic,Unknown,Unknown,Unknown,Unknown,26.9517203,75.867473
Cure Life Clinic,Ghati Karolan,Unknown,Unknown,303012,Rajasthan,Unknown,clinic,Unknown,Unknown,Unknown,Unknown,26.8675288,75.8880949
Shifa Clinic,"Luniyawas, Ghati Karolan",Unknown,Unknown,303012,Rajasthan,Unknown,clinic,Unknown,Unknown,Unknown,Unknown,26.8651535,75.8869898
D. H. Hospital,"J D A Colony, Paldi Meena",Unknown,Unknown,302031,Rajasthan,Unknown,hospital,Unknown,Unknown,Unknown,Unknown,26.8768382,75.8949215
Life Care Clinic,"New Khandelwal Nagar, Paldi Meena",Unknown,Unknown,303012,Rajasthan,Unknown,clinic,Unknown,Unknown,Unknown,Unknown,26.88289,75.880733
Ganesh Clinic,Jaisinghpura Khor,Unknown,Unknown,302027,Rajasthan,Unknown,clinic,Unknown,Unknown,Unknown,Unknown,26.9526103,75.870244
Paiker Hospital,"Sumel, Jaipur",Unknown,Unknown,302027,Rajasthan,Unknown,hospital,Unknown,Unknown,Unknown,Unknown,26.967908,75.891729
Janta Clinic,Pratap Nagar Colony,Unknown,Unknown,302002,Rajasthan,Unknown,clinic,Unknown,Unknown,Unknown,Unknown,26.9640845,75.8468283
Jyoti Clinic,"Kunda, Amer, Jaipur",Unknown,Unknown,302028,Rajasthan,Unknown,clinic,Unknown,Unknown,Unknown,Unknown,26.992066,75.874116
Dispensary,"Ghati Karolan, Jaipur",Unknown,jaipur,302017,Rajasthan,Unknown,Unknown,centre,Unknown,Unknown,Unknown,26.837237,75.881171
Suhana Clinic,"Sahva, Jaipur",Unknown,Unknown,302028,Rajasthan,Unknown,clinic,Unknown,Unknown,Unknown,Unknown,26.968025,75.885623
Aayurved Clinic,"Shrinath Vihar, Baldeogarh",Unknown,Unknown,302031,Rajasthan,Unknown,clinic,Unknown,Unknown,Unknown,Unknown,26.8985199,75.885527
Purwanchal Clinic,Unknown,Unknown,Unknown,302028,Rajasthan,Unknown,clinic,Unknown,Unknown,Unknown,Unknown,26.960689,75.867571
Shekhar Clinic,"Jaisinghpura Khor, Jaipur",Unknown,Unknown,302036,Rajasthan,Unknown,clinic,Unknown,Unknown,Unknown,Unknown,26.9514341,75.8650743
Krishna Hospital,"Kundlav Colony, Sagar Road, Amer",Unknown,Unknown,302028,Rajasthan,Unknown,hospital,Unknown,Unknown,Unknown,Unknown,26.9891507,75.853717
Aarogya Clinic,Mansarover,Unknown,Unknown,302020,Rajasthan,Unknown,clinic,Unknown,Unknown,Unknown,Unknown,26.8286978,75.7721533
Swastik Hospital and Research Centre,"Narayan Vihar, Jaipur",Unknown,Unknown,302020,Rajasthan,Unknown,hospital,Unknown,Unknown,Unknown,Unknown,26.858647,75.720417
Nirog Homoeopathy Clinic,Jaipur,Unknown,Unknown,302033,Rajasthan,Unknown,clinic,Unknown,Unknown,Unknown,Unknown,26.8090145,75.8322716
Namo Clinic,"Dayanand Nagar, Someshwarpuri",Unknown,Unknown,302004,Rajasthan,Unknown,clinic,Unknown,Unknown,Unknown,Unknown,26.8722687,75.8221382
Trilok Nursing Home,"Prem Nagar, Malviya Nagar, Nandpuri Colony",Unknown,Unknown,302017,Rajasthan,Unknown,hospital,Unknown,Unknown,Unknown,Unknown,26.8353154,75.8243957
Abhi Clinic,"Kalyanpura, Mansarovar, Jaipur",Unknown,Unknown,302020,Rajasthan,Unknown,clinic,Unknown,Unknown,Unknown,Unknown,26.828907,75.774746
Shikha Clinic,"Kalyanpura Road, Sanganer",Unknown,Unknown,302020,Rajasthan,Unknown,clinic,Unknown,Unknown,Unknown,Unknown,26.8213877,75.7695767
Om Sai Hospital,"Pratap Nagar, Sanganer",Unknown,Unknown,302033,Rajasthan,Unknown,hospital,Unknown,Unknown,Unknown,Unknown,26.8051181,75.8322375
Nadeem Clinic,"Sanganer, Bambala",Unknown,Unknown,302033,Rajasthan,Unknown,clinic,Unknown,Unknown,Unknown,Unknown,26.8007023,75.7981156
Mathur Multispeciality Clinic,"Patarkar Colony, Dholai",Unknown,Unknown,302029,Rajasthan,Unknown,clinic,Unknown,Unknown,Unknown,Unknown,26.8387753,75.7356265
Madhu Hospital,"Katewa Nagar, Dada Gurudev Nagar",Unknown,Unknown,302029,Rajasthan,Unknown,hospital,Unknown,Unknown,Unknown,Unknown,26.8242631,75.777936
Take Care Clinic,"Sanganer, Pratap Nagar",Unknown,Unknown,302033,Rajasthan,Unknown,clinic,Unknown,Unknown,Unknown,Unknown,26.8065013,75.8036489
DIVA Women Clinic,Hajiwala,Unknown,Unknown,302029,Rajasthan,Unknown,clinic,Unknown,Unknown,Unknown,Unknown,26.819886,75.754734
Vishwanath Hospital,"Haldighati Marg, Sanganer, Pratap Nagar, Jaipur",Unknown,Unknown,302015,Rajasthan,Unknown,hospital,Unknown,Unknown,Unknown,Unknown,26.8049023,75.811702
Raj Poly Clinic,"Calgiri Marg, Jhalana Gram, Malviya Nagar, Jaipur",Unknown,Unknown,302017,Rajasthan,Unknown,clinic,Unknown,Unknown,Unknown,Unknown,26.8569793,75.8195345
Ramanji Hospital,Jagatpura,Unknown,Unknown,302017,Rajasthan,Unknown,hospital,Unknown,Unknown,Unknown,Unknown,26.8031836,75.8555926
Aalok Clinic and Research Centre,"Rampura Road, Kalyanpura, Sanganer",Unknown,Unknown,302029,Rajasthan,Unknown,clinic,Unknown,Unknown,Unknown,Unknown,26.8190439,75.7660307
Shiv Shakti Clinic,"Indra Vihar, Budhsinghpura, Sheopur, Jagatpura",Unknown,Unknown,303902,Rajasthan,Unknown,clinic,Unknown,Unknown,Unknown,Unknown,26.8143138,75.8247823
Sanjeevani Poly Clinic,"Sanganer Road, Dada Gurudev Nagar, Jaipur",Unknown,Unknown,302029,Rajasthan,Unknown,clinic,Unknown,Unknown,Unknown,Unknown,26.8179761,75.7884907
Laxmi Homoeo Clinic,"Chitrakoot Colony, Sanganer",Unknown,Unknown,302029,Rajasthan,Unknown,clinic,Unknown,Unknown,Unknown,Unknown,26.8182725,75.7958861
Jindal Hospital,"Kesar Nagar, Mansarovar",Unknown,Unknown,302020,Rajasthan,Unknown,hospital,Unknown,Unknown,Unknown,Unknown,26.8219941,75.7506913
Harmony National Homeopathy Hospital,Pratap Nagar,Unknown,Unknown,302033,Rajasthan,Unknown,hospital,Unknown,Unknown,Unknown,Unknown,26.8060065,75.8457503
Jaipur Health Clinic,"Budhsinghpura, Pratap Nagar, Jaipur",Unknown,Unknown,302029,Rajasthan,Unknown,clinic,Unknown,Unknown,Unknown,Unknown,26.8177776,75.8137989
Amrit Hospital,"Diggi Malpura Road, Sanganer, Jaipur",Unknown,Unknown,302029,Rajasthan,Unknown,hospital,Unknown,Unknown,Unknown,Unknown,26.8152312,75.7814906
Shri Kalyan Hospital,"Mahal Yojana, Jagatpura",Unknown,Unknown,302017,Rajasthan,Unknown,hospital,Unknown,Unknown,Unknown,Unknown,26.8030325,75.8558498
Shree Shyam Clinic,"Sanganer, Jaipur",Unknown,Unknown,302029,Rajasthan,Unknown,clinic,Unknown,Unknown,Unknown,Unknown,26.8121391,75.7880377
Gitanjli Clinic,"Sheopur Road, Sanganer, Jaipur",Unknown,Unknown,302033,Rajasthan,Unknown,clinic,Unknown,Unknown,Unknown,Unknown,26.8132752,75.8117827
Om Shri Sai Clinic,"Rampura Road, Kalyanpura, Sanganer",Unknown,Unknown,302029,Rajasthan,Unknown,clinic,Unknown,Unknown,Unknown,Unknown,26.8183476,75.7685435
Gautam Clinic,"Rampura Road, Sanganer",Unknown,Unknown,302029,Rajasthan,Unknown,clinic,Unknown,Unknown,Unknown,Unknown,26.8187168,75.7665588
Daisy Aura Health Clinic,"Sanganer, Pratap Nagar",Unknown,Unknown,302033,Rajasthan,Unknown,clinic,Unknown,Unknown,Unknown,Unknown,26.8099882,75.8149584
Alka Clinic Lab,"Malviya Nagar, Jaipur",Unknown,Unknown,302017,Rajasthan,Unknown,clinic,Unknown,Unknown,Unknown,Unknown,26.857452,75.820414
Alok Clinic,"Subhash Colony, Sanganer, Bambala, Jaipur",Unknown,Unknown,302029,Rajasthan,Unknown,clinic,Unknown,Unknown,Unknown,Unknown,26.8073247,75.792293
Raghukul Health Care Clinic,"Rampura Road, Kalyanpura, Sanganer, Jaipur",Unknown,Unknown,302029,Rajasthan,Unknown,clinic,Unknown,Unknown,Unknown,Unknown,26.8224757,75.7534033
Chirakshi ENT and Cancer Clinic,Jagatpura,Unknown,Unknown,302017,Rajasthan,Unknown,clinic,Unknown,Unknown,Unknown,Unknown,26.837706,75.832021
Akta Clinic,"Sanganer, Jaipur",Unknown,Unknown,302029,Rajasthan,Unknown,clinic,Unknown,Unknown,Unknown,Unknown,26.8184353,75.7958982
Khandelwal Clinic,"Kalyanpura, Sanganer",Unknown,Unknown,302029,Rajasthan,Unknown,clinic,Unknown,Unknown,Unknown,Unknown,26.8210404,75.7576253
Shree Adinath Hospital,"Hajiwala, Jaipur",Unknown,Unknown,302029,Rajasthan,Unknown,hospital,Unknown,Unknown,Unknown,Unknown,26.8179341,75.7482418
Rajgovind Chaild Clinic,"Rampury Road, Kalyanpura, Sanganer",Unknown,Unknown,302029,Rajasthan,Unknown,clinic,Unknown,Unknown,Unknown,Unknown,26.818085,75.771985
Bharadwaj Clinic,Sanganer,Unknown,Unknown,302029,Rajasthan,Unknown,clinic,Unknown,Unknown,Unknown,Unknown,26.8186642,75.7949691
Siddhi Vinayak ENT Hospital,"Sanganer, Pratap Nagar, Jaipur",Unknown,Unknown,302033,Rajasthan,Unknown,hospital,Unknown,Unknown,Unknown,Unknown,26.8049589,75.8062208
Ansh Hospital,"Rampura Road, Suraj Nagar, Kalyanpura, Sanganer",Unknown,Unknown,302029,Rajasthan,Unknown,hospital,Unknown,Unknown,Unknown,Unknown,26.8210575,75.7592474
Shifa Clinic,"Someshwarpuri, Jhalana Doongri",Unknown,Unknown,302004,Rajasthan,Unknown,clinic,Unknown,Unknown,Unknown,Unknown,26.8713824,75.8236935
Namo Clinic,Narayan Vihar,Unknown,Unknown,302029,Rajasthan,Unknown,clinic,Unknown,Unknown,Unknown,Unknown,26.8732165,75.7224225
Dr. Ramesh Memorial Hospital,"Patrakar Colony, Dholai",Unknown,Unknown,302029,Rajasthan,Unknown,hospital,Unknown,Unknown,Unknown,Unknown,26.8410262,75.7399393
Neeraj Clinic,"Sheopur Road, Pratap Nagar",Unknown,Unknown,302029,Rajasthan,Unknown,clinic,Unknown,Unknown,Unknown,Unknown,26.808431,75.8145514
Shri Guru Clinic,"Diggi Road, Subhash Colony, Bambala",Unknown,Unknown,302029,Rajasthan,Unknown,clinic,Unknown,Unknown,Unknown,Unknown,26.80856,75.7913358
Namo Clinic,"Ramdara Colony, Sanganer",Unknown,Unknown,302029,Rajasthan,Unknown,clinic,Unknown,Unknown,Unknown,Unknown,26.81907,75.7733671
Rajshree Clinic,Jagatpura,Unknown,Unknown,302029,Rajasthan,Unknown,clinic,Unknown,Unknown,Unknown,Unknown,26.8186083,75.7953321
Medilite Hospital,Sanganer,Unknown,Unknown,302029,Rajasthan,Unknown,hospital,Unknown,Unknown,Unknown,Unknown,26.8128864,75.782805
Shailaja Clinic,"Jhalana Gram, Malviya Nagar, Jaipur",Unknown,Unknown,302017,Rajasthan,Unknown,clinic,Unknown,Unknown,Unknown,Unknown,26.8564305,75.8191605
Baheti Hospital,"Malviya Nagar, Jaipur",Unknown,Unknown,302017,Rajasthan,Unknown,hospital,Unknown,Unknown,Unknown,Unknown,26.855061,75.822584
Jaipur Eye and Dental Hospital,Jagatpura,Unknown,Unknown,302017,Rajasthan,Unknown,hospital,Unknown,Unknown,Unknown,Unknown,26.8248986,75.8474328
Aman Poly Clinic,"Sikarpura Road, Subhash Colony, Sanganer, Jaipur",Unknown,Unknown,302029,Rajasthan,Unknown,clinic,Unknown,Unknown,Unknown,Unknown,26.8110132,75.7893687
Hiya Nursing Care & Clinic,"Ram Nagar, Kalyanpura, Sanganer",Unknown,Unknown,302020,Rajasthan,Unknown,clinic,Unknown,Unknown,Unknown,Unknown,26.8205741,75.7614861
Jain Clinic,"Sanganer, Jagatpura",Unknown,Unknown,302029,Rajasthan,Unknown,clinic,Unknown,Unknown,Unknown,Unknown,26.8186449,75.7947646
Saubhagya Homeo Clinic,Unknown,Unknown,Unknown,302029,Rajasthan,Unknown,clinic,Unknown,Unknown,Unknown,Unknown,26.811642,75.799845
Shahari Swasthya Kendra,Nandpuri Colony,Unknown,Unknown,302017,Rajasthan,Unknown,clinic,Unknown,Unknown,Unknown,Unknown,26.83726,75.820289
Balaji ENT Hospital,"Sanganer, Sector 8, Pratap Nagar",Unknown,Unknown,302033,Rajasthan,Unknown,hospital,Unknown,Unknown,Unknown,Unknown,26.8017121,75.8226299
Garg Clinic,"Janakpuri, Maruti Nagar",Unknown,Unknown,302029,Rajasthan,Unknown,clinic,Unknown,Unknown,Unknown,Unknown,26.8209574,75.8046149
Agarwal Hospital and Maternity Centre,"Sanganer, Jaipur",Unknown,Unknown,302029,Rajasthan,Unknown,hospital,Unknown,Unknown,Unknown,Unknown,26.811738,75.7798
Bhagwati Ayurveda & Panchkarma Research Centre,Jagatpura,Unknown,Unknown,302019,Rajasthan,Unknown,hospital,Unknown,Unknown,Unknown,Unknown,26.8097423,75.8672891
Aayur Clinic,"Suraj Nagar, Kalyanpura, Sanganer, Jaipur",Unknown,Unknown,302029,Rajasthan,Unknown,clinic,Unknown,Unknown,Unknown,Unknown,26.8211016,75.758616
SG Hospital,"Nilay Kunj Road, Jagatpura, Jaipur",Unknown,Unknown,303905,Rajasthan,Unknown,hospital,Unknown,Unknown,Unknown,Unknown,26.802886,75.866088
Dr. Sunil Clinic,Ramnagariya,Unknown,Unknown,303905,Rajasthan,Unknown,clinic,Unknown,Unknown,Unknown,Unknown,26.8127301,75.8660832
Maheshwari Child Clinic,"Rohini Nagar, Vidhyadhar Nagar, Keshar Vihar, Jagatpura",Unknown,Unknown,302017,Rajasthan,Unknown,clinic,Unknown,Unknown,Unknown,Unknown,26.8247648,75.8473899
Pardaya Memorial Trust Hospital,"Malpura Road, Sanganer, Jaipur",Unknown,Unknown,302029,Rajasthan,Unknown,hospital,Unknown,Unknown,Unknown,Unknown,26.8167712,75.7822481
Urmil Raj Polyclinic,"Income Tax Colony, Jagatpura",Unknown,Unknown,302017,Rajasthan,Unknown,clinic,Unknown,Unknown,Unknown,Unknown,26.8415871,75.8308121
Bambala Clinic,Pratap Nagar,Unknown,Unknown,302030,Rajasthan,Unknown,clinic,Unknown,Unknown,Unknown,Unknown,26.802624,75.807926
Vashisth Clinic,"Sanganer Pulia, Jaipur",Unknown,Unknown,302029,Rajasthan,Unknown,clinic,Unknown,Unknown,Unknown,Unknown,26.816623,75.8001451
Mathur Mahila and General Hospital,"Sanganer, Pratap Nagar, Jaipur",Unknown,Unknown,302033,Rajasthan,Unknown,hospital,Unknown,Unknown,Unknown,Unknown,26.8026132,75.8037184
Dhiraj Clinic,"Rampura Road, Kalyanpura",Unknown,Unknown,302029,Rajasthan,Unknown,clinic,Unknown,Unknown,Unknown,Unknown,26.8194633,75.7656698
The Urmil Chest & General Hospital,"Sanganer, Pratap Nagar",Unknown,Unknown,302033,Rajasthan,Unknown,hospital,Unknown,Unknown,Unknown,Unknown,26.8050352,75.8233611
Pathak Clinic,"Shanthi Nagar, Mansarovar",Unknown,Unknown,302020,Rajasthan,Unknown,clinic,Unknown,Unknown,Unknown,Unknown,26.87854,75.76678
Chandra Hospital,"Tonk Road, Milap Nagar, Durgapura",Unknown,Unknown,302018,Rajasthan,Unknown,hospital,Unknown,Unknown,Unknown,Unknown,26.8524159,75.7948691
Dr. Dogras Clinic,"AG Colony, Bajaj Nagar",Unknown,Unknown,302015,Rajasthan,Unknown,clinic,clinic,Unknown,Unknown,Unknown,26.874256,75.804437
Dr. Hemant Bhartiya Clinic,"Jai Jawan Colony, Jaipur",Unknown,Unknown,302018,Rajasthan,Unknown,clinic,Unknown,Unknown,Unknown,Unknown,26.853253,75.7963388
Aman Polyclinic,"Mandir Marg, Heerapura, Jaipur",Unknown,Unknown,302034,Rajasthan,Unknown,clinic,Unknown,Unknown,Unknown,Unknown,26.892255,75.729215
Thaper Dental Clinic,"Nityanand Nagar, Bhan Nagar, Jaipur",Unknown,Unknown,302021,Rajasthan,Unknown,dentist,dentist,Unknown,Unknown,Unknown,26.9050168,75.7527468
Agrawal Clinic,Janpath,Unknown,Unknown,302019,Rajasthan,Unknown,clinic,Unknown,Unknown,Unknown,Unknown,26.8859533,75.7437192
Utkarsh Hospital,"Bhrigu Path, Sector 21, Mansarovar",Unknown,Unknown,302020,Rajasthan,Unknown,hospital,Unknown,Unknown,Unknown,Unknown,26.8773898,75.7501535
V Care Physiotherapy & Rehabilitation Clinic,"Jadon Nagar, Mahaveer Nagar, Durgapura",Unknown,Unknown,302018,Rajasthan,Unknown,clinic,Unknown,Unknown,Unknown,Unknown,26.8516843,75.7888209
Goyal Dental Clinic,Triveni Nagar,Unknown,Unknown,302015,Rajasthan,Unknown,dentist,dentist,Unknown,Unknown,Unknown,26.8672604,75.7768087
M.B.M Children and General Hospital,Hirapura,Unknown,Unknown,302019,Rajasthan,Unknown,hospital,Unknown,Unknown,Unknown,Unknown,26.8911213,75.7353006
Agrawal Clinic,"Moti Nagar, Nityanand Nagar, Vaishali Nagar",Unknown,Unknown,302015,Rajasthan,Unknown,clinic,clinic,Unknown,Unknown,Unknown,26.9035844,75.7493901
Kasliwal Heart Clinic,"Gandhipath, Vaishali Nagar",Unknown,Unknown,302021,Rajasthan,Unknown,clinic,clinic,Unknown,Unknown,Unknown,26.9043929,75.7524121
Rameshwaram Homoeo Clinic,Ajmer Road,Unknown,Unknown,302024,Rajasthan,Unknown,clinic,Unknown,Unknown,Unknown,Unknown,26.8792285,75.7133997
Daksh Hospital,"Kamla Nehru Nagar, Ajmer Road",Unknown,Unknown,302024,Rajasthan,Unknown,hospital,Unknown,Unknown,Unknown,Unknown,26.88331,75.7159196
Verma Eye Care Centre,"Diggi Malpura Road, Rajni Vihar, Sanganer",Unknown,Unknown,302024,Rajasthan,Unknown,clinic,Unknown,Unknown,Unknown,Unknown,26.8899165,75.7326084
Siradhna Clinic,"Muktanand Nagar, Gopal Pura, Jaipur",Unknown,Unknown,302018,Rajasthan,Unknown,clinic,clinic,Unknown,Unknown,Unknown,26.86138,75.7907111
Nova Clinic,Unknown,Unknown,Unknown,302018,Rajasthan,Unknown,clinic,clinic,Unknown,Unknown,Unknown,26.8653736,75.7801508
Jaipur Hospital,"Tonk Road, Mahaveer Nagar",Unknown,Unknown,302018,Rajasthan,Unknown,hospital,Unknown,Unknown,Unknown,Unknown,26.857354,75.795004
Kshitij Hospital,"Nirman Nagar, Brijlalpura, Jaipur",Unknown,Unknown,302019,Rajasthan,Unknown,hospital,Unknown,Unknown,Unknown,Unknown,26.8804078,75.7453399
City Family Clinic,Vaishali Nagar,Unknown,Unknown,302021,Rajasthan,Unknown,clinic,Unknown,Unknown,Unknown,Unknown,26.9023725,75.7430105
Prasoon Hospital,"Shri Vihar, Mahaveer Nagar, Durgapura",Unknown,Unknown,302018,Rajasthan,Unknown,hospital,Unknown,Unknown,Unknown,Unknown,26.8534487,75.7898902
Raghav Homeopathic Clinic,"Usha Vihar, Vishveshvariya Nagar, Arjun Nagar",Unknown,Unknown,302018,Rajasthan,Unknown,clinic,clinic,Unknown,Unknown,Unknown,26.8682522,75.7755765
Jain Fertility & Mother Care,"Rani Sati Nagar, Brijlalpura, Jaipur",Unknown,Unknown,302019,Rajasthan,Unknown,hospital,Unknown,Unknown,Unknown,Unknown,26.8855662,75.7451024
Chanda Devi Memorial Hospital,Sodala,Unknown,Unknown,302019,Rajasthan,Unknown,hospital,Unknown,Unknown,Unknown,Unknown,26.8858605,75.7658158
Vedanta Superspeciality Hospital,"Ajmer Road, Satya Colony, Tagore Nagar, Jaipur",Unknown,Unknown,302021,Rajasthan,Unknown,hospital,Unknown,Unknown,Unknown,Unknown,26.8898811,75.7380334
Dr. Madan Mohan Bhojak,"Anita Colony, Bajaj Nagar, Jaipur",Unknown,Unknown,302015,Rajasthan,Unknown,doctors,doctor,Unknown,Unknown,Unknown,26.8716945,75.800694
Jaipur Doorbeen Hospital,Sanganer Road,Unknown,Unknown,302019,Rajasthan,Unknown,hospital,Unknown,Unknown,Unknown,Unknown,26.8850757,75.7670814
Mahesh Clinic,Mansrover,Unknown,Unknown,302020,Rajasthan,Unknown,clinic,clinic,Unknown,Unknown,Unknown,26.8677607,75.7757553
Dr. Pooja Mukul,Bajaj Nagar,Unknown,Unknown,302015,Rajasthan,Unknown,doctors,doctor,Unknown,Unknown,Unknown,26.8701736,75.8018925
Royal Hospital,"Triveni Nagar Road, Arjun Nagar",Unknown,Unknown,302015,Rajasthan,Unknown,hospital,hospital,Unknown,Unknown,Unknown,26.8672156,75.7846212
Gupta Clinic,"Vivek Vihar, Shyam Nagar",Unknown,Unknown,302019,Rajasthan,Unknown,clinic,Unknown,Unknown,Unknown,Unknown,26.885999,75.7658738
Dr. Pawan Saini's Physiotherapy Clinic,"Manyawas Road, Mansarovar",Unknown,Unknown,302020,Rajasthan,Unknown,clinic,Unknown,Unknown,Unknown,Unknown,26.8744533,75.7464214
Dr. Deepak Jain,"Mahaveer Nagar, Jaipur",Unknown,Unknown,302018,Rajasthan,Unknown,doctors,doctor,Unknown,Unknown,Unknown,26.8599747,75.7895584
Shubhayush Hospital,"Kumbha Marg, Sanganer, Pratap Nagar",Unknown,Unknown,302033,Rajasthan,Unknown,hospital,Unknown,Unknown,Unknown,Unknown,26.8780554,75.7414518
Homeopathic Aarogya Dham,"Nirman Nagar, Ranisati Nagar",Unknown,Unknown,302019,Rajasthan,Unknown,clinic,Unknown,Unknown,Unknown,Unknown,26.887119,75.751305
R N Multispeciality Hospital,"Shiv Shakti Nagar, Brijlalpura",Unknown,Unknown,302019,Rajasthan,Unknown,hospital,Unknown,Unknown,Unknown,Unknown,26.88477,75.7523577
Radu Clinic,"Ajmer Road, Jagdamba Nagar, Girdharipur",Unknown,Unknown,302021,Rajasthan,Unknown,clinic,Unknown,Unknown,Unknown,Unknown,26.8916713,75.7184892
Shreeji Homeopathic Clinic,"Katewa Nagar, Devi Nagar, Shyam Nagar",Unknown,Unknown,302019,Rajasthan,Unknown,clinic,Unknown,Unknown,Unknown,Unknown,26.8867775,75.7620583
Gupta Child & Dental Clinic,"Shanthi Nagar, Durgapura",Unknown,Unknown,302018,Rajasthan,Unknown,dentist,dentist,Unknown,Unknown,Unknown,26.8592877,75.7828095
Vardhman Clinic & Diagnostic Centre,"Shreeji Nagar, Green Nagar, Suresh Nagar, Mata colony",Unknown,Unknown,302018,Rajasthan,Unknown,clinic,Unknown,Unknown,Unknown,Unknown,26.8481433,75.7926357
Anurag Ayurveda Clinic,Near Mansarovar Metro Station,Unknown,Unknown,302020,Rajasthan,Unknown,clinic,Unknown,Unknown,Unknown,Unknown,26.8779972,75.7414491
Upasna Homoeo Clinic,"Surya Nagar, Gopal Pura, Jaipur",Unknown,Unknown,302015,Rajasthan,Unknown,clinic,Unknown,Unknown,Unknown,Unknown,26.8768087,75.7764404
Namo Clinic,"Manyawas, Mohru Nagar, Jaipur",Unknown,Unknown,303604,Rajasthan,Unknown,clinic,Unknown,Unknown,Unknown,Unknown,26.8794861,75.7404167
Jindal Homeo Clinic,"Shanthi Nagar, Shyam Nagar",Unknown,Unknown,302019,Rajasthan,Unknown,clinic,Unknown,Unknown,Unknown,Unknown,26.8789703,75.7663621
Gauri Multi Speciality Hospital,Kamala Nehru Nagar,Unknown,Unknown,302024,Rajasthan,Unknown,hospital,Unknown,Unknown,Unknown,Unknown,26.8824115,75.7151396
Government Hospital,"Triveni Nagar, Arjun Nagar",Unknown,Unknown,302018,Rajasthan,Unknown,hospital,hospital,Unknown,Unknown,Unknown,26.8699321,75.7784824
Neelam Hospital,Lalarpura,Unknown,Unknown,302021,Rajasthan,Unknown,hospital,Unknown,Unknown,Unknown,Unknown,26.903359,75.7153746
Yadav Homeopathic Hospital,"Anita Colony, Bajaj Nagar",Unknown,Unknown,302015,Rajasthan,Unknown,hospital,hospital,Unknown,Unknown,Unknown,26.872107,75.800163
Sparsh Clinic,"Sonkhiya Enclave, Triveni Nagar Road",Unknown,Unknown,302018,Rajasthan,Unknown,clinic,clinic,Unknown,Unknown,Unknown,26.8664001,75.7811724
Deep Usha Clinic,"Milap Nagar, Jaipur",Unknown,Unknown,302018,Rajasthan,Unknown,clinic,Unknown,Unknown,Unknown,Unknown,26.8524747,75.7959925
Dr. Charan Clinic,Arjun Nagar,Unknown,Unknown,302018,Rajasthan,Unknown,clinic,clinic,Unknown,Unknown,Unknown,26.865244,75.777708
Abhishek Hospital,Unknown,Unknown,Unknown,302021,Rajasthan,Unknown,hospital,Unknown,Unknown,Unknown,Unknown,26.8765134,75.7254235
Mishra Clinic,"Vasundhara Colony, Durgapura",Unknown,Unknown,302018,Rajasthan,Unknown,clinic,Unknown,Unknown,Unknown,Unknown,26.8480777,75.7916808
Dwarka Hospital,"Ajmer Road, Sodala, Jaipur",Unknown,Unknown,302019,Rajasthan,Unknown,hospital,Unknown,Unknown,Unknown,Unknown,26.8942626,75.7642069
Raj Clinic,"Queens Road, Moti Nagar, Bhan Nagar",Unknown,Unknown,302015,Rajasthan,Unknown,clinic,Unknown,Unknown,Unknown,Unknown,26.9019575,75.7456864
Cure Well Children & General Clinic,Hira Nagar,Unknown,Unknown,302021,Rajasthan,Unknown,clinic,Unknown,Unknown,Unknown,Unknown,26.8942067,75.7315276
Dr. Prashant Modi,"Nityanand Nagar, Vidhyut Nagar",Unknown,Unknown,302021,Rajasthan,Unknown,doctors,doctor,Unknown,Unknown,Unknown,26.904354,75.7499481
Rohit Hospital,"Ajmer Road, Mahatma Gandhi Nagar",Unknown,Unknown,302021,Rajasthan,Unknown,hospital,Unknown,Unknown,Unknown,Unknown,26.8945267,75.7474503
Dr. Shashi Kant Jain,"Himmat Nagar, Bajaj Nagar",Unknown,Unknown,302015,Rajasthan,Unknown,doctors,doctor,Unknown,Unknown,Unknown,26.862661,75.797406
Dr. Renu Saigal Clinic,"Muktanand Nagar, Durgapura, Jaipur",Unknown,Unknown,302018,Rajasthan,Unknown,clinic,clinic,Unknown,Unknown,Unknown,26.8626499,75.7918082
Purva Hospital,"Heera Nagar, Tagore Nagar",Unknown,Unknown,302021,Rajasthan,Unknown,hospital,Unknown,Unknown,Unknown,Unknown,26.8944136,75.7454119
Dr. D. S. Poonia,Mahaveer Nagar,Unknown,Unknown,302018,Rajasthan,Unknown,doctors,doctor,Unknown,Unknown,Unknown,26.8596067,75.7900594
Suraksha Clinic,"Gopalpura Bypass Road, Himmat Nagar, Tonk Phatak",Unknown,Unknown,302018,Rajasthan,Unknown,clinic,clinic,Unknown,Unknown,Unknown,26.8637101,75.7966736
Jain Physiotherapy Clinic,Jaipur,Unknown,Unknown,302021,Rajasthan,Unknown,clinic,clinic,Unknown,Unknown,Unknown,26.9041518,75.7469535
Gupata Homeo Clinic,Triveni Nagar Road,Unknown,Unknown,302018,Rajasthan,Unknown,clinic,clinic,Unknown,Unknown,Unknown,26.8680402,75.7832594
Thyroid Diabetes Allergy Clinic,"Ajmer Road, Gyan Vihar, Rani Sati Nagar, Nirman Nagar",Unknown,Unknown,302019,Rajasthan,Unknown,clinic,Unknown,Unknown,Unknown,Unknown,26.8886245,75.7470513
Kothari Hospital,"Ajmer Road, Vidhyut Nagar, Jaipur",Unknown,Unknown,302021,Rajasthan,Unknown,hospital,Unknown,Unknown,Unknown,Unknown,26.8988402,75.7507882
Sharma Clinic,"Vasundhara Colony, Mata colony",Unknown,Unknown,302018,Rajasthan,Unknown,clinic,Unknown,Unknown,Unknown,Unknown,26.8482031,75.7936755
Dr. P L Clinic,Unknown,Unknown,Unknown,302018,Rajasthan,Unknown,clinic,clinic,Unknown,Unknown,Unknown,26.8661675,75.7795632
Gouri Multi-speciality Hospital,"Girdharipura, Jaipur",Unknown,Unknown,302034,Rajasthan,Unknown,hospital,Unknown,Unknown,Unknown,Unknown,26.8895235,75.7113925
NM Clinic,Kana Vihar,Unknown,Unknown,302021,Rajasthan,Unknown,clinic,Unknown,Unknown,Unknown,Unknown,26.8821236,75.7162103
Jay Gurudev Clinic,"Jagdamba Nagar, Girdharipura, Jaipur",Unknown,Unknown,300021,Rajasthan,Unknown,clinic,Unknown,Unknown,Unknown,Unknown,26.8933593,75.7185396
Shuvam Clinic,"Durgapura Railway Station Road, Durgapura, Mahavir Nagar",Unknown,Unknown,302018,Rajasthan,Unknown,clinic,Unknown,Unknown,Unknown,Unknown,26.8520477,75.7874529
Neo Clinic,"Padmavti Colony, Shiv Shakti Nagar, Brijlalpura",Unknown,Unknown,302019,Rajasthan,Unknown,clinic,Unknown,Unknown,Unknown,Unknown,26.8828095,75.7552802
Kamla Devi Homoeopathic Clinic,Unknown,Unknown,Unknown,302021,Rajasthan,Unknown,clinic,Unknown,Unknown,Unknown,Unknown,26.8769222,75.7207223
Dr. Kapil Dev Garg,Mansarovar,Unknown,Unknown,302020,Rajasthan,Unknown,doctors,doctor,Unknown,Unknown,Unknown,26.855931,75.7734979
Skin Care Clinic,"Shanti Nagar, Gopal Pura Bypass, Durgapura",Unknown,Unknown,302018,Rajasthan,Unknown,clinic,clinic,Unknown,Unknown,Unknown,26.8584867,75.7845298
Aanch Hospital,"Durgapura, Jaipur",Unknown,Unknown,302018,Rajasthan,Unknown,hospital,Unknown,Unknown,Unknown,Unknown,26.8501473,75.7962052
Vivanta Clinics,"Sarthi Marg, Bhan Nagar",Unknown,Unknown,302021,Rajasthan,Unknown,clinic,Unknown,Unknown,Unknown,Unknown,26.900815,75.7517516
Jaipur Hospital,"Shri Vihar, Durgapura",Unknown,Unknown,302018,Rajasthan,Unknown,hospital,Unknown,Unknown,Unknown,Unknown,26.8491264,75.7933978
Jain Homeo Clinic,"Chetak Marg, Nirman Nagar",Unknown,Unknown,302019,Rajasthan,Unknown,clinic,Unknown,Unknown,Unknown,Unknown,26.8891022,75.7492382
Sethi Hospital,"Tonk Road, Jaipur",Unknown,Unknown,302018,Rajasthan,Unknown,hospital,Unknown,Unknown,Unknown,Unknown,26.8548043,75.7934423
Family Care Poly Clinic,"Lalarpura, Jaipur",Unknown,Unknown,302024,Rajasthan,Unknown,clinic,Unknown,Unknown,Unknown,Unknown,26.9032329,75.7158023
Dr. Payal Physiotherapy Clinic,Vaishali Nagar,Unknown,Unknown,302021,Rajasthan,Unknown,clinic,clinic,Unknown,Unknown,Unknown,26.904083,75.7444526
Dr. Mahesh Gupta Child Clinic,Mahesh Nagar,Unknown,Unknown,302015,Rajasthan,Unknown,clinic,Unknown,Unknown,Unknown,Unknown,26.8758195,75.7748874
Komal Clinic,Unknown,Unknown,Unknown,302021,Rajasthan,Unknown,clinic,Unknown,Unknown,Unknown,Unknown,26.8819466,75.7249444
Bhagwan Mahaveer Chikitsalaya,"Vishnupuri, Mahaveer Nagar, Durgapura",Unknown,Unknown,302018,Rajasthan,Unknown,clinic,Unknown,Unknown,Unknown,Unknown,26.8523566,75.7898886
Shishumangal Hospital,Marudhar Nagar,Unknown,Unknown,302021,Rajasthan,Unknown,hospital,Unknown,Unknown,Unknown,Unknown,26.897711,75.742453
PBM Multispeciality Clinic,"80 Feet Road, Mohan Nagar",Unknown,Unknown,302020,Rajasthan,Unknown,clinic,Unknown,Unknown,Unknown,Unknown,26.871132,75.744141
Yuvaan Child and General Hospital,"Gokulpura, Jaipur",Unknown,Unknown,302012,Rajasthan,Unknown,hospital,Unknown,Unknown,Unknown,Unknown,26.9472587,75.7201811
Kaveri Clinic,"Jamuna Nagar, Sodala",Unknown,Unknown,302006,Rajasthan,Unknown,clinic,Unknown,Unknown,Unknown,Unknown,26.901622,75.7712774
Outbloom Clinics,Vaishali Nagar,Unknown,Unknown,302021,Rajasthan,Unknown,clinic,clinic,Unknown,Unknown,Unknown,26.9113167,75.7301764
Dr. Jatin Mishra,"Gandhi Nagar, Jaipur",Unknown,Unknown,302015,Rajasthan,Unknown,doctors,doctor,Unknown,Unknown,Unknown,26.8853533,75.8020995
Reya Child Clinic,Sodala,Unknown,Unknown,302019,Rajasthan,Unknown,clinic,Unknown,Unknown,Unknown,Unknown,26.8962533,75.7847389
Dr. Shekhawat's Clinic,Unknown,Unknown,Unknown,302007,Rajasthan,Unknown,clinic,Unknown,Unknown,Unknown,Unknown,26.8962939,75.7847463
Vinayak Homoeo Clinic,"Chandra Nagar, Kardhani Govindpura",Unknown,Unknown,302012,Rajasthan,Unknown,clinic,Unknown,Unknown,Unknown,Unknown,26.9520093,75.7123954
Lal Kothi Hospital,"Krishna Nagar, Sawai Ram Singh Road, Lalkothi",Unknown,Unknown,302015,Rajasthan,Unknown,hospital,hospital,Unknown,Unknown,Unknown,26.8887859,75.7983179
Anupam Eye Hospital,"Vidhayak Nagar, Lalkothi",Unknown,Unknown,302005,Rajasthan,Unknown,hospital,hospital,Unknown,Unknown,Unknown,26.8909671,75.8021812
Usha Hospital,"Dashrath Marg, Hanuman Nagar",Unknown,Unknown,302021,Rajasthan,Unknown,hospital,hospital,Unknown,Unknown,Unknown,26.921774,75.745466
Shree Shyam Child and Maternity Clinic,"Shivpuri, Indrapura, Jhotwara, Jaipur",Unknown,Unknown,302012,Rajasthan,Unknown,clinic,clinic,Unknown,Unknown,Unknown,26.9426538,75.7519623
Shekar Clinic,"Kartarpura Phatak, Jaipur",Unknown,Unknown,302006,Rajasthan,Unknown,clinic,Unknown,Unknown,Unknown,Unknown,26.8890341,75.7885801
Param Brahm Anand Hospital,Unknown,Unknown,Unknown,302012,Rajasthan,Unknown,hospital,Unknown,Unknown,Unknown,Unknown,26.954114,75.708327
Dev Clinic,"Satya Nagar, Jhotwara",Unknown,Unknown,302012,Rajasthan,Unknown,clinic,clinic,Unknown,Unknown,Unknown,26.937816,75.752616
Welfare Physiotherapy Clinic,"Sirsi Road, Meenawala",Unknown,Unknown,302012,Rajasthan,Unknown,clinic,Unknown,Unknown,Unknown,Unknown,26.9241725,75.7054683
Jeevan Joyti Hospital,Chitrakoot,Unknown,Unknown,302021,Rajasthan,Unknown,hospital,Unknown,Unknown,Unknown,Unknown,26.905852,75.7375382
Dr. Archana's Skin & Cosmetic Clinic,"Roshan Marg, Near Chitrakoot",Unknown,Unknown,302021,Rajasthan,Unknown,clinic,Unknown,Unknown,Unknown,Unknown,26.9047306,75.7359221
Matrix Heart & Skin Clinic,Khatipura,Unknown,Unknown,302012,Rajasthan,Unknown,clinic,clinic,Unknown,Unknown,Unknown,26.9213529,75.741565
BB Saxena Hospital,Vaishali Nagar,Unknown,Unknown,302021,Rajasthan,Unknown,hospital,hospital,Unknown,Unknown,Unknown,26.9139104,75.7461785
Dr. Rajkumar Jain,"Kumawat Colony, Shanti Nagar",Unknown,Unknown,302007,Rajasthan,Unknown,doctors,doctor,Unknown,Unknown,Unknown,26.9072415,75.7767144
Eva Slimming Clinic,"Chitrakoot, Vaishali Nagar",Unknown,Unknown,302021,Rajasthan,Unknown,clinic,Unknown,Unknown,Unknown,Unknown,26.9052087,75.7359063
Satyan Clinic,"Roshan Marg, Chitrakoot",Unknown,Unknown,302021,Rajasthan,Unknown,clinic,Unknown,Unknown,Unknown,Unknown,26.904383,75.735535
Shekhawati Child and Polyclinic,"Satya Nagar, Jhotwara",Unknown,Unknown,302012,Rajasthan,Unknown,clinic,clinic,Unknown,Unknown,Unknown,26.9372307,75.7516397
Enhance Clinic,Lalkothi,Unknown,Unknown,302005,Rajasthan,Unknown,clinic,clinic,Unknown,Unknown,Unknown,26.891474,75.794414
Arpit Hospital,"Sunder Nagar, Panchyawala",Unknown,Unknown,302034,Rajasthan,Unknown,hospital,Unknown,Unknown,Unknown,Unknown,26.9115351,75.7223961
Shree K B M Hospital,"Sirsi Road, Panchyawala",Unknown,Unknown,302034,Rajasthan,Unknown,hospital,Unknown,Unknown,Unknown,Unknown,26.92142,75.724666
Shri Ramniwas Memorial Hospital & Allergy Centre,"Sriram Nagar, Jhotwara",Unknown,Unknown,302032,Rajasthan,Unknown,hospital,hospital,Unknown,Unknown,Unknown,26.9406476,75.7470396
Metrocity Hospital,"Adarsh Krishna Nagar, Kartarpur",Unknown,Unknown,302015,Rajasthan,Unknown,hospital,Unknown,Unknown,Unknown,Unknown,26.8850429,75.7851221
Prasannam Clinic,Jaipur,Unknown,Unknown,302002,Rajasthan,Unknown,clinic,clinic,Unknown,Unknown,Unknown,26.923371,75.7414152
Dr. Subhash Doot,"Kalwar Road, Jhotwara",Unknown,Unknown,302012,Rajasthan,Unknown,doctors,doctor,Unknown,Unknown,Unknown,26.9423479,75.7531482
Dr. Rahul Rai Super Specialist Liver Clinic,"Rajendra Marg, Bapu Nagar",Unknown,Unknown,302015,Rajasthan,Unknown,clinic,clinic,Unknown,Unknown,Unknown,26.8873345,75.8080007
Kartarpura General Dental Hospital,"Adarsh Krishna Nagar, Bhagwati Nagar, Gopal Pura Mode",Unknown,Unknown,302006,Rajasthan,Unknown,hospital,Unknown,Unknown,Unknown,Unknown,26.8850899,75.78478
Dispensary,"Barkat Nagar, Tonk Phatak, Jaipur",Unknown,Unknown,302015,Rajasthan,Unknown,Unknown,centre,Unknown,Unknown,Unknown,26.8782173,75.7966968
SMS Hospital,"Veer Vihar, Hanuman Nagar",Unknown,Unknown,302021,Rajasthan,Unknown,hospital,hospital,Unknown,Unknown,Unknown,26.9184598,75.7502987
Vinayak Homoeopathic Clinic,"Kartarpur, Gopal Pura Mode",Unknown,Unknown,302007,Rajasthan,Unknown,clinic,Unknown,Unknown,Unknown,Unknown,26.8842353,75.7842014
Dr. Praveen Joshi Clinic,"Chand Bihari Nagar, Hanuman Nagar",Unknown,Unknown,302012,Rajasthan,Unknown,clinic,clinic,Unknown,Unknown,Unknown,26.9221716,75.7494306
Dr. Dhingra's Clinic,Kartarpura Phatak,Unknown,Unknown,302006,Rajasthan,Unknown,clinic,Unknown,Unknown,Unknown,Unknown,26.8873268,75.787524
Ayurvedic Hospital,"Krishna Puri, Jamuna Nagar, Sodala",Unknown,Unknown,302006,Rajasthan,Unknown,hospital,hospital,Unknown,Unknown,Unknown,26.9092879,75.7706864
Universal Clinic,"Minwara Road, Hastinapur Vistar, Panchyawala, Jaipur",Unknown,Unknown,302034,Rajasthan,Unknown,clinic,Unknown,Unknown,Unknown,Unknown,26.9117897,75.7258704
Bhardwaj Clinic,"Gopi Vihar, Govindpuri, Jaipur",Unknown,Unknown,302019,Rajasthan,Unknown,clinic,clinic,Unknown,Unknown,Unknown,26.8923766,75.7772909
Bhagwati Clinic,"Pawan Putra Colony, Panchyawala",Unknown,Unknown,302034,Rajasthan,Unknown,clinic,Unknown,Unknown,Unknown,Unknown,26.9154608,75.7235987
KKS Urology and General Hospital,"Bapu Nagar, Jaipur",Unknown,Unknown,302015,Rajasthan,Unknown,hospital,hospital,Unknown,Unknown,Unknown,26.8887114,75.8080238
Dr. Jain's Bone and Joint Clinic,"Krishna Marg, Bapu Nagar",Unknown,Unknown,302015,Rajasthan,Unknown,clinic,clinic,Unknown,Unknown,Unknown,26.8900481,75.806823
Homeopathy Clinic,"Jaipur, Indrapura",Unknown,Unknown,302012,Rajasthan,Unknown,clinic,clinic,Unknown,Unknown,Unknown,26.941255,75.754322
Cheer Up Dental Clinic,"Bapu Nagar, Jaipur",Unknown,Unknown,302015,Rajasthan,Unknown,dentist,dentist,Unknown,Unknown,Unknown,26.8872178,75.8071743
Ankit Clinic,"Adarsh Krishna Nagar, Bhagwati Nagar",Unknown,Unknown,302006,Rajasthan,Unknown,clinic,Unknown,Unknown,Unknown,Unknown,26.8850918,75.7860461
Dr. Rajendra Singh Clinic,"Prem Nagar, Jhotwara",Unknown,Unknown,302012,Rajasthan,Unknown,clinic,clinic,Unknown,Unknown,Unknown,26.938041,75.7579556
Rishab Hospital,Govindpura,Unknown,Unknown,302012,Rajasthan,Unknown,hospital,Unknown,Unknown,Unknown,Unknown,26.9537161,75.7082011
Dhanwantri Clinic,"Bhairav Nagar, Lalarpura",Unknown,Unknown,302034,Rajasthan,Unknown,clinic,Unknown,Unknown,Unknown,Unknown,26.9048487,75.7240518
Om Child Clinic,"Hastinapur Vistar, Panchyawala",Unknown,Unknown,302021,Rajasthan,Unknown,clinic,Unknown,Unknown,Unknown,Unknown,26.9119859,75.7268217
Gupta's Clinic,Vaishali Nagar,Unknown,Unknown,302021,Rajasthan,Unknown,clinic,Unknown,Unknown,Unknown,Unknown,26.9121366,75.7307849
Jidhan Clinic,"NBC Road, Kamala Nehru Nagar, Hasanpura",Unknown,Unknown,302006,Rajasthan,Unknown,clinic,clinic,Unknown,Unknown,Unknown,26.9167543,75.7802322
German Homeopathic Clinic,Chitrakoot,Unknown,Unknown,302021,Rajasthan,Unknown,Unknown,alternative,Unknown,Unknown,Unknown,26.9058057,75.7366594
Raj Shri Clinics,Sansar Chandra Road,Unknown,Unknown,302001,Rajasthan,Unknown,clinic,clinic,Unknown,Unknown,Unknown,26.8929493,75.7797948
Dr. Geraldine Jain's Punarnawah Skin Laser & Aesthetic Clinic,"Gaurav Nagar, Civil Lines",Unknown,Unknown,302007,Rajasthan,Unknown,clinic,clinic,Unknown,Unknown,Unknown,26.9016319,75.7807768
Medical Clinic,"Jamuna Nagar, Sodala",Unknown,Unknown,302007,Rajasthan,Unknown,clinic,clinic,Unknown,Unknown,Unknown,26.908345,75.7694606
Vyom Hospital,"Mahaveer Colony, Vijaynagar",Unknown,Unknown,302006,Rajasthan,Unknown,hospital,Unknown,Unknown,Unknown,Unknown,26.8897766,75.7850938
Janana Hospital,"Gokulpura, Jaipur",Unknown,Unknown,302012,Rajasthan,Unknown,hospital,Unknown,Unknown,Unknown,Unknown,26.9479719,75.7125358
Balodia Child Clinic,"Gayatri Nagar, Sodala",Unknown,Unknown,302006,Rajasthan,Unknown,clinic,clinic,Unknown,Unknown,Unknown,26.9065288,75.7747654
jagdamba Clinic,"Gandhi Nagar, Jaipur",Unknown,Unknown,302015,Rajasthan,Unknown,clinic,clinic,Unknown,Unknown,Unknown,26.8799063,75.8000326
Rahat Ortho Arthritis Clinic,"Mathur Colony, Bapu Nagar",Unknown,Unknown,302015,Rajasthan,Unknown,clinic,clinic,Unknown,Unknown,Unknown,26.888142,75.806035
Janni Nursing Home,Jaipur,Unknown,Unknown,302012,Rajasthan,Unknown,hospital,Unknown,Unknown,Unknown,Unknown,26.9563938,75.7095831
Dr. Puneet Bhargav,"Piyush Marg, Bapu Nagar",Unknown,Unknown,302015,Rajasthan,Unknown,doctors,doctor,Unknown,Unknown,Unknown,26.8917421,75.8081261
Pink City Clinic,"Mangal Nagar, Sirsi Road, Bichpadi",Unknown,Unknown,302034,Rajasthan,Unknown,clinic,Unknown,Unknown,Unknown,Unknown,26.9225794,75.7219125
Shri Laxmi Poly Clinic,"Kalwar Road, Ashok Nagar, Gokulpura",Unknown,Unknown,302012,Rajasthan,Unknown,clinic,Unknown,Unknown,Unknown,Unknown,26.947579,75.721466
Sahara Child Hospital,"Sindhi Colony, Jhotwara",Unknown,Unknown,302012,Rajasthan,Unknown,hospital,hospital,Unknown,Unknown,Unknown,26.9434119,75.7543486
Shaurya Hospital,"Nandpuri Road, Mahadev Nagar Road, Bais Godam",Unknown,Unknown,302006,Rajasthan,Unknown,hospital,Unknown,Unknown,Unknown,Unknown,26.8969029,75.784416
Dhruv Clinic,Bapu Nagar,Unknown,Unknown,302015,Rajasthan,Unknown,clinic,clinic,Unknown,Unknown,Unknown,26.889832,75.808309
Naveen Fracture and General Hospital,"Roshan Path, Chitrakoot",Unknown,Unknown,302021,Rajasthan,Unknown,hospital,Unknown,Unknown,Unknown,Unknown,26.904629,75.7355438
Dr. Narendra Singh,"Civil Lines, Jaipur",Unknown,Unknown,302006,Rajasthan,Unknown,doctors,doctor,Unknown,Unknown,Unknown,26.9055509,75.7805557
Bhartiya Clinic,Jaipur,Unknown,Unknown,302015,Rajasthan,Unknown,clinic,Unknown,Unknown,Unknown,Unknown,26.8911417,75.7875292
Durga Poly Clinic,"Ajmer Road, Gayatri Nagar, Sodala",Unknown,Unknown,302006,Rajasthan,Unknown,clinic,clinic,Unknown,Unknown,Unknown,26.9046988,75.7754316
Gastro and Liver care,"Shanti Nagar, Civil Lines",Unknown,Unknown,302006,Rajasthan,Unknown,clinic,clinic,Unknown,Unknown,Unknown,26.9117105,75.7792639
K.C. Eye Clinic,"Kanakpura, Jaipur",Unknown,Unknown,302034,Rajasthan,Unknown,clinic,Unknown,Unknown,Unknown,Unknown,26.9219505,75.722549
Sanjivani Clinic,"Mehta Nagar, Pratik Nagar, Jhotwara",Unknown,Unknown,302012,Rajasthan,Unknown,clinic,Unknown,Unknown,Unknown,Unknown,26.9457228,75.7104691
Life Care Clinic,"Kalwar Road, Jhotwara",Unknown,Unknown,302012,Rajasthan,Unknown,clinic,Unknown,Unknown,Unknown,Unknown,26.9491935,75.7125679
Sethi Mother and Children Hospital,"Imli Phatak, Tonk Phatak, Jaipur",Unknown,Unknown,302015,Rajasthan,Unknown,hospital,hospital,Unknown,Unknown,Unknown,26.889688,75.792066
Jai Maa Mhakali Pali Clinic,Gokulpura,Unknown,Unknown,302012,Rajasthan,Unknown,clinic,Unknown,Unknown,Unknown,Unknown,26.9433475,75.710701
Dr. Abhishek Kothari,"Rajendra Marg, Bapu Nagar, Jaipur",Unknown,Unknown,302015,Rajasthan,Unknown,doctors,doctor,Unknown,Unknown,Unknown,26.8873704,75.8080392
Muskan Dental Clinic,Bapu Nagar,Unknown,Unknown,302015,Rajasthan,Unknown,dentist,dentist,Unknown,Unknown,Unknown,26.8902736,75.8095879
Dr. Suresh Yadav's Urology Clinic,"Tara Nagar, Jhotwara",Unknown,Unknown,302012,Rajasthan,Unknown,clinic,clinic,Unknown,Unknown,Unknown,26.9363475,75.7463279
Chouhan Clinic,"Khatipura Road, Kumawat Colony, Indrapura, Jhotwara",Unknown,Unknown,302012,Rajasthan,Unknown,clinic,clinic,Unknown,Unknown,Unknown,26.9368615,75.7563565
Unique Hospital,Valmiki Marg,Unknown,Unknown,302021,Rajasthan,Unknown,hospital,hospital,Unknown,Unknown,Unknown,26.9165013,75.7470773
Homeopathic Dispensary,"Jyothi Nagar, Lalkothi",Unknown,Unknown,302007,Rajasthan,Unknown,Unknown,centre,Unknown,Unknown,Unknown,26.8947861,75.7971355
Aarti Zenana Hospital,"Singh Bhoomi, Khatipura",Unknown,Unknown,302012,Rajasthan,Unknown,hospital,hospital,Unknown,Unknown,Unknown,26.9249981,75.7428092
Shivam Surgicals,"Hawa Sadak, Nandpuri Colony, Jaipur",Unknown,Unknown,302019,Rajasthan,Unknown,clinic,clinic,Unknown,Unknown,Unknown,26.8943022,75.7834832
Krishnam Homoeo Clinic,"Tonk Road, Jaipur",Unknown,Unknown,302015,Rajasthan,Unknown,clinic,clinic,Unknown,Unknown,Unknown,26.8802982,75.7996245
Tonk Dental & Facial Trauma Centre,"Near ICICI Bank, Lal Kothi Scheme, Lalkothi",Unknown,Unknown,302015,Rajasthan,Unknown,dentist,dentist,Unknown,Unknown,Unknown,26.8879527,75.7954003
Krishna Homeo Clinic,"Shilp Colony, Jhotwara",Unknown,Unknown,302012,Rajasthan,Unknown,clinic,clinic,Unknown,Unknown,Unknown,26.9396784,75.7592799
Shobha Nursing Home,"Tara Nagar, Jhotwara",Unknown,Unknown,302012,Rajasthan,Unknown,hospital,hospital,Unknown,Unknown,Unknown,26.9365053,75.7561091
ESIC Dispensary,"Jagraj Marg, Bapu Nagar",Unknown,Unknown,302015,Rajasthan,Unknown,Unknown,centre,Unknown,Unknown,Unknown,26.8883566,75.8114354
Dr. Pankaj Bohra,"Jawahar Lal Nehru Marg, Bapu Nagar",Unknown,Unknown,302007,Rajasthan,Unknown,doctors,doctor,Unknown,Unknown,Unknown,26.8884773,75.8129801
Krishiv Multi Speciality Hospital,Vaishali Nagar,Unknown,Unknown,302021,Rajasthan,Unknown,hospital,Unknown,Unknown,Unknown,Unknown,26.911503,75.736644
Parikh's Heart Clinic,"Civil Lines, Keshav Nagar",Unknown,Unknown,302006,Rajasthan,Unknown,clinic,clinic,Unknown,Unknown,Unknown,26.902571,75.7827749
Chowan Hospital,Sirsi,Unknown,Unknown,302012,Rajasthan,Unknown,hospital,Unknown,Unknown,Unknown,Unknown,26.9256963,75.7131999
Vaishali Hospital,"Shiv Path, Nand Vihar Colony, Vaishali Nagar",Unknown,Unknown,302021,Rajasthan,Unknown,hospital,Unknown,Unknown,Unknown,Unknown,26.9116396,75.7310945
Asha Homeopathic Clinic,"Vivek Vihar, Lalarpura",Unknown,Unknown,302021,Rajasthan,Unknown,clinic,Unknown,Unknown,Unknown,Unknown,26.9051671,75.7259058
Bugaliya Bahadur Singh,Imliwala Phatak,Unknown,Unknown,302015,Rajasthan,Unknown,doctors,doctor,Unknown,Unknown,Unknown,26.8846698,75.793007
Agrawal Child Clinic,"Nandpuri, Jaipur",Unknown,Unknown,302019,Rajasthan,Unknown,clinic,clinic,Unknown,Unknown,Unknown,26.8999645,75.7837951
Purohit Eye Hospital,"Tonk Phatak, Jaipur",Unknown,Unknown,302015,Rajasthan,Unknown,hospital,hospital,Unknown,Unknown,Unknown,26.8812378,75.7916861
Shree Panchayati Homoeopathic Clinic,Railway Station Road,Unknown,Unknown,302016,Rajasthan,Unknown,clinic,clinic,Unknown,Unknown,Unknown,26.9221332,75.7901695
Pandia Eye Dental and General Hospital,"Ambabari, Vidyadhar Nagar",Unknown,Unknown,302001,Rajasthan,Unknown,hospital,Unknown,Unknown,Unknown,Unknown,26.946624,75.777618
Dr. Vijay Sharma Gastroenterology Clinic,Indra Colony,Unknown,Unknown,302016,Rajasthan,Unknown,clinic,clinic,Unknown,Unknown,Unknown,26.9370421,75.7888509
Neuro Care Hospital,Vidyadhar Nagar,Unknown,Unknown,302039,Rajasthan,Unknown,hospital,hospital,Unknown,Unknown,Unknown,26.955894,75.776602
Sonkhya ENT Centre,Murlipura,Unknown,Unknown,302039,Rajasthan,Unknown,clinic,clinic,Unknown,Unknown,Unknown,26.9680398,75.7601181
Mittal Hospital and Research Centre,"Vidyadhar Nagar, Jaipur",Unknown,Unknown,302039,Rajasthan,Unknown,hospital,hospital,Unknown,Unknown,Unknown,26.9621289,75.7807483
Poddar Hospital,Ratan Nagar,Unknown,Unknown,302039,Rajasthan,Unknown,hospital,hospital,Unknown,Unknown,Unknown,26.9549152,75.7709805
Dr. Umesh Khandelwal,Vidyadhar Nagar,Unknown,Unknown,302039,Rajasthan,Unknown,doctors,doctor,Unknown,Unknown,Unknown,26.961893,75.780353
Dr. Vaishali Mathur,"Indra Colony, Bani Park",Unknown,Unknown,302016,Rajasthan,Unknown,doctors,doctor,Unknown,Unknown,Unknown,26.9364659,75.7893222
Shiva Hospital,"Muralipura Road, Murlipura",Unknown,Unknown,302032,Rajasthan,Unknown,hospital,hospital,Unknown,Unknown,Unknown,26.97466,75.7646885
Gupta Clinic,"Kartarpura, Jaipur",Unknown,Unknown,302006,Rajasthan,Unknown,clinic,clinic,Unknown,Unknown,Unknown,26.9015598,75.7888362
Dariya Clinic,"Murlipura, Jaipur",Unknown,Unknown,302039,Rajasthan,Unknown,clinic,clinic,Unknown,Unknown,Unknown,26.9795191,75.7664768
Dr. Kanodia's Clinic,Vidyadhar Nagar,Unknown,Unknown,302039,Rajasthan,Unknown,clinic,clinic,Unknown,Unknown,Unknown,26.9633394,75.780128
Spine Care Clinic,Vidyadhar Nagar,Unknown,Unknown,302032,Rajasthan,Unknown,clinic,clinic,Unknown,Unknown,Unknown,26.963975,75.780702
Aastha Clinic,Vidyadhar Nagar,Unknown,Unknown,302039,Rajasthan,Unknown,clinic,clinic,Unknown,Unknown,Unknown,26.9633589,75.780409
SMS Hospital,"Yadav Nagar, Jamunapuri",Unknown,Unknown,302039,Rajasthan,Unknown,hospital,hospital,Unknown,Unknown,Unknown,26.9806352,75.7613544
Lekhra Hospital,Sindhi Colony,Unknown,Unknown,302016,Rajasthan,Unknown,hospital,hospital,Unknown,Unknown,Unknown,26.9360211,75.7884758
Anant Dental Clinic,Unknown,Unknown,Unknown,302032,Rajasthan,Unknown,dentist,dentist,Unknown,Unknown,Unknown,26.9553257,75.7768239
Sonu Dental Clinic,"Kabir Marg, Sen Colony, Bani Park",Unknown,Unknown,302016,Rajasthan,Unknown,dentist,dentist,Unknown,Unknown,Unknown,26.924199,75.7899464
Baliyan's Clinic,Vidyadhar Nagar,Unknown,Unknown,302039,Rajasthan,Unknown,clinic,clinic,Unknown,Unknown,Unknown,26.9667442,75.7833446
Triveni Hospital,"Sanjay Marg, Ajmer Road",Unknown,Unknown,302006,Rajasthan,Unknown,hospital,hospital,Unknown,Unknown,Unknown,26.9170977,75.7952368
Chelani's Clinic,"Sindhi Colony, Bani Park, Jaipur",Unknown,Unknown,302016,Rajasthan,Unknown,clinic,clinic,Unknown,Unknown,Unknown,26.934081,75.7918152
Pulse Clinic,"Ambabari, Vidyadhar Nagar",Unknown,Unknown,302001,Rajasthan,Unknown,clinic,clinic,Unknown,Unknown,Unknown,26.9418884,75.7777625
Anita Dental Clinic,"Ambabari, Vidyadhar Nagar",Unknown,Unknown,302001,Rajasthan,Unknown,dentist,dentist,Unknown,Unknown,Unknown,26.9408388,75.7781246
Dr. Rajesh Khandelwal,Bani Park,Unknown,Unknown,302016,Rajasthan,Unknown,doctors,doctor,Unknown,Unknown,Unknown,26.9339705,75.792258
Dr. Sakshi Skin and Laser Clinic,Vidyadhar Nagar,Unknown,Unknown,302039,Rajasthan,Unknown,clinic,clinic,Unknown,Unknown,Unknown,26.9621414,75.7797812
Shri Narayan Hospital,"Paramhans Colony, Murlipura",Unknown,Unknown,302039,Rajasthan,Unknown,hospital,hospital,Unknown,Unknown,Unknown,26.9687921,75.7665041
Family Clinic,Vidyadhar Nagar,Unknown,Unknown,302023,Rajasthan,Unknown,clinic,clinic,Unknown,Unknown,Unknown,26.9613468,75.7804003
Maya Homoeopathic Clinic,Unknown,Unknown,Unknown,302039,Rajasthan,Unknown,clinic,clinic,Unknown,Unknown,Unknown,26.974644,75.7606786
Albina Clinic,Murlipura,Unknown,Unknown,302013,Rajasthan,Unknown,clinic,clinic,Unknown,Unknown,Unknown,26.972714,75.7713625
Prerna Hospital,"Sikar Road, Krishna Nagar",Unknown,Unknown,302023,Rajasthan,Unknown,hospital,hospital,Unknown,Unknown,Unknown,26.955093,75.772212
Salasar Child Hospital,"Sikar Road, Jaipur",Unknown,Unknown,302039,Rajasthan,Unknown,hospital,Unknown,Unknown,Unknown,Unknown,26.9512976,75.7711862
Raisinghani Hospital,"Janta Colony, Sindhi Colony, Bani Park",Unknown,Unknown,302016,Rajasthan,Unknown,hospital,hospital,Unknown,Unknown,Unknown,26.9343462,75.7904621
Khurana Clinic,Murlipura,Unknown,Unknown,302013,Rajasthan,Unknown,clinic,clinic,Unknown,Unknown,Unknown,26.9733359,75.7618113
Om Mother and Child Hospital,"Vijay Nagar, Murlipura, Jaipur",Unknown,Unknown,302013,Rajasthan,Unknown,hospital,hospital,Unknown,Unknown,Unknown,26.9693183,75.7630561
Right Choice Dental Clinic,"Durga Marg, Bani Park",Unknown,Unknown,302016,Rajasthan,Unknown,dentist,dentist,Unknown,Unknown,Unknown,26.9281693,75.7854403
Gupta Dental Care,"Hathroi, Jaipur",Unknown,Unknown,302001,Rajasthan,Unknown,dentist,dentist,Unknown,Unknown,Unknown,26.9173131,75.7947814
Aapno Health Clinic,Vidyadhar Nagar,Unknown,Unknown,302023,Rajasthan,Unknown,clinic,clinic,Unknown,Unknown,Unknown,26.9675669,75.7831002
Jain Chest Care Centre,Shastri Nagar,Unknown,Unknown,302016,Rajasthan,Unknown,clinic,clinic,Unknown,Unknown,Unknown,26.9373079,75.7950457
Amba Clinic,"Ambabari, Vidyadhar Nagar",Unknown,Unknown,302001,Rajasthan,Unknown,clinic,clinic,Unknown,Unknown,Unknown,26.9406615,75.7769725
Homoeopathic Clinic,"Shyam Mitra Mandal Nagar, Murlipura",Unknown,Unknown,302039,Rajasthan,Unknown,clinic,clinic,Unknown,Unknown,Unknown,26.9789685,75.7689944
Dr. Raturi Bharat Mohan,"Indira Colony, Banipark",Unknown,Unknown,302016,Rajasthan,Unknown,doctors,doctor,Unknown,Unknown,Unknown,26.9370975,75.7891693
Dr R K Sureka,Gopalbari,Unknown,Unknown,302001,Rajasthan,Unknown,doctors,doctor,Unknown,Unknown,Unknown,26.917293,75.795258
Tiwari Child and Dental Hospital,"Pratap Nagar, Bhawani Nagar, Jaipur",Unknown,Unknown,302039,Rajasthan,Unknown,hospital,hospital,Unknown,Unknown,Unknown,26.961853,75.762884
Jaipur Day Care Hospital,"Dadhichi Nagar, Vishwakarma Industrial Area, Murlipura",Unknown,Unknown,302013,Rajasthan,Unknown,hospital,hospital,Unknown,Unknown,Unknown,26.9825607,75.7640897
Rajasthan Homeopathic Centre & Clinic,Gopalbari,Unknown,Unknown,302006,Rajasthan,Unknown,clinic,clinic,Unknown,Unknown,Unknown,26.920699,75.7918591
Unknown,"Bhawani Singh Road, Lalkothi, Jaipur",Unknown,Unknown,302001,Rajasthan,Unknown,dentist,dentist,Unknown,Unknown,Unknown,26.9006093,75.7947739
Sharma Dental Hospital,"Sanjay Colony, Nehru Nagar",Unknown,Unknown,302016,Rajasthan,Unknown,dentist,dentist,Unknown,Unknown,Unknown,26.9404702,75.7854026
Dr. B. L. Dariya,"Vishwakarma Industrial Area, Murlipura",Unknown,Unknown,302039,Rajasthan,Unknown,doctors,doctor,Unknown,Unknown,Unknown,26.9800379,75.7671364
Manav Seva Clinic,"Sikar Road, Jaipur",Unknown,Unknown,302023,Rajasthan,Unknown,clinic,Unknown,Unknown,Unknown,Unknown,26.950262,75.772311
Saha Clinic,"Bani Park, Kabir Marg",Unknown,Unknown,302016,Rajasthan,Unknown,clinic,clinic,Unknown,Unknown,Unknown,26.925119,75.7907122
Siddhi Vinayak Homeopathic Clinic,"Metal Colony, Ambabari, Vidyadhar Nagar, Jaipur",Unknown,Unknown,302021,Rajasthan,Unknown,clinic,Unknown,Unknown,Unknown,Unknown,26.9470258,75.7754195
Ravi Gupta Heart Clinic,Sikar Road,Unknown,Unknown,302001,Rajasthan,Unknown,clinic,Unknown,Unknown,Unknown,Unknown,26.9469125,75.7741497
Dental Hospital,Hathroi,Unknown,Unknown,302006,Rajasthan,Unknown,dentist,dentist,Unknown,Unknown,Unknown,26.9145129,75.7944494
Vyas Hospital,"Murlipura Scheme, Murlipura",Unknown,Unknown,302039,Rajasthan,Unknown,hospital,hospital,Unknown,Unknown,Unknown,26.9765009,75.7621427
Dr. Johar's Ayush Unani Hospital,"Ram Nagar, Shastri Nagar",Unknown,Unknown,302016,Rajasthan,Unknown,hospital,Unknown,Unknown,Unknown,Unknown,26.9497492,75.7991308
Dr. B. Lal Clinic,Vidyadhar Nagar,Unknown,Unknown,302039,Rajasthan,Unknown,clinic,clinic,Unknown,Unknown,Unknown,26.9653701,75.7814652
ITS Clinic,Ashok Nagar,Unknown,Unknown,302001,Rajasthan,Unknown,clinic,clinic,Unknown,Unknown,Unknown,26.9061939,75.7962708
Shree Balaji Hospital,"Arya Nagar, Murlipura",Unknown,Unknown,302032,Rajasthan,Unknown,hospital,hospital,Unknown,Unknown,Unknown,26.9679172,75.7661996
Suraksha Hospital,"Near SBI Bank, Murlipura Scheme",Unknown,Unknown,302039,Rajasthan,Unknown,hospital,hospital,Unknown,Unknown,Unknown,26.9731074,75.7650478
Dr. Vijay Saxena,"Kunj Niketan, Kabir Marg, Bani Park",Unknown,Unknown,302016,Rajasthan,Unknown,doctors,doctor,Unknown,Unknown,Unknown,26.9249952,75.7909322
V.N.S. Homoeopathy Hospital,Ambabari,Unknown,Unknown,302001,Rajasthan,Unknown,hospital,Unknown,Unknown,Unknown,Unknown,26.9470587,75.7788512
Pooja Hospital,"Murlipura, Jaipur",Unknown,Unknown,302032,Rajasthan,Unknown,hospital,hospital,Unknown,Unknown,Unknown,26.9769029,75.76442
Neelam Eye Hospital,"Sikar Road, Murlipura",Unknown,Unknown,302039,Rajasthan,Unknown,hospital,hospital,Unknown,Unknown,Unknown,26.9551346,75.7718889
Soni Nursing Home,"Bani Park, Jaipur",Unknown,Unknown,302016,Rajasthan,Unknown,hospital,hospital,Unknown,Unknown,Unknown,26.936608,75.789924
Sun Clinic,Opposite Jaipur Railway Station,Unknown,Unknown,302006,Rajasthan,Unknown,clinic,clinic,Unknown,Unknown,Unknown,26.9206759,75.789337
Hiteshi Homeo Clinic & Skin Allergy Centre,Murlipura,Unknown,Unknown,302013,Rajasthan,Unknown,clinic,clinic,Unknown,Unknown,Unknown,26.9746453,75.7701
R K Clinic,"Vishwakarma Industrial Area, Murlipura",Unknown,Unknown,302039,Rajasthan,Unknown,clinic,clinic,Unknown,Unknown,Unknown,26.9857498,75.7689552
Dr. Charu's Homeo Clinic,Murlipura,Unknown,Unknown,302013,Rajasthan,Unknown,clinic,clinic,Unknown,Unknown,Unknown,26.9730678,75.7655839
Shri Jain Divakar Homeopathic Clinic,"Indira Bazar Road, Jayanti Market",Unknown,Unknown,302001,Rajasthan,Unknown,clinic,clinic,Unknown,Unknown,Unknown,26.9182145,75.8138444
Chakrapani Ayurveda Clinic & Research Centre,Shanti Path,Unknown,Unknown,302004,Rajasthan,Unknown,clinic,clinic,Unknown,Unknown,Unknown,26.890818,75.8176907
Mahaveer Charitable Hospital,"Anand Puri, Adarsh Nagar",Unknown,Unknown,302004,Rajasthan,Unknown,hospital,hospital,Unknown,Unknown,Unknown,26.8995994,75.8245468
Korani Clinic,Unknown,Unknown,Unknown,302001,Rajasthan,Unknown,clinic,clinic,Unknown,Unknown,Unknown,26.9246508,75.8115029
ASG Eye Hospital,Vaishali Nagar,Unknown,Unknown,302007,Rajasthan,Unknown,hospital,hospital,Unknown,Unknown,Unknown,26.914966,75.809544
Sagar Hospital,"Central Jail, Adarsh Nagar, Jaipur",Unknown,Unknown,302004,Rajasthan,Unknown,hospital,hospital,Unknown,Unknown,Unknown,26.9134146,75.8286492
Shree Homoeo Clinic,"Chandpole Bazar, Chandpole",Unknown,Unknown,302001,Rajasthan,Unknown,clinic,clinic,Unknown,Unknown,Unknown,26.9222666,75.8130558
Ekta Clinic,Unknown,Unknown,Unknown,302001,Rajasthan,Unknown,clinic,clinic,Unknown,Unknown,Unknown,26.9187912,75.8166265
Khattar Dental Clinic,Bapu Bazar,Unknown,Unknown,302003,Rajasthan,Unknown,dentist,dentist,Unknown,Unknown,Unknown,26.919735,75.8218692
Sona Clinic,"Jayanti Market, Jalupura",Unknown,Unknown,302001,Rajasthan,Unknown,clinic,clinic,Unknown,Unknown,Unknown,26.9226,75.8076715
Bagga Clinic,"Raja Park, Jaipur",Unknown,Unknown,302004,Rajasthan,Unknown,clinic,clinic,Unknown,Unknown,Unknown,26.8942846,75.8273157
Rama Hospital,Ramganj Bazar,Unknown,Unknown,302002,Rajasthan,Unknown,hospital,Unknown,Unknown,Unknown,Unknown,26.924219,75.8356
Pink City Fracture & General Hospital,Chandpole,Unknown,Unknown,302001,Rajasthan,Unknown,hospital,hospital,Unknown,Unknown,Unknown,26.9251063,75.8112535
Health Aid Hospital,Adarsh Nagar,Unknown,Unknown,302004,Rajasthan,Unknown,hospital,hospital,Unknown,Unknown,Unknown,26.9020539,75.8261836
Akhila Hospital,Adarsh Nagar,Unknown,Unknown,302003,Rajasthan,Unknown,hospital,hospital,Unknown,Unknown,Unknown,26.9151062,75.826897
Shifa Health Clinic,"Chandpol Bazar, Chandpole",Unknown,Unknown,302001,Rajasthan,Unknown,clinic,clinic,Unknown,Unknown,Unknown,26.924617,75.810301
Child Care Hospital,"Anand Puri, Fateh Tibba, Adarsh Nagar",Unknown,Unknown,302004,Rajasthan,Unknown,hospital,hospital,Unknown,Unknown,Unknown,26.9035633,75.8222385
MDM Hospital,"Adarsh Nagar, Alwar",Unknown,Unknown,302004,Rajasthan,Unknown,hospital,hospital,Unknown,Unknown,Unknown,26.9025327,75.8211928
Dadhic Clinic,Ramganj Bazar,Unknown,Unknown,302002,Rajasthan,Unknown,clinic,Unknown,Unknown,Unknown,Unknown,26.9255403,75.8360151
Baldwa Clinic,"Moti Doongri Road, Tilak Nagar",Unknown,Unknown,302004,Rajasthan,Unknown,clinic,clinic,Unknown,Unknown,Unknown,26.8949388,75.8162226
Mahaveer Jain Hospital,"Bhag Singh Road, Adarsh Nagar",Unknown,Unknown,302004,Rajasthan,Unknown,hospital,hospital,Unknown,Unknown,Unknown,26.901026,75.825743
Dental Clinic,Adarsh Nagar,Unknown,Unknown,302007,Rajasthan,Unknown,dentist,dentist,Unknown,Unknown,Unknown,26.903895,75.824606
Tiwari Piles Hospital,"Chandpole Bazar, Chandpole, Pink City",Unknown,Unknown,302001,Rajasthan,Unknown,hospital,hospital,Unknown,Unknown,Unknown,26.9254445,75.8102949
Shiva Homeo Clinic,Vishwesharji,Unknown,Unknown,302003,Rajasthan,Unknown,clinic,clinic,Unknown,Unknown,Unknown,26.9208197,75.8222971
Vijay Clinic,Subhash Chowk,Unknown,Unknown,302002,Rajasthan,Unknown,clinic,Unknown,Unknown,Unknown,Unknown,26.9277675,75.8305033
Pro Lasik Clinic,"Tilak Nagar, Jaipur",Unknown,Unknown,302007,Rajasthan,Unknown,clinic,clinic,Unknown,Unknown,Unknown,26.8900088,75.8208019
Shifa Hijama Clinic,Jaipur,Unknown,Unknown,302003,Rajasthan,Unknown,clinic,Unknown,Unknown,Unknown,Unknown,26.9166816,75.8338924
Dr. Anurag Dhakar,"Panch Batti, Sangram Colony, Ashok Nagar",Unknown,Unknown,302001,Rajasthan,Unknown,doctors,doctor,Unknown,Unknown,Unknown,26.9082449,75.8147014
Amritam Heart Care,Tilak Nagar,Unknown,Unknown,302004,Rajasthan,Unknown,clinic,clinic,Unknown,Unknown,Unknown,26.8941953,75.8216096
Adarsh Clinic,"Adarsh Nagar Road, Anand Puri, Adarsh Nagar",Unknown,Unknown,302004,Rajasthan,Unknown,clinic,clinic,Unknown,Unknown,Unknown,26.9023693,75.8259113
Nitin Dental Care Clinic,"Johari Bazar Road, Sector 3",Unknown,Unknown,302003,Rajasthan,Unknown,dentist,dentist,Unknown,Unknown,Unknown,26.9167236,75.8284925
Shibali Health Clinic,"Raja Park, Jaipur",Unknown,Unknown,302004,Rajasthan,Unknown,clinic,clinic,Unknown,Unknown,Unknown,26.8946804,75.8273968
Nikita Clinic,Jaipur,Unknown,Unknown,302002,Rajasthan,Unknown,clinic,Unknown,Unknown,Unknown,Unknown,26.9261319,75.8308679
Vijay Hospital,"Vijay Path, Tilak Nagar, Jaipur",Unknown,Unknown,302004,Rajasthan,Unknown,hospital,hospital,Unknown,Unknown,Unknown,26.8921005,75.8189267
Janta Clinic,"Janta Colony, Jaipur",Unknown,Unknown,302002,Rajasthan,Unknown,clinic,Unknown,Unknown,Unknown,Unknown,26.9246196,75.8357233
Dr. Dinesh Gupta Wisdom Clinic,"Dicazo Road, Jaipur",Unknown,Unknown,302007,Rajasthan,Unknown,clinic,clinic,Unknown,Unknown,Unknown,26.9064303,75.8347373
Arihant Homeo Clinic,"Dhruv Marg, Raja Park, Jaipur",Unknown,Unknown,302004,Rajasthan,Unknown,clinic,clinic,Unknown,Unknown,Unknown,26.892574,75.8294717
Khan Clinic,"Hussain Colony, Shankar Nagar",Unknown,Unknown,302002,Rajasthan,Unknown,clinic,Unknown,Unknown,Unknown,Unknown,26.9447157,75.8470388
Mangalam Hospital,Adarsh Nagar,Unknown,Unknown,302004,Rajasthan,Unknown,hospital,hospital,Unknown,Unknown,Unknown,26.8988531,75.8339104
Prakas Clinic,Jayanti Market,Unknown,Unknown,302001,Rajasthan,Unknown,clinic,clinic,Unknown,Unknown,Unknown,26.9181729,75.8104544
Dr. S.L. Tolani,"Nagmany Colony, Sanganer",Unknown,Unknown,302004,Rajasthan,Unknown,doctors,doctor,Unknown,Unknown,Unknown,26.8938114,75.8295247
Shiva Life Line Clinic,"Brahampuri, Jaipur",Unknown,Unknown,302002,Rajasthan,Unknown,clinic,Unknown,Unknown,Unknown,Unknown,26.9368648,75.8249458
Faiz Clinic,Chandpole,Unknown,Unknown,302001,Rajasthan,Unknown,clinic,clinic,Unknown,Unknown,Unknown,26.9228964,75.8098726
Sahai Hospital,"Vijay Path, Junction",Unknown,Unknown,302004,Rajasthan,Unknown,hospital,hospital,Unknown,Unknown,Unknown,26.8958902,75.8203134
Mahesh Hospital,"Chandpole Bazar, Chandpole",Unknown,Unknown,302001,Rajasthan,Unknown,hospital,hospital,Unknown,Unknown,Unknown,26.9229133,75.8089218
Suraj Hospial,"Shyama Prasad Mukherji Marg, Adarsh Nagar",Unknown,Unknown,302004,Rajasthan,Unknown,hospital,hospital,Unknown,Unknown,Unknown,26.8990777,75.824377
Madina Clinic,"Darbar Colony, Lal Dungri",Unknown,Unknown,302002,Rajasthan,Unknown,clinic,Unknown,Unknown,Unknown,Unknown,26.9351787,75.8472665
Dr. Sanjay Kanodia's Skin Clinic,"Sethi Colony, Jaipur",Unknown,Unknown,302004,Rajasthan,Unknown,clinic,clinic,Unknown,Unknown,Unknown,26.9038394,75.8419883
Tawakkal General Clinic,"Delhi Road, Rishi Galav Nagar",Unknown,Unknown,302012,Rajasthan,Unknown,clinic,Unknown,Unknown,Unknown,Unknown,26.930586,75.844718
Mital Clinic,"Chandpole Bazar, Chandpole",Unknown,Unknown,302001,Rajasthan,Unknown,clinic,clinic,Unknown,Unknown,Unknown,26.9230178,75.8164908
Shree Ram Homoeo & Clinic,"Vyas Marg, Raja Park, Jaipur",Unknown,Unknown,302004,Rajasthan,Unknown,clinic,clinic,Unknown,Unknown,Unknown,26.8926262,75.8290786
Tilak Clinic & Nursing Home,"Gurunanakpura, Tilak Nagar",Unknown,Unknown,302004,Rajasthan,Unknown,clinic,clinic,Unknown,Unknown,Unknown,26.8962704,75.8265197
Shifa Clinic,"Jayanti Market, Ashok Nagar",Unknown,Unknown,302001,Rajasthan,Unknown,clinic,clinic,Unknown,Unknown,Unknown,26.9166982,75.8151552
Health Line Hospital,"Adarsh Nagar, Jaipur",Unknown,Unknown,302007,Rajasthan,Unknown,hospital,hospital,Unknown,Unknown,Unknown,26.9077102,75.8299074
Goyal Hospital,Telepara,Unknown,Unknown,302001,Rajasthan,Unknown,hospital,hospital,Unknown,Unknown,Unknown,26.9186623,75.8214178
Solanki Hospital,Gangori Bazaar,Unknown,Unknown,302002,Rajasthan,Unknown,hospital,Unknown,Unknown,Unknown,Unknown,26.9272446,75.819232
Dr. Sitaram Clinic,Ramganj,Unknown,Unknown,302003,Rajasthan,Unknown,clinic,Unknown,Unknown,Unknown,Unknown,26.9260291,75.8171084
S.K.D.M. Clinic,"Raja Park, Adarsh Nagar",Unknown,Unknown,302004,Rajasthan,Unknown,clinic,clinic,Unknown,Unknown,Unknown,26.9022358,75.8265664
Goyalsa Homeo Clinic,"Janata Colony, Jaipur",Unknown,Unknown,302004,Rajasthan,Unknown,clinic,clinic,Unknown,Unknown,Unknown,26.9090859,75.8332479
Alok Nursing Home & Fracture Clinic,Unknown,Unknown,Unknown,302003,Rajasthan,Unknown,hospital,hospital,Unknown,Unknown,Unknown,26.91858,75.8311973
Falor Eye and Phaco Surgery Centre,Ramganj Bazar,Unknown,Unknown,302003,Rajasthan,Unknown,hospital,hospital,Unknown,Unknown,Unknown,26.9193316,75.8309094
Govind Clinic,Govind Nagar,Unknown,Unknown,302002,Rajasthan,Unknown,clinic,Unknown,Unknown,Unknown,Unknown,26.9379259,75.8357604
Rajdhani Dental & General Clinic,"Chandpole, Jalupura",Unknown,Unknown,302001,Rajasthan,Unknown,clinic,clinic,Unknown,Unknown,Unknown,26.9225169,75.8106177
Dr.Sudrania Clinic,"Sangram Colony, Ashok Nagar",Unknown,Unknown,302004,Rajasthan,Unknown,clinic,clinic,Unknown,Unknown,Unknown,26.9021006,75.8160988
Sri Bhardwaj Clinic,"Tripoliya Market, Chaura Rasta",Unknown,Unknown,302002,Rajasthan,Unknown,clinic,clinic,Unknown,Unknown,Unknown,26.920188,75.821831
Vinod Clinic,"Jawahar Nagar, Adarsh Nagar",Unknown,Unknown,302004,Rajasthan,Unknown,clinic,clinic,Unknown,Unknown,Unknown,26.9058687,75.82576
Santokba Durlabhji Memorial Hospital,"Rambagh, Jaipur",Unknown,Unknown,302004,Rajasthan,Unknown,hospital,hospital,Unknown,Unknown,Unknown,26.8935766,75.8125166
Care Clinic,"Chandpole, Jaipur",Unknown,Unknown,302001,Rajasthan,Unknown,clinic,Unknown,Unknown,Unknown,Unknown,26.9257317,75.8170342
M.D. Hospital,"Central Jail, Fateh Tibba, Adarsh Nagar",Unknown,Unknown,302004,Rajasthan,Unknown,hospital,hospital,Unknown,Unknown,Unknown,26.9124912,75.8246404
Dr. Ritu Joshi,"Jawahar Nagar, Jaipur",Unknown,Unknown,302004,Rajasthan,Unknown,doctors,doctor,Unknown,Unknown,Unknown,26.8961491,75.8192599
Jaju Clinic,"Chandpole Bazar, Jaipur",Unknown,Unknown,302001,Rajasthan,Unknown,clinic,Unknown,Unknown,Unknown,Unknown,26.927028,75.8161567
Seva Poly Clinic,"Jalupura, Jaipur",Unknown,Unknown,302001,Rajasthan,Unknown,clinic,clinic,Unknown,Unknown,Unknown,26.9213892,75.8085079
Nisa Clinic,"Ganesh Nagar, Badi Chaupar",Unknown,Unknown,302002,Rajasthan,Unknown,clinic,Unknown,Unknown,Unknown,Unknown,26.9248594,75.8358022
Adinath ENT & General Hospital,"Udai Marg, Tilak Nagar",Unknown,Unknown,302004,Rajasthan,Unknown,hospital,hospital,Unknown,Unknown,Unknown,26.8915481,75.8265711
Bani Clinic,Jaipur,Unknown,Unknown,302003,Rajasthan,Unknown,clinic,clinic,Unknown,Unknown,Unknown,26.9182345,75.8288843
Jaipur Skin Cilnic,Unknown,Unknown,Unknown,302003,Rajasthan,Unknown,clinic,clinic,Unknown,Unknown,Unknown,26.9167171,75.8301137
Subash Clinic,Subhash Chowk,Unknown,Unknown,302002,Rajasthan,Unknown,clinic,Unknown,Unknown,Unknown,Unknown,26.9285973,75.8339732
Rathi's ENT and Women's Clinic,Sethi Colony,Unknown,Unknown,302004,Rajasthan,Unknown,clinic,clinic,Unknown,Unknown,Unknown,26.9029257,75.8412089
Dr. N M Jain Clinic,Moti Doongri Road,Unknown,Unknown,302004,Rajasthan,Unknown,clinic,clinic,Unknown,Unknown,Unknown,26.9033511,75.8227348
Jalmahal Hospital,Fatima Colony,Unknown,Unknown,302002,Rajasthan,Unknown,hospital,Unknown,Unknown,Unknown,Unknown,26.9464166,75.8481731
Jain Clinic,Johari Bazar,Unknown,Unknown,302003,Rajasthan,Unknown,clinic,clinic,Unknown,Unknown,Unknown,26.9186579,75.8265404
Saans Chest Clinic,"Tilak Nagar, Raja Park, Jaipur",Unknown,Unknown,302201,Rajasthan,Unknown,clinic,clinic,Unknown,Unknown,Unknown,26.897601,75.821265
Aditya Health Clinic,Jaipur,Unknown,Unknown,302004,Rajasthan,Unknown,clinic,clinic,Unknown,Unknown,Unknown,26.9038941,75.8277814
Dr. Ved Prakash,"Fateh Tibba, Adarsh Nagar",Unknown,Unknown,302004,Rajasthan,Unknown,doctors,doctor,Unknown,Unknown,Unknown,26.902597,75.825447
Tosif Poly Clinic,"Hussain Colony, Shankar Nagar",Unknown,Unknown,302002,Rajasthan,Unknown,clinic,Unknown,Unknown,Unknown,Unknown,26.9443804,75.8470097
Primary Health Centre,"Pratap Nagar, Amer Road, Jaipur",Unknown,Unknown,302002,Rajasthan,Unknown,Unknown,centre,Unknown,Unknown,Unknown,26.942237,75.843881
Dr. R.M. Mathur Clinic,"Gangawal Park, Adarsh Nagar, Jaipur",Unknown,Unknown,302004,Rajasthan,Unknown,clinic,clinic,Unknown,Unknown,Unknown,26.9004328,75.8188149
Manohar Clinic,"Chandpole, Jalupura",Unknown,Unknown,302001,Rajasthan,Unknown,clinic,clinic,Unknown,Unknown,Unknown,26.9212243,75.8137107
Shiv Shakti Homoeo Clinic,"Adarsh Nagar Road, Anand Puri, Fateh Tibba, Adarsh Nagar",Unknown,Unknown,302004,Rajasthan,Unknown,clinic,clinic,Unknown,Unknown,Unknown,26.9025481,75.8245281
Kamal Clinic,Ramganj Bazar,Unknown,Unknown,302002,Rajasthan,Unknown,clinic,Unknown,Unknown,Unknown,Unknown,26.9227632,75.8289986
Sameer Clinic,Modikhana,Unknown,Unknown,302001,Rajasthan,Unknown,clinic,clinic,Unknown,Unknown,Unknown,26.9181348,75.816914
Vinayak Clinic,"Johari Bazar, Ram Lala Ji Ka Rasta, Biseswarji, Pink City",Unknown,Unknown,302003,Rajasthan,Unknown,clinic,clinic,Unknown,Unknown,Unknown,26.9191757,75.8238441
Health Clinic,"Jalupura, Jaipur",Unknown,Unknown,302001,Rajasthan,Unknown,clinic,clinic,Unknown,Unknown,Unknown,26.9218969,75.8095503
Bhiwani Eye Hospital,"Bapu Bazar, Biseswarji",Unknown,Unknown,302003,Rajasthan,Unknown,hospital,hospital,Unknown,Unknown,Unknown,26.9200507,75.8217693
Jai Hospital & Research Centre,"Chandpole Bazar, Indira Bazar",Unknown,Unknown,302007,Rajasthan,Unknown,hospital,hospital,Unknown,Unknown,Unknown,26.9192023,75.8167578
Ganda Homeo Clinic,"Gurunanakpura, Raja Park, Jaipur",Unknown,Unknown,302004,Rajasthan,Unknown,clinic,clinic,Unknown,Unknown,Unknown,26.8963636,75.8252004
Ali Clinic & Doiagnostic Centre,"Subhash Chowk, Jaipur",Unknown,Unknown,302002,Rajasthan,Unknown,clinic,Unknown,Unknown,Unknown,Unknown,26.9275971,75.829679
Ganda Clinic,"Anand Puri, Adarsh Nagar, Jaipur",Unknown,Unknown,302004,Rajasthan,Unknown,clinic,clinic,Unknown,Unknown,Unknown,26.9026409,75.8252586
Pratap Nagar Sector 6 Dispensary,Unknown,Unknown,Unknown,Unknown,Unknown,Unknown,hospital,hospital,Unknown,Unknown,Unknown,26.8097868,75.8090785
KK Medicos,Unknown,Hawa sadak,Unknown,Unknown,Unknown,Unknown,pharmacy,pharmacy,Unknown,Unknown,Unknown,26.9023845,75.7866415
Chitrakoot Medical,Unknown,Unknown,Unknown,Unknown,Unknown,Unknown,pharmacy,pharmacy,Unknown,Unknown,Unknown,26.896474,75.7388954
Enviornment and wildlife care society,Unknown,shivam apartment near jain dadabadi,Jaipur,302004,Unknown,Unknown,hospital,hospital,Unknown,Unknown,Unknown,26.8885259,75.8377772
Tirupati Sanjeevani Hospital,Unknown,Unknown,Unknown,302017,Unknown,Unknown,hospital,hospital,Unknown,Unknown,Unknown,26.8347991,75.8582476
Shri Shyam Hospital,Unknown,Jaipur Road,Jaipur,302039,Unknown,IN,hospital,hospital,+91-7413966513,Unknown,Unknown,26.9792583,75.7692136
S S Hospital,Unknown,Jaipur Road,Jaipur,302039,Unknown,Unknown,hospital,hospital,+91-7413966513,Unknown,Unknown,26.9792517,75.7691704
Panwar Medical & Provision Store,Unknown,"C-27,Kusum Vihar, Ram Nagariya Rd, Railway Colony, Jagatpura, Jaipur, Rajasthan 302017",Unknown,Unknown,Unknown,Unknown,clinic,clinic,Unknown,Unknown,Unknown,26.8266309,75.8496289
homeopathy clinic,Unknown,Unknown,Unknown,Unknown,Unknown,Unknown,Unknown,alternative,Unknown,Unknown,Unknown,26.9708051,75.7641134
Comforting Couch,Unknown,"190, Front of Metro Pillar 92, Govardhan Colony Near Kotak Mahindra Bank Swej Farm, New, New Sanganer Rd, Jaipur, Rajasthan 302011",Unknown,Unknown,Unknown,Unknown,Unknown,psychotherapist,+911412296808,Unknown,Mo-Sa 10:00-02:00,26.8902789,75.7698955
Primary Healthcare Centre,Unknown,Unknown,Unknown,Unknown,Unknown,Unknown,Unknown,yes,Unknown,Unknown,Unknown,26.9588809,75.7128654
Unknown,Unknown,Unknown,Unknown,Unknown,Unknown,Unknown,hospital,hospital,Unknown,Unknown,Unknown,26.8851533,75.7847666
Unknown,Unknown,Unknown,Unknown,Unknown,Unknown,Unknown,pharmacy,pharmacy,Unknown,Unknown,Unknown,26.8850236,75.7847113
JK Hospital,Unknown,Unknown,Unknown,Unknown,Unknown,Unknown,clinic,clinic,Unknown,Unknown,Unknown,26.9498353,75.7126611
Shree Ram Medical Store,Unknown,Unknown,Unknown,Unknown,Unknown,Unknown,pharmacy,pharmacy,Unknown,Unknown,Unknown,26.9559341,75.7034694
Ganpati Medical and Provision Store,Unknown,Unknown,Unknown,Unknown,Unknown,Unknown,pharmacy,pharmacy,Unknown,Unknown,Unknown,26.9517456,75.702312
Mohan Dento Care,Unknown,Unknown,Unknown,Unknown,Unknown,Unknown,dentist,dentist,Unknown,Unknown,Unknown,26.9568445,75.7041277
Dawa Dost,Unknown,Unknown,Unknown,Unknown,Unknown,Unknown,pharmacy,pharmacy,Unknown,Unknown,Unknown,26.9196741,75.7886132
Buddhayan Counselling and Psychotherapy,Unknown,"Kaveri path, Madhyam Marg, Sector 21, Mansarovar","Jaipur, Rajasthan",302020,Unknown,Unknown,Unknown,psychotherapist,+91-9772138499,https://www.buddhayancounselling.com/,Unknown,26.8757573,75.7523552
JS Memorial Hospital & Research Center,Unknown,Niwaru Road,Jaipur,302012,Unknown,Unknown,hospital,hospital,Unknown,Unknown,Unknown,26.9571952,75.7415034
Anjali Acupressure Treatment & Yoga Center | Anjali Yoga Center | Yoga classes in Jaipur,Unknown,Amer Road,Unknown,Unknown,Unknown,Unknown,clinic,Unknown,Unknown,Unknown,Unknown,26.9386122,75.8394878
Physio Healer,Unknown,"Guru Jhambeshwar Nagar A, Queens Road, opposite Narayan Gajak, Gandhi Path W, Vaishali Nagar,","Jaipur, Rajasthan",302021,Unknown,Unknown,hospital,hospital,Unknown,https://www.physiohealer.com/,Unknown,26.9054769,75.7481873
medkart,Unknown,Unknown,Unknown,Unknown,Unknown,Unknown,pharmacy,Unknown,Unknown,Unknown,Unknown,26.9248809,75.7901504
Somani Mediserve,Unknown,Unknown,Unknown,Unknown,Unknown,Unknown,pharmacy,Unknown,Unknown,Unknown,Unknown,26.9295695,75.796776
Maxwell,Unknown,Unknown,Unknown,Unknown,Unknown,Unknown,hospital,Unknown,Unknown,Unknown,Unknown,26.9344284,75.7948812
Unknown,Unknown,Unknown,Unknown,Unknown,Unknown,Unknown,pharmacy,Unknown,Unknown,Unknown,Unknown,26.9261497,75.7906121
Unknown,Unknown,Unknown,Unknown,Unknown,Unknown,Unknown,pharmacy,Unknown,Unknown,Unknown,Unknown,26.9243215,75.7905938
Unknown,Unknown,Unknown,Unknown,Unknown,Unknown,Unknown,pharmacy,Unknown,Unknown,Unknown,Unknown,26.9335196,75.8079376
Unknown,Unknown,Unknown,Unknown,Unknown,Unknown,Unknown,pharmacy,Unknown,Unknown,Unknown,Unknown,26.9325229,75.8039255
Unknown,Unknown,Unknown,Unknown,Unknown,Unknown,Unknown,pharmacy,Unknown,Unknown,Unknown,Unknown,26.9321609,75.810348
Unknown,Unknown,Unknown,Unknown,Unknown,Unknown,Unknown,pharmacy,Unknown,Unknown,Unknown,Unknown,26.9330204,75.8073216
Unknown,Unknown,Unknown,Unknown,Unknown,Unknown,Unknown,pharmacy,Unknown,Unknown,Unknown,Unknown,26.9321653,75.8054988
Unknown,Unknown,Unknown,Unknown,Unknown,Unknown,Unknown,pharmacy,Unknown,Unknown,Unknown,Unknown,26.9335828,75.8043705
Unknown,Unknown,Unknown,Unknown,Unknown,Unknown,Unknown,pharmacy,Unknown,Unknown,Unknown,Unknown,26.9318209,75.803455
Unknown,Unknown,Unknown,Unknown,Unknown,Unknown,Unknown,pharmacy,Unknown,Unknown,Unknown,Unknown,26.9258601,75.8070296
Unknown,Unknown,Unknown,Unknown,Unknown,Unknown,Unknown,pharmacy,Unknown,Unknown,Unknown,Unknown,26.9257982,75.8069498
Unknown,Unknown,Unknown,Unknown,Unknown,Unknown,Unknown,pharmacy,Unknown,Unknown,Unknown,Unknown,26.925909,75.8071047
Unknown,Unknown,Unknown,Unknown,Unknown,Unknown,Unknown,pharmacy,Unknown,Unknown,Unknown,Unknown,26.9257007,75.8068303
Unknown,Unknown,Unknown,Unknown,Unknown,Unknown,Unknown,pharmacy,Unknown,Unknown,Unknown,Unknown,26.9257561,75.8068894
Unknown,Unknown,Unknown,Unknown,Unknown,Unknown,Unknown,pharmacy,Unknown,Unknown,Unknown,Unknown,26.9232995,75.788432
Unknown,Unknown,Unknown,Unknown,Unknown,Unknown,Unknown,pharmacy,Unknown,Unknown,Unknown,Unknown,26.9219071,75.8005342
Unknown,Unknown,Unknown,Unknown,Unknown,Unknown,Unknown,pharmacy,Unknown,Unknown,Unknown,Unknown,26.9241173,75.7972538
Unknown,Unknown,Unknown,Unknown,Unknown,Unknown,Unknown,pharmacy,Unknown,Unknown,Unknown,Unknown,26.9215381,75.8006061
Unknown,Unknown,Unknown,Unknown,Unknown,Unknown,Unknown,pharmacy,Unknown,Unknown,Unknown,Unknown,26.9222878,75.7971062
Brainwonders Jaipur,Unknown,"VT Rd, Ward 27, Mansarovar Sector 5, Mansarovar",Jaipur,302020,Unknown,Unknown,Unknown,counselling,9892771999,https://www.brainwonders.in/career-counselling-in-jaipur,Mo-Sa 10:00-19:00,26.861373,75.7643818
