Name,Full Address,Street,City,Postcode,State,Country,Amenity,Healthcare,Phone,Website,Opening Hours,Latitude,Longitude
Dawalbhakta Hospital,Unknown,Unknown,Unknown,Unknown,Unknown,Unknown,hospital,Unknown,Unknown,Unknown,Unknown,21.0119259,75.5593229
Sahyog Critical Care Centre,"Bhagwant Bhuvan, No 69,Housing Society,Near Rose Garden,Shahu Nagar",Unknown,Unknown,425002,Maharashtra,Unknown,hospital,Unknown,Unknown,Unknown,Unknown,21.013136,75.559373
Dr. Datar E.N.T. Hospital,"Laxmi Keshav, Opposite Anurat Bhavan Pratap Nagar",Unknown,Unknown,425001,Maharashtra,Unknown,hospital,Unknown,Unknown,Unknown,Unknown,21.0097693,75.558004
Nityaseva Hospital,"10, Pratap Nagar, Near Anuvrat Bhavan",Unknown,Unknown,425001,Maharashtra,Unknown,hospital,Unknown,Unknown,Unknown,Unknown,21.0100105,75.5573961
Nimjai Healthcare( Pvt) L T D,"2674/A12 , Opposite Session Court , Maher Hospital",Unknown,Unknown,425001,Maharashtra,Unknown,hospital,Unknown,Unknown,Unknown,Unknown,21.0118067,75.5610221
Shri Naval Hospital and Ivf Center,M.J. College Road,Unknown,Unknown,425001,Maharashtra,Unknown,hospital,Unknown,Unknown,Unknown,Unknown,21.0019001,75.559497
Rajas Hospital,"Opposite Mahesh Pragati Mandal, Ring Road",Unknown,Unknown,425001,Maharashtra,Unknown,hospital,Unknown,Unknown,Unknown,Unknown,21.0046495,75.5572137
Godavari Hospital and Maternity Home,"M.J. College Road, Near Bhaskar Market",Unknown,Unknown,425001,Maharashtra,Unknown,hospital,Unknown,Unknown,Unknown,Unknown,21.001969,75.5598611
Atharva Hospital Criticare General and Dental Centre,"Swatantrya Chowk, Near India Garage",Unknown,Unknown,425001,Maharashtra,Unknown,hospital,Unknown,Unknown,Unknown,Unknown,21.0030107,75.564677
Kolhe Hospital,"National Highway No.6, Near Prabhat Colony Chowk",Unknown,Unknown,425002,Maharashtra,Unknown,hospital,Unknown,Unknown,Unknown,Unknown,21.0016278,75.5566283
"Sanjivani Hospital, Jalgaon","2112/25, Jaikisan Wadi",Unknown,Unknown,425001,Maharashtra,Unknown,hospital,Unknown,Unknown,Unknown,Unknown,21.0121287,75.560836
Parshwa Netralaya,"Swatantrya Chowk, 87/2, Behind I P Presidents Bunglow",Unknown,Unknown,425001,Maharashtra,Unknown,hospital,Unknown,Unknown,Unknown,Unknown,21.0035929,75.5664472
Dr V H Chaudhari Hospital,Near Bhaskar Market,Unknown,Unknown,425001,Maharashtra,Unknown,hospital,Unknown,Unknown,Unknown,Unknown,21.0199168,75.5304989
Mansai Hospital,"27, Visanji Nagar",Unknown,Unknown,425001,Maharashtra,Unknown,hospital,Unknown,Unknown,Unknown,Unknown,21.011464,75.5658518
Jalgaon Heart Institute Ltd. / Indoamerican Cardiovascular Center,Visanji Nagar Opp Golani Market,Unknown,Unknown,425001,Maharashtra,Unknown,hospital,Unknown,Unknown,Unknown,Unknown,21.0144648,75.5601735
Siddhesh Hospitals,"Near Khajamiya - Khajamiya Darga, Behind Shubhakamna Sankul",Unknown,Unknown,425002,Maharashtra,Unknown,hospital,Unknown,Unknown,Unknown,Unknown,21.0101444,75.5512123
Sudatta Orthopaedic Hospital,"389, Opposite Patrakar Colony, Telephone Exchange Road, Swatantrya Chowk",Unknown,Unknown,425001,Maharashtra,Unknown,hospital,Unknown,Unknown,Unknown,Unknown,21.0048693,75.5653552
Dipika Hospital,"Near Bhaskar Market, Opposite Jilhapeth Police Station",Unknown,Unknown,425001,Maharashtra,Unknown,hospital,Unknown,Unknown,Unknown,Unknown,21.002806,75.5612558
Shree Gajanan Heart and Eye Hospitals Pvt. Ltd,"Plot No. 370, Opposite General Post Office, Omkar Nagar, Jilhapeth",Unknown,Unknown,425001,Maharashtra,Unknown,hospital,Unknown,Unknown,Unknown,Unknown,21.0066014,75.567724
Raisoni Hospital,Near Sessions Court,Unknown,Unknown,425001,Maharashtra,Unknown,hospital,Unknown,Unknown,Unknown,Unknown,21.0136561,75.5625781
Arya Hospital,Ganesh Plaza Baliram Peth,Unknown,Unknown,425001,Maharashtra,Unknown,hospital,Unknown,Unknown,Unknown,Unknown,21.0173166,75.5680472
Shobha Hopsital,"Pratap Nagar, In Front Of Sau. Ranta Jain School(Old Maharana Pratap) Near Swami Smarath Kendra, Kwajamiya Chouk",Unknown,Unknown,425001,Maharashtra,Unknown,hospital,Unknown,Unknown,Unknown,Unknown,21.0034772,75.5680712
Gayatri Hospital,"Maliwada, Near Balaji Mathi, Erandol",Unknown,Unknown,425001,Maharashtra,Unknown,hospital,Unknown,Unknown,Unknown,Unknown,21.0068037,75.5484502
Vardhaman Accident Hospital,"M.J College Road, Bhaskar Market Area",Unknown,Unknown,425001,Maharashtra,Unknown,hospital,Unknown,Unknown,Unknown,Unknown,21.0026244,75.5611465
Chandrama Hospital,"Near Bhaskar Market, M.J. College Road",Unknown,Unknown,425001,Maharashtra,Unknown,hospital,Unknown,Unknown,Unknown,Unknown,21.0020498,75.5599684
Arogya Deep Hospital,12 Pratap Nagar Ring Road,Unknown,Unknown,425001,Maharashtra,Unknown,hospital,Unknown,Unknown,Unknown,Unknown,21.0104724,75.5541882
"Ganesh Hospital, Jalgaon","Kunte Road, Amalner",Unknown,Unknown,425401,Maharashtra,Unknown,hospital,Unknown,Unknown,Unknown,Unknown,21.0088724,75.5641204
Chinmay Hospital and Critcal Care Centre,"9, Onkar Nagar, Pande Dairy Chowk",Unknown,Unknown,425001,Maharashtra,Unknown,hospital,Unknown,Unknown,Unknown,Unknown,21.0068868,75.5674926
"Gokul Hospital, Jalgaon","Behind Natraj Theatre Near Old Emp. Office, Jillha Peth",Unknown,Unknown,425001,Maharashtra,Unknown,hospital,Unknown,Unknown,Unknown,Unknown,21.008607,75.5636336
Nirmaldeep Eye Hospital and Phaco Centre,Navipeth,Unknown,Unknown,425001,Maharashtra,Unknown,hospital,Unknown,Unknown,Unknown,Unknown,21.0133982,75.5663829
Gajre Hospital Neuro Centre and Women's Clinic,"26, Mahatma Gandhi Road, Gandhi Nagar, Jilha Peth",Unknown,Unknown,425001,Maharashtra,Unknown,hospital,Unknown,Unknown,Unknown,Unknown,21.0072787,75.5635149
Mulik Netra Chikitsalaya,Near Sbi Jhilha Peth,Unknown,Unknown,425001,Maharashtra,Unknown,hospital,Unknown,Unknown,Unknown,Unknown,21.0094433,75.5630167
"Srushti Hospital, Jalgaon","Plot No. 6, Nandanvan Colony, Opposite Kwajamiya Ganesh Colony Road",Unknown,Unknown,425001,Maharashtra,Unknown,hospital,Unknown,Unknown,Unknown,Unknown,21.0101745,75.5497424
Matruseva Hospital,"No. 375/A, Onkar Nagar,Opposite Telephone Quarters,Jilha Peth",Unknown,Unknown,425001,Maharashtra,Unknown,hospital,Unknown,Unknown,Unknown,Unknown,21.006038,75.5665196
Disha Eye Hospital,Jilapath,Unknown,Unknown,425001,Maharashtra,Unknown,hospital,Unknown,Unknown,Unknown,Unknown,21.0126483,75.5658089
Shri Saileela Accident Hospital,"Behind Teli Samaj Complex, Near Anglo Urdu High School Pratap Nagar",Unknown,Unknown,425001,Maharashtra,Unknown,hospital,Unknown,Unknown,Unknown,Unknown,21.0114665,75.5584757
Dr. Nandini Athavale's Hospital For Children,"Near State Bank Of India, Mahatma Gandhi Road, Jilha Peth",Unknown,Unknown,425001,Maharashtra,Unknown,hospital,Unknown,Unknown,Unknown,Unknown,21.0087573,75.5628397
Madhur Urologi and Clinic,"M.M Chember , First Floor .Opposite Telephone Exchange Office Omkar Nagar Jilaapeth",Unknown,Unknown,425001,Maharashtra,Unknown,clinic,Unknown,Unknown,Unknown,Unknown,21.0035002,75.55806
Om Critical Care and Trauma Centre,"61, Onkar Nagar, Behind Parikh Park, Zella Peth",Unknown,Unknown,425001,Maharashtra,Unknown,hospital,Unknown,Unknown,Unknown,Unknown,21.0072549,75.5670547
Shree Swaminatayan Surgical Hospital and Laparoscopy Centre,"Patrakar Colony, Prabhat Colony",Unknown,Unknown,425001,Maharashtra,Unknown,hospital,Unknown,Unknown,Unknown,Unknown,21.0048423,75.5657297
Chirayu Childrens Critical Care Centre,"M.M. Chambers, 2nd Floor, Opposite Main Telephone, Jilha Peth",Unknown,Unknown,425001,Maharashtra,Unknown,hospital,Unknown,Unknown,Unknown,Unknown,21.0079482,75.555081
Heramb Netralaya,"Krishna Sadan, Jila Peth, Gandhi Nagar,Infront Of Stadium",Unknown,Unknown,425001,Maharashtra,Unknown,hospital,Unknown,Unknown,Unknown,Unknown,21.0087147,75.5628356
Ankur Children's Hospital,"Behind Hotel Kewal Cook, Near Brook Bond Colony, Besides N.H. No. 6",Unknown,Unknown,425001,Maharashtra,Unknown,hospital,Unknown,Unknown,Unknown,Unknown,21.0029744,75.5564453
Aarogyam Advanced Surgical Centre,"Omkar Nagar,Telephone Exchange,Near Parik Park",Unknown,Unknown,425001,Maharashtra,Unknown,hospital,Unknown,Unknown,Unknown,Unknown,21.0066339,75.5664231
Vardan Maternity Hospital,"Plot No. 33, Sarswati Nagar , Yaswant Patel",Unknown,Unknown,425001,Maharashtra,Unknown,hospital,Unknown,Unknown,Unknown,Unknown,21.0064324,75.5726565
Shree Samarth Mansopchar Hospital,"8, Pratap Nagarring Road",Unknown,Unknown,425001,Maharashtra,Unknown,hospital,Unknown,Unknown,Unknown,Unknown,21.0104981,75.5547166
Sudeep Hospital,"Opposite Bus Stand, Dhule Road, Amalner",Unknown,Unknown,425001,Maharashtra,Unknown,hospital,Unknown,Unknown,Unknown,Unknown,21.0076743,75.5627002
Rote Hospital,"125, Gandhi Nagar, Jilha Peth",Unknown,Unknown,425001,Maharashtra,Unknown,hospital,Unknown,Unknown,Unknown,Unknown,21.0090759,75.5646542
"Sheetal Hospital, Jalgaon","16, Dinanath Wadi, Ring Road",Unknown,Unknown,425001,Maharashtra,Unknown,hospital,Unknown,Unknown,Unknown,Unknown,21.0074552,75.5548909
"Shri Mauli Homeopathic Hospital And Research Center , Jalgaon","No 43, Ring Rd, Ganesh Colony",Unknown,Unknown,425001,Maharashtra,Unknown,hospital,Unknown,Unknown,Unknown,Unknown,21.0050689,75.5569093
"Maher Hospital, Jalgaon","Khwajamiya Rd, Pratap Nagar",Unknown,Unknown,425001,Maharashtra,Unknown,hospital,Unknown,Unknown,Unknown,Unknown,21.0119037,75.561007
"Damani Maternity and Surgical Hospital,Jalgaon","Hall D, B J Market",Unknown,Unknown,425001,Maharashtra,Unknown,hospital,Unknown,Unknown,Unknown,Unknown,21.0079209,75.5703472
"Kelkar Hospital, Jalgaon","MJ College Road, Ramdas Colony",Unknown,Unknown,425201,Maharashtra,Unknown,hospital,Unknown,Unknown,Unknown,Unknown,21.0011677,75.5568945
Vatshalya Maternity Hospital and Infertility Clinic,"14,Ranchod Nagar,Behind Panchamukhi Hanuman Mandir",Unknown,Unknown,425001,Maharashtra,Unknown,hospital,Unknown,Unknown,Unknown,Unknown,21.0037206,75.5686574
"Vimal Nursing Home, Jalgaon",Jalgaon,Unknown,Unknown,425001,Maharashtra,Unknown,clinic,Unknown,Unknown,Unknown,Unknown,21.0102859,75.5505605
Dr. Ramakant Patil Hospital,"No. 89, Housing Society, Opposite T. Nutan Maratha College, Behind District Court",Unknown,Unknown,425001,Maharashtra,Unknown,hospital,Unknown,Unknown,Unknown,Unknown,21.0121838,75.5597994
Muthe Hospital,"32/69, Visanji Nagar,Ganesh Colony-Civil Ct Road",Unknown,Unknown,425001,Maharashtra,Unknown,hospital,Unknown,Unknown,Unknown,Unknown,21.0117381,75.5652335
Chatrapati Shahu Maharaj Hospital,"Chatrapati Shahumaharaj Hospital, Opp ICICI Bank, Shahu nagar",Unknown,Unknown,425001,Maharashtra,Unknown,hospital,Unknown,Unknown,Unknown,Unknown,21.0121879,75.5579165
Mahavir Jain Hospital,"Khandesh Mill Complex, Jalgaon",Unknown,Unknown,425001,Maharashtra,Unknown,hospital,Unknown,Unknown,Unknown,Unknown,21.014334,75.561581
R.H. Agrawal Accident Hospital,"Near Prakash Children's Hospital, Near India Garrage",Unknown,Unknown,425001,Maharashtra,Unknown,hospital,Unknown,Unknown,Unknown,Unknown,21.0059714,75.5663194
Lokesh Hospital,"Opp. India Garage, Jilha Peth, Jalgaon",Unknown,Unknown,425001,Maharastra,Unknown,hospital,Unknown,Unknown,Unknown,Unknown,21.0030925,75.5639528
Shree Datta Nursing Home,"Pratap Nagar, Jalgaon",Unknown,Unknown,425001,Maharastra,Unknown,hospital,Unknown,Unknown,Unknown,Unknown,21.0110167,75.5553702
ESI Dispensary,"Plot 61, Old MIDC Area, Behind MSEB Colony, Jalgaon",Unknown,Unknown,425003,Maharastra,Unknown,Unknown,centre,Unknown,Unknown,Unknown,21.0000843,75.5857442
Nidan Clinic,"Ring Road, Jalgaon",Unknown,Unknown,425001,Maharastra,Unknown,clinic,Unknown,Unknown,Unknown,Unknown,21.0099876,75.5563167
Nirmalseva Accident Hospital,"Jalgaon Municipal Corporation's Bahinabai Garden, Tagore Nagar",Unknown,Unknown,Unknown,Maharastra,Unknown,hospital,Unknown,Unknown,Unknown,Unknown,21.0028143,75.5591708
Dr. K D Patil Multispeciality Hospital,"Pimprala Road, Shahunagar, Jalgaon",Unknown,Unknown,425001,Maharastra,Unknown,hospital,Unknown,Unknown,Unknown,Unknown,21.0141075,75.5600597
Dr. Ishti Hospital,"2673-A 17/3/1, Pratap Nagar, Near Dr Subhash Choudhari Hospital, Jalgaon",Unknown,Unknown,425001,Maharastra,Unknown,hospital,Unknown,Unknown,Unknown,Unknown,21.010248,75.5590713
Ayush Health Clinic,"Gnandev Nagar, Juna Kedi Road, Jalgaon",Unknown,Unknown,425001,Maharastra,Unknown,clinic,Unknown,Unknown,Unknown,Unknown,21.0107445,75.5876833
Rubi Hospital & Maternity Home,"Joshi Peth, Jalgaon",Unknown,Unknown,425001,Maharastra,Unknown,hospital,Unknown,Unknown,Unknown,Unknown,21.0115233,75.5712436
Krishna Hospital,"Khwajamiya Road, Opp. Police Line, Yashwant Colony, Pratap Nagar, Jalgaon",Unknown,Unknown,425001,Maharastra,Unknown,hospital,Unknown,Unknown,Unknown,Unknown,21.01098,75.554332
Parsh Chest Clinic,"MM Chambers, Onkar Nagar, Jaikisan Wadi, Jalgaon",Unknown,Unknown,425001,Maharastra,Unknown,clinic,Unknown,Unknown,Unknown,Unknown,21.0062674,75.5669966
Moraya Hospital,"Onkar Nagar, Jaikisan Wadi, Jalgaon",Unknown,Unknown,425001,Maharastra,Unknown,hospital,Unknown,Unknown,Unknown,Unknown,21.0075685,75.5687688
Mangalmurti Hospital Critical Care and Laparoscopy Centre,"Ashirvad Building, Gandhi Nagar, Jilha Peth, Jalgaon",Unknown,Unknown,Unknown,Maharastra,Unknown,hospital,Unknown,Unknown,Unknown,Unknown,21.0077379,75.5649257
Dr. Ravindra Bhangale Hospital,"Ring Rooad, Pratap Nagar, Jalgaon",Unknown,Unknown,425001,Maharastra,Unknown,hospital,Unknown,Unknown,Unknown,Unknown,21.001778,75.559261
Chinmay Hospital & Critical Care Centre,"Near Pandey Dairy Chowk, Onkar Nagar, Jaikisan Wadi, Jalgaon",Unknown,Unknown,425001,Maharastra,Unknown,hospital,Unknown,Unknown,Unknown,Unknown,21.007399,75.567808
Orchid Multi Superspeciality Hospital,"Opp. R.R High School, Jilha Peth, Old B J Market, Jalgaon",Unknown,Unknown,425001,Maharastra,Unknown,hospital,Unknown,Unknown,Unknown,Unknown,21.009676,75.566512
Dr. Talele Physiotherapy Clinic,"Bank Street, Navi Peth, Jaikisan Wadi, Jalgaon",Unknown,Unknown,425001,Maharastra,Unknown,clinic,Unknown,Unknown,Unknown,Unknown,21.0137173,75.5654412
Dr. Ravi Mahajan Hospital,"Near Anglo Urdu School, Dhake Colony, Pratap Nagar, Jalgaon",Unknown,Unknown,425001,Maharastra,Unknown,hospital,Unknown,Unknown,Unknown,Unknown,21.0112092,75.557466
Wankhede Hospital,"Bhaskar Market Road, Pratap Nagar, Jalgaon",Unknown,Unknown,425001,Maharastra,Unknown,hospital,Unknown,Unknown,Unknown,Unknown,21.0022137,75.5612175
Aashwini Multispeciality Hospital,"Shahu Nager, Behind District, June Jalgaon Road, Yogeshwar Nagar, Shahunagar, Jalgaon",Unknown,Unknown,425001,Maharastra,Unknown,hospital,Unknown,Unknown,Unknown,Unknown,21.013514,75.558781
Vishvesh Mulanche Children's Hospital,"M.J. College Road, Jalgaon",Unknown,Unknown,425001,Maharastra,Unknown,hospital,Unknown,Unknown,Unknown,Unknown,21.000496,75.557109
Manudevi Clinic,"Ayodhya Nagar, MIDC Area, Jalgaon",Unknown,Unknown,425003,Maharastra,Unknown,clinic,Unknown,Unknown,Unknown,Unknown,21.006091,75.586574
Pratibha Hospital,"New Joshi Colony, Prabhat Colony, Jalgaon",Unknown,Unknown,425001,Maharastra,Unknown,hospital,Unknown,Unknown,Unknown,Unknown,21.0030338,75.5673886
Bhalode Hospital,"Pande Chauk to Sindhi Colony Road, Near Hanuman Mandir, Prabhat Colony, Jalgaon",Unknown,Unknown,425001,Maharastra,Unknown,hospital,Unknown,Unknown,Unknown,Unknown,21.0051473,75.5681186
Kaminikamal Accident and Joint Replacement Hospital,"Ring Road, Jalgaon",Unknown,Unknown,425001,Maharastra,Unknown,hospital,Unknown,Unknown,Unknown,Unknown,21.0085418,75.5554183
Vansh Hospital,"Onkar Nagar, Pandey Dairy Chowk, Opp Civil Hospital, Church Road, Jalgaon",Unknown,Unknown,425001,Maharastra,Unknown,hospital,Unknown,Unknown,Unknown,Unknown,21.007512,75.5683186
Gujar Spine Centre & Matrix Hospital,"Ring Road, Hareshwar Nagar, Tagore Nagar, Jalgaon",Unknown,Unknown,425001,Maharastra,Unknown,hospital,Unknown,Unknown,Unknown,Unknown,21.0052141,75.5568102
Dr. Prashant Jadhav Clinic,"Gurudatta Colony, Ganesh Colony, Jalgaon",Unknown,Unknown,425001,Maharastra,Unknown,clinic,Unknown,Unknown,Unknown,Unknown,21.0032074,75.5581248
Tejas Mulanche Hospital,"Jilha Peth, Prabhat Colony, Jalgaon",Unknown,Unknown,425001,Maharastra,Unknown,hospital,Unknown,Unknown,Unknown,Unknown,21.003148,75.564256
Tara Maternity Surgical Hospital,"Shahu Maharaj Complex, First Floor, Shahu Nagar, Near Advocate Chambar, Jalgaon",Unknown,Unknown,425001,Maharastra,Unknown,hospital,Unknown,Unknown,Unknown,Unknown,21.011923,75.557089
City Hospital,"Near Panchmukhi Hanuman Mandir, Opp. Dadiwala Banglose",Unknown,Unknown,425001,Maharastra,Unknown,hospital,Unknown,Unknown,Unknown,Unknown,21.0042608,75.5683014
Chaitanya Hospital,"Ring Road, Ramdas Colony, Jalgaon",Unknown,Unknown,425001,Maharastra,Unknown,hospital,Unknown,Unknown,Unknown,Unknown,21.002047,75.559049
Dr. Tejendra Chaudhari Neurology Hospital,"Pande Chauk to Sindhi Colony Road, Jaikisan Wadi, Jalgaon",Unknown,Unknown,425001,Maharastra,Unknown,hospital,Unknown,Unknown,Unknown,Unknown,21.008805,75.569269
Swara Hospital,"Behind Brooke Bond Colony, Near Bahinabai Udyan, Gurudatta Colony, Ganesh Colony, Jalgaon",Unknown,Unknown,425001,Maharastra,Unknown,hospital,Unknown,Unknown,Unknown,Unknown,21.0026598,75.5572619
Om Hospital,"Datta Colony, Jalgaon",Unknown,Unknown,425001,Maharastra,Unknown,hospital,Unknown,Unknown,Unknown,Unknown,21.011273,75.558446
Sujay Hospital and Maternity Home,"Onkar Nagar, Jaikisan Wadi, Jalgaon",Unknown,Unknown,425001,Maharastra,Unknown,hospital,Unknown,Unknown,Unknown,Unknown,21.0067628,75.5679336
Prashant Clinic,"Ring Road, Near Bahinabai Garden, Opp. BrookBond Colony, Jalgaon",Unknown,Unknown,425001,Maharastra,Unknown,clinic,Unknown,Unknown,Unknown,Unknown,21.0029311,75.5578558
Jeevan Jyoti Cancer Hospital,"Vivekanand Nagar, Jilha Peth, Swatantra Chowk, Behind Hotel Rupali, Jalgaon",Unknown,Unknown,425001,Maharastra,Unknown,hospital,Unknown,Unknown,Unknown,Unknown,21.003211,75.565228
Vandana Hospital and Maternity Home,"Opp.Old B J Market, Jaikisan Wadi, Jalgaon",Unknown,Unknown,425001,Maharastra,Unknown,hospital,Unknown,Unknown,Unknown,Unknown,21.0097443,75.5669624
Yamunai Hospital,"Plot no 11B, Near.Bahinabai Garden, Jalgaon",Unknown,Unknown,425001,Maharastra,Unknown,hospital,Unknown,Unknown,Unknown,Unknown,21.002846,75.5573588
Avantika Hospital,"Khwajamiya Road, Nandnavan Colony, Ganesh Colony, Jalgaon",Unknown,Unknown,425001,Maharastra,Unknown,hospital,Unknown,Unknown,Unknown,Unknown,21.011802,75.552687
K K Hospital,"Jaikisan Wadi, Jalgaon",Unknown,Unknown,425001,Maharastra,Unknown,hospital,Unknown,Unknown,Unknown,Unknown,21.0074105,75.5659632
Prakash Children's Hospital and Neonatology Centre,"Onkar Nagar, M.M. Chember, Infront of BSNL Office",Unknown,Unknown,425001,Maharastra,Unknown,hospital,Unknown,Unknown,Unknown,Unknown,21.0063158,75.5670616
Sarla Hospital,"Ganesh Colony, Khwajamiya Road, Nandanvan Colony, Jalgaon",Unknown,Unknown,425001,Maharastra,Unknown,hospital,Unknown,Unknown,Unknown,Unknown,21.0103866,75.5515034
"Dr. Sujata Mahajan & Dr. Pramod Mahajan, Maternity & Surgical Hospital","Jaikisan Wadi, Jalgaon",Unknown,Unknown,425001,Maharastra,Unknown,hospital,Unknown,Unknown,Unknown,Unknown,21.008694,75.564094
Mamta Hospital,"S.No. 15/3A, Jalgaon",Unknown,Unknown,425001,Maharastra,Unknown,hospital,Unknown,Unknown,Unknown,Unknown,21.0002398,75.5762977
Netrayu Eye care center Hospital,"Jilha Peth, Swatantrya Chowk - Pande Chowk Road, Near R.R. Vidyalaya, Jalgaon",Unknown,Unknown,425001,Maharastra,Unknown,hospital,Unknown,Unknown,Unknown,Unknown,21.009453,75.565321
Navjeevan Maternity Hospital,"1st floor, Chirmade Complex, Bhaskar Market, MJ College Road, Jalgaon",Unknown,Unknown,425001,Maharastra,Unknown,hospital,Unknown,Unknown,Unknown,Unknown,21.0016972,75.5602226
Ravikamal Hospital,"Ganesh Colony-Civil Ct Road, Pratap Nagar, Jalgaon",Unknown,Unknown,425001,Maharastra,Unknown,hospital,Unknown,Unknown,Unknown,Unknown,21.011838,75.5590444
Sanghvi Hospital,"Swatantrya Chowk, Jilha Peth, Jalgaon",Unknown,Unknown,425001,Maharastra,Unknown,hospital,Unknown,Unknown,Unknown,Unknown,21.003334,75.564428
Agrawal Hospital,"National Highway 6, Near MJ College, Jalgaon",Unknown,Unknown,425002,Maharastra,Unknown,hospital,Unknown,Unknown,Unknown,Unknown,21.0027586,75.5560287
Adit Neuro Surgical and Maternity Hospital,"Onkar Nagar, Near Civil Hospital, Jilha Peth, Jalgaon",Unknown,Unknown,425001,Maharastra,Unknown,hospital,Unknown,Unknown,Unknown,Unknown,21.0076223,75.5678276
GEM Hospital & Chavan Netralaya,"Swatantrya Chowk - Pande Chowk Road, Jilha Peth, Prabhat Colony, Jalgaon",Unknown,Unknown,425001,Maharastra,Unknown,hospital,Unknown,Unknown,Unknown,Unknown,21.004358,75.5646281
Bhakti Manasopchar Hospital,"Tagore Nagar, Beside to Jilha Peth Police Station, Pahilya Majalyawar, Jalgaon",Unknown,Unknown,425001,Maharastra,Unknown,hospital,Unknown,Unknown,Unknown,Unknown,21.0027948,75.559495
Malti Accident Hospital,"M. J. College Road, Near Bhaskar Market, Jalgaon",Unknown,Unknown,425001,Maharastra,Unknown,hospital,Unknown,Unknown,Unknown,Unknown,21.001766,75.560364
Astha Plastic and Cosmetic Surgery Centre Hospital,"Ring Road, Pratap Nagar, Jalgaon",Unknown,Unknown,425001,Maharastra,Unknown,hospital,Unknown,Unknown,Unknown,Unknown,21.0087978,75.5553526
Ashwini Clinic,"Near R.R. High School, Jilha Peth, Jaikisan Wadi, Jalgaon",Unknown,Unknown,425001,Maharastra,Unknown,clinic,Unknown,Unknown,Unknown,Unknown,21.0096645,75.5649892
Bhirud Hospital,"Jaikisan Wadi, Jalgaon",Unknown,Unknown,425001,Maharastra,Unknown,hospital,Unknown,Unknown,Unknown,Unknown,21.0089662,75.565457
Dr. Dileep Rane Maternity & Nursing Hospital,"Janki Nagar, Jalgaon",Unknown,Unknown,425001,Maharastra,Unknown,hospital,Unknown,Unknown,Unknown,Unknown,21.0070956,75.5721562
Bhakti Clinic,"Jilha Peth, Pratap Nagar, Jalgaon",Unknown,Unknown,425001,Maharastra,Unknown,clinic,Unknown,Unknown,Unknown,Unknown,21.002138,75.559221
Sawita Hospital,"Housing Society, Shahu Nagar, Beside Suyog Critical, Behind Jillah Court, Jalgaon",Unknown,Unknown,425001,Maharastra,Unknown,hospital,Unknown,Unknown,Unknown,Unknown,21.0129118,75.5593339
Dwaraka Hospital,"Opposite Zilha Peth Police Station, Jalgaon",Unknown,Unknown,425001,Maharastra,Unknown,hospital,Unknown,Unknown,Unknown,Unknown,21.002503,75.55966
Shree Saileela Accident Hospital,"Beside Anglo Urdu High School, Pratap Nagar, Jalgaon",Unknown,Unknown,425001,Maharastra,Unknown,hospital,Unknown,Unknown,Unknown,Unknown,21.0110274,75.5587929
Dr. Sahastrabudhe Clinic,"Ganesh Colony-Civil Court Road, Datta Colony, Jalgaon",Unknown,Unknown,425001,Maharastra,Unknown,clinic,Unknown,Unknown,Unknown,Unknown,21.011524,75.555389
Manas Hospital,"Prabhat Chouk, 5/3, Near Vidhya Nagar, Samarth Colony, Ramdas Colony, Jalgaon",Unknown,Unknown,425001,Maharastra,Unknown,clinic,Unknown,Unknown,Unknown,Unknown,21.0003815,75.5578294
Minakshi Lahan Mulanche Hospital,"291, Ghandhi Nagar, Behind New Bus Stand, Jilha Peth, Near Padmalaya Bhojnalaya, Jalgaon",Unknown,Unknown,425001,Maharastra,Unknown,hospital,Unknown,Unknown,Unknown,Unknown,21.0083983,75.5656021
Shriniwas Multispeciality Hospital,"Opp. Anglourdu School and Iqra Hostel, Pratap Nagar, Jalgaon",Unknown,Unknown,425001,Maharastra,Unknown,hospital,Unknown,Unknown,Unknown,Unknown,21.0109218,75.5581661
Axon Brain Hospital,"National Highway 6, Infront Of MJ College, Jalgaon",Unknown,Unknown,425001,Maharastra,Unknown,hospital,Unknown,Unknown,Unknown,Unknown,21.0029388,75.5560361
Payghan Hospital,"Sindhi Colony Road, Near Panchmukhi Hanuman Temple, Jalgaon",Unknown,Unknown,425001,Maharastra,Unknown,hospital,Unknown,Unknown,Unknown,Unknown,21.0018138,75.5669423
Dr. A. G. Bhangale Hospital,"Omkar Nagar, Jilha Peth, Jalgaon",Unknown,Unknown,425001,Maharastra,Unknown,hospital,Unknown,Unknown,Unknown,Unknown,21.0076883,75.569746
Dr. Pawar Clinic,"Ganesh Wadi, Jalgaon",Unknown,Unknown,425001,Maharastra,Unknown,clinic,Unknown,Unknown,Unknown,Unknown,21.0037125,75.5698535
Dabi Hospital,"Pratap Nagar, Jalgaon",Unknown,Unknown,425001,Maharastra,Unknown,hospital,Unknown,Unknown,Unknown,Unknown,21.0102157,75.556468
Smile Care Dental and Orthodontic Clinic,"10, Hareshwar Nagar, Near Mahesh Pragati Mandal, Ring Road, Jalgaon",Unknown,Unknown,425001,Maharastra,Unknown,clinic,Unknown,Unknown,Unknown,Unknown,21.0039845,75.5570005
Krushna Clinic,"Plot No. 11, Radha Krushna Nagar, Near Shivaji Nagar Road, Jalgaon",Unknown,Unknown,425001,Maharastra,Unknown,clinic,Unknown,Unknown,Unknown,Unknown,21.0200891,75.555223
Nims Hospital,"Behind Jalgaon Railway Station, Jalgaon",Unknown,Unknown,425001,Maharastra,Unknown,hospital,Unknown,Unknown,Unknown,Unknown,21.018631,75.559781
Dr. Narendra Gujarathi Hospital,"Ramdwar Park, Behind Gujral Petrol Pump, Jalgaon, Tilak Nagar, Indore",Unknown,Unknown,Unknown,Maharastra,Unknown,hospital,Unknown,Unknown,Unknown,Unknown,21.0190025,75.5382421
Aditya Hospital,"Gujral Petrol Pump, Pimprala, Jalgaon",Unknown,Unknown,425001,Maharastra,Unknown,hospital,Unknown,Unknown,Unknown,Unknown,21.0163307,75.5374763
Mathoshri Clinic,"Plot No 2, Shri Krishna Colony, (MS), Jalgaon",Unknown,Unknown,425001,Maharastra,Unknown,clinic,Unknown,Unknown,Unknown,Unknown,21.010908,75.5485571
Chiranjeev Hospital,"Near Krishna Hotel, Gujral Petrol Pump, NH 06, Jalgaon",Unknown,Unknown,425001,Maharastra,Unknown,hospital,Unknown,Unknown,Unknown,Unknown,21.017537,75.5361663
Jyotsnai Health Care Centre Hospital,"Nagpur - Mumbai Highway, Biba Nagar, Khote Nagar, Savkhede Bk",Unknown,Unknown,425002,Maharastra,Unknown,hospital,Unknown,Unknown,Unknown,Unknown,21.0160154,75.5115954
Varad Hospital,"Near Gujral Petrol Pump Square, Jalgaon",Unknown,Unknown,425001,Maharastra,Unknown,hospital,Unknown,Unknown,Unknown,Unknown,21.0164587,75.5389721
Surbhi Clinic,"Shiv Colony, Chandani Chowk, Jalgaon",Unknown,Unknown,425001,Maharastra,Unknown,clinic,Unknown,Unknown,Unknown,Unknown,21.0064186,75.5454388
"SubCentre, Fupanagari",Fupanagari,Unknown,Unknown,425002,Maharashtra,Unknown,Unknown,centre,Unknown,Unknown,Unknown,21.07275,75.5074591
"SubCentre, Mamurabad",Mamurabad,Unknown,Unknown,425002,Maharashtra,Unknown,Unknown,centre,Unknown,Unknown,Unknown,21.0647706,75.5716783
"Government Hospital, Jaikisan Wadi","Old B J Market, Jaikisan Wadi",Unknown,Unknown,425001,Maharashtra,Unknown,hospital,Unknown,Unknown,Unknown,Unknown,21.0081864,75.5686855
Dr. A. G. Bhangale,Unknown,Unknown,Unknown,Unknown,MH,Unknown,hospital,hospital,Unknown,Unknown,Unknown,21.0072014,75.5667821
Dr. A. G. Bhangale,Unknown,Unknown,Unknown,Unknown,Unknown,Unknown,hospital,hospital,Unknown,Unknown,Unknown,21.0072497,75.5667467
