Name,Full Address,Street,City,Postcode,State,Country,Amenity,Healthcare,Phone,Website,Opening Hours,Latitude,Longitude
Mariampur Hospital,Unknown,Unknown,Unknown,Unknown,Unknown,Unknown,hospital,Unknown,Unknown,Unknown,Unknown,26.465464,80.305789
Agarwal Hospital,Unknown,Unknown,Unknown,Unknown,Unknown,Unknown,hospital,Unknown,Unknown,Unknown,Unknown,26.464244,80.314388
Rama Krishna Mission Hospital,Unknown,Unknown,Unknown,Unknown,Unknown,Unknown,hospital,Unknown,Unknown,Unknown,Unknown,26.468763,80.318223
Aashi Medical Store,Unknown,Unknown,"Vijay Nagar, Kanpur",Unknown,Unknown,Unknown,pharmacy,Unknown,Unknown,Unknown,Unknown,26.4649615,80.2905501
Rama Medical Store,Unknown,Unknown,"Vijay Nagar, Kanpur",Unknown,Unknown,Unknown,pharmacy,Unknown,Unknown,Unknown,Unknown,26.4649478,80.2904342
New Golden Medical Store,Unknown,Unknown,"Vijay Nagar, Kanpur",Unknown,Unknown,Unknown,pharmacy,Unknown,Unknown,Unknown,Unknown,26.4635336,80.2943016
Sumeet Medical Store,Unknown,Unknown,"Vijay Nagar, Kanpur",Unknown,Unknown,Unknown,pharmacy,Unknown,Unknown,Unknown,Unknown,26.4632986,80.2952151
Lala Lajpat Rai and Associate Hospital,Swaroop Nagar,Unknown,Unknown,208001,Uttar Pradesh,Unknown,hospital,Unknown,Unknown,Unknown,Unknown,26.4781242,80.3114319
Life Care Chemist,Unknown,Unknown,Unknown,Unknown,Unknown,Unknown,pharmacy,Unknown,Unknown,Unknown,Unknown,26.4727211,80.2868668
Unknown,Unknown,Unknown,Unknown,Unknown,Unknown,Unknown,pharmacy,Unknown,Unknown,Unknown,Unknown,26.4655048,80.3067394
Unknown,Unknown,Unknown,Unknown,Unknown,Unknown,Unknown,pharmacy,Unknown,Unknown,Unknown,Unknown,26.5113535,80.2365581
प्राथमिक स्वास्थ्य केन्द्र,Unknown,Unknown,Unknown,Unknown,Unknown,Unknown,clinic,Unknown,Unknown,Unknown,Unknown,26.4712772,80.3267936
Unknown,Unknown,Unknown,Unknown,Unknown,Unknown,Unknown,hospital,Unknown,Unknown,Unknown,Unknown,26.4791725,80.3056219
Shifa Eye Research Centre(Ana Eye Hospital),"88/327, Chaman Ganj",Unknown,Unknown,208002,Uttar Pradesh,Unknown,hospital,Unknown,Unknown,Unknown,Unknown,26.468316,80.3357461
Shekhar Rastogi Eye Hospital,13 Lakhanpur Road,Unknown,Unknown,208001,Uttar Pradesh,Unknown,hospital,Unknown,Unknown,Unknown,Unknown,26.4945033,80.2790838
Merry Gold Hospital,"E-32, Panki Mandir Road",Unknown,Unknown,208002,Uttar Pradesh,Unknown,hospital,Unknown,Unknown,Unknown,Unknown,26.409045,80.3274326
R.K.Sindhi Sangh Maternity Hospital,"Block - 11,Govind Nagar",Unknown,Unknown,208006,Uttar Pradesh,Unknown,hospital,Unknown,Unknown,Unknown,Unknown,26.4527897,80.302311
"Rama Medical College Hospital, Kanpur Nagar","Rama City, G.T.Road, Near Mandhana Railway Station",Unknown,Unknown,209217,Uttar Pradesh,Unknown,hospital,Unknown,Unknown,https://ramamedicalcolleges.com/,Unknown,26.5671937,80.2208604
Shivani Hospital Pvt Ltd,"120/503, Shivaji Nagar",Unknown,Unknown,208005,Uttar Pradesh,Unknown,hospital,Unknown,Unknown,Unknown,Unknown,26.4718516,80.3020616
Tulsi Hospitals Ltd,14/116-A Civil Lines Civil Lines,Unknown,Unknown,208001,Uttar Pradesh,Unknown,hospital,Unknown,Unknown,Unknown,Unknown,26.4794961,80.344069
Jeevani Hospital,"Kanpur Nursing Home, Opp Hallet Hospital ,7/199 Swaroop Nagar",Unknown,Unknown,208002,Uttar Pradesh,Unknown,hospital,Unknown,Unknown,Unknown,Unknown,26.4795897,80.3106406
Gopal Krishna Surgical and Maternity Clinic,"127, W-1/63, Saket Nagar, (Opposite Parag Diary)",Unknown,Unknown,208014,Uttar Pradesh,Unknown,clinic,Unknown,Unknown,Unknown,Unknown,26.439615,80.3091238
S.R Hospital and Diagnostic Point,"128/A187, K Block,Kidwai Nagar",Unknown,Unknown,208001,Uttar Pradesh,Unknown,hospital,Unknown,Unknown,Unknown,Unknown,26.4201391,80.3293204
Maa Durga Hospital and Research Center,"Shivli Road, Kalyanpur",Unknown,Unknown,208002,Uttar Pradesh,Unknown,hospital,Unknown,Unknown,Unknown,Unknown,26.4984456,80.2374639
Hamid Hospital,97/128 Talao Mahal,Unknown,Unknown,208001,Uttar Pradesh,Unknown,hospital,Unknown,Unknown,Unknown,Unknown,26.4721229,80.3406358
Regency Hospital,"A-2, Sarvodaya Nagar",Unknown,Unknown,208005,Uttar Pradesh,Unknown,hospital,Unknown,Unknown,www.regencyhospital.in,Unknown,26.4793574,80.3015634
Ratandeep Hospital,"I-6, Moti Vihar, 117/K/13, Sarvodaya Nagar",Unknown,Unknown,208025,Uttar Pradesh,Unknown,hospital,Unknown,Unknown,Unknown,Unknown,26.4808825,80.2994223
Royal Cancer Institute and Research Centre,"113/103A, Swaroop Nagar",Unknown,Unknown,208002,Uttar Pradesh,Unknown,hospital,Unknown,Unknown,royalcancerinstitute.com,Unknown,26.479268,80.3160292
North Star Hospital and Joint Replacement center,25/11 - Canal Road,Unknown,Unknown,208001,Uttar Pradesh,Unknown,hospital,Unknown,Unknown,www.northstarhospital.co.in,Unknown,26.4635912,80.359061
Rama Shiv Hospital,"81, W-2, Vivek Vihar, Barra",Unknown,Unknown,208027,Uttar Pradesh,Unknown,hospital,Unknown,Unknown,Unknown,Unknown,26.4309735,80.307937
Akshi Eye Care Centre,"#2/344, A-Azad Nagar Kanpur,Opposite Pandit Deen Dayal Vidyalaya",Unknown,Unknown,208002,Uttar Pradesh,Unknown,clinic,Unknown,Unknown,Unknown,Unknown,26.4983439,80.3117881
Madhav Eye Hospital,"G.T Road , Awadhpuri",Unknown,Unknown,208024,Uttar Pradesh,Unknown,hospital,Unknown,Unknown,Unknown,Unknown,26.4952396,80.269344
Bhargava Hospital,"15/263, Civil Lines Civil Lines",Unknown,Unknown,208001,Uttar Pradesh,Unknown,hospital,Unknown,Unknown,Unknown,Unknown,26.4743257,80.350167
St. Catherine's Hospital,"63/8, Mg Marg,Mall Road",Unknown,Unknown,208004,Uttar Pradesh,Unknown,hospital,Unknown,Unknown,stcatherineshospital.org.in,Unknown,26.4581507,80.3603929
New Shiv Raj Hospital,"128/70 Y, Block Kidwai Nagar",Unknown,Unknown,208011,Uttar Pradesh,Unknown,hospital,Unknown,Unknown,Unknown,Unknown,26.422144,80.3196676
Nasir Hospital,87/73 Hindustan Tannery Compound Bypass Road Jajmau,Unknown,Unknown,208001,Uttar Pradesh,Unknown,hospital,Unknown,Unknown,Unknown,Unknown,26.4311536,80.4056311
Paliwal Eye and Retina Centre,"Manu Clinic, 7/117, Swaroop Nagar",Unknown,Unknown,208001,Uttar Pradesh,Unknown,hospital,hospital,Unknown,Unknown,Unknown,26.4841176,80.3198902
"Jain Hospital, Kanpur Nagar",108-B Vinova Nagar Near Malik Guest House -Ramadevi,Unknown,Unknown,208001,Uttar Pradesh,Unknown,hospital,Unknown,Unknown,Unknown,Unknown,26.4137606,80.3832681
New G.T. Nursing Home,"7/223 Gutaiya Swaroop Nagar, G.T. Road",Unknown,Unknown,208002,Uttar Pradesh,Unknown,clinic,Unknown,Unknown,Unknown,Unknown,26.4817924,80.3022359
Dwivedi Hospital,"117/H-2/168-A, Pandu Nagar",Unknown,Unknown,208005,Uttar Pradesh,Unknown,hospital,Unknown,Unknown,Unknown,Unknown,26.4727891,80.2927013
"Krishnalok Hospital, Kanpur Nagar","268 A-2, Naubasta, Hamirpur Road",Unknown,Unknown,208002,Uttar Pradesh,Unknown,hospital,Unknown,Unknown,Unknown,Unknown,26.4044301,80.315024
Swati Hospital and Research Center,"128, Block-Y, Kidwai Nagar",Unknown,Unknown,208011,Uttar Pradesh,Unknown,hospital,Unknown,Unknown,Unknown,Unknown,26.4204133,80.3195925
Mahsa Hospital,"12 A 3 Gaushala Defence Colony, Jajmau",Unknown,Unknown,208010,Uttar Pradesh,Unknown,hospital,Unknown,Unknown,Unknown,Unknown,26.426279,80.400032
Navyug Nursing Home,107-264-Brahma Nagar Near Brahma Nagar Chauraha,Unknown,Unknown,208012,Uttar Pradesh,Unknown,clinic,Unknown,Unknown,Unknown,Unknown,26.4728672,80.3254947
Huma Hospital,132/168 Babu Purwa,Unknown,Unknown,208023,Uttar Pradesh,Unknown,hospital,Unknown,Unknown,Unknown,Unknown,26.4387576,80.3438169
D S Memorial Nursing Home,"C- 35, Sarvodaya Nagar",Unknown,Unknown,208005,Uttar Pradesh,Unknown,clinic,Unknown,Unknown,Unknown,Unknown,26.4807217,80.3000928
Fortune Hospital,"107/279,Brahama Nagar,Near Brahama Nagar Chauraha",Unknown,Unknown,208012,Uttar Pradesh,Unknown,hospital,Unknown,Unknown,Unknown,Unknown,26.4879419,80.2893063
Ktc's Vedanta (A Hospital And Research Centre) Kanpur Ortho And Trauma Centre Pvt Ltd,"9/55, Arya Nagar",Unknown,Unknown,208012,Uttar Pradesh,Unknown,hospital,Unknown,Unknown,Unknown,Unknown,26.4788514,80.3229298
Suraj Medical and Diagnostics Pvt Ltd,"117-N-65, Kaka Deo,OppositeDeoki Cinema",Unknown,Unknown,208025,Uttar Pradesh,Unknown,clinic,Unknown,Unknown,Unknown,Unknown,26.4765274,80.2951455
Dey's Hospital,"491, Kazi Khera, Lal Bangla, Harjinder Nagar",Unknown,Unknown,208007,Uttar Pradesh,Unknown,hospital,Unknown,Unknown,deyshospital.in,Unknown,26.4193612,80.3895941
Prem Maternity Home,"110/231-A/B, Jawahar Nagar",Unknown,Unknown,208012,Uttar Pradesh,Unknown,hospital,Unknown,Unknown,Unknown,Unknown,26.4694313,80.3202832
Shyam Children and Maternity Centre,"C-15, New Azad Nagar, Kalyanpur",Unknown,Unknown,208001,Uttar Pradesh,Unknown,hospital,Unknown,Unknown,Unknown,Unknown,26.500529,80.2570769
Sulaxmi Hospital,"2A/228,Azad Nagar",Unknown,Unknown,208002,Uttar Pradesh,Unknown,hospital,Unknown,Unknown,Unknown,Unknown,26.5000165,80.3053232
Jagdish Prasad Nigam Memorial Hospital Pvt Ltd,"933, Adarsh Nagar, Unnao Infront Of District Hospital",Unknown,Unknown,209821,Uttar Pradesh,Unknown,hospital,Unknown,Unknown,Unknown,Unknown,26.5375826,80.4776376
Jai Baba Hospital,"242/4 Moharibagh, Civil Lines, Near Rau Tempo Stand, Unnao Near S.P. Office",Unknown,Unknown,209801,Uttar Pradesh,Unknown,hospital,Unknown,Unknown,Unknown,Unknown,26.5533374,80.4817924
L.P.S . Institute Of Cardilogy,G.S.V.M Medical College,Unknown,Unknown,208002,Uttar Pradesh,Unknown,hospital,Unknown,Unknown,Unknown,Unknown,26.4812162,80.3034604
Abha Nursing Home Pvt Ltd,10/503 B Allenganj Tilak Nagar,Unknown,Unknown,208002,Uttar Pradesh,Unknown,hospital,hospital,Unknown,Unknown,Unknown,26.4854512,80.325028
Awasthi's Nursing Home,"615 Safipur,Harjinder Nagar",Unknown,Unknown,208001,Uttar Pradesh,Unknown,clinic,Unknown,Unknown,Unknown,Unknown,26.4152055,80.3902982
Kanpur Trauma and Ortho. Centre,"Panki Rd, Devkali Market",Unknown,Unknown,208017,Uttar Pradesh,Unknown,hospital,Unknown,Unknown,Unknown,Unknown,26.5020967,80.2507339
Madhulok Hospital,Kidwai Nagar Kidwai Nagar,Unknown,Kanpur,208001,Uttar Pradesh,Unknown,hospital,hospital,Unknown,Unknown,Unknown,26.4240594,80.3202206
Lala Amba Prasad Smarak Chikitsalaya,"15/201, Civil Lines Civil Lines",Unknown,Unknown,208001,Uttar Pradesh,Unknown,hospital,Unknown,Unknown,Unknown,Unknown,26.4756865,80.3560156
Madhuraj Multi Speciality Hospital,"113/121-A, Swaroop Nagar",Unknown,Unknown,208002,Uttar Pradesh,Unknown,hospital,Unknown,Unknown,Unknown,Unknown,26.4795518,80.3175304
C.P.Memorial Nursing Home,"OppositeKotwali,Gandhi Nagar",Unknown,Unknown,209801,Uttar Pradesh,Unknown,clinic,Unknown,Unknown,Unknown,Unknown,26.5417255,80.4794133
Jolly Nursing Home and Research Centre (P) Ltd,"119/22 - A Nasimabad,Gumti No.5",Unknown,Unknown,208012,Uttar Pradesh,Unknown,clinic,Unknown,Unknown,Unknown,Unknown,26.4693047,80.3149804
C L Memorail Hospital and Maternity Home Pvt Ltd,"121/625, Shastri Nagar, (Near Vijay Nagar Crossing)",Unknown,Unknown,208005,Uttar Pradesh,Unknown,hospital,Unknown,Unknown,Unknown,Unknown,26.4629904,80.3057024
R K Devi Eye Research Institute,"113 / 157, Swaroop Nagar",Unknown,Unknown,208002,Uttar Pradesh,Unknown,hospital,Unknown,Unknown,https://www.rkdevi.com/,Unknown,26.4819618,80.3172376
Bimal Nursing Home,"117/17, Sarvodaya Nagar",Unknown,Unknown,208005,Uttar Pradesh,Unknown,clinic,Unknown,Unknown,Unknown,Unknown,26.4799462,80.3040625
New Leelamani Hospital,Civil Lines 14/116 'C' - 1 Civil Lines,Unknown,Unknown,208001,Uttar Pradesh,Unknown,hospital,Unknown,Unknown,Unknown,Unknown,26.4796137,80.3437733
Shri Baba Hospital and Trauma Centre,931/4 Kalpi Road Panki,Unknown,Unknown,208020,Uttar Pradesh,Unknown,hospital,Unknown,Unknown,Unknown,Unknown,26.4602956,80.2594098
"Santosh Hospital, Kanpur Nagar","127/214, Barah Devi Chauraha Juhi",Unknown,Unknown,208014,Uttar Pradesh,Unknown,hospital,Unknown,Unknown,Unknown,Unknown,26.4396126,80.3244178
Utkarsh Hospital and Maternity Home,"14A(Ii)-C, Baba Nagar, Naubasta, Near Chaturvedi Bulding",Unknown,Unknown,208021,Uttar Pradesh,Unknown,hospital,Unknown,Unknown,Unknown,Unknown,26.413784,80.3150207
Shanti Surgical Clinic and Nursing Home,Near Barra By Pass,Unknown,Unknown,208019,Uttar Pradesh,Unknown,clinic,Unknown,Unknown,Unknown,Unknown,26.4289487,80.3065369
Bhargava Medical And Trauma Centre,"30-E 'O' Block, Kidwai Nagar",Unknown,Unknown,208023,Uttar Pradesh,Unknown,clinic,Unknown,Unknown,Unknown,Unknown,26.4381365,80.327277
"S D Hospital, Kanpur Nagar","133/190, Juhi Hamirpur Road, Near Baradevi",Unknown,Unknown,208011,Uttar Pradesh,Unknown,hospital,Unknown,Unknown,Unknown,Unknown,26.441433,80.3266427
The Orient Hospital,"128,W-2 Block, Damodar Nagar",Unknown,Unknown,208023,Uttar Pradesh,Unknown,hospital,Unknown,Unknown,Unknown,Unknown,26.4252711,80.3092469
The Gastro Liver Hospital,"7/190 D-1, 2, 3, Swaroop Nagar,Khalasi Line, Old Sales Tax Road",Unknown,Unknown,208002,Uttar Pradesh,Unknown,hospital,Unknown,Unknown,Unknown,Unknown,26.4829828,80.313289
Shubh Netra Kendra,"13, Lekhanpur Road",Unknown,Unknown,208027,Uttar Pradesh,Unknown,hospital,Unknown,Unknown,Unknown,Unknown,26.4945687,80.2792176
Mahaveer Hospital And Trauma Centre,"76-E Block, Panki,Kanpur,Near Railway Station",Unknown,Unknown,208020,Uttar Pradesh,Unknown,hospital,Unknown,Unknown,Unknown,Unknown,26.4625053,80.243741
"CGHS Dispensary, Pandunagar","117/H-2/28,Pandunagar",Unknown,Unknown,Unknown,Uttar Pradesh,Unknown,clinic,centre,Unknown,http://nb.bsf.gov.in/CGHS%20DIspenseries.pdf,Unknown,26.4714566,80.2940364
"Sharma Nursing Home, Kanpur Nagar","113/340, Swaroop Nagar ( Near Kanpur Vidya Mandir), Khalasi Line",Unknown,Unknown,208002,Uttar Pradesh,Unknown,clinic,Unknown,Unknown,Unknown,Unknown,26.4824454,80.3145647
Globus Hospital for Joint Replacement,"117/N/33, Avon Market, Kakadeo, Kanpur, Uttar Pradesh",Unknown,Unknown,208025,Uttar Pradesh,Unknown,hospital,Unknown,Unknown,https://www.globushospital.com/,Unknown,26.4758744,80.2943628
"Indraprastha Hospital, Unnao","Opp Saraswati Takies 10/166 Rajdhani Marg, Shuklaganj",Unknown,Unknown,209801,Uttar Pradesh,Unknown,hospital,Unknown,Unknown,Unknown,Unknown,26.4763701,80.383193
Sanya Surgical Clinic,128/46 Y Block Kidwai Nagar,Unknown,Unknown,208011,Uttar Pradesh,Unknown,clinic,Unknown,Unknown,Unknown,Unknown,26.4351094,80.3350957
Laxmi Devi Kishanchand Memorial Hospital,"150, 157, Ratan Lal Nagar, Chikitsalaya Sampurna, Manavta Se Paripurna",Unknown,Unknown,208022,Uttar Pradesh,Unknown,hospital,Unknown,Unknown,Unknown,Unknown,26.4453476,80.2900936
"Metro Hospital, Kanpur Nagar","No. 10 A, Lakanpur, Gt Road, Near Palace Cross",Unknown,Unknown,208024,Uttar Pradesh,Unknown,hospital,Unknown,Unknown,Unknown,Unknown,26.4921475,80.2837479
Khairabad Eye Hospital,"112, 202, near Utkarsh Academy,Swaroop Nagar",Unknown,Unknown,208002,Uttar Pradesh,Unknown,hospital,Unknown,Unknown,www.mahendraeyeinstitute.com,Unknown,26.4878566,80.3206587
"Mother and Child Care Centre, Kanpur Nagar","105/568, Anand Bagh, Kanpur(Near Sangeet Cinema)",Unknown,Unknown,208002,Uttar Pradesh,Unknown,hospital,Unknown,Unknown,Unknown,Unknown,26.4231234,80.3551532
Spm Hospital Research and Trauma Centre,"C-46-50, Kalyanpur",Unknown,Unknown,208017,Uttar Pradesh,Unknown,hospital,Unknown,Unknown,Unknown,Unknown,26.5010511,80.2575342
Kanpur Nursing Home,"B R Stone Clinic, 111/456, Harsh Nagar",Unknown,Unknown,208012,Uttar Pradesh,Unknown,clinic,Unknown,Unknown,Unknown,Unknown,26.4727615,80.3232202
Sugandha Maternity and Nursing Home,"475, Vayu Vihar , Harjinder Nagar",Unknown,Unknown,208007,Uttar Pradesh,Unknown,clinic,Unknown,Unknown,Unknown,Unknown,26.4142909,80.3936067
Angel Eyes Lasik Center,"C- 35, Sarvodaya Nagar",Unknown,Unknown,208005,Uttar Pradesh,Unknown,hospital,Unknown,Unknown,Unknown,Unknown,26.4805524,80.2997737
D. T Nursing Home,"195, Lal Quarters (Opp Natraj Cinema), Govind Nagar",Unknown,Unknown,208006,Uttar Pradesh,Unknown,clinic,Unknown,Unknown,Unknown,Unknown,26.4493968,80.2986109
Dr. S.K Nigam Surgical and Laparoscopy Clinic,"127/ W-1/1/41, Saket Nagar",Unknown,Unknown,208012,Uttar Pradesh,Unknown,clinic,Unknown,Unknown,Unknown,Unknown,26.4402574,80.3094497
"Mehrotra Ear , Nose, Throat Hospital and Research Centre","111/399, Ashok Nagar,(Harsh Nagar Main Road )",Unknown,Unknown,208012,Uttar Pradesh,Unknown,hospital,Unknown,Unknown,Unknown,Unknown,26.4728846,80.3205447
J.L.Rohatgi Hospital and Jawaharlal Rohatagi Smarak Netra Chikitsalaya,"Association For The Prevention 0f Blindness, G.T.Road, Sarvodaya Nagar",Unknown,Unknown,208020,Uttar Pradesh,Unknown,hospital,Unknown,Unknown,http://www.jlrohatgihospital.org/,Unknown,26.4788118,80.3056209
"Saubhagya Hospital, Kanpur Nagar","76A, Krishna Vihar, Panki Road, Kalyanpur",Unknown,Unknown,208017,Uttar Pradesh,Unknown,hospital,Unknown,Unknown,Unknown,Unknown,26.4919941,80.2473673
"Raj Hospital, Kanpur Nagar","C 1/15, H.I.G. World Bank Colony Barra",Unknown,Unknown,208027,Uttar Pradesh,Unknown,hospital,Unknown,Unknown,Unknown,Unknown,26.4294214,80.301827
B.R. Stone Clinic,"111/456, Harsh Nagar",Unknown,Unknown,208012,Uttar Pradesh,Unknown,clinic,Unknown,Unknown,Unknown,Unknown,26.473014,80.3235877
Kanika Hospital Pvt Ltd,"171/A/5, Harsh Nagar",Unknown,Unknown,208002,Uttar Pradesh,Unknown,hospital,Unknown,Unknown,Unknown,Unknown,26.4757531,80.3248114
Pracheta Ayurvedic Clinic and Panchakarma Center,"H. NO. 78 'O' Block, Keshavpuram Awas Vikas Colony, Kanpur",Unknown,Unknown,208017,Uttar Pradesh,Unknown,clinic,Unknown,Unknown,https://www.prachetaclinic.com/,Unknown,26.4857146,80.2759342
Kulwanti Hospitals,"117/N/8, Kakadeo",Unknown,Unknown,208025,Uttar Pradesh,Unknown,hospital,Unknown,Unknown,https://www.kulwantihospitals.com/,Unknown,26.4795707,80.2935573
Swaroops Surgical Nursing Home,"14/5, Civil Lines, Gwaltoli, Opposite Victoria Mill",Unknown,Unknown,208001,Uttar Pradesh,Unknown,clinic,Unknown,Unknown,Unknown,Unknown,26.4828719,80.33714
Raja Ram Hospital,Kalpi Road,Unknown,Unknown,208020,Uttar Pradesh,Unknown,hospital,Unknown,Unknown,Unknown,Unknown,26.4599666,80.247132
Sushila General Hospital,"974, 14-1, Saket Nager, Near Kedwani Nagar,Thana",Unknown,Unknown,208014,Uttar Pradesh,Unknown,hospital,Unknown,Unknown,Unknown,Unknown,26.4352451,80.3177847
Satya Trauma and Maternity Center,"Double Road,Hig 1/3 Barra-06",Unknown,Unknown,208027,Uttar Pradesh,Unknown,hospital,Unknown,Unknown,Unknown,Unknown,26.4392169,80.2926692
"Guru Teg Bhadur Charitable Hospital, Kanpur Nagar",(Managed By K R V Hoapital Pvt Ltd) 120/192(105) Lajpat Nagar,Unknown,Unknown,208005,Uttar Pradesh,Unknown,hospital,Unknown,Unknown,Unknown,Unknown,26.4677746,80.3070136
"CGHS Dispensary, Civil Lines",15/45 (AandB) Civil Lines,Unknown,Unknown,Unknown,Uttar Pradesh,Unknown,clinic,centre,Unknown,http://nb.bsf.gov.in/CGHS%20DIspenseries.pdf,Unknown,26.4760088,80.3465098
"CGHS Dispensary, Gandhi Gram","89, Gandhi Gram",Unknown,Unknown,Unknown,Uttar Pradesh,Unknown,clinic,centre,Unknown,http://nb.bsf.gov.in/CGHS%20DIspenseries.pdf,Unknown,26.4104791,80.3783557
Kabeer Hospital,"Bajrang Chourah, Yashoda Nagar",Unknown,Unknown,208011,Uttar Pradesh,Unknown,hospital,Unknown,Unknown,https://www.kabeerhospital.com/,Unknown,26.407704,80.3314365
"Prashant Nursing Home, Kanpur Nagar","88.593, Near Sisamau Post Office",Unknown,Unknown,208001,Uttar Pradesh,Unknown,clinic,Unknown,Unknown,Unknown,Unknown,26.4689307,80.3303629
Chandni Hospital,"9/60, Arya Nagar",Unknown,Unknown,208002,Uttar Pradesh,Unknown,hospital,Unknown,Unknown,www.chandnihospital.com,Unknown,26.4796845,80.3224813
Shree Ram Nursing Home Pvt Ltd,"Kidwai Nagar,kapur",Unknown,Unknown,208011,Uttar Pradesh,Unknown,clinic,Unknown,Unknown,Unknown,Unknown,26.4201982,80.328964
"Priya Hospital, Kanpur Nagar","D-25 & 30, Barra Bye Pass Road, Barra World Bank",Unknown,Unknown,208027,Uttar Pradesh,Unknown,hospital,Unknown,Unknown,Unknown,Unknown,26.4304314,80.2998844
R.P. Medical Centre,"29-A, Garderianpurwa, Zoo Road,Vikas Nagar",Unknown,Unknown,208001,Uttar Pradesh,Unknown,hospital,Unknown,Unknown,Unknown,Unknown,26.4957485,80.2880752
Manama Hospital,"88/455, Humayun Bagh",Unknown,Unknown,208001,Uttar Pradesh,Unknown,hospital,Unknown,Unknown,Unknown,Unknown,26.4665567,80.3367707
Brij Medical Centre,"94-E, Panki, Near Panki Police Station",Unknown,Unknown,208020,Uttar Pradesh,Unknown,hospital,Unknown,Unknown,https://bmchospital.in/,Unknown,26.4633734,80.2436337
Annapurna Nursing Home,"S-123, Yashoda Nagar",Unknown,Unknown,208011,Uttar Pradesh,Unknown,clinic,Unknown,Unknown,Unknown,Unknown,26.4095507,80.3285672
G.S.V.M. Medical College,"National Highway 91, Swaroop Nagar",Unknown,Unknown,208002,Uttar Pradesh,Unknown,hospital,Unknown,Unknown,Unknown,Unknown,26.4810191,80.3075287
Dr. Jawaharlal Rohatgi Smarak Netra Chikitsalaya,"117/52, Sarvodaya Nagar,Near Bhoot Nath Mandhir",Unknown,Unknown,208005,Uttar Pradesh,Unknown,clinic,Unknown,Unknown,Unknown,Unknown,26.4478043,80.303913
Saral Nursing Home,"OppositeThana Chakeri, Lal Bangla",Unknown,Unknown,208007,Uttar Pradesh,Unknown,clinic,Unknown,Unknown,www.saralnursinghome.com,Unknown,26.4230462,80.3882737
Dr Lalchandani E N T and Laser Center,"113/58 B, Swaroop Nagar",Unknown,Unknown,208002,Uttar Pradesh,Unknown,hospital,Unknown,Unknown,Unknown,Unknown,26.4795045,80.314271
"CGHS Dispensary, R.K.Nagar","110/31, R.K.Nagar",Unknown,Unknown,Unknown,Uttar Pradesh,Unknown,clinic,centre,Unknown,http://nb.bsf.gov.in/CGHS%20DIspenseries.pdf,Unknown,26.4706637,80.3196408
Excel Hospital,"14/138, Chunni Ganj",Unknown,Unknown,208020,Uttar Pradesh,Unknown,hospital,Unknown,Unknown,www.excelhospitals.in,Unknown,26.4805512,80.3372837
Apex Hospital and Research Centre,"117/P-1/1040, 120 Feet Road, Near Namak Factory Xing, Kakadeo",Unknown,Unknown,208025,Uttar Pradesh,Unknown,hospital,Unknown,Unknown,Unknown,Unknown,26.4840275,80.2497008
Eye-Q Super Speciality Eye Hospitals,"113/57, Mall Rd, Next to Allahabad Bank, Opposite Motijheel, Swaroop Nagar",Unknown,Unknown,208002,Uttar Pradesh,Unknown,hospital,Unknown,Unknown,https://eyeqindia.com/,Unknown,26.4792296,80.3140309
KPM Hospital,"UPHC KPM Hospitals, Birahana Road Kanpur",Unknown,Unknown,208001,Uttar Pradesh,Unknown,Unknown,centre,Unknown,Unknown,Unknown,26.4656652,80.3583947
Uma Shanker Male Hospital,"Opposite CMO Office Unnao, Hiran Nagar, Near Achalganj Tampo Stand, Uma Shankar Dixit Male Hospital",Unknown,Unknown,209801,Uttar Pradesh,Unknown,hospital,Unknown,Unknown,Unknown,Unknown,26.5382497,80.4784597
Jageshwar Hospital,UPHC Jageswar Hospital Govind Nagar Kanpur,Unknown,Unknown,208006,Uttar Pradesh,Unknown,Unknown,centre,Unknown,Unknown,Unknown,26.4496487,80.3088891
PHC Shuklaganj,UNAAO KANPUR ROAD NEAR POLICE STATION,Unknown,Unknown,209861,Uttar Pradesh,Unknown,Unknown,centre,Unknown,Unknown,Unknown,26.4799318,80.3864412
MANYAWAR KASHIRAM HOSPITAL,"NEAR CMO OFFICE, G T ROAD, G.T. ROAD, KASHIRAM HOSPITAL",Unknown,Unknown,208007,Uttar Pradesh,Unknown,hospital,Unknown,Unknown,Unknown,Unknown,26.4144909,80.3815126
Government hospital,"Smt. Balwant kaur Anand State Elopatic Hospitals and UHPC Harjandra Nagar Kanpur 208007, Smt. Balwant kaur Anand State Elopatic Hospitals and UHPC Harjandra Nagar Kanpur",Unknown,Unknown,208007,Uttar Pradesh,Unknown,hospital,Unknown,Unknown,Unknown,Unknown,26.4213129,80.3920779
UHM MALE HOSPITAL,"OPP. HOTEL LANDMARK, BADA CHURAHA, UHM HOSPITAL",Unknown,Unknown,208001,Uttar Pradesh,Unknown,hospital,Unknown,Unknown,Unknown,Unknown,26.4727543,80.3489359
BLBhalla Hospital Babupur,132/432 B.N. Bhalla Hospital Babupurwa Kanpur Nagar,Unknown,Unknown,208023,Uttar Pradesh,Unknown,Unknown,centre,Unknown,Unknown,Unknown,26.442366,80.3400142
Chacha Nehru Hospital Koparganj,UPHC Chacha Nehru Hospitals 85/42 Cooparganj Kanpur,Unknown,Unknown,208001,Uttar Pradesh,Unknown,Unknown,centre,Unknown,Unknown,Unknown,26.4593477,80.3439979
KALYANPUR CHC,"NEAR KALYANPUR RLY STATION, KALYANPUR, KALYANPUR HOSPITAL",Unknown,Unknown,208017,Uttar Pradesh,Unknown,Unknown,centre,Unknown,Unknown,Unknown,26.4982894,80.2381258
"Urban Health Centre, Babupurwa",UPHC Babupurwa 130/571 Murga Market bakar Ganj Babupurwa,Unknown,Unknown,208023,Uttar Pradesh,Unknown,Unknown,centre,Unknown,Unknown,Unknown,26.4403367,80.3403676
NPHC Kalyanpur Purani,"Kalyanpur Purani, Patel Vihar Bairi Bithoor Road",Unknown,Unknown,208017,Uttar Pradesh,Unknown,Unknown,centre,Unknown,Unknown,Unknown,26.514778,80.2553462
Ganesh Hospital,"Barra 2, Barra World Bank, Barra, Kanpur",Unknown,Unknown,208027,Uttar Pradesh,Unknown,hospital,Unknown,Unknown,Unknown,Unknown,26.4348052,80.3015697
Ram Hospital,"Subham Complex, Main Road, Jarauli Phase 1, Karrahi, Damodar Nagar, Kanpur",Unknown,Unknown,208027,Uttar Pradesh,Unknown,hospital,Unknown,Unknown,Unknown,Unknown,26.41613,80.2969922
Dhanvantri Hospital,"Vasant Vihar, Naubasta, Kanpur",Unknown,Unknown,208011,Uttar Pradesh,Unknown,hospital,Unknown,Unknown,Unknown,Unknown,26.4211347,80.3180405
Galaxy Hospital,"Jvs Tower, Kalyanpur, Kanpur",Unknown,Unknown,208017,Uttar Pradesh,Unknown,hospital,Unknown,Unknown,Unknown,Unknown,26.4809198,80.2459457
Narayan Hospital,"Aadarsh Street, Keshavpuram, Kalyanpur, Kanpur",Unknown,Unknown,208017,Uttar Pradesh,Unknown,hospital,Unknown,Unknown,Unknown,Unknown,26.4965306,80.2535283
Reenadeep Woman & Child Care Centre,"High Income Group, Ratan Lal Nagar, Kanpur",Unknown,Unknown,208022,Uttar Pradesh,Unknown,hospital,Unknown,Unknown,Unknown,Unknown,26.446065,80.292013
"Sai Eye Hospital, Govind Nagar","Govind Nagar Road, N Block, B Block, Govind Nagar, Kanpur",Unknown,Unknown,208006,Uttar Pradesh,Unknown,hospital,Unknown,Unknown,Unknown,Unknown,26.4520246,80.3068255
Royal Children's Hospital,"Y Block, Kidwai Nagar, Kanpur",Unknown,Unknown,208011,Uttar Pradesh,Unknown,hospital,Unknown,Unknown,Unknown,Unknown,26.4235699,80.3201424
Mahendru Hospital,"Sarvodaya Nagar, Near Rto Office, Adjacent To Baba Bhootnath Ashram, Kanpur",Unknown,Unknown,208005,Uttar Pradesh,Unknown,hospital,Unknown,Unknown,Unknown,Unknown,26.4789036,80.304545
Abhinav Nursing Home Hospital,"Kailash Vihar, Kalyanpur, Kanpur",Unknown,Unknown,208017,Uttar Pradesh,Unknown,hospital,Unknown,Unknown,Unknown,Unknown,26.4908616,80.2508829
Asg Eye Hospital,"Shastri Nagar, Post Office Road, Chain Factory Chauraha, Kanpur",Unknown,Unknown,208005,Uttar Pradesh,Unknown,hospital,Unknown,Unknown,Unknown,Unknown,26.4643404,80.3024695
Chandra Hospital,"Vishwa Bank Colony, Barra World Bank, Barra, Kanpur",Unknown,Unknown,208027,Uttar Pradesh,Unknown,hospital,Unknown,Unknown,Unknown,Unknown,26.4292042,80.3021013
Arogya Hospital,"Panki Thana Road, Near Sbi, Shahpur, Panki, Kanpur",Unknown,Unknown,208020,Uttar Pradesh,Unknown,hospital,Unknown,Unknown,Unknown,Unknown,26.467618,80.2487713
Tirupati Hospital,"Panki Road, Awas Vikas Ambedkar Puram, Kharanja, Kalyanpur, Kanpur",Unknown,Unknown,208017,Uttar Pradesh,Unknown,hospital,Unknown,Unknown,Unknown,Unknown,26.490033,80.246573
Drishti Hospital,"Barra Main Road, Barra World Bank, Barra, Kanpur",Unknown,Unknown,208027,Uttar Pradesh,Unknown,hospital,Unknown,Unknown,Unknown,Unknown,26.4363234,80.3039944
Kabira Hospital,"Barra World Bank, Barra, Kanpur",Unknown,Unknown,208027,Uttar Pradesh,Unknown,hospital,Unknown,Unknown,Unknown,Unknown,26.4420488,80.2977356
Shraddha Hospital,"Neemeshwar Mahamandir Society, Barra World Bank, Barra, Kanpur",Unknown,Unknown,208027,Uttar Pradesh,Unknown,hospital,Unknown,Unknown,Unknown,Unknown,26.4412092,80.2931634
Raunak Hospital,"Machhariya Road, Macharia, Naubasta, Kanpur",Unknown,Unknown,208011,Uttar Pradesh,Unknown,hospital,Unknown,Unknown,Unknown,Unknown,26.4082916,80.3226006
"ESI Hospital, Kanpur","Kidwai Nagar, Kanpur",Unknown,Unknown,208011,Uttar Pradesh,Unknown,hospital,Unknown,Unknown,Unknown,Unknown,26.425111,80.3263608
Mandakini Hospital,"Karrahi Road, Karrhi, Barra World Bank, Damodar Nagar, Kanpur",Unknown,Unknown,208027,Uttar Pradesh,Unknown,hospital,Unknown,Unknown,Unknown,Unknown,26.4226298,80.302848
Swaraj Hospital,"Kalyanpur - Vijay Nagar Road, Navin Nagar, Kakadeo, Kanpur",Unknown,Unknown,208005,Uttar Pradesh,Unknown,hospital,Unknown,Unknown,Unknown,Unknown,26.4762302,80.2868425
Amogh Hospital,"Hamirpur Road, K Block, Kidwai Nagar, Kanpur",Unknown,Unknown,208014,Uttar Pradesh,Unknown,hospital,Unknown,Unknown,Unknown,Unknown,26.428073,80.3208681
Aashvi Hospital,"Barra-II Main Road, Barra World Bank, Barra, Kanpur",Unknown,Unknown,208027,Uttar Pradesh,Unknown,hospital,Unknown,Unknown,Unknown,Unknown,26.4407734,80.29936
Jeewan Jyoti Hospital,"Subji Mandi Road, Barra 2, Near Barra World Bank, Kanpur",Unknown,Unknown,208027,Uttar Pradesh,Unknown,hospital,Unknown,Unknown,Unknown,Unknown,26.4341246,80.3016336
Samarpan Hospital,"Panki, Kanpur",Unknown,Unknown,208017,Uttar Pradesh,Unknown,hospital,hospital,Unknown,Unknown,Unknown,26.4779926,80.244155
Apex Hospital,"Panki Road, Awas Vikas Ambedkar Puram, Kalyanpur, Kanpur",Unknown,Unknown,208017,Uttar Pradesh,Unknown,hospital,Unknown,Unknown,Unknown,Unknown,26.4844728,80.2508067
"Ordnance Hospital, Armapur","Armapur Street, Armapur Estate, Kanpur",Unknown,Unknown,208022,Uttar Pradesh,Unknown,hospital,Unknown,Unknown,Unknown,Unknown,26.4647222,80.2655699
H2O Life Care Hospital,"Kalyanpur, Kanpur",Unknown,Unknown,208017,Uttar Pradesh,Unknown,hospital,Unknown,Unknown,Unknown,Unknown,26.4840826,80.2446146
Kanha Hospital,"New Shivli Road, Gautam Vihar, Kalyanpur, Kanpur",Unknown,Unknown,208017,Uttar Pradesh,Unknown,hospital,Unknown,Unknown,Unknown,Unknown,26.496557,80.2436952
Bmg Hospital,"Dr.Ram Manohar Lohia Pg College Campus, Kalyanpur, Kanpur",Unknown,Unknown,208006,Uttar Pradesh,Unknown,hospital,Unknown,Unknown,Unknown,Unknown,26.4395556,80.3108157
Shri Jairam Hospital & Trauma Centre,"Near Kargil Fuel Pump, Kanpur - Jhansi Highway, Barra 8, Barra, Kanpur",Unknown,Unknown,208027,Uttar Pradesh,Unknown,hospital,Unknown,Unknown,Unknown,Unknown,26.4354633,80.2874106
Regency Renal Sciences Centre,"Swaroop Nagar, Opposite Motijheel, Kanpur",Unknown,Unknown,208002,Uttar Pradesh,Unknown,hospital,Unknown,Unknown,Unknown,Unknown,26.4793556,80.3160697
Maa Jwala Hospital and Trauma Centre,"Keshav Puram Bagia Crossing, Indira Nagar Road, Awas Vikas, Kalyanpur, Kanpur",Unknown,Unknown,208017,Uttar Pradesh,Unknown,hospital,Unknown,Unknown,Unknown,Unknown,26.4947458,80.2547548
Ansh Hospital,"Keshavpuram, Kailash Vihar, Kalyanpur, Kanpur",Unknown,Unknown,208017,Uttar Pradesh,Unknown,hospital,Unknown,Unknown,Unknown,Unknown,26.4927666,80.2527644
Shiv Hospital,"Panki Road, Awas Vikas, Kharanja, Kalyanpur, Kanpur",Unknown,Unknown,208017,Uttar Pradesh,Unknown,hospital,Unknown,Unknown,Unknown,Unknown,26.4939082,80.2490212
Sis Hospital,"Awas Vikas Ambedkar Puram, Kalyanpur, Kanpur",Unknown,Unknown,208017,Uttar Pradesh,Unknown,hospital,Unknown,Unknown,Unknown,Unknown,26.4848634,80.2562763
Shaurya Hospital,"New Shivali Road, Near Mahila Hotel, Kalyanpur, Kanpur",Unknown,Unknown,208017,Uttar Pradesh,Unknown,hospital,Unknown,Unknown,Unknown,Unknown,26.4980692,80.2405193
Ofc Hospital Armapur,"Armapur Estate, Kanpur",Unknown,Unknown,208022,Uttar Pradesh,Unknown,hospital,Unknown,Unknown,Unknown,Unknown,26.4655444,80.2619627
Maa Vindhyeshwari Hospital,"Gujaini Bypass Road, Ambedkar Nagar, Gujaini, Kanpur",Unknown,Unknown,208022,Uttar Pradesh,Unknown,hospital,Unknown,Unknown,Unknown,Unknown,26.4380686,80.2714112
Merigold Hospital,"Panki Road, Panki, Kanpur",Unknown,Unknown,208020,Uttar Pradesh,Unknown,hospital,Unknown,Unknown,Unknown,Unknown,26.471595,80.242583
Krishna Hospital,"Keshavpuram, Kalyanpur, Kanpur",Unknown,Unknown,208017,Uttar Pradesh,Unknown,hospital,Unknown,Unknown,Unknown,Unknown,26.4966226,80.2529902
Guru Nanak Hospital,"Laxmi Ratan Colony, Lajpat Nagar, Shastri Nagar, Kanpur",Unknown,Unknown,208005,Uttar Pradesh,Unknown,hospital,Unknown,Unknown,Unknown,Unknown,26.4668348,80.3065835
Ppm Hospital,"Barra Bypass Road, Parag Milk Dairy, Juhi Kalan, Saket Nagar, Kanpur",Unknown,Unknown,208014,Uttar Pradesh,Unknown,hospital,Unknown,Unknown,Unknown,Unknown,26.435452,80.3089165
New Angel Hospital & Research Centre,"Kidwainagar Road, Babu Purva Colony, Kidwai Nagar, Kanpur",Unknown,Unknown,208011,Uttar Pradesh,Unknown,hospital,Unknown,Unknown,Unknown,Unknown,26.4271922,80.3350672
"The Panacea Hospital, Kanpur","L-Block, Kakadeo Between Neercheer Chauraha & Double Pulia, Kanpur",Unknown,Unknown,208005,Uttar Pradesh,Unknown,hospital,Unknown,Unknown,Unknown,Unknown,26.473978,80.293236
Sagh Hospital,"Govind Nagar, Kanpur",Unknown,Unknown,208006,Uttar Pradesh,Unknown,hospital,Unknown,Unknown,Unknown,Unknown,26.4506626,80.3063278
Anuradha Hospital,"Ghari Purva, Kidwai Nagar, Kanpur",Unknown,Unknown,208011,Uttar Pradesh,Unknown,hospital,Unknown,Unknown,Unknown,Unknown,26.4151589,80.319435
McRobert Memorial Hospital,"Opposite Chamber Of Commerce, Green Park Civil Lines, Green Park, Permat, Kanpur",Unknown,Unknown,208001,Uttar Pradesh,Unknown,hospital,Unknown,Unknown,Unknown,Unknown,26.4811998,80.3436045
Regency Hospital,"Govind Nagar Road, Nand Lal Chauraha, Govind Nagar, Kanpur",Unknown,Unknown,208006,Uttar Pradesh,Unknown,hospital,Unknown,Unknown,Unknown,Unknown,26.4486148,80.3090486
Ma Hospital,"Varun Vihar Road,Rooma Road, F Block, Hal Market, Barra, Kanpur",Unknown,Unknown,208007,Uttar Pradesh,Unknown,hospital,Unknown,Unknown,Unknown,Unknown,26.4298594,80.2898738
Dr. Murari Lal Chest Hospital,"Rawatpur, Near Gol Chauraha, Sarvodaya Nagar, Kanpur",Unknown,Unknown,208002,Uttar Pradesh,Unknown,hospital,Unknown,Unknown,Unknown,Unknown,26.4820398,80.30321
Nostrum Hospital,"Ambedkar Nagar, Gujaini Gaon, Ravidas Puram, Kanpur",Unknown,Unknown,208022,Uttar Pradesh,Unknown,hospital,Unknown,Unknown,Unknown,Unknown,26.436185,80.2730833
SPM Hospital,"Shastri Nagar, Barra World Bank, Barra, Kanpur",Unknown,Unknown,208027,Uttar Pradesh,Unknown,hospital,Unknown,Unknown,Unknown,Unknown,26.424901,80.303751
ESI Hospital,"Ranjeet Nagar, Shastri Nagar, Kanpur",Unknown,Unknown,208005,Uttar Pradesh,Unknown,hospital,Unknown,Unknown,Unknown,Unknown,26.4647984,80.3060965
South City Hospital & Trauma Centre,"Karrahi Main Road ,Kanpur",Unknown,Unknown,208027,Uttar Pradesh,Unknown,hospital,Unknown,Unknown,Unknown,Unknown,26.413303,80.2988164
Vatsalya Hospital,"Keshavpuram, Kalyanpur, Kanpur",Unknown,Unknown,208017,Uttar Pradesh,Unknown,hospital,Unknown,Unknown,Unknown,Unknown,26.4960542,80.2521237
Indian Hospital,"Yadav Market, Near Gujaini Police Chowki, Ratan Lal Nagar, Gujaini, Kanpur",Unknown,Unknown,208027,Uttar Pradesh,Unknown,hospital,Unknown,Unknown,Unknown,Unknown,26.4405956,80.2812601
Amba Hospital,"Green Park, Civil Lines, Kanpur",Unknown,Unknown,208001,Uttar Pradesh,Unknown,hospital,Unknown,Unknown,Unknown,Unknown,26.4782262,80.3486214
Angel Hospital,"Juhi Kalan, Saket Nagar, Kanpur",Unknown,Unknown,208014,Uttar Pradesh,Unknown,hospital,Unknown,Unknown,Unknown,Unknown,26.4334214,80.3145196
Mansrovar Medical Centre Hospital,"Barra Main Road, Sabji Mandi, Bypass Chauraha, Barra World Bank, Barra, Kanpur",Unknown,Unknown,208027,Uttar Pradesh,Unknown,hospital,Unknown,Unknown,Unknown,Unknown,26.4345552,80.3027312
Khushi Hospital,"Hig, Barra World Bank, Barra, Kanpur",Unknown,Unknown,208027,Uttar Pradesh,Unknown,hospital,Unknown,Unknown,Unknown,Unknown,26.432604,80.297997
Emerald Hospital,"Kidwai Nagar, Kanpur",Unknown,Unknown,208011,Uttar Pradesh,Unknown,hospital,Unknown,Unknown,Unknown,Unknown,26.4294583,80.3300111
City Hospital,"Neemeshwar Mahamandir Society, Ratan Lal Nagar, Kanpur",Unknown,Unknown,208022,Uttar Pradesh,Unknown,hospital,Unknown,Unknown,Unknown,Unknown,26.4434516,80.2864849
South Hospital,"Barra 3 Road, Near Shastri Chowk, Kanpur",Unknown,Unknown,208027,Uttar Pradesh,Unknown,hospital,Unknown,Unknown,Unknown,Unknown,26.4423466,80.2938076
Chandra Hospital,"Gujaini, Kanpur",Unknown,Unknown,208027,Uttar Pradesh,Unknown,hospital,Unknown,Unknown,Unknown,Unknown,26.440292,80.2796814
Sis Hospital & Research Centre,"Ambedaker Puram, Awas Vikas, No .3, Kalyanpur, Kanpur",Unknown,Unknown,208017,Uttar Pradesh,Unknown,hospital,Unknown,Unknown,Unknown,Unknown,26.4842178,80.256
Shanti Mission Hospital,"Pashupati Nagar, Yashoda Nagar, Kanpur",Unknown,Unknown,208011,Uttar Pradesh,Unknown,hospital,Unknown,Unknown,Unknown,Unknown,26.412936,80.3246691
Vimal Hospital,"Juhi - 2, Vinoba Nagar, Kanpur",Unknown,Unknown,208014,Uttar Pradesh,Unknown,hospital,Unknown,Unknown,Unknown,Unknown,26.4412496,80.3208933
C L Memorial Hospital,"Fazalganj Industrial Estate, Fazalganj, Shastri Nagar, Kanpur",Unknown,Unknown,208005,Uttar Pradesh,Unknown,hospital,Unknown,Unknown,Unknown,Unknown,26.4637792,80.2966156
Jaigurudev Hospital,"New Basti Arra, Naubasta, Kanpur",Unknown,Unknown,208021,Uttar Pradesh,Unknown,hospital,Unknown,Unknown,Unknown,Unknown,26.4041953,80.3033404
Shivansh Hospital,"Panki Station Road, Panki Power House, Panki, Kanpur",Unknown,Unknown,208020,Uttar Pradesh,Unknown,hospital,Unknown,Unknown,Unknown,Unknown,26.4633274,80.2435715
Gaytri Nursing Home,"Naya Purwa, Marble Market, Kidwai Nagar, Kanpur",Unknown,Unknown,208011,Uttar Pradesh,Unknown,hospital,Unknown,Unknown,Unknown,Unknown,26.4382968,80.3333814
Pulse Hospital,"Panki Road, Avas Vikar 1st, Near Oriental Bank, Kalyanpur, Kanpur",Unknown,Unknown,208017,Uttar Pradesh,Unknown,hospital,Unknown,Unknown,Unknown,Unknown,26.4949552,80.2495592
J K Hospital,"Shankaracharya Nagar, Deoki Nagar, Yashoda Nagar, Kanpur",Unknown,Unknown,208011,Uttar Pradesh,Unknown,hospital,Unknown,Unknown,Unknown,Unknown,26.411717,80.332896
Sunrise Hospital,"Awas Vikas Ambedkar Puram, Kalyanpur, Kanpur",Unknown,Unknown,208017,Uttar Pradesh,Unknown,hospital,Unknown,Unknown,Unknown,Unknown,26.485006,80.2489416
Ganga Devi Hospital,"Barra Bypass Road, Vishwa Bank Colony, Barra World Bank, Barra, Kanpur",Unknown,Unknown,208027,Uttar Pradesh,Unknown,hospital,Unknown,Unknown,Unknown,Unknown,26.429673,80.3012719
Bima Hospital,"Esplanade Road, A.S.I Hospital, Near Gurudwara, Model Town, Pandu Nagar, Kanpur",Unknown,Unknown,208005,Uttar Pradesh,Unknown,hospital,Unknown,Unknown,Unknown,Unknown,26.4731026,80.2959961
Bliss Hospital,"Barra 8 Road, B Block, Barra World Bank, Barra, Kanpur",Unknown,Unknown,208027,Uttar Pradesh,Unknown,hospital,Unknown,Unknown,Unknown,Unknown,26.4298823,80.2901908
New City Hospital,"Neemeshwar Mahamandir Society, Ratan Lal Nagar, Kanpur",Unknown,Unknown,208022,Uttar Pradesh,Unknown,hospital,Unknown,Unknown,Unknown,Unknown,26.4373156,80.2826888
Chanda Hospital,"Ranapratap Nagar, Rajivpuram, Kanpur",Unknown,Unknown,208019,Uttar Pradesh,Unknown,hospital,Unknown,Unknown,Unknown,Unknown,26.4826868,80.2811825
Saine Hospital,"Awas Vikas, Kalyanpur, Kanpur",Unknown,Unknown,208017,Uttar Pradesh,Unknown,hospital,Unknown,Unknown,Unknown,Unknown,26.489764,80.265679
Dr. Ram Shankar Smarak Hospital,"Vijay Nagar, Kanpur Road, P Block, Navin Nagar, Kakadeo, Kanpur",Unknown,Unknown,208005,Uttar Pradesh,Unknown,hospital,Unknown,Unknown,Unknown,Unknown,26.4753348,80.2860444
Merrygold Hospital,"Panki Road, Shahpur, Panki, Kanpur",Unknown,Unknown,208020,Uttar Pradesh,Unknown,hospital,Unknown,Unknown,Unknown,Unknown,26.4622903,80.244649
E S I Hospital,"Model Town, Sarvodaya Nagar, Kanpur",Unknown,Unknown,208005,Uttar Pradesh,Unknown,hospital,Unknown,Unknown,Unknown,Unknown,26.4758309,80.3005286
Shrey Hospital & Trauma Centre,"Shaneshwar Mandir Chauraha, Near Petrol Pump, Rawat Pur, Kanpur",Unknown,Unknown,208019,Uttar Pradesh,Unknown,hospital,Unknown,Unknown,Unknown,Unknown,26.4773044,80.2725991
Swastik Surgical and Maternity Centre,"Kidwai Nagar, Bypass Road, Dhansinghpur, Kanpur",Unknown,Unknown,208011,Uttar Pradesh,Unknown,hospital,Unknown,Unknown,Unknown,Unknown,26.4164054,80.3281649
Delight Hospital,"M Block, Kakadeo, Kanpur",Unknown,Unknown,208019,Uttar Pradesh,Unknown,hospital,Unknown,Unknown,Unknown,Unknown,26.4742698,80.2837909
Hari Hospital,"Opposite Ram Leela Ground, Govind Nagar, Kanpur",Unknown,Unknown,208006,Uttar Pradesh,Unknown,hospital,Unknown,Unknown,Unknown,Unknown,26.4512764,80.3004194
Anurag Hospital,"Sharda Nagar Road, Near Chhapera Pulia, Sharda Nagar, Kanpur",Unknown,Unknown,208025,Uttar Pradesh,Unknown,hospital,Unknown,Unknown,Unknown,Unknown,26.4832658,80.2875474
Sanjeevani Hospital,"Barra, Kanpur",Unknown,Unknown,208027,Uttar Pradesh,Unknown,hospital,Unknown,Unknown,Unknown,Unknown,26.4298416,80.2921882
Ursala Hospital,"Meston Road, Shiwala, Parade, Kanpur",Unknown,Unknown,208001,Uttar Pradesh,Unknown,hospital,Unknown,Unknown,Unknown,Unknown,26.4723152,80.3505315
Parivar Kalyan Seva Sanstha Hospital,"Kanpur - Jhansi Highway, Barra 7, Sector - A, Barra World Bank, Barra, Kanpur",Unknown,Unknown,208027,Uttar Pradesh,Unknown,hospital,Unknown,Unknown,Unknown,Unknown,26.4363952,80.2863142
R.U. Charitable Hospital,"Vasant Vihar, Naubasta, Kanpur",Unknown,Unknown,208011,Uttar Pradesh,Unknown,hospital,Unknown,Unknown,Unknown,Unknown,26.418948,80.3133719
Seva Chandra Prabha Hospital,"Barra World Bank, Barra, Kanpur",Unknown,Unknown,208027,Uttar Pradesh,Unknown,hospital,Unknown,Unknown,Unknown,Unknown,26.4313268,80.2969058
Sakshi Hospital,"Kalyanpur, Kanpur",Unknown,Unknown,208017,Uttar Pradesh,Unknown,hospital,Unknown,Unknown,Unknown,Unknown,26.4883816,80.246312
Udai Hospital,"Naubasta Road, Jarauli Phase 1, Ramaipur, Naubasta, Kanpur",Unknown,Unknown,208021,Uttar Pradesh,Unknown,hospital,Unknown,Unknown,Unknown,Unknown,26.414795,80.3005119
Hospital,Unknown,Unknown,Unknown,Unknown,Unknown,Unknown,hospital,hospital,Unknown,Unknown,Unknown,26.4753148,80.2860992
"Urban Health Centre, Benajhawar",Benajhawar,Unknown,Unknown,208001,Uttar Pradesh,Unknown,Unknown,centre,Unknown,Unknown,Unknown,26.4767315,80.3282922
"Urban Health Centre, Darshanpurwa",Darshanpurwa,Unknown,Unknown,208003,Uttar Pradesh,Unknown,Unknown,centre,Unknown,Unknown,Unknown,26.4631777,80.3207566
"Urban Health Centre, Dhansinghpur",Dhansinghpur,Unknown,Unknown,208011,Uttar Pradesh,Unknown,Unknown,centre,Unknown,Unknown,Unknown,26.4192939,80.3222371
"Urban Health Centre, Juhi Lal Colony",Juhi Lal Colony,Unknown,Unknown,208014,Uttar Pradesh,Unknown,Unknown,centre,Unknown,Unknown,Unknown,26.4386336,80.3171262
"Urban Health Centre, Faithfulganj",Faithfulganj,Unknown,Unknown,208004,Uttar Pradesh,Unknown,Unknown,centre,Unknown,Unknown,Unknown,26.4493773,80.3573486
"Urban Health Centre, Maswanpur",Maswanpur,Unknown,Unknown,208017,Uttar Pradesh,Unknown,Unknown,centre,Unknown,Unknown,Unknown,26.4851037,80.2622174
"Urban Health Centre, Nehru Nagar",Nehru Nagar,Unknown,Unknown,208012,Uttar Pradesh,Unknown,Unknown,centre,Unknown,Unknown,Unknown,26.4722201,80.3241388
"Urban Health Centre, Sujatganj",Sujatganj,Unknown,Unknown,208013,Uttar Pradesh,Unknown,Unknown,centre,Unknown,Unknown,Unknown,26.4336407,80.3534923
"Urban Health Centre, Usmanpur",Usmanpur,Unknown,Unknown,208014,Uttar Pradesh,Unknown,Unknown,centre,Unknown,Unknown,Unknown,26.4280264,80.3155678
"Urban Health Centre, Dhobhighat",Dhobhihat,Unknown,Unknown,208005,Uttar Pradesh,Unknown,Unknown,centre,Unknown,Unknown,Unknown,26.4641033,80.2892594
"Urban Health Centre, Jarouli",Jarouli,Unknown,Unknown,208021,Uttar Pradesh,Unknown,Unknown,centre,Unknown,Unknown,Unknown,26.421675,80.2903927
"Urban Health Centre, Khyora",Khyora,Unknown,Unknown,208002,Uttar Pradesh,Unknown,Unknown,centre,Unknown,Unknown,Unknown,26.5052853,80.3003101
"Urban Health Centre, Gwaltoli",Gwaltoli,Unknown,Unknown,208001,Uttar Pradesh,Unknown,Unknown,centre,Unknown,Unknown,Unknown,26.4871712,80.3307331
"Urban Health Centre, Raipurwa",raipurwa,Unknown,Unknown,208003,Uttar Pradesh,Unknown,Unknown,centre,Unknown,Unknown,Unknown,26.4625552,80.3296417
"Urban Health Centre, Anwar Ganj",Anwar Ganj,Unknown,Unknown,208003,Uttar Pradesh,Unknown,Unknown,centre,Unknown,Unknown,Unknown,26.456932,80.3279892
"Urban Health Centre, Gujaini",Gujaini,Unknown,Unknown,208022,Uttar Pradesh,Unknown,Unknown,centre,Unknown,Unknown,Unknown,26.4400269,80.2826987
"Urban Health Centre, Kidwai Nagar",Kidwai Nagar,Unknown,Unknown,208011,Uttar Pradesh,Unknown,Unknown,centre,Unknown,Unknown,Unknown,26.4264147,80.3305158
"Urban Health Centre, Nawabganj",nawabganj,Unknown,Unknown,208002,Uttar Pradesh,Unknown,Unknown,centre,Unknown,Unknown,Unknown,26.4957155,80.3112709
"Urban Health Centre, Humayunbagh",Humayunbagh,Unknown,Unknown,208001,Uttar Pradesh,Unknown,Unknown,centre,Unknown,Unknown,Unknown,26.469465,80.3366038
"Urban Health Centre, Barra",Barra,Unknown,Unknown,208027,Uttar Pradesh,Unknown,Unknown,centre,Unknown,Unknown,Unknown,26.4280624,80.3002793
"Urban Health Centre, Jaiprakash Nagar",Jaiprakash Nagar,Unknown,Unknown,208027,Uttar Pradesh,Unknown,Unknown,centre,Unknown,Unknown,Unknown,26.4348272,80.2992547
"Urban Health Centre, Jajmau",Jajmau,Unknown,Unknown,208007,Uttar Pradesh,Unknown,Unknown,centre,Unknown,Unknown,Unknown,26.4305568,80.4008929
"Urban Health Centre, Naubasta",Naubasta,Unknown,Unknown,208021,Uttar Pradesh,Unknown,Unknown,centre,Unknown,Unknown,Unknown,26.4179908,80.3141369
"Urban Health Centre, Premnagar",Premnagar,Unknown,Unknown,208001,Uttar Pradesh,Unknown,Unknown,centre,Unknown,Unknown,Unknown,26.4677038,80.330151
"Urban Health Centre, Rawatpur Gaon",Rawatpur Gaon,Unknown,Unknown,208019,Uttar Pradesh,Unknown,Unknown,centre,Unknown,Unknown,Unknown,26.476483,80.2812597
"Urban Health Centre, Sisamau",Sisamau,Unknown,Unknown,208001,Uttar Pradesh,Unknown,Unknown,centre,Unknown,Unknown,Unknown,26.4698179,80.3278577
"Urban Health Centre, Brahmanagar",Brahmanagar,Unknown,Unknown,209862,Uttar Pradesh,Unknown,Unknown,centre,Unknown,Unknown,Unknown,26.4751181,80.3925204
"SubCentre, Deeh",Deeh,Unknown,Unknown,209801,Uttar Pradesh,Unknown,Unknown,centre,Unknown,Unknown,Unknown,26.5142176,80.4903272
"SubCentre, Panki",Panki,Unknown,Unknown,208020,Uttar Pradesh,Unknown,Unknown,centre,Unknown,Unknown,Unknown,26.4654371,80.2288494
"SubCentre, Sona",Sona,Unknown,Unknown,208020,Uttar Pradesh,Unknown,Unknown,centre,Unknown,Unknown,Unknown,26.4103254,80.2131236
Unknown,Unknown,Unknown,Unknown,Unknown,Unknown,Unknown,hospital,Unknown,Unknown,Unknown,Unknown,26.5493938,80.2590829
Apollo Pharmacy,Unknown,Unknown,Kanpur,208016,Unknown,Unknown,pharmacy,pharmacy,Unknown,Unknown,Unknown,26.5050752,80.2332455
UPRVUNL Dispensary,Unknown,Unknown,Unknown,Unknown,Unknown,Unknown,hospital,hospital,Unknown,Unknown,Unknown,26.4802958,80.2376196
Good Hospital,Unknown,Unknown,Kanpur,209206,Unknown,Unknown,hospital,hospital,Unknown,Unknown,Unknown,26.4236203,80.3201758
New Shivraj Hospital,Unknown,Unknown,Unknown,Unknown,Unknown,Unknown,hospital,hospital,Unknown,Unknown,Unknown,26.4217223,80.3194895
mariampur hospital,Unknown,Unknown,Unknown,Unknown,Unknown,Unknown,hospital,hospital,Unknown,Unknown,Unknown,26.464995,80.3059435
