Name,Full Address,Street,City,Postcode,State,Country,Amenity,Healthcare,Phone,Website,Opening Hours,Latitude,Longitude
Neelu Medical,Unknown,Unknown,Unknown,Unknown,Unknown,Unknown,pharmacy,pharmacy,Unknown,Unknown,Unknown,9.9637331,76.2478659
PNVM Hospital and Research Centre,"Madhava Pharmacy Jn, Kacherippady, Kochi",Unknown,Unknown,682018,Kerala,Unknown,hospital,Unknown,Unknown,Unknown,Unknown,9.9859833,76.2814393
Al Shifa Hospital,Unknown,Unknown,Unknown,Unknown,Unknown,Unknown,hospital,hospital,Unknown,Unknown,Unknown,9.9787245,76.2867126
Sree Sudheendra Medical Mission Hospital,"Kacheripady, Chittoor Road",Unknown,Unknown,682018,Kerala,Unknown,hospital,Unknown,Unknown,https://ssmmhospital.com/,Unknown,9.9849328,76.2832964
Jyothi Medical Shop,Unknown,Unknown,Unknown,Unknown,Unknown,Unknown,pharmacy,Unknown,Unknown,Unknown,Unknown,9.9573258,76.2511988
Cochin Coperative Medical Shop,Unknown,Unknown,Unknown,Unknown,Unknown,Unknown,pharmacy,Unknown,Unknown,Unknown,Unknown,9.9577151,76.2540041
Gautham Hospital,"P.B. No. 868, Panayapilly",Mons. Mathew Kothakathu Road,Unknown,682008,Kerala,Unknown,hospital,Unknown,Unknown,Unknown,Unknown,9.9468667,76.2560419
Laxmi Hospital,Unknown,Mons. Mathew Kothakathu Road,Unknown,Unknown,Unknown,Unknown,hospital,Unknown,Unknown,Unknown,24/7,9.9478979,76.2558553
Madhava Pharmacy,Unknown,Banerji Road,Ernakulam,682018,Unknown,Unknown,pharmacy,Unknown,Unknown,Unknown,Unknown,9.9859829,76.281377
City Hospital,"Mahatma Gandhi Rd, opp. Padma Theatre, Padma Junction, Shenoys, Ernakulam",Mahatma Gandhi Road,Ernakulam,682035,Kerala,Unknown,hospital,Unknown,Unknown,Unknown,Unknown,9.9812391,76.2834857
new medicals,Unknown,Unknown,Unknown,Unknown,Unknown,Unknown,pharmacy,Unknown,Unknown,Unknown,Unknown,9.9979558,76.2961038
Akshaya Hospital,"Near Varkeys Market, Kaloor - Kadavandara Road, Kadavandara",Kaloor-Kadavanthara Road,Unknown,682020,Kerala,Unknown,hospital,hospital,Unknown,Unknown,Unknown,9.9690057,76.299672
Unknown,Unknown,Unknown,Unknown,Unknown,Unknown,Unknown,pharmacy,pharmacy,Unknown,Unknown,Unknown,9.9731372,76.2812728
Unknown,Unknown,Unknown,Unknown,Unknown,Unknown,Unknown,hospital,Unknown,Unknown,Unknown,Unknown,9.9879592,76.2942771
Westend Eye Hospitals,"Kacheripady, Chittoor Road, Near Vimalalayam",Chittoor Road,Unknown,682018,Kerala,Unknown,hospital,hospital,+91 9288605411,Unknown,Unknown,9.9880943,76.2827224
Recoup,Unknown,Old Railway Station Road,Unknown,Unknown,Unknown,Unknown,Unknown,rehabilitation,Unknown,Unknown,Unknown,9.9884867,76.281579
Avalon Pharmacy,Unknown,ESI Hospital Road,Unknown,Unknown,Unknown,Unknown,pharmacy,Unknown,Unknown,Unknown,Unknown,9.9920587,76.282585
nechupadam dental clinic,Unknown,Unknown,Unknown,Unknown,Unknown,Unknown,dentist,dentist,Unknown,Unknown,Unknown,9.9785572,76.2762711
Geekay Drug House,Unknown,Unknown,Unknown,Unknown,Unknown,Unknown,pharmacy,pharmacy,Unknown,Unknown,Mo-Sa 09:00-08:00,9.968433,76.2876545
Mandoli Medicals,Unknown,Unknown,Unknown,Unknown,Unknown,Unknown,pharmacy,pharmacy,Unknown,Unknown,Unknown,9.96839,76.2877668
Soman's Dental Speciality Clinic,Unknown,Unknown,Unknown,Unknown,Unknown,Unknown,dentist,dentist,Unknown,Unknown,Unknown,9.9682239,76.2877865
MG Medicals,Unknown,Unknown,Unknown,Unknown,Unknown,Unknown,pharmacy,pharmacy,Unknown,Unknown,Unknown,9.9646941,76.2873507
Sri Kripa Medicals,Unknown,Unknown,Unknown,Unknown,Unknown,Unknown,pharmacy,pharmacy,Unknown,Unknown,Unknown,9.9660336,76.288563
Modern Medical Stores,Unknown,Unknown,Unknown,Unknown,Unknown,Unknown,pharmacy,pharmacy,Unknown,Unknown,Unknown,9.9649902,76.2892501
Rishi Ayurveda,Unknown,Unknown,Unknown,Unknown,Unknown,Unknown,Unknown,alternative,Unknown,Unknown,Unknown,9.9653442,76.2917507
Razal Medicals,Unknown,Unknown,Unknown,Unknown,Unknown,Unknown,pharmacy,pharmacy,Unknown,Unknown,Unknown,9.9640327,76.2467031
Medline Diagnostics Center,Unknown,T D East Sannidhi Road,Ernakulam,682035,Unknown,Unknown,Unknown,laboratory,+91 484 238 3737,Unknown,Mo-Sa 09:00-16:30,9.9799821,76.2820251
Celica Medical Center,Unknown,Mahatma Gandhi Road,Ernakulam,682015,Unknown,Unknown,Unknown,laboratory,+91 484 238 2582,https://www.celicacochin.com/,Mo-Su 09:15-17:00,9.9576894,76.2892645
Gulshan medicare,Unknown,Unknown,Unknown,Unknown,Unknown,Unknown,Unknown,laboratory,+91-484 405 1351,Unknown,Unknown,9.9867324,76.2807801
Homeo clinic,Unknown,Unknown,Unknown,Unknown,Unknown,Unknown,clinic,doctor,Unknown,Unknown,Unknown,9.912541,76.2936908
Jesus Hospital,"Opposite Government Hospital, Karuvelipady, Cochin",Unknown,Unknown,682005,Kerala,Unknown,hospital,Unknown,Unknown,Unknown,Unknown,9.9428842,76.2606941
Vijaya Institute of Medical Sciences,"Kadamdhenu Apartments,Kadavanthra-Kaloor Road Kadavanthra",Unknown,Unknown,682020,Kerala,Unknown,hospital,hospital,Unknown,Unknown,Unknown,9.9700978,76.2991192
Jishy Hospital,"Mundamveli Road, Mundamveli, Kochi",Unknown,Unknown,682507,Kerala,Unknown,hospital,hospital,Unknown,Unknown,Unknown,9.9244655,76.2558179
Paul's Hospital,"Vattekkattu Road, Kaloor, Cochin",Unknown,Unknown,682017,Kerala,Unknown,hospital,Unknown,Unknown,Unknown,Unknown,9.9883115,76.2957781
Focus Eye Hospital,"Azad Road, Kaloor",Unknown,Unknown,682017,Kerala,Unknown,hospital,hospital,Unknown,Unknown,Unknown,9.9942959,76.2954314
Susrusha Nursing Home,Hospital Road,Unknown,Unknown,682011,Kerala,Unknown,clinic,clinic,Unknown,Unknown,Unknown,9.9719005,76.2844183
Specialists' Hospital,"Opp. North Railway Station, Ernakulam North, Kochi",Unknown,Unknown,682018,Kerala,Unknown,hospital,Unknown,Unknown,https://www.specialistshospital.com/,Unknown,9.9905344,76.2860182
Cochin Hospital,"M G Road, Kochi",Unknown,Unknown,682016,Kerala,Unknown,hospital,hospital,Unknown,Unknown,Unknown,9.964925,76.2875041
Chaitanya Eye Hospital,Ernakulam,Unknown,Unknown,682011,Kerala,Unknown,hospital,hospital,Unknown,Unknown,Unknown,9.9599096,76.2903858
Fatima Hospital,"Cultus Road, Perumpadappu",Unknown,Unknown,682006,Kerala,Unknown,hospital,hospital,Unknown,Unknown,Unknown,9.9014932,76.275571
Ojus Clinic and Nursing Home,Mullassery Canal Road,Unknown,Unknown,682035,Kerala,Unknown,clinic,Unknown,Unknown,Unknown,Unknown,9.9757639,76.2821645
Dr. D' Souza's ENT Clinic and Nursing Home,"Near St. Albertâ€™s College, Cochin",Unknown,Unknown,682018,Kerala,Unknown,clinic,Unknown,Unknown,Unknown,Unknown,9.9855128,76.2795923
JP Medicals,Unknown,Unknown,Unknown,Unknown,Unknown,Unknown,pharmacy,Unknown,Unknown,Unknown,Mo-Su 09:00-21:00,9.9849137,76.2760492
Teebros,Unknown,Unknown,Unknown,Unknown,Unknown,Unknown,pharmacy,pharmacy,Unknown,Unknown,Unknown,9.9719144,76.2826131
Oriental Pharmacy,Unknown,Unknown,Unknown,Unknown,Unknown,Unknown,pharmacy,Unknown,Unknown,Unknown,Unknown,9.9726031,76.2814859
Karuna Medicals,Unknown,Unknown,Unknown,Unknown,Unknown,Unknown,pharmacy,pharmacy,+91 484 236 5445,Unknown,Unknown,9.9719581,76.2829084
PG Medicals,Unknown,Unknown,Unknown,Unknown,Unknown,Unknown,pharmacy,pharmacy,Unknown,Unknown,Unknown,9.9719986,76.2829091
Thejus Medicals,Unknown,Unknown,Unknown,Unknown,Unknown,Unknown,pharmacy,pharmacy,+91 484 235 5313,Unknown,Unknown,9.9719595,76.2832611
Prashanthi clinic,Unknown,Unknown,Unknown,Unknown,Unknown,Unknown,clinic,clinic,Unknown,Unknown,Unknown,9.9766807,76.2809636
Sevana,Unknown,Unknown,Unknown,Unknown,Unknown,Unknown,pharmacy,pharmacy,Unknown,Unknown,Unknown,9.976563,76.277904
Devi Medicals,Unknown,Unknown,Unknown,Unknown,Unknown,Unknown,pharmacy,pharmacy,+91 484 235 6886,Unknown,Unknown,9.9639126,76.2877922
Ria Medicals,Unknown,Unknown,Unknown,Unknown,Unknown,Unknown,pharmacy,pharmacy,Unknown,Unknown,Unknown,9.9640377,76.2877259
Kariath Medicals,Unknown,Unknown,Unknown,Unknown,Unknown,Unknown,pharmacy,pharmacy,Unknown,Unknown,Unknown,9.9641097,76.2876738
Ollapillil Medicals,Unknown,Unknown,Unknown,Unknown,Unknown,Unknown,pharmacy,pharmacy,Unknown,Unknown,Unknown,9.963984,76.2877464
KJ Mampilly Chemist,Unknown,Unknown,Unknown,Unknown,Unknown,Unknown,pharmacy,pharmacy,Unknown,Unknown,Unknown,9.9729637,76.2813013
Sri Bhavani,Unknown,Unknown,Unknown,Unknown,Unknown,Unknown,Unknown,alternative,+91 623559777,Unknown,Unknown,9.9716239,76.2842526
Helth And Glow,Unknown,Unknown,Unknown,Unknown,Unknown,Unknown,Unknown,yes,Unknown,Unknown,Unknown,9.9779713,76.2832931
Art of Living,Unknown,Unknown,Unknown,Unknown,Unknown,Unknown,Unknown,alternative,Unknown,Unknown,Unknown,9.9555651,76.2984257
Surya Medicals,Unknown,Unknown,Unknown,Unknown,Unknown,Unknown,pharmacy,pharmacy,Unknown,Unknown,Unknown,9.9450738,76.2935799
Ben Medicals,Unknown,Unknown,Unknown,Unknown,Unknown,Unknown,pharmacy,pharmacy,Unknown,Unknown,Unknown,9.9429943,76.2946715
Ephphatha,Unknown,Unknown,Unknown,Unknown,Unknown,Unknown,Unknown,speech_therapist,Unknown,Unknown,Unknown,9.9648922,76.2991817
V Care Medicals,Unknown,Unknown,Unknown,Unknown,Unknown,Unknown,pharmacy,pharmacy,Unknown,Unknown,Unknown,9.9571881,76.2959175
Homoeo Clinic,Unknown,Unknown,Unknown,Unknown,Unknown,Unknown,clinic,clinic,Unknown,Unknown,Unknown,9.9014725,76.2936578
Care Medicals,Unknown,Unknown,Unknown,Unknown,Unknown,Unknown,pharmacy,pharmacy,Unknown,Unknown,Unknown,9.9780728,76.295989
king lab,Unknown,Unknown,Unknown,Unknown,Unknown,Unknown,Unknown,laboratory,Unknown,Unknown,Unknown,9.9786285,76.2967773
Drniyaz Nazeer Dentofacial Orthopedics Dental Hospital,Unknown,Unknown,Unknown,Unknown,Unknown,Unknown,dentist,dentist,Unknown,Unknown,Unknown,9.9453893,76.2554976
Medivison,Unknown,Unknown,Unknown,Unknown,Unknown,Unknown,Unknown,laboratory,Unknown,Unknown,Unknown,9.945496,76.2560028
Dental Clinic,Unknown,Unknown,Unknown,Unknown,Unknown,Unknown,dentist,dentist,Unknown,Unknown,Unknown,9.9447406,76.2561923
Unknown,Unknown,Unknown,Unknown,Unknown,Unknown,Unknown,clinic,clinic,Unknown,Unknown,Unknown,9.9447406,76.2572569
Dental Clinic,Unknown,Unknown,Unknown,Unknown,Unknown,Unknown,dentist,dentist,Unknown,Unknown,Unknown,9.9450694,76.2591695
Dental Clinic,Unknown,Unknown,Unknown,Unknown,Unknown,Unknown,dentist,dentist,Unknown,Unknown,Unknown,9.9491532,76.2574773
clinic,Unknown,Unknown,Unknown,Unknown,Unknown,Unknown,dentist,dentist,Unknown,Unknown,Unknown,9.9356997,76.2607303
kottakkal arya vaidhya shaala,Unknown,Unknown,Unknown,Unknown,Unknown,Unknown,Unknown,alternative,Unknown,Unknown,Unknown,9.9787154,76.2776342
Scientific Dental Clinic,"Sahodaran Ayyappan Road, Valanjamblam, Perumanoor",Unknown,Unknown,680016,Kerala,Unknown,dentist,dentist,Unknown,Unknown,Unknown,9.9646667,76.2898325
Vathakat Orthopaedic Hospital,"North Kaloor, Kacheripady, Ernakulam",Unknown,Unknown,682018,Kerala,Unknown,hospital,Unknown,Unknown,Unknown,Unknown,9.986819,76.285434
ESI Dispensary,"Ernakulam, Ayyappankavu",Unknown,Unknown,682018,Kerala,Unknown,Unknown,centre,Unknown,Unknown,Unknown,9.993222,76.285013
Dr. Elzas Ayurveda Hospital,Fort Kochi,Unknown,Unknown,682001,Kerala,Unknown,hospital,hospital,Unknown,Unknown,Unknown,9.965001,76.241904
Susan Clinic,"Karuvelipady, Thoppumpady",Unknown,Unknown,682005,Kerala,Unknown,clinic,Unknown,Unknown,Unknown,Unknown,9.9409952,76.2554458
Vypeen Hospital,"Pallipuram Road, Ochanthuruth",Vypin - Pallippuram Road,Ernakulam,682508,Kerala,Unknown,hospital,hospital,Unknown,Unknown,Unknown,9.9997548,76.2350221
Dr. Hassan Ayurveda Brain and Spine Super Speciality Hospital,"Rajaji Road, Shenoys",Unknown,Unknown,682035,Kerala,Unknown,hospital,hospital,Unknown,Unknown,Unknown,9.978757,76.286691
Government Ayurveda Hospital,"Veli Road, Jubilee Nagar, Veli",Unknown,Unknown,682001,Kerala,Unknown,Unknown,alternative,Unknown,Unknown,Unknown,9.9520045,76.2427929
Sreedhareeyam Ayurvedic Eye Clinic & Panchakarma Centre,"Kaloor, Ernakulam",Unknown,Unknown,682017,Kerala,Unknown,clinic,Unknown,Unknown,Unknown,Unknown,9.9885642,76.2950623
Focus Eye Hospital,"Ernakulam South, Kochi",Unknown,Unknown,682016,Kerala,Unknown,hospital,hospital,Unknown,Unknown,Unknown,9.9689594,76.2932547
Santhigiri Ayurveda & Siddha Hospital,"Iyyattil Junction, Karikkamuri, Ernakulam, Kochi",Unknown,Unknown,682018,Kerala,Unknown,hospital,Unknown,Unknown,Unknown,Unknown,9.9730963,76.2860427
Recoup Physiotherapy Clinic,Kacheripadi,Unknown,Unknown,682018,Kerala,Unknown,clinic,Unknown,Unknown,Unknown,Unknown,9.988625,76.2815897
Unknown,"Sambrikkal Road, Panayappilly, Thoppumpady",Unknown,Unknown,682005,Kerala,Unknown,hospital,hospital,Unknown,Unknown,Unknown,9.9413298,76.2557025
Palluruthy Government Hospital,"Janatha Nagar, Illath Nagar, Palluruthy, Kochi",Unknown,Unknown,682006,Kerala,Unknown,hospital,Unknown,Unknown,Unknown,Unknown,9.9172926,76.2792219
Kerala Ayurvedic Clinic,"A M Thomas Road, Pallimukku",Unknown,Unknown,682016,Kerala,Unknown,clinic,clinic,Unknown,Unknown,Unknown,9.9658517,76.2878457
DDRC Agilus,Unknown,Unknown,Unknown,Unknown,Unknown,Unknown,Unknown,laboratory,Unknown,Unknown,Unknown,9.9634433,76.2954904
Karunya Community pharmacy,Unknown,Unknown,Unknown,Unknown,Unknown,Unknown,pharmacy,pharmacy,Unknown,Unknown,Unknown,9.9729704,76.280735
Prasanth Medicals,Unknown,Unknown,Unknown,Unknown,Unknown,Unknown,pharmacy,Unknown,Unknown,Unknown,Unknown,9.9686532,76.298231
Government Homoeo Model Dispensary Edakochi,Unknown,Old NH 47,"Edakoch, Ernakulam",682010,Unknown,Unknown,hospital,hospital,Unknown,Unknown,Unknown,9.9062493,76.2950036
Hi-Tech,Unknown,Unknown,Unknown,Unknown,Unknown,Unknown,Unknown,laboratory,Unknown,Unknown,Unknown,9.927906,76.2541889
Aju Medicals,Unknown,Unknown,Unknown,Unknown,Unknown,Unknown,pharmacy,pharmacy,Unknown,Unknown,Unknown,9.9639543,76.2456447
Meera Eye Clinic,Unknown,Unknown,Unknown,Unknown,Unknown,Unknown,clinic,clinic,Unknown,Unknown,Mo-Sa 18:30-20:00,9.9634654,76.2456297
Daniel's Cosmetic Dental Clinic,Unknown,Unknown,Unknown,Unknown,Unknown,Unknown,dentist,dentist,Unknown,Unknown,Unknown,9.9639169,76.2455435
life care,Unknown,Unknown,Unknown,Unknown,Unknown,Unknown,pharmacy,pharmacy,Unknown,Unknown,Unknown,9.9638915,76.2455542
Eye and Lens,Unknown,Unknown,Unknown,Unknown,Unknown,Unknown,Unknown,optometrist,Unknown,Unknown,Unknown,9.9633837,76.2455255
Facets Dental Clinic,Unknown,Unknown,Unknown,Unknown,Unknown,Unknown,dentist,dentist,Unknown,Unknown,Unknown,9.9639981,76.2461728
Daniel's Dental Clinic,Unknown,Unknown,Unknown,Unknown,Unknown,Unknown,dentist,dentist,Unknown,Unknown,Unknown,9.96408,76.2455366
Skin and Hair Clinic,Unknown,Unknown,Unknown,Unknown,Unknown,Unknown,clinic,clinic,Unknown,Unknown,Unknown,9.9640168,76.2461224
Lissy's Clinical Labortary,Unknown,Unknown,Unknown,Unknown,Unknown,Unknown,Unknown,laboratory,Unknown,Unknown,Unknown,9.9639026,76.2465349
Unknown,Unknown,Unknown,Unknown,Unknown,Unknown,Unknown,doctors,doctor,Unknown,Unknown,Unknown,9.9471843,76.2561621
Unknown,Unknown,Unknown,Unknown,Unknown,Unknown,Unknown,dentist,dentist,Unknown,Unknown,Unknown,9.982374,76.240877
Kripa Ayurveda Marma Hospital,Unknown,Fort Vypeen-Fort kochi RoRo Service,ERNAKULAM,682510,Unknown,Unknown,clinic,clinic,Unknown,Unknown,Unknown,9.9738196,76.2436858
"East Block, Medical Trust Hospital",Unknown,Unknown,Unknown,Unknown,Unknown,Unknown,hospital,hospital,Unknown,Unknown,Unknown,9.9642981,76.288373
Central Medicals,Unknown,Unknown,Unknown,Unknown,Unknown,Unknown,pharmacy,pharmacy,Unknown,Unknown,Unknown,9.9635971,76.2882896
Jacobs Hospital,Unknown,Unknown,Unknown,Unknown,Unknown,Unknown,hospital,hospital,Unknown,Unknown,Unknown,9.9364863,76.2555454
Mattancherry Government Hospital,Unknown,Unknown,Unknown,Unknown,Unknown,Unknown,hospital,hospital,Unknown,Unknown,Unknown,9.9597832,76.2598371
Dr Basil's Dental Centre,Unknown,Unknown,Unknown,Unknown,Unknown,Unknown,dentist,dentist,Unknown,Unknown,Unknown,9.9559522,76.2928146
"jacobs multispeciality hospital, laparoscopy centre kochi",Unknown,Unknown,Unknown,Unknown,Unknown,Unknown,Unknown,hospital,+91-98951 88222,Unknown,Unknown,9.9365511,76.2555654
"Jacobs Multispeciality Hospital, Laparoscopy Centre Kochi",Unknown,Unknown,Unknown,Unknown,Unknown,Unknown,Unknown,hospital,Unknown,Unknown,Unknown,9.9365793,76.2555532
Amy clinic,Unknown,Unknown,Unknown,Unknown,Unknown,Unknown,clinic,clinic,Unknown,Unknown,Unknown,9.9338058,76.2588377
"Urban Primary Health Centre, Kaloor",Unknown,Unknown,Unknown,Unknown,Unknown,Unknown,hospital,hospital,Unknown,Unknown,Unknown,9.9935425,76.2883583
"Urban Primary Health Cenre, Pandikudy",Unknown,Unknown,Unknown,Unknown,Unknown,Unknown,hospital,hospital,Unknown,Unknown,Unknown,9.9509907,76.2494468
"Urban Primary Health Centre, Moolamkuzhi",Unknown,Unknown,Unknown,Unknown,Unknown,Unknown,hospital,hospital,Unknown,Unknown,Unknown,9.9360022,76.2549759
"Urban Primary Health Centre, Mangattumukku",Unknown,Unknown,Unknown,Unknown,Unknown,Unknown,hospital,hospital,Unknown,Unknown,Unknown,9.9538492,76.2547957
Spectrum Pharma,Unknown,M G road,Unknown,Unknown,Unknown,Unknown,pharmacy,pharmacy,Unknown,Unknown,Unknown,9.9659454,76.2864045
Govenment Homeo Hospital,Unknown,Unknown,Unknown,Unknown,Unknown,Unknown,Unknown,alternative,Unknown,Unknown,Unknown,9.9538342,76.244821
Govt. Ayurveda Dispensary,Unknown,Unknown,Unknown,Unknown,Unknown,Unknown,Unknown,alternative,Unknown,Unknown,Unknown,9.9242945,76.2677504
AMJ Hospital,Unknown,Unknown,Unknown,Unknown,Unknown,Unknown,hospital,hospital,Unknown,Unknown,Unknown,9.9294302,76.2702904
Rhima Deaddiction and Rehabilitation Centre,Unknown,Unknown,Unknown,Unknown,Unknown,Unknown,Unknown,rehabilitation,Unknown,Unknown,Unknown,9.9164928,76.252215
HOMEO CLINIC,Unknown,Unknown,Unknown,Unknown,Unknown,Unknown,clinic,clinic,Unknown,Unknown,Unknown,9.9431005,76.246642
Mathews Dental Clinic,Unknown,Unknown,Unknown,Unknown,Unknown,Unknown,dentist,dentist,Unknown,Unknown,Unknown,9.9477385,76.2926485
Kottakkal Arya Vaidya Sala,Unknown,Unknown,Unknown,Unknown,Unknown,Unknown,Unknown,alternative,Unknown,Unknown,Unknown,9.9477738,76.2923979
Krishna Ayurveda Pharmacy,Unknown,Unknown,Unknown,Unknown,KL,Unknown,Unknown,alternative,Unknown,Unknown,Unknown,9.9466128,76.2929099
Divine Dental Clinic,Unknown,Unknown,Unknown,Unknown,Unknown,Unknown,dentist,dentist,Unknown,Unknown,Unknown,9.9471072,76.2927696
Aster Pharmacy,Unknown,Pandit Karuppan Road,Kochi,Unknown,Unknown,Unknown,pharmacy,pharmacy,Unknown,Unknown,Unknown,9.946787,76.2929094
DDRC Agilus,Unknown,Unknown,Unknown,Unknown,Unknown,Unknown,Unknown,laboratory,Unknown,Unknown,Unknown,9.9456623,76.2933636
Ayursowkhya Clinic,Unknown,Unknown,Unknown,Unknown,Unknown,Unknown,Unknown,alternative,Unknown,Unknown,Unknown,9.943639,76.2943453
Medivision,Unknown,Unknown,Unknown,Unknown,Unknown,Unknown,Unknown,laboratory,Unknown,Unknown,Unknown,9.9429026,76.2948952
Sevana Medicals,Unknown,Unknown,Unknown,Unknown,Unknown,Unknown,pharmacy,pharmacy,Unknown,Unknown,Unknown,9.9490202,76.2922906
Shipyard Pharmacy,Unknown,Unknown,Unknown,Unknown,Unknown,Unknown,pharmacy,pharmacy,Unknown,Unknown,Unknown,9.9487943,76.2911323
Sandip Drug House,Unknown,Unknown,Unknown,Unknown,Unknown,Unknown,pharmacy,pharmacy,Unknown,Unknown,Unknown,9.9496484,76.2920818
Caps 'n' Crowns Dental Clinic,Unknown,Unknown,Unknown,Unknown,Unknown,Unknown,dentist,dentist,Unknown,Unknown,Unknown,9.9499713,76.2923994
International Dental Clinic,Unknown,Unknown,Unknown,Unknown,Unknown,Unknown,dentist,dentist,Unknown,Unknown,Unknown,9.9550759,76.2926106
Aster Labs,Unknown,Unknown,Unknown,Unknown,Unknown,Unknown,Unknown,laboratory,Unknown,Unknown,Unknown,9.9433511,76.2954164
Bharat Medicals,Unknown,Unknown,Unknown,Unknown,Unknown,Unknown,pharmacy,pharmacy,Unknown,Unknown,Unknown,9.9557322,76.2952809
The Homeo Home,Unknown,Unknown,Unknown,Unknown,Unknown,Unknown,Unknown,alternative,Unknown,Unknown,Unknown,9.9684935,76.2853509
Aster Pharmacy,Unknown,Unknown,Unknown,Unknown,Unknown,Unknown,pharmacy,pharmacy,Unknown,Unknown,Unknown,9.9681596,76.284957
Arya Vaidya Pharmacy,Unknown,Unknown,Unknown,Unknown,Unknown,Unknown,Unknown,alternative,Unknown,Unknown,Unknown,9.9490542,76.2919111
Challenge,Unknown,Unknown,Unknown,Unknown,Unknown,Unknown,Unknown,alternative,Unknown,Unknown,Unknown,9.9469179,76.2927551
Dr Elsie Oommen,Unknown,Unknown,Unknown,Unknown,Unknown,Unknown,clinic,clinic,Unknown,Unknown,Unknown,9.9651437,76.2973151
Mirari,Unknown,Unknown,Unknown,Unknown,Unknown,Unknown,clinic,clinic,Unknown,Unknown,Unknown,9.9648929,76.295843
Biovitawell,Unknown,Unknown,Unknown,Unknown,Unknown,Unknown,clinic,clinic,Unknown,Unknown,Unknown,9.950857,76.299426
Dr Deenu Jacob,Unknown,Unknown,Unknown,Unknown,Unknown,Unknown,clinic,clinic,Unknown,Unknown,Unknown,9.9643846,76.2925786
Usha Medicals,Unknown,Unknown,Unknown,Unknown,Unknown,Unknown,pharmacy,pharmacy,Unknown,Unknown,Unknown,9.96759,76.2984341
Dr KK Kamalam,Unknown,Unknown,Unknown,Unknown,Unknown,Unknown,Unknown,alternative,Unknown,Unknown,Unknown,9.9556222,76.2928453
Atlantis Dental Clinic,Unknown,Unknown,Unknown,Unknown,Unknown,Unknown,dentist,dentist,Unknown,Unknown,Unknown,9.9558033,76.2925867
Paulson Dental Centre,Unknown,Unknown,Unknown,Unknown,Unknown,Unknown,dentist,dentist,Unknown,Unknown,Unknown,9.9691657,76.2894195
SkinLab,Unknown,Unknown,Unknown,Unknown,Unknown,Unknown,clinic,clinic,Unknown,Unknown,Unknown,9.9569298,76.2959645
PH Clinic,Unknown,Unknown,Unknown,Unknown,Unknown,Unknown,clinic,clinic,Unknown,Unknown,Unknown,9.9410006,76.2956753
Aster Pharmacy,Unknown,Unknown,Unknown,Unknown,Unknown,Unknown,pharmacy,pharmacy,Unknown,Unknown,Unknown,9.9416345,76.2952519
St Sebastian,Unknown,Unknown,Unknown,Unknown,Unknown,Unknown,dentist,dentist,Unknown,Unknown,Unknown,9.9407379,76.295581
Dr Mathew Abraham,Unknown,Unknown,Unknown,Unknown,Unknown,Unknown,clinic,clinic,Unknown,Unknown,Unknown,9.9582882,76.295017
Amma Scans,Unknown,Unknown,Unknown,Unknown,Unknown,Unknown,Unknown,laboratory,Unknown,Unknown,Unknown,9.9592056,76.2953632
Mysterious Minds,Unknown,Unknown,Unknown,Unknown,Unknown,Unknown,clinic,clinic,Unknown,Unknown,Unknown,9.9608627,76.2952932
Niara Aesthetics,Unknown,Unknown,Unknown,Unknown,Unknown,Unknown,clinic,clinic,Unknown,Unknown,Unknown,9.9631499,76.2957629
Kalarickal Dental Care,Unknown,Unknown,Unknown,Unknown,Unknown,Unknown,dentist,dentist,Unknown,Unknown,Unknown,9.9638155,76.295333
Elite Dental Studio,Unknown,Unknown,Unknown,Unknown,Unknown,Unknown,dentist,dentist,Unknown,Unknown,Unknown,9.96418,76.2953658
Lifeline,Unknown,Unknown,Unknown,Unknown,Unknown,Unknown,clinic,clinic,Unknown,Unknown,Unknown,9.964205,76.2953158
Facets,Unknown,Unknown,Unknown,Unknown,Unknown,Unknown,dentist,dentist,Unknown,Unknown,Unknown,9.9628332,76.2950747
Berinnov,Unknown,Unknown,Unknown,Unknown,Unknown,Unknown,dentist,dentist,Unknown,Unknown,Unknown,9.9627127,76.2955659
Dr Vijaya's,Unknown,Unknown,Unknown,Unknown,Unknown,Unknown,clinic,clinic,Unknown,Unknown,Unknown,9.9632942,76.2950103
Avenue Pharmacy,Unknown,Unknown,Unknown,Unknown,Unknown,Unknown,pharmacy,pharmacy,Unknown,Unknown,Unknown,9.9627999,76.295539
Doctors,Unknown,Unknown,Unknown,Unknown,Unknown,Unknown,pharmacy,pharmacy,Unknown,Unknown,Unknown,9.9627457,76.2955523
Dr George Thomas,Unknown,Unknown,Unknown,Unknown,Unknown,Unknown,clinic,clinic,Unknown,Unknown,Unknown,9.962644,76.2955699
Vivitra,Unknown,Unknown,Unknown,Unknown,Unknown,Unknown,pharmacy,pharmacy,Unknown,Unknown,Unknown,9.9671616,76.2884723
Sharon Medicals,Unknown,Unknown,Unknown,Unknown,Unknown,Unknown,pharmacy,pharmacy,Unknown,Unknown,Unknown,9.9460734,76.2944881
Vaidyarathnam,Unknown,Unknown,Unknown,Unknown,Unknown,Unknown,Unknown,alternative,Unknown,Unknown,Unknown,9.9431312,76.2944849
Cosmo Clinic,Unknown,Unknown,Unknown,Unknown,Unknown,Unknown,clinic,clinic,Unknown,Unknown,Unknown,9.9456016,76.2956072
Dr Gigy Varghese,Unknown,Unknown,Unknown,Unknown,Unknown,Unknown,clinic,clinic,Unknown,Unknown,Unknown,9.9462196,76.2955783
Vedanta,Unknown,Unknown,Unknown,Unknown,Unknown,Unknown,Unknown,alternative,Unknown,Unknown,Unknown,9.9457296,76.2940612
Homoeo Dispensary,Unknown,Unknown,Unknown,Unknown,Unknown,Unknown,Unknown,alternative,Unknown,Unknown,Unknown,9.9615032,76.2924756
Medilab,Unknown,Unknown,Unknown,Unknown,Unknown,Unknown,Unknown,laboratory,Unknown,Unknown,Unknown,9.9663598,76.2987271
Joy's Medicals,Unknown,Unknown,Unknown,Unknown,Unknown,Unknown,pharmacy,pharmacy,Unknown,Unknown,Unknown,9.9666645,76.2991351
Royal Medicals,Unknown,Unknown,Unknown,Unknown,Unknown,Unknown,pharmacy,pharmacy,Unknown,Unknown,Unknown,9.9666062,76.299119
Vaidyaratnam Oushadashala,Unknown,Unknown,Unknown,Unknown,Unknown,Unknown,Unknown,alternative,Unknown,Unknown,Unknown,9.9663072,76.2994059
Medivision,Unknown,Unknown,Unknown,Unknown,Unknown,Unknown,Unknown,laboratory,Unknown,Unknown,Unknown,9.9584384,76.2891523
Dr Abraham K Paul,Unknown,Unknown,Unknown,Unknown,Unknown,Unknown,clinic,clinic,Unknown,Unknown,Unknown,9.9618287,76.2963613
Medicops,Unknown,Unknown,Unknown,Unknown,Unknown,Unknown,pharmacy,pharmacy,Unknown,Unknown,Unknown,9.9722394,76.2829559
Dr Lal Path Labs,Unknown,Unknown,Unknown,Unknown,Unknown,Unknown,Unknown,laboratory,Unknown,Unknown,Unknown,9.945016,76.293597
Dr Bijoy's,Unknown,Unknown,Unknown,Unknown,Unknown,Unknown,dentist,dentist,Unknown,Unknown,Unknown,9.976156,76.2973929
Dr Navanith,Unknown,Unknown,Unknown,Unknown,Unknown,Unknown,dentist,dentist,Unknown,Unknown,Unknown,9.9778494,76.2966153
Ayushyam,Unknown,Unknown,Unknown,Unknown,Unknown,Unknown,Unknown,alternative,Unknown,Unknown,Unknown,9.9679525,76.283961
Supplyco Medical Store,Unknown,Unknown,Unknown,Unknown,Unknown,Unknown,pharmacy,pharmacy,Unknown,Unknown,Unknown,9.9635039,76.2877341
Dr Sait's,Unknown,Unknown,Unknown,Unknown,Unknown,Unknown,Unknown,alternative,Unknown,Unknown,Unknown,9.9832645,76.2752354
QLife,Unknown,Unknown,Unknown,Unknown,Unknown,Unknown,Unknown,pharmacy,Unknown,Unknown,Unknown,9.9629437,76.2433837
Jan Aushadhi,Unknown,Unknown,Unknown,Unknown,Unknown,Unknown,pharmacy,pharmacy,Unknown,Unknown,Unknown,9.9458515,76.2936747
Koithara Dental Clinic,Unknown,Unknown,Unknown,Unknown,Unknown,Unknown,dentist,dentist,Unknown,Unknown,Unknown,9.9515488,76.296796
NKP Vaidyar's Liver Speciality Ayurvedic Clinic,Unknown,Unknown,Unknown,Unknown,Unknown,Unknown,Unknown,alternative,Unknown,Unknown,Unknown,9.9708336,76.2990156
Appollo Pharmacy,Unknown,Unknown,Unknown,Unknown,Unknown,Unknown,pharmacy,pharmacy,Unknown,Unknown,Unknown,9.9937451,76.2809791
Dr.Joggy's Eye Clinic,Unknown,Unknown,Unknown,Unknown,Unknown,Unknown,doctors,doctor,Unknown,Unknown,Unknown,9.9937799,76.281254
Aster Pharmacy,Unknown,Unknown,Unknown,Unknown,Unknown,Unknown,pharmacy,pharmacy,Unknown,Unknown,Unknown,9.9933424,76.2812296
Apollo Pharmacy,Unknown,Unknown,Unknown,Unknown,Unknown,Unknown,pharmacy,pharmacy,Unknown,Unknown,Unknown,9.9913651,76.2849698
Insight Derma Clinic,Unknown,Unknown,Unknown,Unknown,Unknown,Unknown,clinic,clinic,Unknown,Unknown,Unknown,9.9635637,76.297574
Pathanjali,Unknown,Unknown,Unknown,Unknown,Unknown,Unknown,Unknown,alternative,Unknown,Unknown,Unknown,9.9632528,76.2973108
The Dental Boutique,Unknown,Unknown,Unknown,Unknown,Unknown,Unknown,dentist,dentist,Unknown,Unknown,Unknown,9.9634327,76.297011
Dr Thampy's,Unknown,Unknown,Unknown,Unknown,Unknown,Unknown,dentist,dentist,Unknown,Unknown,Unknown,9.9636942,76.2976594
Adonai,Unknown,Unknown,Unknown,Unknown,Unknown,Unknown,dentist,dentist,Unknown,Unknown,Unknown,9.966447,76.2972915
Vijaya Ayurvedic Pharmacy,Unknown,Unknown,Unknown,Unknown,Unknown,Unknown,Unknown,alternative,Unknown,Unknown,Unknown,9.9655764,76.2929456
Dr Ullal's,Unknown,Unknown,Unknown,Unknown,Unknown,Unknown,doctors,doctor,Unknown,Unknown,Unknown,9.974097,76.2831221
Micro Health Laboratories,Unknown,Unknown,Unknown,Unknown,Unknown,Unknown,Unknown,laboratory,Unknown,Unknown,Unknown,9.9746376,76.2829479
Dental Care Centre,Unknown,Unknown,Unknown,Unknown,Unknown,Unknown,dentist,dentist,Unknown,Unknown,Unknown,9.9593631,76.2999869
Jan Aushadhi,Unknown,"Penta Towers, Banerji Rd, Opp, Kaloor",Kochi,682017,Unknown,Unknown,pharmacy,pharmacy,Unknown,https://janaushadhi.gov.in/,Mo-Sa 09:30-19:30,9.9949389,76.2923558
Sevana Medicines,Unknown,Unknown,Unknown,Unknown,Unknown,Unknown,pharmacy,pharmacy,Unknown,Unknown,Unknown,9.9942791,76.2912523
Mohan Medicals,Unknown,Unknown,Unknown,Unknown,Unknown,Unknown,pharmacy,pharmacy,Unknown,Unknown,Unknown,9.9727304,76.297972
Spectrum Pharmacy,Unknown,Unknown,Unknown,Unknown,Unknown,Unknown,pharmacy,pharmacy,Unknown,Unknown,Unknown,9.967429,76.29974
Primedical Diagnostics,Unknown,Unknown,Unknown,Unknown,Unknown,Unknown,Unknown,laboratory,Unknown,Unknown,Unknown,9.9715752,76.2823789
Patanjali Mega Store,Unknown,Unknown,Unknown,Unknown,Unknown,Unknown,Unknown,alternative,Unknown,Unknown,Unknown,9.9719455,76.282711
IMA Blood Centre,Unknown,Unknown,Unknown,Unknown,Unknown,Unknown,Unknown,blood_donation,Unknown,Unknown,Unknown,9.9706466,76.283111
Dr Thomas Mammen,Unknown,Unknown,Unknown,Unknown,Unknown,Unknown,clinic,clinic,Unknown,Unknown,Unknown,9.9709107,76.2831267
Dr Stanley George,Unknown,Unknown,Unknown,Unknown,Unknown,Unknown,clinic,clinic,Unknown,Unknown,Unknown,9.9708553,76.2831317
Dr Nirupama's Dental Clinic,Unknown,Unknown,Unknown,Unknown,Unknown,Unknown,dentist,dentist,Unknown,Unknown,Unknown,9.9735789,76.2831384
GAMCA Centre,Unknown,Unknown,Unknown,Unknown,Unknown,Unknown,clinic,clinic,Unknown,Unknown,Unknown,9.9726487,76.2825033
Unknown,Unknown,Unknown,Unknown,Unknown,Unknown,Unknown,pharmacy,pharmacy,Unknown,Unknown,Unknown,9.9727114,76.2826786
Dr James,Unknown,Unknown,Unknown,Unknown,Unknown,Unknown,dentist,dentist,Unknown,Unknown,Unknown,9.963242,76.2947936
Aster Pharmacy,Unknown,Unknown,Unknown,Unknown,Unknown,Unknown,pharmacy,pharmacy,Unknown,Unknown,Unknown,9.9710461,76.2996536
Dr Paul Jayan,Unknown,Unknown,Unknown,Unknown,Unknown,Unknown,clinic,clinic,Unknown,Unknown,Unknown,9.9769058,76.287288
Geodent,Unknown,Unknown,Unknown,Unknown,Unknown,Unknown,dentist,dentist,Unknown,Unknown,Unknown,9.9770573,76.2868898
Dr Agarwal's Eye Hospital,Unknown,Unknown,Unknown,Unknown,Unknown,Unknown,doctors,doctor,Unknown,Unknown,Unknown,9.9828529,76.2823196
Hahnemann Homoeopathic Pharmacy,Unknown,Unknown,Unknown,Unknown,Unknown,Unknown,Unknown,alternative,Unknown,Unknown,Unknown,9.9875627,76.2769455
Sevana Medicines,Unknown,Unknown,Unknown,Unknown,Unknown,Unknown,pharmacy,pharmacy,Unknown,Unknown,Unknown,9.9647504,76.2882705
"Oncology, Renal & Ophthalmology Block, Medical Trust Hospital",Unknown,Unknown,Unknown,Unknown,Unknown,Unknown,hospital,hospital,Unknown,Unknown,Unknown,9.9643974,76.2885344
Zoechea,Unknown,Unknown,Unknown,Unknown,Unknown,Unknown,Unknown,counselling,Unknown,Unknown,Unknown,9.9495047,76.2925251
Unknown,Unknown,Unknown,Unknown,Unknown,Unknown,Unknown,clinic,clinic,Unknown,Unknown,Unknown,9.9480765,76.291049
Reshmi A Jayan,Unknown,Unknown,Unknown,Unknown,Unknown,Unknown,Unknown,alternative,Unknown,Unknown,Unknown,9.961907,76.2918125
Dr CG Balakrishnan,Unknown,Unknown,Unknown,Unknown,Unknown,Unknown,clinic,clinic,Unknown,Unknown,Unknown,9.9617126,76.2915516
Vettickattil Dental Clinic,Unknown,Unknown,Unknown,Unknown,Unknown,Unknown,dentist,dentist,Unknown,Unknown,Unknown,9.9599458,76.2901013
Dr Batra's,Unknown,Unknown,Unknown,Unknown,Unknown,Unknown,Unknown,alternative,Unknown,Unknown,Unknown,9.9670848,76.286644
Medicare,Unknown,Unknown,Unknown,Unknown,Unknown,Unknown,pharmacy,pharmacy,Unknown,Unknown,Unknown,9.9550964,76.2985331
Therefore I'm,Unknown,Unknown,Unknown,Unknown,Unknown,Unknown,clinic,clinic,Unknown,Unknown,Unknown,9.9573279,76.2968639
True Life Medical Company,Unknown,Unknown,Unknown,Unknown,Unknown,Unknown,Unknown,laboratory,Unknown,Unknown,Unknown,9.9693647,76.2989506
Medivision,Unknown,Unknown,Unknown,Unknown,Unknown,Unknown,Unknown,laboratory,Unknown,Unknown,Unknown,9.9698913,76.2987956
Global Hearing Aid Centre,Unknown,Unknown,Unknown,Unknown,Unknown,Unknown,clinic,clinic,Unknown,Unknown,Unknown,9.9701207,76.2985582
Mampilly Dispensary,Unknown,Unknown,Unknown,Unknown,Unknown,Unknown,pharmacy,pharmacy,Unknown,Unknown,Unknown,9.977898,76.2776665
MedPlus,Unknown,Unknown,Unknown,Unknown,Unknown,Unknown,pharmacy,pharmacy,Unknown,Unknown,Unknown,9.9433258,76.294507
Starcare Polyclinic,Unknown,Unknown,Unknown,Unknown,Unknown,Unknown,clinic,clinic,Unknown,Unknown,Unknown,9.9449108,76.2932465
Cochin Arya Vaidya Sala,Unknown,Unknown,Unknown,Unknown,Unknown,Unknown,Unknown,alternative,Unknown,Unknown,Unknown,9.9774944,76.2773967
Cochin Medicals,Unknown,Unknown,Unknown,Unknown,Unknown,Unknown,pharmacy,pharmacy,Unknown,Unknown,Unknown,9.9678606,76.2996879
M&M Gastro Care,Unknown,Unknown,Unknown,Unknown,Unknown,Unknown,clinic,clinic,Unknown,Unknown,Unknown,9.9646202,76.2943495
Sri Krishna Clinic & Cancer Research,Unknown,Unknown,Unknown,Unknown,Unknown,Unknown,clinic,clinic,Unknown,Unknown,Unknown,9.9648803,76.2941063
Life Care Medicals,Unknown,Unknown,Unknown,Unknown,Unknown,Unknown,pharmacy,pharmacy,Unknown,Unknown,Unknown,9.9651505,76.2940403
Dr B Venugopal,Unknown,Unknown,Unknown,Unknown,Unknown,Unknown,clinic,clinic,Unknown,Unknown,Unknown,9.9619995,76.2977535
Apollo Pharmacy,Unknown,Unknown,Unknown,Unknown,Unknown,Unknown,pharmacy,pharmacy,Unknown,Unknown,Unknown,9.9764063,76.297667
Dr Deepthi,Unknown,Unknown,Unknown,Unknown,Unknown,Unknown,Unknown,alternative,Unknown,Unknown,Unknown,9.9649019,76.2932912
Dr Pradeepa,Unknown,Unknown,Unknown,Unknown,Unknown,Unknown,dentist,dentist,Unknown,Unknown,Unknown,9.9342849,76.2984182
Dr Saritha Ramesh,Unknown,Unknown,Unknown,Unknown,Unknown,Unknown,Unknown,alternative,Unknown,Unknown,Unknown,9.9599771,76.2991185
Dr Rupa Koshy,Unknown,Unknown,Unknown,Unknown,Unknown,Unknown,clinic,clinic,Unknown,Unknown,Unknown,9.9604605,76.2990659
Hahnemanns' Clinic,Unknown,Unknown,Unknown,Unknown,Unknown,Unknown,Unknown,alternative,Unknown,Unknown,Unknown,9.9414255,76.2958572
Medicare Homoeopathic Speciality Clinic,Unknown,Unknown,Unknown,Unknown,Unknown,Unknown,Unknown,alternative,Unknown,Unknown,Unknown,9.9501772,76.2986794
Dr Krishna K,Unknown,Unknown,Unknown,Unknown,Unknown,Unknown,doctors,doctor,Unknown,Unknown,Unknown,9.9715289,76.2842974
