Name,Full Address,Street,City,Postcode,State,Country,Amenity,Healthcare,Phone,Website,Opening Hours,Latitude,Longitude
Eden Hospital,Unknown,Unknown,Unknown,Unknown,Unknown,Unknown,hospital,hospital,Unknown,Unknown,Unknown,22.5727398,88.3600196
Calcutta Medical College & Hospital,Unknown,Unknown,Unknown,Unknown,Unknown,Unknown,hospital,hospital,Unknown,Unknown,Unknown,22.5722242,88.3614363
Ballygunge Drugs Centre,Unknown,Unknown,Unknown,700019,Unknown,Unknown,pharmacy,pharmacy,Unknown,Unknown,Unknown,22.5337863,88.3648196
Frank Ross,Unknown,Hazra Road,Unknown,Unknown,Unknown,Unknown,pharmacy,pharmacy,Unknown,https://www.frankrosspharmacy.com/,Unknown,22.5262448,88.3657852
Sri Ramakrishna Pharmacy,Unknown,Unknown,Unknown,Unknown,Unknown,Unknown,pharmacy,pharmacy,Unknown,Unknown,Unknown,22.5179768,88.3551504
Unknown,Unknown,Burdwan Road,Unknown,Unknown,Unknown,Unknown,pharmacy,pharmacy,Unknown,Unknown,Unknown,22.5222059,88.3285765
Get Well,Unknown,Rash Behari Avenue,Unknown,700026,Unknown,Unknown,pharmacy,pharmacy,098314 61931,Unknown,Fr-We 09:00-22:00,22.5169556,88.3489454
Life Homoe Medicine,Unknown,S B Ghosh Road,Unknown,Unknown,Unknown,Unknown,pharmacy,Unknown,Unknown,Unknown,Unknown,22.7581278,88.3711704
Life Medicine,Unknown,Unknown,Unknown,Unknown,Unknown,Unknown,pharmacy,Unknown,Unknown,Unknown,Unknown,22.75816,88.3711409
XPons Doctor's Clinic,Unknown,Unknown,Unknown,Unknown,Unknown,Unknown,hospital,Unknown,Unknown,Unknown,Unknown,22.7586464,88.3707083
M/S Remedy,Unknown,Old Calcutta Road,Unknown,Unknown,Unknown,Unknown,pharmacy,Unknown,Unknown,Unknown,Unknown,22.7583502,88.3735435
Unknown,Unknown,Unknown,Unknown,Unknown,Unknown,Unknown,pharmacy,pharmacy,Unknown,Unknown,Unknown,22.5641673,88.3680233
Chittaranjan Shishu Hospital,Unknown,Unknown,Unknown,Unknown,Unknown,Unknown,hospital,hospital,Unknown,Unknown,Unknown,22.5264408,88.3471209
Chittaranjan Seva Sadan,Unknown,Unknown,Unknown,Unknown,Unknown,Unknown,hospital,hospital,Unknown,Unknown,Unknown,22.5259264,88.3470069
Chittaranjan National Cancer Institute Hospital,Unknown,Shyama Prasad Mukherjee Road,Kolkata,700026,West Bengal,Unknown,hospital,hospital,Unknown,Unknown,Unknown,22.5252694,88.3466423
Centre Point Nursing Home,"27/T, Raj Krishna Street, Uttarpara,",Unknown,Unknown,712258,West Bengal,Unknown,clinic,clinic,9830511168;9051968444,http://thecarenursinghome.com/,Unknown,22.5291683,88.3451221
Aastha,Unknown,Unknown,Unknown,Unknown,Unknown,Unknown,pharmacy,pharmacy,Unknown,Unknown,Unknown,22.5429973,88.3560631
Quadra Medical Services Pvt Ltd,Unknown,Hazra Road,Unknown,700019,Unknown,Unknown,clinic,clinic,Unknown,Unknown,Unknown,22.5263392,88.3641593
Mayor Chect Clinick,Unknown,Unknown,Unknown,Unknown,Unknown,Unknown,hospital,hospital,Unknown,Unknown,Unknown,22.5895694,88.3507269
Frank Ross Pharmacy,Unknown,Unknown,Unknown,Unknown,Unknown,Unknown,pharmacy,pharmacy,Unknown,Unknown,Unknown,22.5146803,88.3900771
Das Pharmacy,Unknown,Unknown,Unknown,Unknown,Unknown,Unknown,pharmacy,pharmacy,Unknown,Unknown,Unknown,22.5732985,88.3723432
Frank Ross Pharmacy,Unknown,Unknown,Unknown,Unknown,Unknown,Unknown,pharmacy,pharmacy,Unknown,Unknown,Unknown,22.5382703,88.3587315
Unknown,Unknown,Unknown,Unknown,Unknown,Unknown,Unknown,pharmacy,pharmacy,Unknown,Unknown,Unknown,22.5615452,88.3509288
Unknown,Unknown,Unknown,Unknown,Unknown,Unknown,Unknown,pharmacy,pharmacy,Unknown,Unknown,Unknown,22.5647569,88.3533705
Institute Of Neurosciences Kolkata,"185/1, Acharya Jagadish Chandra Bose Road , Beniapukur",AJC Bose Road,Kolkata,700017,West Bengal,Unknown,hospital,hospital,033 4030 9999,https://www.neurokolkata.org/,Unknown,22.5470227,88.3620613
Lokenath Medical Shop,Unknown,Unknown,Unknown,Unknown,Unknown,Unknown,pharmacy,pharmacy,Unknown,Unknown,Unknown,22.5223925,88.3801206
Unknown,Unknown,Unknown,Unknown,Unknown,Unknown,Unknown,pharmacy,pharmacy,Unknown,Unknown,Unknown,22.5213418,88.3827162
Unknown,Unknown,Unknown,Unknown,Unknown,Unknown,Unknown,pharmacy,pharmacy,Unknown,Unknown,Unknown,22.5194831,88.3829381
"ESI HOSPITAL, SEALDAH",Unknown,Acharya Jagadish Chandra Bose Road,KOLKATA,700009,Unknown,Unknown,hospital,hospital,Unknown,Unknown,Unknown,22.5728574,88.3730073
Dr. B.N.Bose Sub-divisional Hospital,"B.T. Road, Opp. Government High School, Barrackpore",Unknown,Unknown,700123,West Bengal,Unknown,hospital,Unknown,Unknown,Unknown,Unknown,22.7515849,88.3710265
Unknown,Unknown,1st Avenue,BIDHANNAGAR,700064,Unknown,Unknown,doctors,doctor,8981254141,Unknown,Unknown,22.5908897,88.3989226
Indonath Kundu,Unknown,Bagmari Road,Unknown,Unknown,Unknown,Unknown,doctors,doctor,Unknown,Unknown,Unknown,22.5818122,88.3904367
Behala Balananda Brahmachari Hospital and Research Center,151 and 153 Diamond Harbour Road,Diamond Harbour Road,Unknown,700034,West Bengal,Unknown,hospital,hospital,Unknown,Unknown,Unknown,22.5065586,88.3205755
Paramount Clinic,Unknown,Beltola Road,Unknown,Unknown,Unknown,Unknown,clinic,clinic,Unknown,Unknown,Unknown,22.5248903,88.3493982
Paramount Nursing Home,"109/1, Hazra Road",Unknown,Unknown,700026,West Bengal,Unknown,hospital,hospital,Unknown,Unknown,Unknown,22.5239877,88.3486944
Dr Rafi Ahmed Dental College & Hospital,Unknown,AJC Bose Road,Unknown,Unknown,Unknown,Unknown,hospital,hospital,Unknown,Unknown,Unknown,22.5627691,88.3679312
"UNB building, NRS medical college",Unknown,AJC Bose Road,Unknown,Unknown,Unknown,Unknown,hospital,hospital,Unknown,Unknown,Unknown,22.5648794,88.3695623
NRS OPD Building,Unknown,Unknown,Unknown,Unknown,Unknown,Unknown,hospital,hospital,Unknown,Unknown,Unknown,22.5645047,88.3686937
"Bekar Ward, NRS Medical College",Unknown,Unknown,Unknown,Unknown,Unknown,Unknown,hospital,hospital,Unknown,Unknown,Unknown,22.5633946,88.3698611
NRS Medical college & Hospital,Unknown,Unknown,Unknown,Unknown,Unknown,Unknown,hospital,hospital,Unknown,Unknown,Unknown,22.5652972,88.3691544
"Dr Rafi Ahmed Dental College & Hospital, Old Campus",Unknown,AJC Bose Road,Unknown,Unknown,Unknown,Unknown,hospital,hospital,Unknown,Unknown,Unknown,22.5629472,88.367509
Royd Pharmacy,Unknown,Unknown,Unknown,Unknown,Unknown,Unknown,pharmacy,pharmacy,Unknown,Unknown,Unknown,22.55318,88.3543372
"Obs & Gynaecology Building, NRS",Unknown,Unknown,Unknown,Unknown,Unknown,Unknown,hospital,hospital,Unknown,Unknown,Unknown,22.563659,88.3690769
Bright Street,Unknown,Bright Street,Unknown,700017,Unknown,Unknown,pharmacy,pharmacy,Unknown,Unknown,Mo-Su 10:00-23:00,22.5377363,88.3693489
Unknown,Unknown,Unknown,Unknown,Unknown,Unknown,Unknown,hospital,hospital,Unknown,Unknown,Unknown,22.5012444,88.3602395
Institute of Blood Transfusion Medicine and Immunohaematology's Blood Bank,"205, Vivekananda Road, Maniktala",Unknown,Kolkata,700006,West Bengal,Unknown,Unknown,blood_donation,Unknown,Unknown,24/7,22.58543,88.3751795
Micro Phaco Surgery Centre,"Kalicharan Seth Lane, Mondal Para Lane, Sinthi",Unknown,Unknown,700014,West Bengal,Unknown,hospital,hospital,Unknown,Unknown,Unknown,22.5572974,88.3723557
Recovery Nursing Home Pvt Ltd,"15/1,Jatindra Mohan Avenue",Unknown,Unknown,700006,West Bengal,Unknown,clinic,clinic,Unknown,Unknown,Unknown,22.5919688,88.3639514
Relief Centre,"55/C, Dhirendra Nath Ghosh Road",Unknown,Unknown,700025,West Bengal,Unknown,clinic,clinic,Unknown,Unknown,Unknown,22.5339512,88.3409129
Re - Life Hospital,"252/5K, Grand Trunk Road, Opposite Kotrung Adarsha Vidyalay,Kotrung, Uttarpara",Unknown,Unknown,712233,West Bengal,Unknown,hospital,Unknown,Unknown,Unknown,Unknown,22.6845585,88.3544138
Bivek Nursing Home,"63, G.T. Road (North)",Unknown,Unknown,711101,West Bengal,Unknown,clinic,Unknown,Unknown,Unknown,Unknown,22.5943066,88.3394948
Hare krishna Nursing Home,"304, G T Road (North ) Salkia",Unknown,Unknown,711106,West Bengal,Unknown,clinic,Unknown,Unknown,Unknown,Unknown,22.6047547,88.342891
The May Fair Hospital,"No 34/1 A, Bt Road, Phool Bagan",Unknown,Unknown,700002,West Bengal,Unknown,hospital,hospital,Unknown,Unknown,Unknown,22.624456,88.3785443
Orchid Skin Clinic,"609, Block `O`,New Alipore",Unknown,Unknown,700053,West Bengal,Unknown,clinic,clinic,Unknown,Unknown,Unknown,22.5082554,88.3355954
Rameswara Nursing Home Pvt Ltd,"P-155/1,C.I.T Scheme-Vii(M),Ultadanga",CIT Road,Unknown,700054,West Bengal,Unknown,hospital,hospital,Unknown,https://rameswaranursinghome.com,Unknown,22.5900155,88.3929551
Ramkrishna Medical Complex Nursing Home,"132,2/12, Narkeldanga Main Road, near Sri Gurudas Banerjee Halt",Unknown,Unknown,700054,West Bengal,Unknown,clinic,clinic,Unknown,https://rkmcnh.com/,Unknown,22.5737119,88.3859539
Bhagirathi Neotia Woman And Child Care Centre,"2, Rawdon Street",Unknown,Unknown,700017,West Bengal,Unknown,hospital,hospital,Unknown,Unknown,Unknown,22.5474203,88.3592599
Midland Nursing Home,"33, Anupama Road",Unknown,Unknown,700056,West Bengal,Unknown,clinic,clinic,Unknown,Unknown,Unknown,22.6666317,88.3772635
Ramesh Chandra Sen Clinic,"P404/7A,Hemanta Mukhopadhaya Sarani,Gariahat Road",Unknown,Unknown,700029,West Bengal,Unknown,clinic,clinic,Unknown,Unknown,Unknown,22.5169662,88.3647182
Rama Krishna Mission Seva Pratisthan,"99,Sarat Bose Road,Kalighat",Unknown,Unknown,700026,West Bengal,Unknown,hospital,hospital,Unknown,https://rkmsevapratishthan.org/,Unknown,22.5234205,88.3519824
Ramakrishma Sarada Mission Matri Bhavan/Matri Bhavan Hospital,"7A,Sree Mohan Lane",Unknown,Unknown,700026,West Bengal,Unknown,hospital,hospital,Unknown,https://rksm-matribhavan.org/,Unknown,22.5137804,88.34363
Paradise Nursing Home,"10/A, N.C.Moitra Street",Unknown,Unknown,700035,West Bengal,Unknown,clinic,clinic,Unknown,Unknown,Unknown,22.6467949,88.3740078
Probal Eye Institute,"34, Satish Mukherjee Road",Unknown,Unknown,700026,West Bengal,Unknown,hospital,hospital,Unknown,https://probaleyeinstitute.com/,Unknown,22.5198434,88.3474602
Punarjyoti Eye Care,"153/155, New Colony, Paschimparam,Rahara",Unknown,Unknown,700118,West Bengal,Unknown,hospital,hospital,Unknown,Unknown,Unknown,22.7264738,88.3792772
Green-View Nursing Home,"B.T.Road,Swasti Nagar,Panihati",Unknown,Unknown,700114,West Bengal,Unknown,clinic,clinic,Unknown,Unknown,Unknown,22.6937332,88.3754235
Green View Clinic Pvt Ltd,"Nh - 6, Alampur More, Po New Kosopah",Unknown,Unknown,711302,West Bengal,Unknown,clinic,Unknown,Unknown,Unknown,Unknown,22.5855217,88.2138714
Priyamvada Birla Aravind Eye Hospital,"10, Loudon Street,Elgin",Unknown,Unknown,700017,West Bengal,Unknown,hospital,hospital,03322894343,www.birlaeye.org,Mo-Sa 08:30-17:30,22.5424238,88.3554102
Harvard Medicare And Research Institute (P) Ltd.,"42,Sk Mujibur Rahman Sarani,Circus Avenue, Beck Bagan",Unknown,Unknown,700017,West Bengal,Unknown,hospital,hospital,Unknown,Unknown,Unknown,22.542529,88.3651547
Hazra Nursing Home,"Domjur Jagadishpur Road,Domjur",Unknown,Unknown,711405,West Bengal,Unknown,clinic,Unknown,Unknown,Unknown,Unknown,22.6369156,88.2212435
Life Line Diagnostic Centre And Nursing Home,"4 A, Wood Street",Unknown,Unknown,700016,West Bengal,Unknown,hospital,hospital,Unknown,Unknown,Unknown,22.5477696,88.3542247
L.B.Nursing Home,"204A,Acharya Prafulla Chandra Road",Unknown,Unknown,700004,West Bengal,Unknown,clinic,clinic,Unknown,Unknown,Unknown,22.601137,88.3736761
Serampore Surgical Nursing Home,"8A, K M Shah St. Serampur",Unknown,Unknown,712201,West Bengal,Unknown,clinic,Unknown,Unknown,Unknown,Unknown,22.7543237,88.3426247
People Meditreat Pvt Ltd,"262,Netaji Subhash Road",Unknown,Unknown,711101,West Bengal,Unknown,hospital,Unknown,Unknown,Unknown,Unknown,22.58174,88.3232278
P.G.PolyClinic,"5,Suburban Hospital Road",Suburban Hospital Road,Unknown,700020,West Bengal,Unknown,clinic,clinic,03322041100,Unknown,14:00-16:00,22.5392491,88.3486591
Swastik Seva Sadan,"No. 16C Topsia,Tiljala",Unknown,Unknown,700046,West Bengal,Unknown,hospital,hospital,Unknown,Unknown,Unknown,22.5347322,88.3743808
Netaji Subhash Nursing Home and Diagnostic Centre,4D-Ekbalpore Lane,Ekbalpur Lane,Unknown,700023,West Bengal,Unknown,clinic,clinic,09831070697,https://www.diagnosticcentres.in/diagnostic-centres/west-bengal/kolkata/netaji-subhash-nursing-home-and-diagnostic-centre.html,24/7,22.5322517,88.3253306
Panihati State General Hospital,"Sodepur Barasat Road, Ghola, Sodepur",Unknown,Unknown,700111,West Bengal,Unknown,hospital,hospital,Unknown,https://panihatimunicipality.in/,Unknown,22.6929042,88.3980869
Panacea Nursing Home,"32/8, Barasat Road, Near Railway Gate No 15,Barrackpore",Unknown,Unknown,700122,West Bengal,Unknown,clinic,Unknown,Unknown,Unknown,Unknown,22.7670766,88.3714767
"Shusrusha Nursing Home, Kolkata",P-290 C I T Scheme 6-M Upendra Chandra Banerjee Road,Unknown,Unknown,700054,West Bengal,Unknown,clinic,clinic,Unknown,Unknown,Unknown,22.5772196,88.3883254
Lifeline,Unknown,Unknown,Unknown,Unknown,Unknown,Unknown,pharmacy,pharmacy,Unknown,Unknown,Unknown,22.5543144,88.3509186
Mayflower Nursing Home,Unknown,Ripon Street,Unknown,700016,West Bengal,Unknown,clinic,clinic,Unknown,Unknown,Unknown,22.5538559,88.354917
The Orthopaedic And Fracture Clinic,"15/2,Sarat Bose Road",Unknown,Unknown,700020,West Bengal,Unknown,hospital,hospital,Unknown,Unknown,Unknown,22.5403082,88.3550012
The Sherwood Nursing Home,"30-D,College Street",Unknown,Unknown,700073,West Bengal,Unknown,clinic,clinic,Unknown,Unknown,Unknown,22.5720525,88.3620675
Udit Nursing Home,"50/2 /1, Bhairab Dutta Lane,Nandi Bagan, Salkia",Unknown,Unknown,711106,West Bengal,Unknown,clinic,Unknown,Unknown,Unknown,Unknown,22.5972239,88.3379249
Unipon Hospital and Medical Sciences Pvt.Ltd -Kolkata,"V-122/A/2,S.A.Farooquie Road,Opp: Bartala Post Office",Unknown,Unknown,700018,West Bengal,Unknown,hospital,Unknown,Unknown,Unknown,Unknown,22.5440241,88.2696868
United Nursing Home (P) Ltd.,"10/B, Acharya K. C. Bhattacharya Street, Serampore",Unknown,Unknown,712201,West Bengal,Unknown,clinic,clinic,Unknown,Unknown,Unknown,22.7495595,88.3510577
Dr Nihar Munshi Eye Foundation,"1/3, Dover Place",Unknown,Unknown,700019,West Bengal,Unknown,hospital,hospital,Unknown,Unknown,Unknown,22.5240061,88.3606586
Capitol Nursing Home,"288 / 2, A. P. C. Road",Unknown,Unknown,700033,West Bengal,Unknown,clinic,clinic,Unknown,Unknown,Unknown,22.5811797,88.3745605
Uttarpara State General Hospital,"Lawrence Street, Near Uttarpara Railway Station, Uttarpara",Unknown,Uttarpara,712258,West Bengal,Unknown,hospital,hospital,Unknown,Unknown,Unknown,22.663208,88.3435006
Shradha Health Care Pvt. Ltd,"No.46,Pramatha Chowdhary Sarani,Near Rasai Factory",Unknown,Unknown,700053,West Bengal,Unknown,hospital,hospital,Unknown,Unknown,Unknown,22.5086023,88.3380973
"Vasan Eye Care Hospital, Sodepur","177,FBT Road,Panihati,Sodepur",Unknown,Unknown,700114,West Bengal,Unknown,hospital,hospital,Unknown,https://vasaneye.com/,Unknown,22.6997425,88.3752036
"Mamata Nursing Home, Hooghly","2, Nonadanga Road, Sheoraphuli",Unknown,Unknown,712223,West Bengal,Unknown,clinic,Unknown,Unknown,Unknown,Unknown,22.7776894,88.3250497
Federation Nursing Home,4 Federation Street,Unknown,Unknown,700009,West Bengal,Unknown,clinic,clinic,Unknown,Unknown,Unknown,22.5794459,88.3750211
Nightingale Hospital,"11, Shakespeare Sarani Road",Shakespeare Sarani,Unknown,700071,West Bengal,Unknown,hospital,hospital,03335005949,https://nightingalehospital.com/,24/7,22.546022,88.3515425
N G Medicare And Calcutta Hope Infertility Clinic,"123A, Rash Behari Avenue",Unknown,Unknown,700029,West Bengal,Unknown,hospital,hospital,Unknown,Unknown,Unknown,22.5187786,88.3591291
Nilima Matri Sadan,"22, Shibnarayan Road, Uttarpara",Unknown,Unknown,712258,West Bengal,Unknown,hospital,hospital,Unknown,Unknown,Unknown,22.6568859,88.3463068
Ekbalpur Nursing Home Pvt Ltd,"9, Ibrahim Road",Ibrahim Road,Unknown,700023,West Bengal,Unknown,clinic,clinic,03371440909,https://www.ekbalpurnursinghome.org/,24/7,22.534884,88.3250094
Elite Nursing Home,"11/1A,Manohar Pukur Road",Unknown,Unknown,700026,West Bengal,Unknown,clinic,clinic,Unknown,https://maritimemedical.in/,Unknown,22.522012,88.3492184
Emily Nursing Home,"205, Ramkrishna Samadhi Road",Unknown,Unknown,700054,West Bengal,Unknown,clinic,clinic,Unknown,Unknown,Unknown,22.5784424,88.3917877
EVES Clinic Nursing Home,"14,F/1A,Dum Dum Road",Unknown,Unknown,700030,West Bengal,Unknown,clinic,clinic,Unknown,https://evesclinic.in/,Unknown,22.6184713,88.392064
Eskag Sanjeevani Hospital,"P-48, Khirod Vidya Vinod Avenue",Unknown,Unknown,700003,West Bengal,Unknown,hospital,hospital,Unknown,https://eskagsanjeevani.com/,Unknown,22.6040075,88.3678195
Eye Care,"A/13,Amarabati,Sodepur",Unknown,Unknown,700110,West Bengal,Unknown,clinic,clinic,Unknown,Unknown,Unknown,22.6987577,88.3866258
Eyeland Microsurgery Centre,"5, Middle Road, Anandapuri, Barrackpore",Unknown,Unknown,700122,West Bengal,Unknown,hospital,Unknown,Unknown,Unknown,Unknown,22.7588628,88.373035
Eye Foundation And Research Centre,"P-1, C.I.T. Road, Scheme Vii-M, Nirmala Market, Kankurgachi",Unknown,Unknown,700054,West Bengal,Unknown,hospital,hospital,Unknown,maitreyeedas.com,Unknown,22.5807877,88.3880956
Asit Kumar Dey Memorial Crossland Diagnostic Centre,"61/U,G.T. Road (W), Serampore",Unknown,Unknown,712201,West Bengal,Unknown,hospital,Unknown,Unknown,Unknown,Unknown,22.7514247,88.3360028
Florid Nursing Home,"P-1, C.I.T. - Manicktala Main Road,Sch Vii-M",Unknown,Unknown,700054,West Bengal,Unknown,clinic,clinic,Unknown,Unknown,Unknown,22.580763,88.3880688
Fortis Healthcare,"111A, Rash Behari Avenue",Unknown,Unknown,700029,West Bengal,Unknown,hospital,hospital,Unknown,Unknown,Unknown,22.5181685,88.3559132
Farsight Eye Research Centre,"32-A,Lower Range Road",Unknown,Unknown,700017,West Bengal,Unknown,hospital,hospital,Unknown,Unknown,Unknown,22.539975,88.3618898
"Jeevan Jyoti Nursing Home, Kolkata","12, Pratap Ghosh Lane, Jorasanko",Unknown,Unknown,700007,West Bengal,Unknown,clinic,clinic,Unknown,Unknown,Unknown,22.5835237,88.3613265
Five Point Micro Surgery Centre Pvt Ltd,"227, Acharya Praffula Chandra Road,( Near Shyambazar Cesc Building )",Unknown,Unknown,700004,West Bengal,Unknown,hospital,hospital,Unknown,Unknown,Unknown,22.5997713,88.3744177
Implant House Laser and Diagnostic Centre,"40A, Beck Bagan Row",Unknown,Unknown,700029,West Bengal,Unknown,hospital,hospital,Unknown,Unknown,Unknown,22.5395258,88.3621646
Vivekananda Eye Care Centre,"51-C/2 G, Chaulpatty Road, Beleghata, Near Joramandir",Unknown,Unknown,700010,West Bengal,Unknown,hospital,hospital,Unknown,Unknown,Unknown,22.5629144,88.3950521
Park Medico,Unknown,Park Street,Unknown,700016,Unknown,Unknown,pharmacy,pharmacy,Unknown,Unknown,Unknown,22.55382,88.3529259
Aurobindo Netralaya,"4A, Rajendra Deb Road",Unknown,Unknown,700007,West Bengal,Unknown,hospital,hospital,Unknown,drabhijitghosh.com,Unknown,22.5810552,88.3656241
"Gamma Centauri Health Care P Ltd.,","3 - B, Albert Road",Unknown,Unknown,700017,West Bengal,Unknown,hospital,hospital,Unknown,Unknown,Unknown,22.5446657,88.3551662
Plaza Medico,Unknown,Shakespeare Sarani,Unknown,700071,Unknown,Unknown,pharmacy,pharmacy,Unknown,Unknown,Unknown,22.5450797,88.3514472
Sana Nursing Home,"5/1A, Nurulla Doctor Lane, Behind Bangladesh High Commissioner Office",Unknown,Unknown,700017,West Bengal,Unknown,clinic,clinic,Unknown,Unknown,Unknown,22.5417995,88.3612588
Samaritan Clinic (P) Ltd.,"4,Roy Mansions Elgin Road, (10/4D, Lala Lajpat Rai Sarani)",Elgin Road,Unknown,700020,West Bengal,Unknown,clinic,clinic,03340608313,https://samaritancare.in/,24/7,22.5380513,88.35042
Sankara Jyoti Eye Institute,"5/1, M.S.M. Road, Khardhah",Unknown,Unknown,700116,West Bengal,Unknown,hospital,hospital,Unknown,Unknown,Unknown,22.7172073,88.3695991
Santosh Clinic,"38U, Sultan Alam Road",Unknown,Unknown,700033,West Bengal,Unknown,clinic,clinic,Unknown,Unknown,Unknown,22.5065184,88.3489408
Sarada Seva Sadan,"114, Barsat Road,Barrackpore,Nonachandanpukur",Unknown,Unknown,700122,West Bengal,Unknown,hospital,Unknown,Unknown,Unknown,Unknown,22.7668367,88.3834232
Serum Sristi Nursing Home,"#136/1, Bidhan Sarani",Unknown,Unknown,700004,West Bengal,Unknown,clinic,clinic,Unknown,sserumanalysiscentre.com,Unknown,22.596824,88.3718884
Sebayan Nursing Services Pvt. Ltd.,"Gar Mirjapur,(Andul Road),Po- Mashila",Unknown,Unknown,711302,West Bengal,Unknown,clinic,Unknown,Unknown,Unknown,Unknown,22.5857817,88.2260755
Seba Niketan Nursing Home,"133, Lenin Sarani Road",Unknown,Unknown,700013,West Bengal,Unknown,clinic,clinic,Unknown,Unknown,Unknown,22.5619285,88.3636942
Vijoy Optic and Polyclinic,"East Station Road, Agarpara",Unknown,Unknown,700109,West Bengal,Unknown,clinic,clinic,Unknown,Unknown,Unknown,22.6817954,88.3864555
"Seva Nursing Home, Hooghly","T. N. Mukherjee Road, Monoharpur,Dankuni",Unknown,Unknown,712103,West Bengal,Unknown,clinic,Unknown,Unknown,Unknown,Unknown,22.6791882,88.3006167
Ross Healthcare,Unknown,Muzaffar Ahmed Street,Unknown,700016,West Bengal,Unknown,pharmacy,pharmacy,Unknown,Unknown,Unknown,22.5534236,88.3560195
Aesthetic Dental Clinic,"23/16, Gariahat Road, Golpark",Unknown,Unknown,700029,West Bengal,Unknown,dentist,dentist,Unknown,http://www.aestheticdentalclinic.org/,Unknown,22.516006,88.3674299
Belur Sramajibi Swasthya Prakalpa Samity,"5,Grand Trunk Road ,Belur",Unknown,Unknown,711101,West Bengal,Unknown,hospital,Unknown,Unknown,Unknown,Unknown,22.5782195,88.3304657
MP Birla Eye Clinic,"8Th Floor Maruti Building 12 U N Brahmachari Street, loudon street",Unknown,Unknown,700017,West Bengal,Unknown,clinic,clinic,Unknown,Unknown,Unknown,22.5428721,88.3561304
Watkins Nursing Home,"2, Khirod Chandra Ghosh Road (Watkins Lane)",Unknown,Unknown,711101,West Bengal,Unknown,clinic,clinic,Unknown,Unknown,Unknown,22.5929943,88.3406983
Ripon Nursing Home,"52, Ripon Street",Unknown,Unknown,700016,West Bengal,Unknown,clinic,clinic,Unknown,Unknown,Unknown,22.552661,88.3634217
Kolkata Women's Clinic,"19/2, Banamali Naskar Road, Opp To Behala Thana",Unknown,Unknown,700060,West Bengal,Unknown,clinic,clinic,Unknown,Unknown,Unknown,22.5043682,88.3162104
Kamala Ray Hospital,"20K, Grand Trunk Road, Hindmotor, Uttarpara",Unknown,Unknown,712233,West Bengal,Unknown,hospital,Unknown,Unknown,Unknown,Unknown,22.6835179,88.3546673
Jibandeep Specialist Clinic and Day Care Centre,"61/169, Surya Sen Station Road, Khardah",Unknown,Unknown,700117,West Bengal,Unknown,clinic,clinic,Unknown,Unknown,Unknown,22.7235113,88.3754246
Princep Nursing Home,"41, Princep Biplabi Anukul Chandra Street, Chandini Chowk street",Unknown,Unknown,700072,West Bengal,Unknown,clinic,clinic,Unknown,Unknown,Unknown,22.564549,88.357894
"Prince Nursing Home, Kolkata","37/1, B. Hindustan Road,Gariahat, Behind Basanti Devi College",Unknown,Unknown,700029,West Bengal,Unknown,clinic,clinic,Unknown,Unknown,Unknown,22.5200708,88.3606486
Institute Of Child Health,"11, Dr. Biresh Guha Street",Unknown,Unknown,700017,West Bengal,Unknown,hospital,hospital,Unknown,Unknown,Unknown,22.5386694,88.3723074
Zenith Super Specialist Hospital,"9/3, Feeder Road, Belghoria",Unknown,Unknown,700056,West Bengal,Unknown,hospital,hospital,Unknown,https://www.zenithhospital.in/,Unknown,22.6630636,88.3780661
B.N Basu Memorial Clinic Appolo Nursing Home,"34 B, Jatin Das Road",Unknown,Unknown,700029,West Bengal,Unknown,hospital,hospital,Unknown,Unknown,Unknown,22.5165078,88.3530888
Angel Maternity and Nursing Home,"No.3,Komedan Bagan Lane,Near Jora Girja, Corporation ,Garage On Ajc Bose Road",Unknown,Unknown,700016,West Bengal,Unknown,hospital,hospital,Unknown,Unknown,Unknown,22.5567342,88.3613316
Acharya Srimat Yogesh Brahmachari Charitable Eye Clinic,"11A, Station Road, Ballygunge",Unknown,Unknown,700019,West Bengal,Unknown,clinic,clinic,Unknown,Unknown,Unknown,22.5176756,88.3713623
Arogya Niketan Pvt. Ltd,"105, R S Verma Road Uttarpara",Unknown,Unknown,712258,West Bengal,Unknown,hospital,Unknown,Unknown,Unknown,Unknown,22.6652046,88.341272
Infirmary Orthopaedic Centre and Nursing Home,"39A, Southern Avenue",Unknown,Unknown,700029,West Bengal,Unknown,hospital,hospital,Unknown,Unknown,Unknown,22.5136699,88.3483134
"RG Stone Urology And Laparoscopy Hospital, Kolkata","33, Gariahat Road (South) Opp To Jodhpur Park",Unknown,Unknown,700031,West Bengal,Unknown,hospital,hospital,Unknown,https://www.rghospitals.com,Unknown,22.5058109,88.3674172
JP Medico Private Limited,Unknown,Mirza Ghalib Street,Unknown,700016,Unknown,Unknown,pharmacy,pharmacy,Unknown,Unknown,Mo-Su 09:00-22:00,22.5555081,88.3543323
Sindhi Polyclinic,Unknown,Unknown,Unknown,Unknown,Unknown,Unknown,clinic,clinic,Unknown,Unknown,Unknown,22.5544676,88.3544611
Modern Pharmacy,Unknown,Kyd Street,Unknown,700016,Unknown,Unknown,pharmacy,pharmacy,Unknown,Unknown,Unknown,22.5558938,88.3543476
Islamia Medical Institute,"94, Park Street, Park Circus",Unknown,Unknown,700017,West Bengal,Unknown,hospital,hospital,Unknown,Unknown,Unknown,22.5427124,88.3664475
Islamia Hospital,"73,Chittaranjan Avenue,Darga Road",Unknown,Unknown,700017,West Bengal,Unknown,hospital,hospital,Unknown,Unknown,Unknown,22.5447604,88.3708055
A.H.IVF and Infertility Research Centre [P] Ltd,"853, Kalikapur Road",Unknown,Unknown,700078,West Bengal,Unknown,hospital,hospital,Unknown,ahiirc.com,Unknown,22.504121,88.3974566
Indus Nursing Home Pvt. Ltd.,"Andul Road,Podra, Howarah-9,Near West Bank Hospital",Unknown,Unknown,711109,West Bengal,Unknown,clinic,Unknown,Unknown,Unknown,Unknown,22.5672178,88.2719104
Implant's Better Sight Centre Pvt Ltd,"13A,Colonel Biswas Road",Unknown,Unknown,700019,West Bengal,Unknown,hospital,hospital,Unknown,implantsbettersight.com,Unknown,22.5373304,88.3641677
Omega Optics,"133E, Rash Behari Avenue, Hindusthan Park",Unknown,Unknown,700029,West Bengal,Unknown,clinic,clinic,Unknown,Unknown,Unknown,22.5186369,88.3608012
Care and Cure Polyclinic Cum Nursing Home,178 Belilious Road near Puspasree Cinema Kadamtala Howrah,Unknown,Unknown,711101,West Bengal,Unknown,clinic,clinic,Unknown,Unknown,Unknown,22.5927864,88.3238551
Dristi Eye Foundation,"5/7 Halder Para Lane,Naora",Unknown,Unknown,711101,West Bengal,Unknown,hospital,Unknown,Unknown,Unknown,Unknown,22.5816657,88.3197241
Micro Point Nursing Home (for total EYE Care),"22/A, Ghoshe S Lane(N), Belur",Unknown,Unknown,711202,West Bengal,Unknown,clinic,clinic,Unknown,Unknown,Unknown,22.6367116,88.3524277
H.P.Poddar Memorial Clinic And Nursing Home,"56H, Dr Suresh Chandra Banerjee Road, Beliaghata",Unknown,Unknown,700010,West Bengal,Unknown,clinic,clinic,Unknown,Unknown,Unknown,22.5631533,88.3977811
"CGHS Dispensary, Mint Colony","Mint Colony, 9, Mint Guard House",Unknown,Unknown,700053,West Bengal,Unknown,clinic,centre,Unknown,http://nb.bsf.gov.in/CGHS%20DIspenseries.pdf,Unknown,22.5144766,88.3197763
Deshari Complete Eye Care,"99/5/8C, Bullygunge Place",Unknown,Unknown,700019,West Bengal,Unknown,hospital,hospital,Unknown,Unknown,Unknown,22.527795,88.3684555
Sahid Khudiram Bose Hospital,"12, Barrackpore Trunk Road, Rathtala, Belghoria",Unknown,Unknown,700056,West Bengal,Unknown,hospital,hospital,8100 033 033,http://sahidkhudiramhospital.com/,Unknown,22.6631818,88.3771062
Restroative Clinic Pvt.Ltd.,"Panihati Municipal Super Market Complex,2nd Floor,Station Road,Sodepur",Unknown,Unknown,700110,West Bengal,Unknown,clinic,clinic,Unknown,Unknown,Unknown,22.7008369,88.3789301
B.K.Dutt Memorial Medical Centre,"4K, Ballygunge Station Road",Unknown,Unknown,700019,West Bengal,Unknown,hospital,hospital,Unknown,Unknown,Unknown,22.5188765,88.3717764
Howrah Lions Hospital,"9,Near Bangabasi Cinema Hall,Nityadhan Mukherjee Road,Kadamtala",Unknown,Unknown,711101,West Bengal,Unknown,hospital,hospital,Unknown,Unknown,Unknown,22.5812075,88.3337856
Howrah Nursing Home,"80/1,Chintamani Dey Road",Unknown,Unknown,711101,West Bengal,Unknown,clinic,Unknown,Unknown,Unknown,Unknown,22.5802119,88.3296449
Health Point Hospitals,"21, Prannath Pandit Street",Unknown,Unknown,700 025,West Bengal,Unknown,hospital,hospital,91 629 220 6008,https://www.healthpointhospital.com/,Unknown,22.5310898,88.3532457
Orchid Nursing Home,"P 17, C I T Road , Phoolbagan",Unknown,Unknown,700054,West Bengal,Unknown,clinic,clinic,Unknown,Unknown,Unknown,22.5729159,88.3897726
Care Nursing Home,"27/T, Raj Krishna Street, Uttarpara, Hooghly",Unknown,Unknown,712258,West Bengal,Unknown,clinic,clinic,9830511168 ;9051968444; 9830078046,http://thecarenursinghome.com/,Unknown,22.6644929,88.3482378
Poorva Eye Care,"P168,C I T Road,Beliaghata",Unknown,Unknown,700010,West Bengal,Unknown,hospital,hospital,Unknown,https://poorvaeyecare.com/,Unknown,22.5682569,88.3918507
Park Site Nursing Home,"70A, Purna Das Road",Unknown,Unknown,700029,West Bengal,Unknown,clinic,clinic,Unknown,Unknown,Unknown,22.5175943,88.3575051
"Park Clinic, Kolkata","4,Gorky Terrace, Park Medical Research Society",Unknown,Unknown,700017,West Bengal,Unknown,clinic,clinic,Unknown,parkclinickolkata.in,Unknown,22.5415518,88.3530942
Siddhi Multi Speciality Ayurveda Hospital and Research Institute,"101, Tollygunge Circular Road, Tollygunge",Unknown,Unknown,700053,West Bengal,Unknown,hospital,hospital,Unknown,Unknown,Unknown,22.5031868,88.3414158
SilverLine Eye Hospital,"396, Prince Anwar Shah Road",Unknown,Unknown,700045,West Bengal,Unknown,hospital,hospital,Unknown,Unknown,Unknown,22.5029093,88.3610965
Southern Nursing Home,"86,Monohar Pukur Road",Unknown,Unknown,700001,West Bengal,Unknown,clinic,clinic,Unknown,Unknown,Unknown,22.5196582,88.3547008
Sri Aurobindo Seva Kendra (EEDF),"1 H,Garihat Road (South),Jodhpur Park",Unknown,Unknown,700068,West Bengal,Unknown,hospital,hospital,Unknown,eedf.in,Unknown,22.5032339,88.3644935
Srijoni Healing Home,"56, Hem Chandra Naskar Road, Beliaghata",Unknown,Unknown,700010,West Bengal,Unknown,hospital,hospital,Unknown,https://srijonihealinghome.com/,Unknown,22.566876,88.3931999
Sri Lakshmi Narayana Trust Maternity Home and Hospital,"4, Justice Chandra Madhav Road",Unknown,Unknown,700020,West Bengal,Unknown,hospital,hospital,Unknown,Unknown,Unknown,22.5353788,88.3518905
SMI Pvt Ltd,"263/3,G.T. Road(South),Shibpur",Unknown,Unknown,711314,West Bengal,Unknown,hospital,hospital,Unknown,Unknown,Unknown,22.562627,88.3187538
Smile And Profile Dental Treatment Centre Pvt Ltd,"144A, Rashbehari Avenue,(Opposite Priya Cinema)",Unknown,Unknown,700029,West Bengal,Unknown,dentist,dentist,Unknown,smileandprofile.net,Unknown,22.5167593,88.350243
Smt. Sarla Pahwa Memorial Eye Centre,"Ma Bindhyachal Apartment,169, G.T.Road, Shibpur",Unknown,Unknown,711102,West Bengal,Unknown,hospital,hospital,Unknown,Unknown,Unknown,22.5697343,88.3257383
South Calcutta Clinic,"19 A, Hindusthan Road,Near Gariahat Thana, Gariahat Post Office",Unknown,Unknown,700029,West Bengal,Unknown,clinic,clinic,Unknown,Unknown,Unknown,22.520098,88.3617966
South Suburban Clinic,"67, Diamond Harbour Road",Unknown,Unknown,700038,West Bengal,Unknown,clinic,clinic,Unknown,Unknown,Unknown,22.5097756,88.3214307
Shree Vishudhanand Hospital and Research Institute,"35 & 37, Burtolla Street, M G Road",Unknown,Unknown,700007,West Bengal,Unknown,hospital,hospital,033 40233030,https://jsdl.in/DT-37BPSIW2,Unknown,22.5819362,88.355944
Alpha Medical Services Pvt. Ltd.,"21/1, Dobson Road",Unknown,Unknown,711101,West Bengal,Unknown,hospital,hospital,Unknown,Unknown,Unknown,22.5925889,88.3421754
New Nirnoy Nursing Home,"2A, Kalachand Sanyal Lane",Unknown,Unknown,700004,West Bengal,Unknown,clinic,clinic,Unknown,Unknown,Unknown,22.5997076,88.3735091
Dolphin Nursing Home,Gazole,Unknown,Unknown,732124,West Bengal,Unknown,clinic,clinic,Unknown,Unknown,Unknown,22.534982,88.3817637
Shakambari Nursing Home,"20, Jatindra Mohan Avenue",Unknown,Unknown,700006,West Bengal,Unknown,clinic,clinic,Unknown,Unknown,Unknown,22.5925956,88.3648288
Shankarnath Dialysis Centre and Nursing Home,"#48/41A,Purna Chandra Mitra Lane(Swiss Park)",Unknown,Unknown,700033,West Bengal,Unknown,clinic,clinic,Unknown,Unknown,Unknown,22.5055997,88.3487061
Shiny Swadha Eye Care,"72,Jelia Para Lane,Salkia",Unknown,Unknown,711106,West Bengal,Unknown,hospital,Unknown,Unknown,Unknown,Unknown,22.596013,88.341794
Shree Jain Hospital And Research Centre,"493,B/12,G.T. Road,Shibpor (South)",Unknown,Unknown,711102,West Bengal,Unknown,hospital,hospital,Unknown,Unknown,Unknown,22.5714259,88.3297522
D.B. Eye Foundation,"No.138, Sree Appartment, Baisnabpara Bazar",Unknown,Unknown,711102,West Bengal,Unknown,hospital,Unknown,Unknown,Unknown,Unknown,22.5738494,88.328214
Cure Centre Nursing Home,"377, Prince Anwar Shah Road,Jodhpur Park",Unknown,Unknown,700068,West Bengal,Unknown,clinic,clinic,Unknown,Unknown,Unknown,22.5017644,88.3629365
Complete Care,Lake Road,Unknown,Unknown,700001,West Bengal,Unknown,hospital,hospital,Unknown,Unknown,Unknown,22.5152875,88.3574648
Circular Nursing Home,"21/1, Creek Row, Entally,Lenin Sarani Road",Unknown,Unknown,700014,West Bengal,Unknown,clinic,clinic,Unknown,Unknown,Unknown,22.5616486,88.3668593
Micro-Surgical Eye Clinic and Nursing Home,"1/4/2 , K C Ghosh Road",Unknown,Unknown,711101,West Bengal,Unknown,clinic,clinic,Unknown,Unknown,Unknown,22.5927849,88.341103
LAB-O-AID,"13, T.N. Biswas Road, Dakshineswar",T.N. Biswas Road,Dakshineswar,700035,West Bengal,Unknown,hospital,hospital,Unknown,Unknown,Unknown,22.6558773,88.3595957
Mohanananda Brahmachari Sishu Seva Pratisthan,"57A, Roy Bahadur Road",Unknown,Unknown,700034,West Bengal,Unknown,hospital,hospital,Unknown,Unknown,Unknown,22.5016929,88.3210942
Mandakini Nursing Home,"23/A, Ekbalpore Lane, Khidderpore",Ekbalpur Lane,Unknown,700023,West Bengal,Unknown,clinic,clinic,Unknown,Unknown,Unknown,22.5319734,88.3252857
Critical and Trauma Care Hospital,"34a/a1, Kasipur Road, CIT, Baranagar",Unknown,Unknown,700035,West Bengal,Unknown,hospital,hospital,Unknown,Unknown,Unknown,22.6235465,88.374517
Swiss Park Nursing Home,48/4 Swiss Park,Unknown,Unknown,700033,West Bengal,Unknown,clinic,clinic,Unknown,Unknown,Unknown,22.5043139,88.3486225
Des Nursing Home,"5/25/1, Dumdum Road",Unknown,Unknown,700030,West Bengal,Unknown,clinic,clinic,Unknown,Unknown,Unknown,22.6190928,88.3892624
Dreamland Nursing Home (Only Kolkata Police),"2, Nayratna Lane",Unknown,Unknown,700004,West Bengal,Unknown,clinic,clinic,Unknown,Unknown,Unknown,22.5997447,88.3720238
Debsishu Nursing Home Pvt. Ltd.,"40, Dobson Road, Near Ambika Tower",Unknown,Unknown,711101,West Bengal,Unknown,clinic,clinic,Unknown,Unknown,Unknown,22.593185,88.3414561
Medi Citi Nursing Home,"64A, Diamond Harbour Road",Diamond Harbour Road,Unknown,700023,West Bengal,Unknown,clinic,clinic,Unknown,Unknown,24/7,22.5325631,88.3266748
Debdoot Sevayan,"51, Charu Chandra Avenue",Unknown,Unknown,700033,West Bengal,Unknown,hospital,hospital,Unknown,Unknown,Unknown,22.5079159,88.3439103
Das Gupta Nursing Home,"25, Sadhan Kanan Block,K.C. Sen Road, P.O. Rishra",Unknown,Rishra,712248,West Bengal,Unknown,clinic,clinic,+7 947 150-61-03,Unknown,24/7,22.7236436,88.3413729
Microlap Nursing Home,"24, Bipin Pal Road, Manohar Pukur Road , Manoharpukur",Unknown,Unknown,700026,West Bengal,Unknown,clinic,clinic,Unknown,Unknown,Unknown,22.5198037,88.3504455
Bellona Nursing Home And Diagnostic Centre,"51A, Diamond Harbour Road",Unknown,Unknown,700027,West Bengal,Unknown,hospital,hospital,Unknown,Unknown,Unknown,22.5296568,88.3262127
Sunayan Eye Clinic,"32, B. N. N. B. Sarani, (Opposite Shib Mandir, J. K. Street), Uttarpara",Unknown,Unknown,712258,West Bengal,Unknown,clinic,clinic,Unknown,Unknown,Unknown,22.66301,88.3461586
Baranagar State General Hospital,"108, A.K. Mukherjee Road",Unknown,Unknown,700090,West Bengal,Unknown,hospital,hospital,Unknown,Unknown,Unknown,22.6385309,88.3803762
Heritage Clinic and Nursing Home,"D/178, Shastri Avenue, Durgapur",Unknown,Unknown,713212,West Bengal,Unknown,clinic,clinic,Unknown,Unknown,Unknown,22.5534735,88.3598238
"A Hamid's Clinic, Maternity and Nursing Home","Dr. A.K.Road,Metiabruz",Unknown,Unknown,700018,West Bengal,Unknown,clinic,Unknown,Unknown,Unknown,Unknown,22.5523295,88.2705381
Chokher Aloy,"1/10, Bholanath Nandy Lane",Unknown,Unknown,711104,West Bengal,Unknown,hospital,Unknown,Unknown,Unknown,Unknown,22.5768741,88.301756
Dr. Mina Majumder Seva Mandir Pvt. Ltd,"Near Krishna Glass Factory, 6/10 Central Park, Jadavpur University",Unknown,Unknown,700032,West Bengal,Unknown,hospital,hospital,Unknown,Unknown,Unknown,22.5041947,88.3708222
"CGHS Dispensary, Shyambazar","Shyambazar, 7-A, Kalachand Sanyal Lane",Unknown,Unknown,700054,West Bengal,Unknown,clinic,centre,Unknown,Unknown,Unknown,22.6000389,88.3735229
Merryland Nursing Home,P-46 Cit Road,Unknown,Unknown,700015,West Bengal,Unknown,clinic,clinic,Unknown,Unknown,Unknown,22.5554132,88.3724515
Swasti Nursing Home,"6/1 Ghose`S Lane , Belurmath",Unknown,Unknown,711101,West Bengal,Unknown,clinic,clinic,Unknown,Unknown,Unknown,22.6362261,88.3537633
Disha Eye Care,Andulrailway Siding.Jhorehat,Unknown,Unknown,711302,West Bengal,Unknown,hospital,hospital,Unknown,Unknown,Unknown,22.578847,88.2555755
Northland Nursing Home,"133, Bidhansarani",Unknown,Unknown,700006,West Bengal,Unknown,clinic,clinic,Unknown,Unknown,Unknown,22.5983673,88.3721741
Mohan Clinic,"46, Lake Temple Road",Unknown,Unknown,700029,West Bengal,Unknown,clinic,clinic,Unknown,Unknown,Unknown,22.510522,88.3486564
N.G. Nursing Home,"23, Southern Avenue",Unknown,Unknown,700026,West Bengal,Unknown,clinic,clinic,Unknown,Unknown,Unknown,22.5144649,88.3471169
Nemesis Eye Centre,"6 A, Sarat Bose Road, near Deshapriya Park E",Unknown,Unknown,700029,West Bengal,Unknown,hospital,hospital,Unknown,Unknown,Unknown,22.5185965,88.3545157
Mother Teresa (Memorial) Care Home,"36, B.T.Road, Talpukur",Unknown,Unknown,713213,West Bengal,Unknown,hospital,Unknown,Unknown,Unknown,Unknown,22.7509403,88.3716105
Divine Nursing Home,"11/A, Abinash Chandra Banerjee Lane",Unknown,Unknown,700010,West Bengal,Unknown,clinic,clinic,Unknown,Unknown,Unknown,22.5669126,88.392359
Nayandeep Eye Care,"20/4, A.C.Sarkar Road, Dakshineswar",Unknown,Unknown,700076,West Bengal,Unknown,hospital,hospital,Unknown,Unknown,Unknown,22.6603165,88.364857
Dum Dum Eye Microsurgery Centre,"5/1/1C, Kalicharan Seth Lane",Unknown,Unknown,700030,West Bengal,Unknown,hospital,hospital,Unknown,Unknown,Unknown,22.6300129,88.3853162
RSV Hospital,"40, Deshapran Sashmal Road , Lake Gardens",Unknown,Unknown,700033,West Bengal,Unknown,hospital,hospital,Unknown,https://rsvhospital.com/,Unknown,22.5030685,88.3447391
Amri Medical Centre,"97A,1st Floor,Southern Avenue,Sarat Bose Road",Unknown,Unknown,700029,West Bengal,Unknown,clinic,clinic,Unknown,Unknown,Unknown,22.5133932,88.3525456
Amrapali Medical Center and Nursing Home Pvt Ltd,"418, Rajdanga Main Road,Block DD",Unknown,Unknown,700107,West Bengal,Unknown,hospital,hospital,Unknown,Unknown,Unknown,22.5137686,88.3922598
All Asia Medical Institute,"8B, Garcha First Lane, Ballygunge",Unknown,Unknown,700019,West Bengal,Unknown,hospital,hospital,Unknown,https://www.aamihospitals.com/,Unknown,22.524196,88.3617255
Dhakuria Sree Ramkrishna Sebasram,"13, Sarat Ghosh Garden Road",Unknown,Unknown,700031,West Bengal,Unknown,hospital,hospital,Unknown,Unknown,Unknown,22.5111409,88.3732912
Dewan Medicare And Nursing Home,"B T Road, 48 Ambagan, Mordern Bus Stop,Sukchar",Unknown,Unknown,700115,West Bengal,Unknown,hospital,hospital,Unknown,Unknown,Unknown,22.7121661,88.3733891
Ashutosh Nursing Home,"21B, Sadananda Road,Kali Temple Road",Unknown,Unknown,700026,West Bengal,Unknown,clinic,clinic,Unknown,Unknown,Unknown,22.5203148,88.3456953
Kolkata Port Trust Centenary Hospital,"1, Diamond Harbour Road, Majerhat",Unknown,Unknown,700053,West Bengal,Unknown,hospital,hospital,(91-33) 2230-3451,https://www.kolkataporttrust.gov.in/,Unknown,22.5177264,88.3214565
Dilkusha Nursing Home,94A Dilkusha Street Dilkusha Street,Unknown,Unknown,700017,West Bengal,Unknown,clinic,clinic,Unknown,Unknown,Unknown,22.5400643,88.3714922
Arham Clinics,"# 70, Chittaranjan Avenue",Unknown,Unknown,700012,West Bengal,Unknown,clinic,clinic,Unknown,Unknown,Unknown,22.5710004,88.3587602
Jitendra Narayan Ray Hospital,"58/1S, Raja Dinendra Street",Unknown,Unknown,700006,West Bengal,Unknown,hospital,hospital,Unknown,Unknown,Unknown,22.5832265,88.3762866
Mood,"227/A, Rashbehari Avenue",Unknown,Unknown,700019,West Bengal,Unknown,hospital,hospital,Unknown,Unknown,Unknown,22.5223254,88.3711521
Arcadia Nursing Home [Pvt.] Ltd.,"100,Deshpran Shasmal Road",Unknown,Unknown,711101,West Bengal,Unknown,clinic,Unknown,Unknown,Unknown,Unknown,22.5859742,88.3260045
Arogya Maternity and Nursing Home,"71, Tollyganj Circular Road",Unknown,Unknown,700053,West Bengal,Unknown,hospital,hospital,Unknown,Unknown,Unknown,22.5026069,88.3387953
Arunodaya Health Care Pvt Ltd,"Lichubagan, P.O.- Garalgacha, P.S- Dankuni,Near Dankuni Railway Station",Unknown,Unknown,712708,West Bengal,Unknown,hospital,Unknown,Unknown,Unknown,Unknown,22.6816921,88.2812545
Asharam Bhiwaniwala Hospital,"55, Kalikrishna Tagore Street",Unknown,Unknown,700007,West Bengal,Unknown,hospital,hospital,Unknown,Unknown,Unknown,22.5866107,88.3539256
N H Narayana Multispeciality Hospital,Andul Road,Unknown,Unknown,711109,West Bengal,Unknown,hospital,Unknown,Unknown,Unknown,Unknown,22.5673073,88.2704237
Kolkata Heart Foundation,"42/IA,Harish Mulherjee Road, Elgin Road",Harish Mukherjee Road,Unknown,700020,West Bengal,Unknown,hospital,hospital,Unknown,https://www.drkunalsarkar.com/appointment/,10:00-20:00,22.5366525,88.343991
Calcutta Heart Research Center,"114B, Sarat Bose Road, Opposite Shishu Mangal Hospital",Unknown,Unknown,700029,West Bengal,Unknown,hospital,hospital,Unknown,Unknown,Unknown,22.5233166,88.3525617
Repose Clinic and Research Centre Pvt. Ltd.,"20/C, Broad Street,(Ballygunge)",Old Balligunge 1st Lane,Unknown,700019,West Bengal,Unknown,clinic,clinic,Unknown,Unknown,Unknown,22.5304401,88.3687308
Disha Eye Hospital Barrackpore,"88(63A), Ghosh Para Road Barrackpore",Unknown,Unknown,700120,West Bengal,Unknown,hospital,Unknown,(033) 6460-6560,https://www.dishaeye.org/,Unknown,22.7638138,88.3694452
Netra Kiran Eye Hospital,"58, Thakurdas Babu Lane, Hoogly, Serampore",Unknown,Unknown,712201,West Bengal,Unknown,hospital,Unknown,Unknown,Unknown,Unknown,22.757605,88.3390552
Binayak Imaging And Diagnostic Pvt Ltd,"59 Binayak Enclave, Dum Dum",Unknown,Unknown,700050,West Bengal,Unknown,hospital,hospital,Unknown,Unknown,Unknown,22.6302583,88.3847892
Grandview Nursing Home,"2B, Ramani Chaterjee Road",Unknown,Unknown,700029,West Bengal,Unknown,clinic,clinic,Unknown,Unknown,Unknown,22.5197226,88.3632544
Amulya Jyoti Eye Foundation,"105, Manoharpukur Road",Unknown,Unknown,700029,West Bengal,Unknown,hospital,hospital,Unknown,https://amulyajyoti.org/,Unknown,22.5207604,88.3524887
Anjali Eye Center,"11/12, Burnt Salt Gola Lane",Unknown,Unknown,711101,West Bengal,Unknown,hospital,hospital,Unknown,https://drnavingupta.com/,Unknown,22.5919035,88.3418547
Anupama Eye Care,"A11, School Road, Sodepur",Unknown,Unknown,700110,West Bengal,Unknown,hospital,hospital,Unknown,Unknown,Unknown,22.7014415,88.3863088
Micro Surgery Day Centre,"51-B, Garcha Road",Hazra Road,Unknown,700019,West Bengal,Unknown,hospital,hospital,Unknown,Unknown,Unknown,22.5252905,88.363941
Mitra Snagh Hospital,"116, Rajballav Saha Lane",Unknown,Unknown,711101,West Bengal,Unknown,hospital,hospital,Unknown,Unknown,Unknown,22.5837064,88.3606895
Charring Cross Nursing Home,"2C, Motilal Basak Lane, Phoolbagan, Kankurgachi",Unknown,Unknown,700054,West Bengal,Unknown,clinic,clinic,Unknown,Unknown,Unknown,22.5767533,88.3934138
"CGHS Dispensary, Bidhan Sarani","168, Bidhan Sarani",Unknown,Unknown,700006,West Bengal,Unknown,clinic,centre,Unknown,http://nb.bsf.gov.in/CGHS%20DIspenseries.pdf,Unknown,22.5901136,88.3689896
Mandelia Maternity and Nursing Home,"285/1, G. T Road, (South) , Shibpur",Unknown,Unknown,711102,West Bengal,Unknown,hospital,hospital,Unknown,Unknown,Unknown,22.5641763,88.321133
Palm Springs,"2,Greek Church Row Kalighat",Unknown,Unknown,700026,West Bengal,Unknown,hospital,hospital,Unknown,Unknown,Unknown,22.5200298,88.3480369
GD Hospital and Diabetes Institute,"139 A, Lenin Sarani",Unknown,Unknown,700013,West Bengal,Unknown,hospital,hospital,Unknown,www.gddihealthcare.com,Unknown,22.5622368,88.3622351
Matri Mangal Pratishthan,"228, Rabindra Sarani, Burrabazar",Unknown,Unknown,700007,West Bengal,Unknown,hospital,hospital,Unknown,Unknown,Unknown,22.5842853,88.3581018
Bankra Central Nursing Home,"Kabarpara, Po- Bankra",Unknown,Unknown,711403,West Bengal,Unknown,clinic,Unknown,Unknown,Unknown,Unknown,22.6118184,88.2752296
Nabajiban Hospital Pvt Ltd,"5, Shibdas Bhaduri Street, Shyambazar",Unknown,Unknown,700004,West Bengal,Unknown,clinic,clinic,Unknown,Unknown,Unknown,22.5985716,88.3736607
East End Nursing Home,"14, Circus Avenue",Unknown,Unknown,700017,West Bengal,Unknown,hospital,hospital,Unknown,Unknown,Unknown,22.5410414,88.3618113
Garden Reach Nursing Home,"B -79 , Iron Gate Road",Iron Gate Road,Unknown,700024,West Bengal,Unknown,clinic,Unknown,Unknown,Unknown,Unknown,22.5494919,88.2873284
Good Samaritan Hospital,"6, Dr, Biresh Guha Street, Near Park Circus, 4 No Bridge",Unknown,Kolkata,700017,West Bengal,Unknown,hospital,hospital,Unknown,Unknown,Unknown,22.5392157,88.3705661
Medilink Health Care Diagnostic Centre Pvt. Ltd.,"16D, Sachin Mitra Ln, Bidhan Sarani, Shyam Bazar",Unknown,Unknown,700089,West Bengal,Unknown,hospital,hospital,Unknown,Unknown,Unknown,22.602305,88.3704156
We Care Nursing Home And Diagnostic Centre,"101/1/Z/Z/M, R.S. Verma Road, Uttarpara",R.S. Verma Road,Uttarpara,712258,West Bengal,Unknown,clinic,clinic,Unknown,Unknown,Unknown,22.6641431,88.3413641
"The Medicure, Kolkata","227 A,Rash Behari Avenue",Unknown,Unknown,700019,West Bengal,Unknown,hospital,hospital,Unknown,Unknown,Unknown,22.5213682,88.3710073
S.C. Bagchi Arogya Sadan Pvt.Ltd.,"43/5, Nani Villa, Ramcharan Seth Road, Santragachi More, Ramrajatala, Baruipara",Unknown,Unknown,711104,West Bengal,Unknown,hospital,hospital,Unknown,Unknown,Unknown,22.5858477,88.3035014
Pratihar Nursing Home,", Sorin Roy Road Behala",Sorin Roy Road,Behala,700034,West Bengal,Unknown,clinic,clinic,Unknown,Unknown,Unknown,22.5002449,88.3182228
Dr. D.S.Chopra,"50/10 B,Harish Mukherjee Road",Harish Mukherjee Road,Unknown,700025,West Bengal,Unknown,doctors,doctor,Unknown,Unknown,Unknown,22.5351718,88.3438583
Revival Nursing Home,"183/3,Banku Bihari Chatterjee Road",Unknown,Unknown,700042,West Bengal,Unknown,clinic,clinic,Unknown,Unknown,Unknown,22.5155247,88.379239
Mission Of Mercy Hospital And Research Centre,125/1 Park Street,Unknown,Unknown,700017,West Bengal,Unknown,hospital,hospital,+91 983 600 8484,https://mercyhealthcare.org.in/,Unknown,22.5478931,88.3602614
The Leprosy Mission Permananda Memorial Leprosy Ho,"259-A, Acharya Prafulla Chandra Road, Maniktala",Unknown,Unknown,700006,West Bengal,Unknown,hospital,hospital,Unknown,Unknown,Unknown,22.5833714,88.3748181
Tulsiram Lakshmi Devi Jaiswal Hospital,"Malipanch Ghora Street, Near Post Office, Liluah, Howrah",Unknown,Unknown,711204,West Bengal,Unknown,hospital,hospital,Unknown,Unknown,Unknown,22.6146749,88.3461867
Goodwill Welfare Association Seva Sadan,"7/3, Old Calcutta Road, Uttarpara, Rahara",Unknown,Unknown,700118,West Bengal,Unknown,hospital,hospital,Unknown,Unknown,Unknown,22.7289719,88.3855777
New Matri Seva Sadan,"Viii Borai (New Tematha), P.O Borai, P.S Singur",Unknown,Unknown,712306,West Bengal,Unknown,hospital,Unknown,Unknown,Unknown,Unknown,22.7660556,88.2583626
Blue Bell Nursing Home,"Andul Road,Chowdhuri Para",Unknown,Unknown,711302,West Bengal,Unknown,clinic,Unknown,Unknown,Unknown,Unknown,22.5847217,88.2322526
Benuban Health Care,"Balitikuri,Near Japanigate, E.S.I Hospital",Unknown,Unknown,711113,West Bengal,Unknown,clinic,Unknown,Unknown,Unknown,Unknown,22.6127839,88.2962601
"CGHS Dispensary, Dover Lane",Dover Lane GovernmentQrts,Unknown,Unknown,700029,West Bengal,Unknown,clinic,centre,Unknown,http://nb.bsf.gov.in/CGHS%20DIspenseries.pdf,Unknown,22.5211331,88.3588746
Medicare Clinic Pvt. Ltd.,"138, G.T. Road (S) Opposite Howrah Jute Mills 1st Floor Shree Apartment Above Bajaj Scooter Show Room",Unknown,Unknown,711102,West Bengal,Unknown,clinic,Unknown,Unknown,Unknown,Unknown,22.5741097,88.3283292
"Sterling Hospital, Kolkata","55/1, Bhupen Bose Avenue",Unknown,Unknown,700004,West Bengal,Unknown,hospital,hospital,033 2530 1313,https://g.co/kgs/6bBZS9,24/7,22.5999558,88.3677826
Calcutta Institute Of Maxill Ofacial Surgery and R,"200 , Rajdanga , Nabapally",Unknown,Unknown,700126,West Bengal,Unknown,hospital,hospital,+91 - 9830080174;03324412366;03340614227,https://www.kolkatamaxillofacial.com/,Unknown,22.5151731,88.3904963
Dr. Syamal Kumar Pandey,Bandel Station G.T Road Crossing Basndel,Unknown,Unknown,712104,West Bengal,Unknown,doctors,doctor,033 26861241 / 91 9831000508,http://drskpandey.in/,Unknown,22.6212777,88.38925
Jodhpur Park Nursing and Maternity Home Pvt Ltd,"127, Jodhpur Park",Unknown,Unknown,700068,West Bengal,Unknown,clinic,clinic,Unknown,Unknown,Unknown,22.5065159,88.3636591
Care Concern Hospital Pvt. Ltd.,"87/A, G. T. Road(W), Serampore",Unknown,Unknown,712201,West Bengal,Unknown,hospital,Unknown,Unknown,Unknown,Unknown,22.7511012,88.334133
B.M.R.C Hospital,"6/6,BT Road,Talpukur,Barrackpore",Unknown,Unknown,700123,West Bengal,Unknown,hospital,hospital,Unknown,Unknown,Unknown,22.7491506,88.3726158
Astha Medical Services Pvt Ltd,"48/2Q,B.T.Road",Unknown,Unknown,700050,West Bengal,Unknown,hospital,hospital,Unknown,Unknown,Unknown,22.6296661,88.3788457
TRA General Hospital - Kolkata,"7, Dr.Biresh Guha Street, Park Circus,4 No. Bridge",Unknown,Unknown,700017,West Bengal,Unknown,hospital,hospital,Unknown,https://trageneralhospital.com/,Unknown,22.5395189,88.3710095
"CGHS Dispensary, Santragachi","Government of India Press Colony,Santragachi, Howrah",Unknown,Unknown,Unknown,West Bengal,Unknown,clinic,centre,Unknown,http://nb.bsf.gov.in/CGHS%20DIspenseries.pdf,Unknown,22.5939709,88.2800968
Netra Jyoti Eye Care Centre,"1116/1, Gt Road (Opp Bally House) Puspa Apartments, 1st Floor Bally Bally",Unknown,Unknown,711201,West Bengal,Unknown,hospital,hospital,Unknown,Unknown,Unknown,22.6435005,88.3508914
Stallard Eye Clinic,"3 B , Congress Exhibition Road, Circus Avenue",Unknown,Unknown,700017,West Bengal,Unknown,clinic,clinic,Unknown,Unknown,Unknown,22.5410681,88.3669069
Lions Club Of Calcutta,"68, Ballygunge Circular Road",Unknown,Unknown,700019,West Bengal,Unknown,hospital,hospital,Unknown,Unknown,Unknown,22.5408036,88.3584841
Vivekananda Hospital and Research Institute,"P-516/1, Banamali Naskar Road, Parnasree Palli, Behala",Unknown,Unknown,700060,West Bengal,Unknown,hospital,hospital,Unknown,http://www.vivekanandahospitalbehala.com/,Unknown,22.5113168,88.3049056
Ayub Ansari Nursing Home,"Q-39, S.A. Farooque Road, Metia Buruz, Garden Reach",Unknown,Unknown,700024,West Bengal,Unknown,clinic,Unknown,Unknown,Unknown,Unknown,22.5488373,88.2812016
Rit-Tik Nursing Home,"155/A,A J C Bose Road,Sealdah",Unknown,Unknown,700014,West Bengal,Unknown,clinic,clinic,Unknown,Unknown,Unknown,22.5596522,88.3671007
Dr. M. N. Chatterjee Memorial Eye Hospital,"295/1, Acharya Prafulla Chandra Road",Unknown,Unknown,700009,West Bengal,Unknown,hospital,hospital,Unknown,Unknown,Unknown,22.5781464,88.3741294
Palview Nursing Home,"1/6, Chowdhury Para Lane,Ichapur",Unknown,Unknown,711104,West Bengal,Unknown,clinic,clinic,Unknown,Unknown,Unknown,22.5843828,88.3033307
East Calcutta Clinic and Nursing Home,"Hem Chandra Naskar Road , Phoolbagan, Beliaghata",Unknown,Unknown,700010,West Bengal,Unknown,clinic,clinic,Unknown,Unknown,Unknown,22.5636355,88.3955385
Neha Eye Centre,"12/1/11, Opposite Allahabad Bank, Sahid Mangal Pandey Sarani, Barrackpore",Unknown,Unknown,700120,West Bengal,Unknown,hospital,Unknown,Unknown,Unknown,Unknown,22.7590561,88.3693065
New Saraju Nursing Home,"No 46/1C,B.T. Road",Unknown,Unknown,700002,West Bengal,Unknown,clinic,clinic,Unknown,Unknown,Unknown,22.6299282,88.3795155
Orbis Eye and Dental Care Centre,"4, Thakurdas Banerjee Road,Belgharia",Unknown,Unknown,700056,West Bengal,Unknown,hospital,hospital,Unknown,Unknown,Unknown,22.6615726,88.384647
Calcutta Pay Clinic and Hospital Pvt Ltd,"215, Park Street",Unknown,Unknown,700017,West Bengal,Unknown,hospital,hospital,Unknown,Unknown,Unknown,22.5404476,88.3698897
Netaji Sebayan Hospital,Nilgunj Road Agarpara,Unknown,Unknown,700109,West Bengal,Unknown,hospital,hospital,Unknown,Unknown,Unknown,22.6833374,88.3784706
Disha Eye Hospital-Sheoraphuli,"14, G. T. Road",Unknown,Unknown,712223,West Bengal,Unknown,hospital,Unknown,Unknown,https://www.dishaeye.org/,Unknown,22.7710139,88.3291849
Lake Nursing Home,"66A, South End Park, Lansdowne",Unknown,Unknown,700029,West Bengal,Unknown,clinic,clinic,Unknown,Unknown,Unknown,22.5133053,88.3669719
M.B. Nursing Home,"189, G.T. Road(S), Shibpur",Unknown,Unknown,711102,West Bengal,Unknown,clinic,clinic,Unknown,Unknown,Unknown,22.5684451,88.3244542
KD Cure S.C. Das Memorial Medical Center,"No.52,Jodhpur Park",Unknown,Unknown,700068,West Bengal,Unknown,hospital,hospital,Unknown,Unknown,Unknown,22.5077512,88.3648047
M. B. Nursing Home,"#55 B/1,Dilkhusa St",Unknown,Unknown,700017,West Bengal,Unknown,clinic,clinic,Unknown,Unknown,Unknown,22.5400629,88.3710368
Medline Nursing Home,"48/30, Purna Chandra Mitra Lane, Swiss Park",Unknown,Unknown,700033,West Bengal,Unknown,clinic,clinic,Unknown,Unknown,Unknown,22.5051617,88.3483963
"Sunflower Nursing Home, Kolkata","1/1A, Goabagan Street,Radhanath Bose Lane",Unknown,Unknown,700006,West Bengal,Unknown,clinic,clinic,Unknown,Unknown,Unknown,22.5889194,88.3701812
Domjur Nursing Home,"Po - Domjur,Domjur Jagadishpur Road",Unknown,Unknown,711405,West Bengal,Unknown,clinic,Unknown,Unknown,Unknown,Unknown,22.6356834,88.2206648
Mediview Nursing Home Pvt Ltd,"74, Broad Street, Ballygunge",Unknown,Unknown,700019,West Bengal,Unknown,clinic,clinic,Unknown,https://mediview.co.in/,Unknown,22.5341754,88.3724879
Paramount Heath Care,"148 & 151,Grand Trunk Road, Maniktala, Serampore",Unknown,Unknown,712201,West Bengal,Unknown,clinic,clinic,Unknown,Unknown,Unknown,22.7453167,88.3494242
Netra Sevasram,"15, Prafulla Sarkar Street",Unknown,Unknown,700072,West Bengal,Unknown,hospital,hospital,Unknown,Unknown,Unknown,22.5665163,88.3553157
"CGHS Dispensary, Bhownipur-Kalighat","Bhownipur-Kalighat, 1-A, Satish Mukherjee Road",Unknown,Unknown,700025,West Bengal,Unknown,clinic,centre,Unknown,http://nb.bsf.gov.in/CGHS%20DIspenseries.pdf,Unknown,22.5220804,88.3476297
Bansal Nursing Centre,"20, Opposite ICICI Bank, Dobson Road",Unknown,Unknown,711101,West Bengal,Unknown,clinic,clinic,Unknown,https://bansalmedical.com/,Unknown,22.590742,88.3411409
Marwari Relief Society Hospital,"225/227, Rabindra Sarani",Unknown,Unknown,700007,West Bengal,Unknown,hospital,hospital,Unknown,Unknown,Unknown,22.5827281,88.3573455
Don View Nursing Home,04 L Tiljala Road,Unknown,Unknown,700046,West Bengal,Unknown,clinic,clinic,Unknown,Unknown,Unknown,22.5441888,88.3731081
Dr Hari Har Roy Clinic,"16/1, Kshetra Mitra Lane Salkia, Golabari",Unknown,Unknown,711106,West Bengal,Unknown,clinic,Unknown,Unknown,Unknown,Unknown,22.5977408,88.3453815
Himalaya Vision Care Centre,"146, Rash Behari Avenue,Opposite Priya Cinema Hall",Unknown,Unknown,700029,West Bengal,Unknown,hospital,hospital,Unknown,Unknown,Unknown,22.5174951,88.3545975
Kalidas Mullick Sebayatan,"47, Ganesh Chandra Avenue",Unknown,Unknown,700013,West Bengal,Unknown,hospital,hospital,Unknown,Unknown,Unknown,22.5671621,88.3572811
Orthopaedic Centre,"18/1 Nazrul Islam Avenue,Kankurgachi",Unknown,Unknown,700054,West Bengal,Unknown,hospital,hospital,Unknown,Unknown,Unknown,22.5827554,88.3909348
R-Fleming Hospital / Zodiac Medicare and Hospital Pvt.Ltd.,"No. 11A/1H, Topsia Road (East)",Unknown,Unknown,700046,West Bengal,Unknown,hospital,hospital,Unknown,Unknown,Unknown,22.5409374,88.389544
Kumar Maternity Home,51/2 G.T. Road (N) Pilkhana,Unknown,Unknown,711101,West Bengal,Unknown,hospital,hospital,Unknown,Unknown,Unknown,22.5932877,88.3390568
"CGHS Dispensary, Lake Area","Flat No.55 and 56, Lake GovernmentQrts., Southern Avenue",Unknown,Unknown,700029,West Bengal,Unknown,clinic,centre,Unknown,http://nb.bsf.gov.in/CGHS%20DIspenseries.pdf,Unknown,22.5138962,88.3586611
Domjur Rural Hospital,Domjur,Unknown,Unknown,711405,West Bengal,Unknown,hospital,Unknown,Unknown,Unknown,Unknown,22.6329538,88.2245161
Balarambati PHC,"Madhubati Bus Stand, Madhubati, Banamalipur Road",Unknown,Unknown,712409,West Bengal,Unknown,Unknown,centre,Unknown,Unknown,Unknown,22.7915331,88.2075057
Bankra Hospital,"Near Bankra Police Phari, Bankra",Unknown,Unknown,711403,West Bengal,Unknown,hospital,Unknown,Unknown,Unknown,Unknown,22.5981589,88.2740081
Kona Jagadishpur Rural Hospital,"Bally Jagacha Bdo Office, Hmc 50 No Ward, Benaras Road",Unknown,Unknown,711114,West Bengal,Unknown,hospital,Unknown,Unknown,Unknown,Unknown,22.6193143,88.300364
Baksha Hospital,"Baro Mandir, Baksha",Unknown,Unknown,712304,West Bengal,Unknown,hospital,Unknown,Unknown,Unknown,Unknown,22.7246358,88.2472706
"PHC, Nonakundu","Hospital Street, Near Nimna Buniyadi Bidyalay, Domjur, Nonakundu",Unknown,Unknown,711405,West Bengal,Unknown,Unknown,centre,Unknown,Unknown,Unknown,22.6604731,88.2060842
Sree Balaram Seva Mandir State General Hospital,"Balaram Dharma, 32, Madhusudhan Mukherjee Road",Unknown,Unknown,700116,West Bengal,Unknown,hospital,hospital,Unknown,Unknown,Unknown,22.717275,88.369272
Jangalpara Hospital,"Nolepara Rasta, Near Post Office, Jangalpara",Unknown,Unknown,712701,West Bengal,Unknown,hospital,Unknown,Unknown,Unknown,Unknown,22.733053,88.2092044
"PHC, Belgachia","G Road, CMDA Office, Kunjapara, Belgachia",Unknown,Unknown,711108,West Bengal,Unknown,Unknown,centre,Unknown,Unknown,Unknown,22.6091038,88.3223455
Bally PHC,"Near Gram Panchayat, Bally, Ghoshpara",Unknown,Unknown,711227,West Bengal,Unknown,Unknown,centre,Unknown,Unknown,Unknown,22.6463775,88.3350363
Belur State General Hospital,"Dharmatala Road, Near Belur Railway Station, Belur",Unknown,Unknown,711202,West Bengal,Unknown,hospital,Unknown,Unknown,Unknown,Unknown,22.6367774,88.3407443
College of Medicine & Sagore Dutta Hospital,"Kamarhati Municipality, 578, B T Road, Kamarhati, Kolkata",Unknown,Unknown,700058,West Bengal,Unknown,hospital,hospital,Unknown,Unknown,Unknown,22.6753602,88.3733901
Begumpur PHC,"Begampur Star Club, Begampur",Unknown,Unknown,712306,West Bengal,Unknown,Unknown,centre,Unknown,Unknown,Unknown,22.7342895,88.247967
Bora PHC,"Bora Madhusudan High School, Bora Kamalapur Road, Bora",Unknown,Unknown,712306,West Bengal,Unknown,Unknown,centre,Unknown,Unknown,Unknown,22.7666229,88.2610028
Satya Bala Devi ID Hospital,"Grand Trunk Road, Near BSNL Office, Liluah, Howrah",Unknown,Unknown,711107,West Bengal,Unknown,hospital,hospital,Unknown,Unknown,Unknown,22.610922,88.3463274
Chanditala Rural Hospital,"Chanditala Police Ststion, Kalachara,Chanditala, Ahallaby Road",Unknown,Unknown,712702,West Bengal,Unknown,hospital,Unknown,Unknown,Unknown,Unknown,22.6918608,88.2639963
Bandipur BPHC,"Bandipur Hospital Road, Near Bandipur Free Primary School, Bandipur",Unknown,Unknown,700119,West Bengal,Unknown,Unknown,centre,Unknown,Unknown,Unknown,22.7348832,88.3966854
Walsh Sub Divisional Hospital,"TC Goswami Street, Opp. Women Police Station, Serampore",Unknown,Unknown,712201,West Bengal,Unknown,hospital,Unknown,Unknown,Unknown,Unknown,22.7548191,88.3465241
Kanaipur Rural Hospital,"Near Biswa Laxmi Mandir, Kanaipur, Naity Road",Unknown,Unknown,712234,West Bengal,Unknown,hospital,Unknown,Unknown,Unknown,Unknown,22.702536,88.3206291
Hazi S. T. Mullick Rural Hospital,"77 Bus Stand, Sankrail",Unknown,Unknown,711309,West Bengal,Unknown,hospital,Unknown,Unknown,Unknown,Unknown,22.561371,88.220802
Abinash Dutta Maternity Home,B.K.Pal Avenue,Unknown,Unknown,700005,West Bengal,Unknown,hospital,hospital,Unknown,Unknown,Unknown,22.595575,88.359983
Jagacha PHC,"Jagacha PS, HMC 47 No Ward, Santragachi",Unknown,Unknown,711112,West Bengal,Unknown,Unknown,centre,Unknown,Unknown,Unknown,22.586828,88.285683
South Howrah State General Hospital,"Laxmi Narayana Tala Road, Near IIEST, Shibpur",Unknown,Unknown,711103,West Bengal,Unknown,hospital,hospital,Unknown,Unknown,Unknown,22.5602924,88.3039377
"Lady Dufferin Victoria Hospital, Kolkata","Raja Ram Mohan Sarani, Near Bank Of India, Baithakkhana",Unknown,Unknown,700009,West Bengal,Unknown,hospital,hospital,Unknown,Unknown,Unknown,22.5691437,88.3657939
Mahiyari Lakshmikamal Hospital,"Ambagan Club, Mohiary",Unknown,Unknown,711302,West Bengal,Unknown,hospital,Unknown,Unknown,Unknown,Unknown,22.589507,88.2404221
S.S.K.M. Hospital,"Kolkata, A.J.C. Bose Road",Ibrahim Road,Unknown,700020,West Bengal,Unknown,hospital,hospital,09163162204,Unknown,24/7,22.534245,88.324507
Indus Nursing Home,Unknown,Unknown,Unknown,Unknown,Unknown,Unknown,hospital,Unknown,Unknown,Unknown,Unknown,22.5672546,88.2718829
Smile Dental Care,Unknown,Unknown,Unknown,Unknown,Unknown,Unknown,hospital,Unknown,Unknown,Unknown,Unknown,22.5671332,88.2730325
Susrut Eye Foundation & Research Centre,Howrah,Unknown,Unknown,711101,West Bengal,Unknown,clinic,Unknown,Unknown,Unknown,Unknown,22.580661,88.327107
Anandalok Hospital,"Ashutosh Mukherjee Road, Paddapukur, Bhowanipore",Ashutosh Mukhejee Road,Unknown,700025,West Bengal,Unknown,hospital,hospital,Unknown,Unknown,Unknown,22.5311485,88.345912
Cancer Hospital,Tiljala,Unknown,Unknown,700039,West Bengal,Unknown,hospital,hospital,Unknown,Unknown,Unknown,22.5267338,88.3884232
Harlaka Hospital,"Ashutosh Mukherjee Road, Paddapukur, Bhowanipore",Unknown,Unknown,700025,West Bengal,Unknown,hospital,hospital,Unknown,Unknown,Unknown,22.532648,88.34615
Hope Hospital,"James Long Sarani, Vinobha Bhave Road, Behala",Unknown,Unknown,700038,West Bengal,Unknown,hospital,hospital,Unknown,Unknown,Unknown,22.508538,88.3227465
Saraju Nursing Home,"Rajendranath Roy Chowdhury Line, Satchasi Para",Unknown,Unknown,700002,West Bengal,Unknown,hospital,hospital,Unknown,Unknown,Unknown,22.629564,88.378271
Phoenix Hospital,"Near Toll Plaza, Dankuni",Unknown,Unknown,712310,West Bengal,Unknown,hospital,Unknown,Unknown,Unknown,Unknown,22.690939,88.291484
Mission Hospital,"Acharya Jagadish Chandra Bose Road, Rippon Street, Taltala",Unknown,Unknown,700017,West Bengal,Unknown,hospital,hospital,Unknown,Unknown,Unknown,22.552075,88.363293
Dr. Alis Multispeciality Clinic,"Topsia Road, near Kohinoor Market, Topsia",Unknown,Unknown,700046,West Bengal,Unknown,clinic,clinic,Unknown,Unknown,Unknown,22.5365096,88.3824758
Sramajibi Hospital,Milki Badamtola,Unknown,Unknown,712223,West Bengal,Unknown,hospital,Unknown,Unknown,Unknown,Unknown,22.755365,88.309809
Konnagar Matri Sadan Municipal Hospital,"Grand Trunk Road, Konnagar",Unknown,Unknown,712235,West Bengal,Unknown,hospital,Unknown,Unknown,Unknown,Unknown,22.708628,88.356469
ESI Hospital,"1, Graham Road, Kamarhati",Unknown,Unknown,700058,West Bengal,Unknown,hospital,hospital,Unknown,Unknown,Unknown,22.6765561,88.3735885
Miot Hospitals,"Kala Mandir, Shakespeare Sarani Road, Mullick Bazar, Park Street Area",Unknown,Unknown,700017,West Bengal,Unknown,hospital,hospital,Unknown,Unknown,Unknown,22.5444397,88.3596261
Sankara Nethralaya,"Raja Subodh Mullick Square Road, Bowbazar",Unknown,Unknown,700013,West Bengal,Unknown,hospital,hospital,Unknown,Unknown,Unknown,22.563724,88.3607871
Kottakkal Ayurvedic Hospital and Research Centre,"Sarat Bose Road, Lake Road Crossing, Near Lake Road Bus Stop",Unknown,Unknown,700029,West Bengal,Unknown,hospital,hospital,Unknown,Unknown,Unknown,22.5155617,88.3525175
Dr. Agarwals Eye Hospital,"Rene Tower, Rajdanga Main Road",Unknown,Unknown,700107,West Bengal,Unknown,hospital,hospital,Unknown,Unknown,Unknown,22.514789,88.39227
Disha Eye Care Center,"Selimpur Road, Dhakuria, Selimpur, Garfa",Unknown,Unknown,700031,West Bengal,Unknown,clinic,clinic,Unknown,Unknown,Unknown,22.5052722,88.3733781
T.B. Hospital,"Tulsi Charan Goswami Street, Serampore",Unknown,Unknown,712201,West Bengal,Unknown,hospital,Unknown,Unknown,Unknown,Unknown,22.755491,88.346214
Eastern Railway Hospital,"Liluah, Howrah",Unknown,Unknown,711204,West Bengal,Unknown,hospital,hospital,Unknown,Unknown,Unknown,22.6258785,88.3433229
Duncan Gleneagles Hospitals,"Leela Roy Sarani, Ballygunge",Unknown,Unknown,700019,West Bengal,Unknown,hospital,hospital,Unknown,Unknown,Unknown,22.5331915,88.3590386
Netaji Eye Hospital,"Harish Mukherjee Road, Jatin Das Park, Patuapara, Bhowanipore",Harish Mukherjee Road,Unknown,700025,West Bengal,Unknown,hospital,hospital,03324551174,http://www.asimananda.com/founded/founded_eye_hosp.htm,Unknown,22.5321441,88.3432901
Disha Eye Hospital,"Citi Mart Building, Rash Behari Ave",Unknown,Unknown,700029,West Bengal,Unknown,hospital,hospital,Unknown,Unknown,Unknown,22.5202511,88.3659743
ESI Hospital,"G.T. Road, Mullick Para, Hooghly, Serampore",Unknown,Unknown,712201,West Bengal,Unknown,hospital,Unknown,Unknown,Unknown,Unknown,22.752594,88.331802
B.P. Poddar Hospital,"Humayun Kabir Sarani, New Alipore",Unknown,Unknown,700053,West Bengal,Unknown,hospital,hospital,Unknown,Unknown,Unknown,22.5117693,88.3324303
Park Lions Hospital,"Station Road, Hindmotor, Uttarpara",Unknown,Unknown,712232,West Bengal,Unknown,hospital,Unknown,Unknown,Unknown,Unknown,22.681408,88.344949
ESI Hospital,P.O. Sapuipara,Unknown,Unknown,711227,West Bengal,Unknown,hospital,Unknown,Unknown,Unknown,Unknown,22.637624,88.327889
AMRI Hospital,Unknown,Unknown,Kolkata,700029,Unknown,Unknown,hospital,hospital,Unknown,Unknown,Unknown,22.5125412,88.3676076
Vivekananda pharmacy,Unknown,Unknown,Unknown,Unknown,Unknown,Unknown,pharmacy,pharmacy,Unknown,Unknown,Unknown,22.51043,88.3051319
Dental Hospital,Unknown,Unknown,Unknown,Unknown,Unknown,Unknown,dentist,dentist,Unknown,Unknown,Unknown,22.5174614,88.3456137
Medinova Diagnostic Centre,Unknown,Unknown,Unknown,Unknown,Unknown,Unknown,Unknown,laboratory,Unknown,Unknown,Unknown,22.5122031,88.3512878
"SubCentre, Kalachara",Kalachara,Unknown,Unknown,712702,West Bengal,Unknown,Unknown,centre,Unknown,Unknown,Unknown,22.7019782,88.2459828
"SubCentre, Kumirmorah",Ramanathpur,Unknown,Unknown,712704,West Bengal,Unknown,Unknown,centre,Unknown,Unknown,Unknown,22.6892925,88.2236756
"SubCentre, Milki","Rd Number 31, Milki Badamtola",Unknown,Unknown,712223,West Bengal,Unknown,Unknown,centre,Unknown,Unknown,Unknown,22.7518926,88.3041278
"Primary Health Centre, Gangadharpur",",near gangadhurpur bazar ,chanditala, Gangadharpur - Jangalpara Rd",Unknown,Unknown,712306,West Bengal,Unknown,Unknown,centre,Unknown,Unknown,Unknown,22.7554136,88.2200204
"SubCentre, Basubati",Basubati,Unknown,Unknown,712409,West Bengal,Unknown,Unknown,centre,Unknown,Unknown,Unknown,22.7825359,88.203042
"Primary Health Centre, Tisa","Purbbatajpur, Begampur, Tisa",Unknown,Unknown,712306,West Bengal,Unknown,Unknown,centre,Unknown,Unknown,Unknown,22.7520788,88.2530736
"SubCentre, Ramanathpur",Ramanathpur,Unknown,Unknown,712708,West Bengal,Unknown,Unknown,centre,Unknown,Unknown,Unknown,22.6877075,88.2291365
"SubCentre, Golokmunshi","Nabagram, Konnagar, Nabagram Colony",Unknown,Unknown,712246,West Bengal,Unknown,Unknown,centre,Unknown,Unknown,Unknown,22.7081875,88.3353782
"SubCentre, Paltagarh",Ajab Nagar,Unknown,Unknown,712409,West Bengal,Unknown,Unknown,centre,Unknown,Unknown,Unknown,22.7948667,88.2379536
"SubCentre, Baratajpur","Joykrishnapur, Begampur",Unknown,Unknown,712306,West Bengal,Unknown,Unknown,centre,Unknown,Unknown,Unknown,22.7453377,88.2590841
"SubCentre, Kharsarai",Kharsarai,Unknown,Unknown,712306,West Bengal,Unknown,Unknown,centre,Unknown,Unknown,Unknown,22.7477284,88.2439993
"SubCentre, Barijhati",Barijhati,Unknown,Unknown,712702,West Bengal,Unknown,Unknown,centre,Unknown,Unknown,Unknown,22.688612,88.2602119
"SubCentre, Bhadua",Bhadua,Unknown,Unknown,712310,West Bengal,Unknown,Unknown,centre,Unknown,Unknown,Unknown,22.7106773,88.3008434
"SubCentre, Jagannathpur",Jagannathpur,Unknown,Unknown,712250,West Bengal,Unknown,Unknown,centre,Unknown,Unknown,Unknown,22.7244402,88.3140439
"SubCentre, Katlia","Katlia, Ankurhati",Unknown,Unknown,711409,West Bengal,Unknown,Unknown,centre,Unknown,Unknown,Unknown,22.6161662,88.2538417
"SubCentre, Chandrabati",Mourigram,Unknown,Unknown,711109,West Bengal,Unknown,Unknown,centre,Unknown,Unknown,Unknown,22.57352,88.2700315
"Government Hospital, Baluhati",Baluhati,Unknown,Unknown,711405,West Bengal,Unknown,hospital,Unknown,Unknown,Unknown,Unknown,22.659215,88.2669537
"SubCentre, Sarenga","Sarenga, Manikpur, Sankrail",Unknown,Unknown,711309,West Bengal,Unknown,Unknown,centre,Unknown,Unknown,Unknown,22.522072,88.2196516
"SubCentre, Kesabpur",Kesabpur,Unknown,Unknown,711411,West Bengal,Unknown,Unknown,centre,Unknown,Unknown,Unknown,22.6162566,88.2043214
"SubCentre, Joychanditala",Joychanditala,Unknown,Unknown,711409,West Bengal,Unknown,Unknown,centre,Unknown,Unknown,Unknown,22.6361253,88.2409255
Unknown,Unknown,Unknown,Unknown,Unknown,Unknown,Unknown,pharmacy,pharmacy,Unknown,Unknown,Unknown,22.5936221,88.3870458
Frank Ross Pharmacy,Unknown,Bagmari Road,KOLKATA,700054,Unknown,Unknown,pharmacy,pharmacy,+919073190245,https://www.frankrosspharmacy.com/,Mo-Su 08:00-22:00,22.5817383,88.3907563
Dr Majumder Homoeo World,Unknown,"Bidhannagar Rd, CIT Scheme VII M",Kolkata,700054,Unknown,Unknown,pharmacy,pharmacy,Unknown,https://www.majumderhomoeo.com/,Mo-Su 09:00-22:00,22.5935131,88.3883411
MedPlus,Unknown,CIT Rd Scheme 4M,Unknown,700054,Unknown,Unknown,pharmacy,pharmacy,033 2355 1197,https://pharmacy.medplusmart.com/INWBCCU00012,Mo-Su 08:00-22:30,22.5917061,88.3914676
Goodwill Pharmacy,Unknown,CIT Road,Unknown,700054,Unknown,Unknown,pharmacy,pharmacy,03323551389,Unknown,Mo-Su 08:00-22:00,22.5817744,88.3905089
"Patanjali Mega Store, Kankurgachi",Unknown,Unknown,Unknown,700054,Unknown,Unknown,pharmacy,pharmacy,Unknown,Unknown,Unknown,22.5813309,88.3906637
North City Hospital Emergency Unit,Unknown,Unknown,Unknown,700054,Unknown,Unknown,hospital,hospital,090739 87624,https://www.northcityhospital.com/about-us/md-speech/,24/7,22.5886635,88.393518
Prime minister bhartiya jan aushadhi kendra,Unknown,CIT ROAD SCHEME VI,Unknown,700054,Unknown,Unknown,pharmacy,pharmacy,"8334064027 ,7596805247, 8240884921",Unknown,Mo-Sa 09:00-20:00; Su 09:00-01:30,22.5783099,88.3887187
Maa Durga pharmacy,Unknown,Unknown,Unknown,Unknown,Unknown,Unknown,pharmacy,pharmacy,Unknown,Unknown,Unknown,22.5860229,88.3919014
Maa Durga,Unknown,Unknown,Unknown,Unknown,Unknown,Unknown,Unknown,laboratory,Unknown,Unknown,Unknown,22.5860685,88.3919225
Fair price medicine shop,Unknown,Unknown,Unknown,Unknown,Unknown,Unknown,pharmacy,pharmacy,Unknown,Unknown,Unknown,22.5729375,88.3875
Ananya,Unknown,Unknown,Unknown,Unknown,Unknown,Unknown,hospital,hospital,Unknown,Unknown,Unknown,22.5888797,88.3993708
The Calcutta Clinical Laboratory,Unknown,Unknown,Unknown,Unknown,Unknown,Unknown,Unknown,laboratory,Unknown,Unknown,Unknown,22.5012705,88.3216753
Blue Print,Unknown,Unknown,Unknown,Unknown,Unknown,Unknown,pharmacy,pharmacy,Unknown,Unknown,Unknown,22.5015568,88.3209848
Bapi Clinic,Unknown,Unknown,Unknown,Unknown,Unknown,Unknown,clinic,clinic,Unknown,Unknown,Unknown,22.6752423,88.3982699
ID Hospital,Unknown,beleghata main road,kolkata,700010,Unknown,Unknown,hospital,hospital,Unknown,Unknown,Unknown,22.5645031,88.3984031
Ramakrishna Medicare,Unknown,Unknown,Unknown,Unknown,Unknown,Unknown,Unknown,clinic,+917605017771,Unknown,Unknown,22.7244933,88.3827198
Zeeshan Medical,Unknown,Belgachia More,Unknown,700037,Unknown,Unknown,Unknown,alternative,Unknown,Unknown,Mo-Su 11:00-23:00,22.6051302,88.383981
LB medicine,Unknown,Unknown,Unknown,Unknown,Unknown,Unknown,pharmacy,pharmacy,Unknown,Unknown,Unknown,22.7671399,88.3729425
nehru  memorial techno global hospital,Unknown,Unknown,Unknown,Unknown,Unknown,Unknown,hospital,hospital,Unknown,Unknown,Unknown,22.7671143,88.3676458
Care Dental Clinic,Unknown,"1st floor , The Care Diagnostic,26 R N Avenue, prantic pansila, kharda, Kolkata -700112",Unknown,700112,Unknown,Unknown,dentist,dentist,9831158547,Unknown,"Su-Mo, We-Fr 16:00-20:00",22.7156271,88.3869032
X-ray centre,Unknown,"RBI staff Quater, Birpara",Kolkata,700037,Unknown,Unknown,Unknown,pharmacy,Unknown,Unknown,Unknown,22.6191165,88.3921258
Theism Diagnostics,Unknown,DumDum Road,Kolkata,700030,Unknown,Unknown,clinic,clinic,Unknown,Unknown,Unknown,22.6193031,88.392299
Bhartiya Jan Oushadhi Kendra,Unknown,Mandeville Gardens,Unknown,Unknown,Unknown,Unknown,pharmacy,pharmacy,Unknown,Unknown,24/7,22.5248911,88.366309
Rishra Medical,Unknown,Unknown,Rishra,Unknown,Unknown,Unknown,Unknown,laboratory,Unknown,Unknown,Unknown,22.7243038,88.3409431
Momata Medical,Unknown,notun gram,Unknown,Unknown,Unknown,Unknown,pharmacy,pharmacy,Unknown,Unknown,Unknown,22.7260066,88.3349233
Sandhya Medical Store,Unknown,notun gram,Unknown,Unknown,Unknown,Unknown,pharmacy,pharmacy,Unknown,Unknown,Unknown,22.7259169,88.3348005
Arham Pharmacy,Unknown,Radha Gobinda Kar Road,Unknown,700037,Unknown,Unknown,pharmacy,pharmacy,Unknown,Unknown,Mo-Su 09:00-11:00,22.6038599,88.3829021
Divine Nursing Home,Unknown,Unknown,Unknown,Unknown,Unknown,Unknown,hospital,Unknown,Unknown,Unknown,Unknown,22.5662809,88.3927561
Prime minister jan Aushadhi Kendra (pmbi),Unknown,CIT Road,Unknown,700054,Unknown,Unknown,pharmacy,Unknown,+919830501144;+917003242588,Unknown,Mo-Sa 08:30-21:00; Su 08:30-14:00,22.5898185,88.3925616
Charitable Dispensary Ramakrishna Yogodyan mission,Unknown,"Yogodyan
Lane",Unknown,700054,Unknown,Unknown,hospital,Unknown,+91 75950 46920,https://www.rkmyogodyan.org/,"Mo-Su 06:00-11:30, 16:30-19:30",22.5761141,88.3963311
Ramkrishna mission yogodan,Unknown,Unknown,Unknown,Unknown,Unknown,Unknown,clinic,Unknown,Unknown,Unknown,Unknown,22.5759996,88.3965023
