Name,Full Address,Street,City,Postcode,State,Country,Amenity,Healthcare,Phone,Website,Opening Hours,Latitude,Longitude
Shakun Medical Store,Unknown,Unknown,Unknown,Unknown,Unknown,Unknown,pharmacy,Unknown,Unknown,Unknown,Unknown,26.873942,80.9577991
"Devishiv Hospital, Lucknow","B-328-B, Sector B, Mahanagar., Near Mount Carmal School",Unknown,Unknown,226006,Uttar Pradesh,Unknown,hospital,Unknown,Unknown,Unknown,Unknown,26.8746885,80.9603472
Hind Medicals,Unknown,Unknown,Unknown,Unknown,Unknown,Unknown,pharmacy,Unknown,Unknown,Unknown,Unknown,26.8542571,81.0086687
Unknown,Unknown,Unknown,Unknown,Unknown,Unknown,Unknown,pharmacy,Unknown,Unknown,Unknown,Unknown,26.8779227,80.9969109
Saraswathi Hospital and Research Centre,"233, Tiwariganj,Faizabad Road,Via Chinhat",Unknown,Unknown,226016,Uttar Pradesh,Unknown,hospital,Unknown,Unknown,Unknown,Unknown,26.8929536,81.0676311
Unknown,Unknown,Unknown,Unknown,Unknown,Unknown,Unknown,hospital,Unknown,Unknown,Unknown,Unknown,26.9188249,80.9777199
Unknown,Unknown,Kanchana Bihari Marg,Unknown,Unknown,Unknown,Unknown,hospital,Unknown,Unknown,Unknown,Unknown,26.9044958,80.9745792
Jagrani Hospital,"C-50/51, Trimurnigram,Ring Road,Kalyanpur",Ring Road,Unknown,226022,Uttar Pradesh,Unknown,hospital,Unknown,Unknown,dietician.jagranihospital.com,Unknown,26.8977996,80.9687508
Unknown,Unknown,Unknown,Unknown,Unknown,Unknown,Unknown,pharmacy,Unknown,Unknown,Unknown,Unknown,26.8912023,81.064664
Unknown,Unknown,Unknown,Unknown,Unknown,Unknown,Unknown,pharmacy,Unknown,Unknown,Unknown,Unknown,26.890983,81.0646623
Unknown,Sadar Cantt,Carriappa Road,Unknown,226002,Uttar Pradesh,Unknown,hospital,Unknown,Unknown,Unknown,Unknown,26.8176012,80.94033
Rigmeds Pharmacy,Unknown,Ram Ram Bank Chauraha,Lucknow,226024,Unknown,Unknown,Unknown,alternative,9648414507,https://rigmeds.com/,Unknown,26.9049676,80.9433725
Agarwals Dental Clinic,Unknown,Mahanagar Extension,Lucknow,226006,Unknown,Unknown,dentist,dentist,Unknown,Unknown,Unknown,26.882276,80.9565481
Ajanta Hospital & IVF Centre,Unknown,Unknown,Unknown,Unknown,Unknown,Unknown,hospital,hospital,Unknown,Unknown,Unknown,26.8146397,80.9044751
Mansarovar Eye Hospital,"#57/53, Vidhan Sabha Marg,Opposite Akashvani",Unknown,Unknown,226001,Uttar Pradesh,Unknown,hospital,hospital,Unknown,Unknown,Unknown,26.8418872,80.9399218
Shekhar Hospital Pvt. Ltd.,"B- Block, Church Road, Indira Nagar",Unknown,Unknown,226016,Uttar Pradesh,Unknown,hospital,Unknown,Unknown,Unknown,Unknown,26.87633,80.9854174
Rida Nursing Home,"Rida Nursing Home ,1, Sector-9, Vikas Nagar",Unknown,Unknown,226020,Uttar Pradesh,Unknown,clinic,Unknown,Unknown,Unknown,Unknown,26.8722807,80.9764923
Metro Hospital and Trauma Centre,"1/25, Vijay Khand, Gomti Nagar, Lucknow,Near Lohia Park, Gomti Nagar(Over Bridge)",Unknown,Unknown,226010,Uttar Pradesh,Unknown,hospital,Unknown,Unknown,Unknown,Unknown,26.8595311,80.9898859
Samra Hospital,"Near Medical College,Petrol Pump,Subhas Marg",Unknown,Unknown,226003,Uttar Pradesh,Unknown,hospital,Unknown,Unknown,Unknown,Unknown,26.8624216,80.9135422
Rida Hospital,"301/1, Sector- 9, Vikas Nagar",Unknown,Unknown,226006,Uttar Pradesh,Unknown,hospital,Unknown,Unknown,Unknown,Unknown,26.8896937,80.9622954
Shri Hari Kamal Netra Neelaym and Laser Centre,"C-20, Sector-M, Near -Gulacheen Mandir, (Infront Of Metro Club) Kursi Road",Unknown,Unknown,226026,Uttar Pradesh,Unknown,hospital,Unknown,Unknown,Unknown,Unknown,26.8966428,80.9547544
Safiya Clinic and Nursing Home,Haider Mirza Road Golaganj,Unknown,Unknown,226001,Uttar Pradesh,Unknown,clinic,Unknown,Unknown,Unknown,Unknown,26.8528432,80.9248924
Rishi Hospital,"4/33, Vijyant Khand, Kathauta Chauraha Rd, Gomti Nagar",Unknown,Unknown,226010,Uttar Pradesh,Unknown,hospital,hospital,Unknown,Unknown,Unknown,26.8663756,81.0220738
Ranjana Nursing and Maternity Home,"M .I. G -9, Aishbagh, L.D.A Colony",Unknown,Unknown,226004,Uttar Pradesh,Unknown,hospital,Unknown,Unknown,Unknown,Unknown,26.8487999,80.9039091
Dr.Shyama Prasad Mukherjee (Civil) Hospital,"Park Rd,Hazratgunj",Unknown,Unknown,226001,Uttar Pradesh,Unknown,hospital,Unknown,Unknown,Unknown,Unknown,26.8446682,80.9489809
Varshney Clinic and Hospital,"Opp-Naveen Galla Mandi , Tarun Dharam Kanta, Sitapur Road",Unknown,Unknown,226021,Uttar Pradesh,Unknown,clinic,Unknown,Unknown,Unknown,Unknown,26.8907187,80.9353687
Nishat Hospital,"3, J. C. Bose Marg, Lal Bagh",Unknown,Unknown,226001,Uttar Pradesh,Unknown,hospital,Unknown,Unknown,Unknown,Unknown,26.8504049,80.936254
Get-Well Hospital,"C-16,Sector-M,Aliganj.Kursi Road",Unknown,Unknown,226024,Uttar Pradesh,Unknown,hospital,Unknown,Unknown,Unknown,Unknown,26.8964072,80.9547467
Jan Kalyan Eye Hospiyal,"A-1040, Indra Nagar",Unknown,Unknown,226016,Uttar Pradesh,Unknown,hospital,hospital,Unknown,Unknown,Unknown,26.8783845,80.9789613
Modern Pathology and Diagnostic Center,"2/17, Vinay Khand, Gomti Nagar",Unknown,Unknown,226001,Uttar Pradesh,Unknown,clinic,Unknown,Unknown,Unknown,Unknown,26.8510595,81.0097302
"Urmil Hospital, Lucknow","Priyadarshani Colony,Sitapur Road",Unknown,Unknown,226020,Uttar Pradesh,Unknown,hospital,Unknown,Unknown,Unknown,Unknown,26.9024338,80.9382574
Abhinav Drishti Eye Hospital,"B - 719, Sec - C, Mahanagar, Near Channi Lal Crossing",Unknown,Unknown,226006,Uttar Pradesh,Unknown,clinic,Unknown,Unknown,Unknown,Unknown,26.878323,80.9538938
Chandra Mother And Eye Care Pvt Ltd,"4/43, Vivek Khand Opp: Central School, Gomti Nagar",Unknown,Unknown,226010,Uttar Pradesh,Unknown,hospital,Unknown,Unknown,Unknown,Unknown,26.8661579,81.0056037
Saral Krishna Hospital,"B-11, Sector-E, Aliganj, Opposite Kendriya Bhawan, Purania, Aliganj",Unknown,Unknown,226024,Uttar Pradesh,Unknown,hospital,Unknown,Unknown,Unknown,Unknown,26.891931,80.9450716
Ajanta Hospital and Ivf Centre Pvt. Limited,"765, Alambagh,Near Krishna Cinema, Kanpur Road",Unknown,Unknown,226005,Uttar Pradesh,Unknown,hospital,Unknown,Unknown,Unknown,Unknown,26.8157204,80.9051429
Garg Ophthalmic Centre,"B-54, Nirala Nagar",Unknown,Unknown,226020,Uttar Pradesh,Unknown,clinic,Unknown,Unknown,Unknown,Unknown,26.8753527,80.936797
"Dewa Hospital, Jankipuram","2/897A,Sector-H,Jankipuram",Unknown,Unknown,226021,Uttar Pradesh,Unknown,hospital,Unknown,Unknown,Unknown,Unknown,26.9145412,80.9607169
Tc Eye Care,"B-5/37, Vinay Khand, Near Railway Station,Gomti Nagar",Unknown,Unknown,226010,Uttar Pradesh,Unknown,hospital,Unknown,Unknown,Unknown,Unknown,26.8586631,81.0074189
Prabhkar Medical Centre,"B-1/21, Sector - Q, Aliganj",Unknown,Unknown,226001,Uttar Pradesh,Unknown,hospital,Unknown,Unknown,Unknown,Unknown,26.9034671,80.939966
Chiranjeev Hospital and Heart Centre,"2/57, Vijay, Khand, Gomti Nagar",Unknown,Unknown,226010,Uttar Pradesh,Unknown,hospital,Unknown,Unknown,Unknown,Unknown,26.8577682,80.9943619
Shalimar Hospital,"A-989, Indira Nagar",Unknown,Unknown,226016,Uttar Pradesh,Unknown,hospital,Unknown,Unknown,Unknown,Unknown,26.8761679,80.9776597
Vishwas Eye and Laser Centre,"5/452, Viram Khand-5, Hig Duplex, Gomti Nagar",Unknown,Unknown,226010,Uttar Pradesh,Unknown,clinic,Unknown,Unknown,Unknown,Unknown,26.8457355,81.0058692
Devika Surgical And Maternity Clinic,"B-25, Sector-C, Aliganj",Unknown,Unknown,226024,Uttar Pradesh,Unknown,clinic,Unknown,Unknown,Unknown,Unknown,26.8850431,80.9368023
Rml Mehrotra Pathology,"B-171, Nirala Nagar",Unknown,Unknown,226020,Uttar Pradesh,Unknown,hospital,Unknown,Unknown,Unknown,Unknown,26.8783457,80.9326704
Jeevan Hospital And Trauma Centre,1/95-96 Priyadarshini Colony,Unknown,Unknown,226024,Uttar Pradesh,Unknown,hospital,hospital,Unknown,Unknown,Unknown,26.8971164,80.9368868
Precision Eye Care,"A1/11, Sector B, Aliganj",Unknown,Unknown,226024,Uttar Pradesh,Unknown,hospital,Unknown,Unknown,Unknown,Unknown,26.8858601,80.9381582
Surgical and Maternity Centre Ahuja Hospital,4/488 Vivek Khand Gomti Nagar,Unknown,Unknown,226010,Uttar Pradesh,Unknown,hospital,Unknown,Unknown,Unknown,Unknown,26.8540339,81.0002527
Mayo Medical Centre Pvt.Ltd,"VIKAS KHAND-II, GOMTI NAGAR, LUCKNOW",Unknown,Unknown,226010,Uttar Pradesh,Unknown,hospital,Unknown,Unknown,https://www.mayomedicalcentre.com/contact.html,Unknown,26.8512145,80.9965847
Kapoor Surgical Nursing Home,"C-398, Nirala Nagar, Shanker Nagar Crossin",Unknown,Unknown,226001,Uttar Pradesh,Unknown,clinic,Unknown,Unknown,Unknown,Unknown,26.8748096,80.9341127
"Shiva Hospital, Lucknow","Bhatt Market, In Front Of 3/551, Vikas Nagar",Unknown,Unknown,226001,Uttar Pradesh,Unknown,hospital,Unknown,Unknown,Unknown,Unknown,26.8993812,80.9618992
"Harsha Hospital, Lucknow","1/182 Sector C, Priyadarshini Colony Sitapur Road",Unknown,Unknown,226010,Uttar Pradesh,Unknown,hospital,Unknown,Unknown,Unknown,Unknown,26.8967834,80.9337847
Lucknow Gastroenterology and Gynaecology Centre,"B-127, Nirala Nagar",Unknown,Unknown,226001,Uttar Pradesh,Unknown,hospital,Unknown,Unknown,Unknown,Unknown,26.8748754,80.9402738
Raj Scanning Ltd and Lucknow Cancer Institute,"2 Lucknow Cancer Institute, 1 Manas Nagar, Jaimau",Unknown,Unknown,226001,Uttar Pradesh,Unknown,hospital,Unknown,Unknown,Unknown,Unknown,26.8468326,80.9612767
Rajendra Nagar Hospital,"74, Rajendra Nagar",Unknown,Unknown,226002,Uttar Pradesh,Unknown,hospital,Unknown,Unknown,Unknown,Unknown,26.8407611,80.9179697
Aliganj Orthopadic and Orthoscopy Centre,"B-70, Sector- H, Aliganj",Unknown,Unknown,226024,Uttar Pradesh,Unknown,hospital,Unknown,Unknown,Unknown,Unknown,26.8943447,80.9422197
Brijraj Hospital,"Tehseenganj Crossing, Hardoi Road",Unknown,Unknown,226003,Uttar Pradesh,Unknown,hospital,Unknown,Unknown,Unknown,Unknown,26.871304,80.900654
Sawhney Nursing Home,"56, Patel Nagar, Alambagh",Unknown,Unknown,226005,Uttar Pradesh,Unknown,clinic,Unknown,Unknown,Unknown,Unknown,26.8220295,80.9118906
Kilkari Shishu and Bal Chikitsa,"311/19, Hamid Buliding, Kamla Nehru Marg,Chowk",Unknown,Unknown,226001,Uttar Pradesh,Unknown,hospital,Unknown,Unknown,Unknown,Unknown,26.8654616,80.9107393
M V Hospital and Research Centre,"314/30, Mirza Chowk",Unknown,Unknown,226003,Uttar Pradesh,Unknown,hospital,Unknown,Unknown,Unknown,Unknown,26.86873,80.9069976
Dr Subodh Agrawal Memorial (SAM) Eye Hospital,"No. 21/31, 3C Tilak Marg (Off Rana Pratap Marg),Hazratganj",Unknown,Unknown,226001,Uttar Pradesh,Unknown,hospital,Unknown,Unknown,Unknown,Unknown,26.8578047,80.9424175
Sheela Health Care,"Anand Bhawan, Om Nagar Alambagh",Unknown,Unknown,226005,Uttar Pradesh,Unknown,hospital,hospital,Unknown,Unknown,Unknown,26.8124032,80.9085151
Lovee Shubh Clinic Private Limited,"B3/75, Vivek Khand, Gomti Nagar, Gomti Nagar",Unknown,Unknown,226010,Uttar Pradesh,Unknown,clinic,Unknown,Unknown,Unknown,Unknown,26.8576204,80.9955132
"Satyam Nursing Home, Lucknow","268/257, Ramnagar, Near Watertank, Aishbagh",Unknown,Unknown,226004,Uttar Pradesh,Unknown,clinic,Unknown,Unknown,Unknown,Unknown,26.8495238,80.9095041
Vishal Hospital and Heart Centre,"B-1/32, Sector - G,Jankipuram",Unknown,Unknown,226020,Uttar Pradesh,Unknown,hospital,Unknown,Unknown,Unknown,Unknown,26.9104561,80.9518227
"Chandra Hospital, Lucknow","Mohibullapur,Near Overbridge ,Madiyaon Police Station , Sitapur Road",Unknown,Unknown,226021,Uttar Pradesh,Unknown,hospital,Unknown,Unknown,Unknown,Unknown,26.8789677,81.0361232
Jivan Jyoti Surgical Center and Nursing Home,"No. B-2432, Indra Nagar",Unknown,Unknown,226016,Uttar Pradesh,Unknown,clinic,clinic,Unknown,Unknown,Unknown,26.8806957,80.9850076
Daliganj Hospital,"Mausamganj, Panna Lal Road Daliganj",Unknown,Unknown,226020,Uttar Pradesh,Unknown,hospital,Unknown,Unknown,Unknown,Unknown,26.8715497,80.9284915
New Metro Hospital,"Opp Patanala, Police Chowki, Near K G M U, Nakkhas Road",Unknown,Unknown,226003,Uttar Pradesh,Unknown,hospital,Unknown,Unknown,Unknown,Unknown,26.8629696,80.9101506
Healing Touch Nursing Home,"1/2, Gokhale Marg",Unknown,Unknown,226001,Uttar Pradesh,Unknown,clinic,Unknown,Unknown,Unknown,Unknown,26.8581002,80.9569243
S. C. Trivedi Memorial Mother and Child Trust Hospital,"A1/7, Sector-H, Aliganj, Near Kenderiya Bhawan",Unknown,Unknown,226024,Uttar Pradesh,Unknown,hospital,Unknown,Unknown,Unknown,Unknown,26.8915808,80.946484
Tender Care Nursing Home,"Behind Tata United Motors, Khurram Nagar",Unknown,Unknown,226006,Uttar Pradesh,Unknown,clinic,Unknown,Unknown,Unknown,Unknown,26.8865111,80.9718355
Sushrut Hospital Maternity and Trauma Centre,"Sector - D, Priyadarshani Colony, Sitapur Road, Near Kiran Gas Agency",Unknown,Unknown,226020,Uttar Pradesh,Unknown,hospital,hospital,Unknown,Unknown,Unknown,26.8962346,80.9360992
Rukhsana Medical and Trauma Centre,"20, Deen Dayal Road ,Asharfabad Nakkhas",Unknown,Unknown,226003,Uttar Pradesh,Unknown,hospital,Unknown,Unknown,Unknown,Unknown,26.8559474,80.9033789
Yashoda Poly clinic,"Gopal Housing Society, Sitapur Road, Bakshi Ka Talab",Unknown,Unknown,226001,Uttar Pradesh,Unknown,clinic,Unknown,Unknown,Unknown,Unknown,26.9842138,80.9204616
Shriram Hospital,"A-1030, A-Block,Indra Nagar ,Shalimar Crossing",Unknown,Unknown,226016,Uttar Pradesh,Unknown,hospital,Unknown,Unknown,Unknown,Unknown,26.877733,80.9787894
Arushi Medical Center,"B-1/31, Sector - K, Aliganj",Unknown,Unknown,226024,Uttar Pradesh,Unknown,hospital,Unknown,Unknown,Unknown,Unknown,26.8969322,80.9419575
Jwala Hospital,"D-2226, Indira Nagar Munshi Pulia, Ring Road",Unknown,Unknown,226010,Uttar Pradesh,Unknown,hospital,hospital,Unknown,Unknown,Unknown,26.8830384,80.9962669
Neera Hospital - Lucknow,"B - 2, Mahanagar Extension, Aliganj Crossing",Unknown,Unknown,226006,Uttar Pradesh,Unknown,hospital,Unknown,Unknown,Unknown,Unknown,26.8851346,80.9515183
Miranda Clinic,"No.72, Aishbagh Rd, Nehru Nagar",Unknown,Unknown,226004,Uttar Pradesh,Unknown,hospital,Unknown,Unknown,Unknown,Unknown,26.834993,80.909872
Tahilyani Nursing Home Endoscopic Center,"Vikas Khand- 3/165 - A, Gomti Nagar",Unknown,Unknown,226010,Uttar Pradesh,Unknown,clinic,Unknown,Unknown,Unknown,Unknown,26.8491624,80.9964592
Shifa Nursing Home(Pvt)Ltd,"Tulsi Das Marg,Nakkhas",Unknown,Unknown,226003,Uttar Pradesh,Unknown,clinic,Unknown,Unknown,Unknown,Unknown,26.8571203,80.9052703
Nur Manzil Psychiatric Centre,"Kaiserbagh Officer's Colony, Lalbagh",Unknown,Unknown,226001,Uttar Pradesh,Unknown,clinic,Unknown,Unknown,Unknown,Unknown,26.8479776,80.9360737
Kamla Devi Memorial Hospital And Fertility Centre,"80-B, Gautam Budh Marg, Opposite shree Geeta Bhawan",Unknown,Unknown,226001,Uttar Pradesh,Unknown,hospital,Unknown,Unknown,https://www.kamladeviivf.com/,Unknown,26.8411505,80.9260262
Pawars Clinic,"B-1/184, Sector-G, Opposite Indian Institute Of Hotel Management, Near Lda Stadium, Aliganj",Unknown,Unknown,226024,Uttar Pradesh,Unknown,clinic,Unknown,Unknown,Unknown,Unknown,26.8939284,80.9503508
Indira Gandhi Eye Hospital And Research Centre,"1, B.N. Road, Kaiserbagh",Unknown,Unknown,226001,Uttar Pradesh,Unknown,hospital,Unknown,Unknown,Unknown,Unknown,26.8508471,80.9325202
Hanumant Endosurgery Center,"(Super Speciality Center) 3/306, Vishal Khand , Gomtinagar",Unknown,Unknown,226002,Uttar Pradesh,Unknown,hospital,Unknown,Unknown,Unknown,Unknown,26.8485713,80.9881197
F.I. Hosptial,"# 37, Cantt. Road, Near Burlington Crossing, Hussain Ganj",Unknown,Unknown,226001,Uttar Pradesh,Unknown,hospital,Unknown,Unknown,Unknown,Unknown,26.8420895,80.9369887
Medical Care Centre and Hospital,"Laxmi Complex , Kanpur Road, Alambagh",Unknown,Unknown,226005,Uttar Pradesh,Unknown,hospital,Unknown,Unknown,Unknown,Unknown,26.8102996,80.9003149
Centre For Neurosciences and Trauma,"20/154, Sector-25 Crossing, Indira Nagar",Unknown,Unknown,226016,Uttar Pradesh,Unknown,hospital,hospital,Unknown,Unknown,Unknown,26.885982,80.9811422
B. N. K. Hospital,"B1/196, Nirala Nagar,Near Dali Ganj Railway Crossing",Unknown,Unknown,226020,Uttar Pradesh,Unknown,hospital,Unknown,Unknown,Unknown,Unknown,26.8794653,80.9326687
Suri Medical Foundation Hospital,"Shree Rhaghav Bhawan , Reliance Web World , A-26, Indira Nagar",Unknown,Unknown,226016,Uttar Pradesh,Unknown,hospital,Unknown,Unknown,Unknown,Unknown,26.8724637,80.9785107
Sukriti Eye Care Clinic Pvt Ltd,"B-3, Kapoorthala Bagh, Kursi Road",Unknown,Unknown,226024,Uttar Pradesh,Unknown,clinic,Unknown,Unknown,Unknown,Unknown,26.8826071,80.94825
Kilkari Child and Mother Care Centre,"Hig1/20-B,Sector-B, Priyadarshini Colony,Sitapur Road",Unknown,Unknown,226024,Uttar Pradesh,Unknown,hospital,hospital,Unknown,Unknown,Unknown,26.8938644,80.9364402
"Community Health Centre, Chinhat",Chinhat,Unknown,Unknown,227105,Uttar Pradesh,Unknown,Unknown,centre,Unknown,Unknown,Unknown,26.8623116,81.0382891
"Gayatri Hospital, Lucknow","20, Ravindra Palli, Faizabad, road",Unknown,Unknown,226016,Uttar Pradesh,Unknown,hospital,hospital,Unknown,Unknown,Unknown,26.8697132,80.9782691
Globe Medicare,"A-3, Nirala Nagar",Unknown,Unknown,226020,Uttar Pradesh,Unknown,hospital,Unknown,Unknown,https://globemedicare.in/,Unknown,26.8747475,80.9415139
Dr Begs Child Care,"Dalibagh Enclave Road, Pinki Apartment, Near Ganna Sansthan",Unknown,Unknown,226001,Uttar Pradesh,Unknown,clinic,Unknown,Unknown,Unknown,Unknown,26.8505198,80.959961
Zainiss Hospital,"Health Center Vivek Khand-11, Gomti Nager",Unknown,Unknown,226023,Uttar Pradesh,Unknown,hospital,Unknown,Unknown,Unknown,Unknown,26.858501,80.9968033
Susanjeevani Hospital Maternity and Eye Care Centre,"B-1/7, Mahanagar Extension(Opposite Sahara India Centre), Kapoorthala",Unknown,Unknown,226006,Uttar Pradesh,Unknown,hospital,Unknown,Unknown,Unknown,Unknown,26.8807738,80.9477935
Green Cross Medical center,"B-167, A, Near Daliganj Crossing, Nirala Nagar",Unknown,Unknown,226001,Uttar Pradesh,Unknown,hospital,Unknown,Unknown,Unknown,Unknown,26.8796945,80.9316971
"Handa Hospital, Lucknow","4-A, Fawnbrake Avenue, Near Yogana Bhawan,Sarojini Naidu Marg",Unknown,Unknown,226001,Uttar Pradesh,Unknown,hospital,Unknown,Unknown,Unknown,Unknown,26.8398841,80.9426891
Kamakhaya Hospital,"439/26 ,Sarai Mali Khan Crossing,Hardoi Road Chowk",Unknown,Unknown,226003,Uttar Pradesh,Unknown,hospital,Unknown,Unknown,Unknown,Unknown,26.8704348,80.9033039
Divya Deep Maternity and Heart Centre,"D-2010, Indira Nagar",Unknown,Unknown,226016,Uttar Pradesh,Unknown,hospital,hospital,Unknown,Unknown,Unknown,26.8819032,80.9962414
Manjula Hospital And Trauma Centre,"# 1, Maruti Puram, Faizabad Road, Opposite Lekhraj Khanzana, Indira Nagar",Unknown,Unknown,226001,Uttar Pradesh,Unknown,hospital,Unknown,Unknown,Unknown,Unknown,26.8713828,80.9760343
K.K Hospital,"87/88, Nabiullaha Road, River Bank Colony",Unknown,Unknown,226018,Uttar Pradesh,Unknown,hospital,Unknown,Unknown,Unknown,Unknown,26.8644818,80.9233041
Aastha Hospital For Elderly,"B - 52, J - Park Mahanagar",Unknown,Unknown,226006,Uttar Pradesh,Unknown,clinic,Unknown,Unknown,Unknown,Unknown,26.8821992,80.9505057
Rajdhani Hospital and Maternity Centre,"Near Pakka Pul (E), Khadra, Sitapur Road",Unknown,Unknown,226004,Uttar Pradesh,Unknown,hospital,Unknown,Unknown,Unknown,Unknown,26.874404,80.9169191
Deepak Life Sciences Hospital and Trauma Center,"Sitapur Road, Shervani Nagar",Unknown,Unknown,226001,Uttar Pradesh,Unknown,hospital,Unknown,Unknown,Unknown,Unknown,26.9247615,80.9360325
Sanjivini Lung Centre,"2/142, Vinay Khand ( In Fron Of St. Joseph Hospital), Gomti Nagar",Unknown,Unknown,226010,Uttar Pradesh,Unknown,hospital,Unknown,Unknown,Unknown,Unknown,26.8674679,81.0253572
Dr Madhu Gupta Nursing Home,"169, Faizabad Road",Unknown,Unknown,226007,Uttar Pradesh,Unknown,clinic,Unknown,Unknown,Unknown,Unknown,26.8705753,80.9472562
Nazar Eye Care Clinic,"12/665,Opposite Jama Masjid, Near Munshi Puliya, Indira Nagar",Unknown,Unknown,226016,Uttar Pradesh,Unknown,clinic,clinic,Unknown,Unknown,Unknown,26.8849355,80.9971477
Lucknow Eye Hospital,"82/40, Lalkuwan, Guru Govind Singh Marg",Unknown,Unknown,226019,Uttar Pradesh,Unknown,hospital,Unknown,Unknown,Unknown,Unknown,26.8379372,80.9277794
Sunflower Medical and Gynae Centre,"2-B/6, Chandganj Garden Road",Unknown,Unknown,226010,Uttar Pradesh,Unknown,hospital,Unknown,Unknown,Unknown,Unknown,26.8794264,80.9422727
Forrd Hospital / Nova Hospital Ltd.,"N H -2, ,Gomti Nagar, Vikas Khad-1, Gomti Nagar",Unknown,Unknown,226010,Uttar Pradesh,Unknown,hospital,Unknown,Unknown,Unknown,Unknown,26.853093,80.9980117
Aparajita Hospital,"B-1/5, Sector -G, OppositeBhavana Complex, Janki Puram",Unknown,Unknown,226021,Uttar Pradesh,Unknown,hospital,Unknown,Unknown,Unknown,Unknown,26.9113901,80.9504414
Savitri Devi Hospital,"Goyal Enclave -1, Infront Of Bbd, Chinhat",Unknown,Unknown,227105,Uttar Pradesh,Unknown,hospital,Unknown,Unknown,Unknown,Unknown,26.8890167,81.0562009
Sahar Hospital,"6, Nabiullah Road, River Bank Colony,Near Playway School City Station",Unknown,Unknown,226018,Uttar Pradesh,Unknown,hospital,hospital,Unknown,Unknown,Unknown,26.861037,80.9214449
Chandra Maternity and Urological Centre,"18, Indrani Nagar, (Opp Pioneer Inter College), Near Shastri Nagar, Kundri Rakabganj",Unknown,Unknown,226004,Uttar Pradesh,Unknown,doctors,doctor,Unknown,Unknown,Unknown,26.8507311,80.9147961
"Balaji Hospital, Namakkal","NH-2, Vipulkhand-4, Gomti Nagar",Unknown,Unknown,226010,Uttar Pradesh,Unknown,hospital,Unknown,Unknown,https://eyeqindia.com/,Unknown,26.8458773,80.9871507
"Goel Hospital, Lucknow","Goel Plaza,Opp Sahara Shopping Complex,Faizabad Road",Unknown,Unknown,226006,Uttar Pradesh,Unknown,hospital,Unknown,Unknown,Unknown,Unknown,26.8697774,80.9723262
Brahmaesh Orthopaedic And Taruma Centre,"Kala Bhwan, 6 Newul Kishore Road",Unknown,Unknown,226001,Uttar Pradesh,Unknown,clinic,Unknown,Unknown,Unknown,Unknown,26.8488382,80.9460801
Urban PHC-Jiamau,Jiamau,Unknown,Unknown,226001,Uttar Pradesh,Unknown,Unknown,centre,Unknown,Unknown,Unknown,26.8460939,80.9650185
UPHC KHURRAM NAGAR,"NEAR PAANCH MANDIR ,PANT NAGAR, URBAN, KHURRAM NAGAR SHANKAR PURWA WARD NO. 1 LUCKNOW, PLOT NO. 13 A AND 13 B ,KHASARA NO.361",Unknown,Unknown,226022,Uttar Pradesh,Unknown,Unknown,centre,Unknown,Unknown,Unknown,26.884326,80.9713083
NPHC Kursi,"primar school, kursi",Unknown,Unknown,225302,Uttar Pradesh,Unknown,Unknown,centre,Unknown,Unknown,Unknown,27.0611513,81.0504194
"PHC,Juggaur",Juggaur,Unknown,Unknown,226028,Uttar Pradesh,Unknown,Unknown,centre,Unknown,Unknown,Unknown,26.8738382,81.0809295
PHC Mahona,"near mahona police chowki, mahona",Unknown,Unknown,227005,Uttar Pradesh,Unknown,Unknown,centre,Unknown,Unknown,Unknown,27.1011992,80.9194954
Goverment Hospital,"Beside Post & Telegraph office (BSNL), Lucknow, Chander Nagar, Urban community health Centre and maternity home",Unknown,Unknown,226005,Uttar Pradesh,Unknown,hospital,Unknown,Unknown,Unknown,Unknown,26.813663,80.9036596
UCHC RED CROSS,"BUS STATION, KAISERBAGH, KAISERBAGH LUCKNOW, BAL MAHILA CHIKITSALYA AVAM PARSUTI GRIH REDCROSS LKO",Unknown,Unknown,226001,Uttar Pradesh,Unknown,Unknown,centre,Unknown,Unknown,Unknown,26.85281,80.9290025
"CHC,Gudamba","NEAR BHARAT GAS AGENCY, KURSI ROAD, GUDAMBA",Unknown,Unknown,226026,Uttar Pradesh,Unknown,Unknown,centre,Unknown,Unknown,Unknown,26.9348614,80.9812438
CHC-Ghunghtair,"bharmababa mandir, fatehpur, ghunghter",Unknown,Unknown,225302,Uttar Pradesh,Unknown,Unknown,centre,Unknown,Unknown,Unknown,27.1509182,81.0117399
BHAU RAO DEVRAS HOSPITAL MAHANAGAR,"Mandir narg, Lucknow, Mahanagar, Bhau Rao Devras Combined Hospital",Unknown,Unknown,226006,Uttar Pradesh,Unknown,hospital,Unknown,Unknown,Unknown,Unknown,26.8753323,80.9536104
"UPHC,AURANGABAD","NEAR RAMA BAI AMBEDKAR MAIDAAN, CHINHAT LUCKNOW",Unknown,Unknown,226012,Uttar Pradesh,Unknown,Unknown,centre,Unknown,Unknown,Unknown,26.8271579,80.9472106
CHC Bakshi Ka Talab,"near tahesil, bakshi ka talab, indoora bag",Unknown,Unknown,226201,Uttar Pradesh,Unknown,Unknown,centre,Unknown,Unknown,Unknown,27.0041218,80.9073222
UCHC ALIGANJ,"BEHIND NEHRU BAL VATIKA PARK,, ALIGANJ, SEC-C, ALIGANJ,",Unknown,Unknown,226024,Uttar Pradesh,Unknown,Unknown,centre,Unknown,Unknown,Unknown,26.8879162,80.9369498
PHC Gangauli,"hospital, fatehpur, gangauli",Unknown,Unknown,225302,Uttar Pradesh,Unknown,Unknown,centre,Unknown,Unknown,Unknown,27.0007163,81.003301
RAM SAGAR MISRA 100 BEDED HOSPITAL,"SITAPUR ROAD, SADHAMAU,BKT, RAM SAGAR MISRA 100 BEDED HOSPITAL",Unknown,Unknown,226201,Uttar Pradesh,Unknown,hospital,Unknown,Unknown,Unknown,Unknown,27.0097926,80.9139526
Urban Community Health Center,"BEHIND INDIRA GANDHI EYE HOSPITAL, HAZRATGANJ, NAWAL KISHORE ROAD, UCHC N.K. ROAD",Unknown,Unknown,226001,Uttar Pradesh,Unknown,Unknown,centre,Unknown,Unknown,Unknown,26.8795945,80.9881465
UPHC PIPRAGHAT,"PIPRAGHAT BASTI DILKUSHA GARDEN, SADAR LUCKNOW, 32 PIPRAGHAT MOHALLAH ,PIPRAGHAT , VIKRAMADITYA MARG",Unknown,Unknown,226002,Uttar Pradesh,Unknown,Unknown,centre,Unknown,Unknown,Unknown,26.8318676,80.9663871
UHC AZAD NAGAR,"NEAR KANSHIRAM SMARAK, URBAN, MOHALLAH AZAD NAGAR GEETA PALLI, PLOT NO.804",Unknown,Unknown,226005,Uttar Pradesh,Unknown,Unknown,centre,Unknown,Unknown,Unknown,26.8138138,80.9046091
JHALKARI BAI MAHILA HOSPITALS,"Major, Infront of Statue of Mahatma Gandhi Hazratganj lucknow, Hazratganj Lucknow, Veerangana Jhalkaribai Mahila Hospital,",Unknown,Unknown,Unknown,Uttar Pradesh,Unknown,hospital,Unknown,Unknown,Unknown,Unknown,26.8460131,80.9452862
32INTACT,Unknown,Engineering College Chauraha,Lucknow,226021,Unknown,Unknown,hospital,hospital,Unknown,https://www.32intacthealthcare.com,Unknown,26.9106712,80.9449159
"Base Hospital, Lucknow","Lal Bahadur Shastri Marg, Neil Lines, Cantonment, Lucknow",Unknown,Unknown,226002,Uttar Pradesh,Unknown,hospital,Unknown,Unknown,Unknown,Unknown,26.8084243,80.9364982
Shirdi Hospital,"Kursi Road, Jankipuram, Lucknow",Unknown,Unknown,226022,Uttar Pradesh,Unknown,hospital,Unknown,Unknown,Unknown,Unknown,26.9140807,80.9588485
Sushrut Institute Of Plastic Surgery,"Jawahar Nagar, Qaisar Bagh, Lucknow",Unknown,Unknown,226003,Uttar Pradesh,Unknown,doctors,doctor,Unknown,Unknown,Unknown,26.8664417,80.9203101
Nayab Hospital,"Ram Gopal Vidyant Road, Lalkuan, Lucknow",Unknown,Unknown,226001,Uttar Pradesh,Unknown,hospital,Unknown,Unknown,Unknown,Unknown,26.8401445,80.9285055
"Northern Railway Divisional Hospital, Lucknow","Cantonment, Lucknow",Unknown,Unknown,226002,Uttar Pradesh,Unknown,hospital,Unknown,Unknown,Unknown,Unknown,26.821399,80.9241858
Cantonment Board Hospital,"Nehru Road, Sadar Bazaar, Cantonment, Lucknow",Unknown,Unknown,226002,Uttar Pradesh,Unknown,hospital,Unknown,Unknown,Unknown,Unknown,26.8257088,80.9444723
Holy Family Hospital,"Alamnagar Mohan Road, Shahganj, Lucknow",Unknown,Unknown,226003,Uttar Pradesh,Unknown,hospital,Unknown,Unknown,Unknown,Unknown,26.8565387,80.9011295
Medwell Hospital,"Burlington Crossing, 37, Cantonment Road, Lucknow",Unknown,Unknown,226001,Uttar Pradesh,Unknown,hospital,Unknown,Unknown,Unknown,Unknown,26.84184,80.9369666
Mother and Child State Referral Hospital,"Amar Shaheed Path, Gomti Nagar, Lucknow",Unknown,Unknown,226002,Uttar Pradesh,Unknown,hospital,Unknown,Unknown,Unknown,Unknown,26.8083739,81.0088859
Ram Swaroop Hospital,"Subhash Marg, Birhana, Rajendra Nagar, Lucknow",Unknown,Unknown,226004,Uttar Pradesh,Unknown,hospital,Unknown,Unknown,Unknown,Unknown,26.8444993,80.9185079
Welcome Hospital & Trauma Centre,"Near Iim Tiraha,Inderpuri Colony,Sitapur Road, Lucknow",Unknown,Unknown,226020,Uttar Pradesh,Unknown,hospital,Unknown,Unknown,Unknown,Unknown,26.8845556,80.9308593
Ali Hospital,"Sardari Khera, Sector J, Aliganj, Lucknow",Unknown,Unknown,226001,Uttar Pradesh,Unknown,hospital,Unknown,Unknown,Unknown,Unknown,26.8166802,80.9061501
Dr. Sahani Hospital,"Alambagh Marg, Adarsh Nagar, Alambagh, Lucknow",Unknown,Unknown,226005,Uttar Pradesh,Unknown,hospital,Unknown,Unknown,Unknown,Unknown,26.8217475,80.9120612
Zenith Hospital,"Hashmi House, Nadwa College Road, Mukarimnagar, Hasanganj, Lucknow",Unknown,Unknown,226007,Uttar Pradesh,Unknown,hospital,Unknown,Unknown,Unknown,Unknown,26.8668996,80.9288802
Rajpoot Hospital,"Sanjay Gandhi Marg, Pakri Ka Pul, Ramprasad Bismil Nagar, Alambagh, Lucknow",Unknown,Unknown,226005,Uttar Pradesh,Unknown,hospital,Unknown,Unknown,Unknown,Unknown,26.8030319,80.9128033
Fehmina Hospital and Blood Bank,"Victoria Ganj, Near Sunni Inter College, Lucknow",Unknown,Unknown,226003,Uttar Pradesh,Unknown,hospital,Unknown,Unknown,Unknown,Unknown,26.8548711,80.9047437
Shatabdi Hospital,"Shah Mina Road, King George'S Medical University, Lucknow",Unknown,Unknown,226003,Uttar Pradesh,Unknown,hospital,hospital,Unknown,Unknown,Unknown,26.8667223,80.9180576
Noor Hospital,"Balrampur Hospital, Motilal Nehru Marg, Golaganj, Maulviganj, Wazirganj, Lucknow",Unknown,Unknown,226018,Uttar Pradesh,Unknown,hospital,Unknown,Unknown,Unknown,Unknown,26.8557166,80.9214015
Health City,"Health City Hospital Road, Vijay Khand 2, Lucknow",Unknown,Unknown,226010,Uttar Pradesh,Unknown,hospital,Unknown,Unknown,Unknown,Unknown,26.8566599,80.9934592
"A M S Hospital, Lucknow","Victoria Street, Jauhari Mohalla, Raja Bazar Chowk, Lucknow",Unknown,Unknown,226003,Uttar Pradesh,Unknown,hospital,Unknown,Unknown,Unknown,Unknown,26.8623674,80.9097648
Field Hospital,"Padmini Line, Near Fish Pond, Neil Lines, Cantonment, Lucknow",Unknown,Unknown,226002,Uttar Pradesh,Unknown,hospital,Unknown,Unknown,Unknown,Unknown,26.8019891,80.9439518
Suraj Multispeciality Hospital,"Rae Bareily Road, Bangla Bazar, Lucknow",Unknown,Unknown,226016,Uttar Pradesh,Unknown,hospital,Unknown,Unknown,Unknown,Unknown,26.8183398,80.9478626
City Hospital,"Sardari Khera, Railway Colony, Alambagh, Lucknow",Unknown,Unknown,226005,Uttar Pradesh,Unknown,hospital,Unknown,Unknown,Unknown,Unknown,26.8167521,80.9049302
Plus Hospital,"Victoria Street Chowk, Lucknow",Unknown,Unknown,226003,Uttar Pradesh,Unknown,hospital,Unknown,Unknown,Unknown,Unknown,26.8619784,80.9073273
Mariyam Hospital,"Ashok Marg, Block E, Narhi, Hazratganj, Lucknow",Unknown,Unknown,226001,Uttar Pradesh,Unknown,hospital,Unknown,Unknown,Unknown,Unknown,26.8472761,80.9460149
Rahat Hospital & Trauma Care,"Subash Chandra Bose Complex, Tulsidas Marg, Raja Bazar Chowk, Lucknow",Unknown,Unknown,226003,Uttar Pradesh,Unknown,hospital,Unknown,Unknown,Unknown,Unknown,26.8641485,80.9114721
Anand Hospital,"Indalganj, Sitapur Road, Bharat Nagar, Mohibullapur, Lucknow",Unknown,Unknown,226021,Uttar Pradesh,Unknown,hospital,Unknown,Unknown,Unknown,Unknown,26.910629,80.9365687
Hope Hospital,"Ap Sen Marg, Cash And Pay Colony, Charbagh, Lucknow",Unknown,Unknown,226001,Uttar Pradesh,Unknown,hospital,Unknown,Unknown,Unknown,Unknown,26.8340056,80.9296976
Jaccha Baccha Hospital,"Pili Colony, Old Labour Colony, Lucknow","Pili Colony, Old Labour Colony",Lucknow,226004,Uttar Pradesh,Unknown,hospital,hospital,Unknown,Unknown,Unknown,26.8469313,80.9046463
Asra Hospital,"Kursi Road, Tedhi Pulia Ring Road, Lucknow",Unknown,Unknown,226026,Uttar Pradesh,Unknown,hospital,Unknown,Unknown,Unknown,Unknown,26.908268,80.9587444
Medshine Hospital,"Near Badi Masjid, Azad Nagar, Madhuban Nagar, Alambagh, Lucknow",Unknown,Unknown,226005,Uttar Pradesh,Unknown,hospital,Unknown,Unknown,Unknown,Unknown,26.8053968,80.9108482
Relief Hospital,"Sitapur Road, Yogi Nagar, Ahibaranpur, Triveni Nagar, Lucknow",Unknown,Unknown,226020,Uttar Pradesh,Unknown,hospital,Unknown,Unknown,Unknown,Unknown,26.8890258,80.9339719
ECHS Polyclinic,"Neil Lines, Cantonment, Lucknow",Unknown,Unknown,226002,Uttar Pradesh,Unknown,clinic,Unknown,Unknown,Unknown,Unknown,26.8192895,80.9409858
Vatsala Hospital,"Tulsidas Marg, Khala Bazar, Turiya Ganj, Asharfabad, Lucknow",Unknown,Unknown,226003,Uttar Pradesh,Unknown,hospital,Unknown,Unknown,Unknown,Unknown,26.8533879,80.9025334
"Urban Health Centre, Azad Nagar",Azad Nagar,Unknown,Unknown,226005,Uttar Pradesh,Unknown,Unknown,centre,Unknown,Unknown,Unknown,26.8032446,80.9127268
"Urban Health Centre, Chitwapur",Chitwapur,Unknown,Unknown,226001,Uttar Pradesh,Unknown,Unknown,centre,Unknown,Unknown,Unknown,26.8380342,80.933066
"Urban Health Centre, Dudauli",Dudauli,Unknown,Unknown,226020,Uttar Pradesh,Unknown,Unknown,centre,Unknown,Unknown,Unknown,26.9108448,80.9228092
"Urban Health Centre, Lucknow",Lucknow,Unknown,Unknown,226020,Uttar Pradesh,Unknown,Unknown,centre,Unknown,Unknown,Unknown,26.9007834,80.9018505
"Urban Health Centre, Jankipuram",Jankipuram,Unknown,Unknown,226021,Uttar Pradesh,Unknown,Unknown,centre,Unknown,Unknown,Unknown,26.914146,80.950143
"Urban Health Centre, Kasaibada",Kasaibada,Unknown,Unknown,226018,Uttar Pradesh,Unknown,Unknown,centre,Unknown,Unknown,Unknown,26.8433364,80.9245446
"Urban Health Centre, Kashmiri Mohallah",Kashmiri Mohallah,Unknown,Unknown,226003,Uttar Pradesh,Unknown,Unknown,centre,Unknown,Unknown,Unknown,26.8587636,80.9008942
"Urban Health Centre, Khadra",Khadra,Unknown,Unknown,226020,Uttar Pradesh,Unknown,Unknown,centre,Unknown,Unknown,Unknown,26.8740667,80.916903
"Urban Health Centre, Maulviganj",Maulviganj,Unknown,Unknown,226003,Uttar Pradesh,Unknown,Unknown,centre,Unknown,Unknown,Unknown,26.854016,80.9243823
"Urban Health Centre, Martin Purwa",Martin Purwa,Unknown,Unknown,226001,Uttar Pradesh,Unknown,Unknown,centre,Unknown,Unknown,Unknown,26.8375591,80.9554169
"Urban Health Centre, Mawaiyya",Mawaiyya,Unknown,Unknown,226004,Uttar Pradesh,Unknown,Unknown,centre,Unknown,Unknown,Unknown,26.8323391,80.9083454
"Urban Health Centre, Mukarimnagar",Mukarimnagar,Unknown,Unknown,226007,Uttar Pradesh,Unknown,Unknown,centre,Unknown,Unknown,Unknown,26.8673183,80.9287369
"Urban Health Centre, Naka Hindola",Naka Hindola,Unknown,Unknown,226004,Uttar Pradesh,Unknown,Unknown,centre,Unknown,Unknown,Unknown,26.8369248,80.9198722
"Urban Health Centre, Patanala",Patanala,Unknown,Unknown,226003,Uttar Pradesh,Unknown,Unknown,centre,Unknown,Unknown,Unknown,26.8608854,80.9124331
"Urban Health Centre, Patel Nagar",Patel Nagar,Unknown,Unknown,226028,Uttar Pradesh,Unknown,Unknown,centre,Unknown,Unknown,Unknown,26.8780813,81.0074276
"Urban Health Centre, Rahim Nagar",Rahim Nagar,Unknown,Unknown,226022,Uttar Pradesh,Unknown,Unknown,centre,Unknown,Unknown,Unknown,26.8823733,80.9646886
"Urban Health Centre, Raza Bazar",Raza Bazar,Unknown,Unknown,226003,Uttar Pradesh,Unknown,Unknown,centre,Unknown,Unknown,Unknown,26.8630061,80.9120147
"Urban Health Centre, Rajendra Nagar",Rajendra Nagar,Unknown,Unknown,226004,Uttar Pradesh,Unknown,Unknown,centre,Unknown,Unknown,Unknown,26.8442003,80.9141873
"Urban Health Centre, Sajjadbagh",Sajjadbagh,Unknown,Unknown,226003,Uttar Pradesh,Unknown,Unknown,centre,Unknown,Unknown,Unknown,26.8823242,80.9022059
"Urban Health Centre, Suggamau",Suggamau,Unknown,Unknown,226026,Uttar Pradesh,Unknown,Unknown,centre,Unknown,Unknown,Unknown,26.9080003,81.0046401
"Urban Health Centre, Tagore Marg",Tagore Marg,Unknown,Unknown,226020,Uttar Pradesh,Unknown,Unknown,centre,Unknown,Unknown,Unknown,26.8657726,80.9303228
"Urban Health Centre, Triveni Nagar",Triveni Nagar,Unknown,Unknown,226020,Uttar Pradesh,Unknown,Unknown,centre,Unknown,Unknown,Unknown,26.8862644,80.9311496
"Urban Health Centre, Hussainabad",Hussainabad,Unknown,Unknown,226003,Uttar Pradesh,Unknown,Unknown,centre,Unknown,Unknown,Unknown,26.8720091,80.907294
"Urban Health Centre, Jugoli",Jugoli,Unknown,Unknown,226010,Uttar Pradesh,Unknown,Unknown,centre,Unknown,Unknown,Unknown,26.8654981,80.97725
"SubCentre, Tikariya",Tikariya,Unknown,Unknown,225301,Uttar Pradesh,Unknown,Unknown,centre,Unknown,Unknown,Unknown,26.9811692,81.0604213
"SubCentre, Tikari",Tikari,Unknown,Unknown,226203,Uttar Pradesh,Unknown,Unknown,centre,Unknown,Unknown,Unknown,27.0289883,80.9149075
"SubCentre, Behta",Behta,Unknown,Unknown,226026,Uttar Pradesh,Unknown,Unknown,centre,Unknown,Unknown,Unknown,26.9859568,81.0209889
"SubCentre, Arjunganj",Arjunganj,Unknown,Unknown,226002,Uttar Pradesh,Unknown,Unknown,centre,Unknown,Unknown,Unknown,26.8090913,80.9899168
"SubCentre, Anora Kalan",Anora Kalan,Unknown,Unknown,226028,Uttar Pradesh,Unknown,Unknown,centre,Unknown,Unknown,Unknown,26.9013939,81.0888293
"SubCentre, Ismailganj",Ismailganj,Unknown,Unknown,226016,Uttar Pradesh,Unknown,Unknown,centre,Unknown,Unknown,Unknown,26.8763109,81.0107414
"SubCentre, Bahrauli",Bahrauli,Unknown,Unknown,225302,Uttar Pradesh,Unknown,Unknown,centre,Unknown,Unknown,Unknown,27.0363768,81.0527515
"SubCentre, Para",Para,Unknown,Unknown,226026,Uttar Pradesh,Unknown,Unknown,centre,Unknown,Unknown,Unknown,26.966339,81.0522138
Varsha Hospital,Unknown,Unknown,Unknown,Unknown,Unknown,Unknown,hospital,hospital,Unknown,Unknown,Unknown,26.8893661,80.9921386
CGHS Hospital,Unknown,Unknown,Unknown,Unknown,Unknown,Unknown,hospital,hospital,Unknown,Unknown,Unknown,26.8629327,80.9954584
Sushma Hospital,Unknown,Unknown,Unknown,Unknown,Unknown,Unknown,Unknown,hospice,Unknown,Unknown,Unknown,26.8735769,81.0026868
Quality Path Labs,Unknown,Unknown,Unknown,Unknown,Unknown,Unknown,Unknown,alternative,Unknown,Unknown,Unknown,26.8946998,80.9420201
"Quality Pathology, Aliganj",Unknown,Unknown,Unknown,Unknown,Unknown,Unknown,Unknown,yes,Unknown,Unknown,Unknown,26.894783,80.9426425
Keshava Physiotherapist Clinic,Unknown,Unknown,Unknown,Unknown,Unknown,Unknown,Unknown,physiotherapist,Unknown,Unknown,Unknown,26.8942807,80.943487
Indu Medical Center,Unknown,Unknown,Unknown,Unknown,Unknown,Unknown,hospital,hospital,Unknown,Unknown,Unknown,26.8989354,80.9448174
Indu Hospital Aliganj,Unknown,Unknown,Unknown,Unknown,Unknown,Unknown,hospital,hospital,Unknown,Unknown,Unknown,26.9010096,80.9417117
Indu Physiotherapy Center,Unknown,Unknown,Unknown,Unknown,Unknown,Unknown,Unknown,physiotherapist,Unknown,Unknown,Unknown,26.9012093,80.9413734
Divyavani Clinic,Unknown,"B-1/45,Sector J Aliganj (Opp. R.B.I Colony), Aliganj,Uttar Pradesh, India",Lucknow,226024,Unknown,Unknown,clinic,clinic,Unknown,https://www.drhimanshukrishna.com/,"Mo-We,Fr,Sa 09:30-11:30",26.8989145,80.9477741
Unknown,Unknown,Nirala Nagar,Unknown,Unknown,Unknown,Unknown,clinic,Unknown,Unknown,Unknown,Unknown,26.8748633,80.9402724
Unknown,Unknown,Unknown,Unknown,Unknown,Unknown,Unknown,clinic,Unknown,Unknown,Unknown,Unknown,26.8825366,80.9564218
Highway Hospital & Trauma Centre,Unknown,"Snehi Nagar, 373, Sitapur Rd, Tarikhana,Uttar Pradesh, India",Lucknow,226024,Unknown,Unknown,hospital,hospital,Unknown,https://www.highwayhospitalandtraumacentre.in/,Unknown,26.9050701,80.9386332
Ganga Laxmi IVF,Unknown,"2/301 , Viram Khand, Gomti Nagar,UttarPradesh, India",Lucknow,226010,Unknown,Unknown,clinic,clinic,Unknown,https://www.gangalaxmiivf.com/,Mon - Sun : 9:00am to 8:00pm,26.8476516,81.0004895
Apollo Pharmacy,Unknown,Unknown,Unknown,Unknown,Unknown,Unknown,pharmacy,pharmacy,Unknown,Unknown,Unknown,26.8763066,80.9845078
Ujala Medical Center,Unknown,Unknown,Unknown,Unknown,Unknown,Unknown,Unknown,hospice,Unknown,Unknown,Unknown,26.881844,80.9841349
Jai Medicals,Unknown,Unknown,Unknown,Unknown,Unknown,Unknown,pharmacy,pharmacy,Unknown,Unknown,Unknown,26.8833594,80.9911319
Shiva Medicine Store,Unknown,Unknown,Unknown,Unknown,Unknown,Unknown,pharmacy,pharmacy,Unknown,Unknown,Unknown,26.8832176,80.9911363
LifeCare Diagnostic,Unknown,Unknown,Unknown,Unknown,Unknown,Unknown,Unknown,sample_collection,Unknown,Unknown,Unknown,26.8772143,80.9775032
Mother's Care and IVF Centre,Unknown,Unknown,Unknown,Unknown,Unknown,Unknown,doctors,doctor,Unknown,Unknown,Unknown,26.8852372,80.9906976
RK Medical Centre,Unknown,Unknown,Unknown,Unknown,Unknown,Unknown,clinic,clinic,Unknown,Unknown,Unknown,26.8855924,80.9862047
Asheerwad Hospital,Unknown,Unknown,Unknown,Unknown,Unknown,Unknown,Unknown,hospice,Unknown,Unknown,Unknown,26.8791149,80.978699
Kalindi Arthritis Clinic,Unknown,"Nirvan cottage, behind RLB, Sector 3,Vikas Nagar",Lucknow,226020,Unknown,Unknown,clinic,clinic,Unknown,Unknown,Unknown,26.8993265,80.959433
rishi hospital,Unknown,Chinhat Road,Lucknow,226010,Unknown,Unknown,hospital,hospital,Unknown,Unknown,Unknown,26.8665293,81.0220699
Unknown,Unknown,Unknown,Unknown,Unknown,Unknown,Unknown,hospital,hospital,Unknown,Unknown,Unknown,26.8083886,81.0088777
Nidhish Medicals,Unknown,Unknown,Unknown,Unknown,Unknown,Unknown,pharmacy,pharmacy,Unknown,Unknown,Unknown,26.8831891,80.9911372
Apollo Pharmacy,Unknown,Unknown,Unknown,Unknown,Unknown,Unknown,pharmacy,pharmacy,Unknown,Unknown,Unknown,26.8854325,80.9982049
ABC Chasmewala,Unknown,Unknown,Unknown,Unknown,Unknown,Unknown,Unknown,optometrist,Unknown,Unknown,Unknown,26.8100809,81.0134984
medical store,Unknown,Unknown,Unknown,Unknown,Unknown,Unknown,pharmacy,pharmacy,Unknown,Unknown,Unknown,26.8853821,81.0040451
Sadbhavna Clinic,Unknown,Unknown,Unknown,Unknown,Unknown,Unknown,clinic,clinic,Unknown,Unknown,Unknown,26.8854208,81.0013022
Diabetes & Blood pressure care,Unknown,Unknown,Unknown,Unknown,Unknown,Unknown,doctors,doctor,Unknown,Unknown,Unknown,26.8851179,81.003676
liver clinic,Unknown,Unknown,Unknown,Unknown,Unknown,Unknown,doctors,doctor,Unknown,Unknown,Unknown,26.8861056,81.001108
medical store,Unknown,Unknown,Unknown,Unknown,Unknown,Unknown,pharmacy,pharmacy,Unknown,Unknown,Unknown,26.8853027,81.0041331
Dr shahida sheikh gyno clinic,Unknown,Unknown,Unknown,Unknown,Unknown,Unknown,doctors,doctor,Unknown,Unknown,Unknown,26.8854595,81.0049321
Adil medical store,Unknown,Unknown,Unknown,Unknown,Unknown,Unknown,pharmacy,pharmacy,Unknown,Unknown,Unknown,26.8854004,81.0064626
Cair family clinic,Unknown,Unknown,Unknown,Unknown,Unknown,Unknown,clinic,Unknown,Unknown,Unknown,Mo-Su 09:00-14:00; Mo-Su 04:00-21:00,26.8741561,81.0325056
Shakuntala eyeclini,Unknown,Unknown,Unknown,Unknown,Unknown,Unknown,clinic,Unknown,Unknown,Unknown,Mo-Su 18:00-20:00,26.8722871,81.0297015
Dr. Arpit Srivastava,Unknown,"Basement 1,Apollomedics Hospital, Kanpur road",Lucknow,226012,Unknown,Unknown,clinic,clinic,Unknown,Unknown,Unknown,26.8762382,80.9854028
Dr. Santosh Singh,Unknown,"Surya Orthopaedic Hospital and Trauma Center, Opposite K.D.Singh Babu Stadium",Barabanki,255001,Unknown,Unknown,clinic,clinic,Unknown,Unknown,Unknown,26.8715624,80.9985595
