Name,Full Address,Street,City,Postcode,State,Country,Amenity,Healthcare,Phone,Website,Opening Hours,Latitude,Longitude
Amarjit Nursing Home,Unknown,Unknown,Unknown,Unknown,Unknown,Unknown,hospital,Unknown,Unknown,Unknown,Unknown,30.9002751,75.8250965
Karanvir Hospital,Unknown,Unknown,Unknown,Unknown,Unknown,Unknown,hospital,Unknown,Unknown,Unknown,Unknown,30.9205969,75.816751
Hero DMC Hospital,Unknown,Unknown,Unknown,Unknown,Unknown,Unknown,hospital,Unknown,Unknown,Unknown,Unknown,30.9179151,75.8216791
ESI Hospital,Unknown,Unknown,Unknown,Unknown,Unknown,Unknown,hospital,Unknown,Unknown,Unknown,Unknown,30.9020723,75.8401061
Dr Aulakh Clinic,Unknown,Unknown,Ludhiana,Unknown,Unknown,Unknown,clinic,Unknown,0161-2300633,Unknown,Unknown,30.910936,75.805307
Khaira Nursing Home,"2261, Krishna Nagar, Ludhiana",Unknown,Unknown,141001,Punjab,Unknown,clinic,Unknown,Unknown,Unknown,Unknown,30.9006595,75.8248698
Raja nursing home,Unknown,Unknown,Unknown,Unknown,Unknown,Unknown,clinic,Unknown,Unknown,Unknown,Unknown,30.9102666,75.8812519
32 Gems Dental Clinic,Unknown,Unknown,Unknown,Unknown,Unknown,Unknown,clinic,Unknown,Unknown,Unknown,Unknown,30.9055126,75.892736
Punjab Agricultural University Hospital,"Punjab Agricultural University, Main Market Rd, Haibowal Khurd",Unknown,Unknown,141004,Punjab,Unknown,hospital,Unknown,Unknown,https://www.pau.edu/pauhospital,Unknown,30.9029612,75.8158208
Unknown,Unknown,Unknown,Unknown,Unknown,Unknown,Unknown,clinic,Unknown,Unknown,Unknown,Unknown,30.9107948,75.8799202
Satyam Hair Transplant Centre,Unknown,Krishna Road,Ludhiana,141001,Unknown,Unknown,hospital,hospital,+919988091800,https://www.satyamhairtransplantindia.com/,Unknown,30.9016916,75.8243596
Unknown,Unknown,Unknown,Unknown,Unknown,Unknown,Unknown,hospital,Unknown,Unknown,Unknown,Unknown,30.9076701,75.8872418
Dr Amrita Whig Gynae and Maternity Centre,"3-E ,Tagore Nagar",Unknown,Unknown,141001,Punjab,Unknown,hospital,Unknown,Unknown,Unknown,Unknown,30.9110943,75.8049376
Rattan Multispeciality Hospital and Diagnostic Centre,"Firozepur Road, Near Octroi Post",Unknown,Unknown,141008,Punjab,Unknown,hospital,Unknown,Unknown,Unknown,Unknown,30.9132923,75.8740719
"Kalra Hospital, Ludhiana",Baba Than Singh Chowk Srinagar Road,Unknown,Unknown,141008,Punjab,Unknown,hospital,Unknown,Unknown,kalrahospital.in,Unknown,30.9141932,75.8670321
"Hope Hospital, Ludhiana","28-B Tagore Nagar, Opposite HERO Heart Center, Civil Lines",Unknown,Unknown,141001,Punjab,Unknown,hospital,Unknown,"+91-161-2301003, 2302003",http://www.hopehospitalludhiana.com,Unknown,30.9121987,75.8233117
Bansal Hospital,"970 B Rajpura Road Near Dhobi Ghat, Civil Lines",Unknown,Unknown,141001,Punjab,Unknown,hospital,Unknown,Unknown,Unknown,Unknown,30.9194477,75.8190712
Anand Scan Hospital,Pokhowal Road,Unknown,Unknown,141001,Punjab,Unknown,hospital,Unknown,Unknown,Unknown,Unknown,30.9144634,75.8447308
Arora Nursing Home,Brown Road,Unknown,Unknown,141008,Punjab,Unknown,clinic,Unknown,Unknown,Unknown,Unknown,30.9138585,75.8671433
"Sachdeva Nursing Home, Ludhiana","Atam Shraman Bhawan, Sunder Nagar",Unknown,Unknown,141007,Punjab,Unknown,clinic,Unknown,Unknown,Unknown,Unknown,30.9296459,75.8688272
"Iqbal Nursing Home and Hospital, Ludhiana","Karnail Singh Nagar Chowk, Phase-2, Pakhowal Road",Unknown,Unknown,141001,Punjab,Unknown,hospital,Unknown,Unknown,Unknown,Unknown,30.9133218,75.8442008
Sharma Nursing Home,"Rahon Rd, Dashmesh Market, New Subhash Nagar",Unknown,Unknown,142026,Punjab,Unknown,hospital,Unknown,Unknown,Unknown,Unknown,30.9329607,75.8758789
"Dev Hospital, Indira Colony","419/4, Indira Colony, Chandigarh Road",Unknown,Unknown,141010,Punjab,Unknown,hospital,Unknown,Unknown,Unknown,Unknown,30.91073,75.8977718
Takkar Children Nursing Home and Hospital,Sadhar,Unknown,Unknown,141001,Punjab,Unknown,hospital,Unknown,Unknown,Unknown,Unknown,30.9126428,75.8447519
Dr Gupta Piles Hospital,"3-E Hambran Road Opp.New, Tagore Nagar E-Block",Unknown,Unknown,141001,Punjab,Unknown,hospital,Unknown,Unknown,Unknown,Unknown,30.9165364,75.8231574
Dr. K. P. Sing Hospital (Surgeons's - Hall),Tagore Nagar,Unknown,Unknown,141001,Punjab,Unknown,hospital,Unknown,Unknown,Unknown,Unknown,30.9160347,75.8204913
Dhami Eye Care Hospital,"81/82-B, DMC Road, Kitchlu Nagar, Ludhiana, Punjab 141001",Unknown,Unknown,141001,Punjab,Unknown,hospital,Unknown,Unknown,https://dhamieyehospital.com/,Unknown,30.9151971,75.819051
Aastha Kidney and Super Speciality Hospital,"4-D, Kitchlu Nagar",Unknown,Unknown,141001,Punjab,Unknown,hospital,Unknown,Unknown,https://www.aasthakidneyhospital.com/,Unknown,30.9029945,75.8261454
Batta Hospital,"Near Old Dandi Swami Mandir, Civil Lines",Unknown,Unknown,141001,Punjab,Unknown,hospital,Unknown,Unknown,Unknown,Unknown,30.9031223,75.8272746
"Satyam Hospital, Ludhiana","670, Street No: 4, Harcharan Nagar , Near Samrala Chowk, Main Shingar Cinema Road",Unknown,Unknown,141008,Punjab,Unknown,hospital,Unknown,Unknown,Unknown,Unknown,30.9139838,75.8748148
"Seth Hospital, Ludhiana",Rose Enclave,Unknown,Unknown,141001,Punjab,Unknown,hospital,Unknown,Unknown,Http://www.sethhospitalludhiana.com/,Unknown,30.9071019,75.8267494
Bawa Hospital (P) Ltd.,"Hambran Rd, Near Old Dandi Swami Mandir",Unknown,Unknown,141001,Punjab,Unknown,hospital,Unknown,Unknown,Unknown,Unknown,30.9162992,75.8340497
Bassi Nursing Home Pvt. Ltd.,"970B, Rajpura Rd, Vivek Nagar, Tagore Nagar",Unknown,Unknown,141001,Punjab,Unknown,clinic,Unknown,Unknown,Unknown,Unknown,30.9169242,75.8238458
Arora Neuro Centre Pvt.Ltd.,"120, The Mall Rd, Civil Lines",Unknown,Unknown,141001,Punjab,Unknown,hospital,Unknown,Unknown,https://www.aroraneuro.com/,Unknown,30.9123207,75.8400297
Dewan Hospital,"Sangat Road, Civil Lines",Unknown,Unknown,141001,Punjab,Unknown,hospital,Unknown,Unknown,Unknown,Unknown,30.912461,75.8310897
Toor Hospital,"Main Road, Haibowal Kalan",Unknown,Unknown,141001,Punjab,Unknown,hospital,Unknown,Unknown,Http://toorhospital.com/,Unknown,30.9204304,75.8172824
"Chawla Nursing Home, Chauri Sarak","906,Gulchaman Gali ,Opp Sunheri Gurdwara ,Chauri Sarak",Unknown,Unknown,141007,Punjab,Unknown,clinic,Unknown,Unknown,https://www.chawlanursinghome.in/,Unknown,30.9321769,75.871055
Aastha Kidney & Super Speciality Hospital,"B-20-1197/1, Maya Nagar Road, Near Aarti Chowk, Civil Lines",Unknown,Unknown,141001,Punjab,Unknown,hospital,Unknown,Unknown,Unknown,Unknown,30.9027552,75.8250752
Unknown,Unknown,Unknown,Unknown,Unknown,Unknown,Unknown,hospital,Unknown,Unknown,Unknown,Unknown,30.9271858,75.8167049
Unknown,Unknown,Unknown,Unknown,Unknown,Unknown,Unknown,clinic,Unknown,Unknown,Unknown,Unknown,30.9270076,75.8165836
Unknown,Unknown,Unknown,Unknown,Unknown,Unknown,Unknown,clinic,Unknown,Unknown,Unknown,Unknown,30.9273192,75.8165702
Unknown,Unknown,Unknown,Unknown,Unknown,Unknown,Unknown,clinic,Unknown,Unknown,Unknown,Unknown,30.9270776,75.8165884
"Singla Nursing Home, Ludhiana","New Sabji Mandi, Salem Tabri",Unknown,Unknown,141008,Punjab,Unknown,clinic,Unknown,Unknown,Unknown,Unknown,30.9319527,75.8404145
Dr. B. L. Kapur Memorial Hospital,"Sabzi Mandi Rd, G.T.Road, Old Sabzi Mandi, Dal Bazar",Unknown,Unknown,141008,Punjab,Unknown,hospital,Unknown,Unknown,Unknown,Unknown,30.9207061,75.8502988
"Chhabra Hospital, Ludhiana","Bus Stand, 339 Link Road Furniture Market, Bharat Nagar",Unknown,Unknown,141001,Punjab,Unknown,hospital,Unknown,Unknown,Unknown,Unknown,30.9006666,75.842751
Dhawan Surgicare and Multispeciality Hospital,"Near Basti Jodhewal Chowk, Rohan Road",Unknown,Unknown,141007,Punjab,Unknown,hospital,Unknown,Unknown,Unknown,Unknown,30.9408613,75.8832266
Sahara Hospital - Ludhiana,"33 Futa Road, Jaswant Nagar, Santokh Nagar, Karabara Basti",Unknown,Unknown,141001,Punjab,Unknown,hospital,Unknown,Unknown,Unknown,Unknown,30.9316032,75.8496848
K.Deep Nursing Home,"Old Sabzi Mandi,Basement Nagar, Guru Arjan Dev Nagar",Unknown,Unknown,141112,Punjab,Unknown,clinic,Unknown,Unknown,Unknown,Unknown,30.9108893,75.8864623
Mohan Dai Oswal Cancer Treatment and Research Foundation,"G.T. Road, Bye Pass, Sherpur",Unknown,Unknown,141009,Punjab,Unknown,hospital,Unknown,Unknown,Unknown,Unknown,30.9342706,75.87917
Likhi Hospital,"158, Dr VP Likhi Rd, Mall Enclave",Unknown,Unknown,141001,Punjab,Unknown,hospital,Unknown,Unknown,Unknown,Unknown,30.9082308,75.8374985
Advanced Centre For Eyes,"4-D, D-Block, Kitchlu Nagar",Unknown,Unknown,141004,Punjab,Unknown,hospital,Unknown,Unknown,Unknown,Unknown,30.9123793,75.8193541
Sanjivani Hospital and Diabesity Research Hospital,"Naseeb Enclave,Chander Nagar Rd, New Tagore Nagar",Unknown,Unknown,141001,Punjab,Unknown,hospital,Unknown,Unknown,Unknown,Unknown,30.9204709,75.8227203
Dr.Rama Sofat Hospital,"435, Government College Rd",Unknown,Unknown,141001,Punjab,Unknown,hospital,Unknown,Unknown,Unknown,Unknown,30.9104113,75.8327603
Aarti Eye Hospital,"dayanand medical college & hospital, 57- E, Rajpura Rd, Tagore Nagar",Unknown,Unknown,141001,Punjab,Unknown,hospital,Unknown,Unknown,Unknown,Unknown,30.9163126,75.8215269
Mittal Nursing Home and Trauma Centre Pvt.Ltd.,"71B, D-Block, Kitchlu Nagar",Unknown,Unknown,141027,Punjab,Unknown,hospital,Unknown,Unknown,Unknown,Unknown,30.9144805,75.8191244
U.S.P.C Jain Charitable Hospital,"Atam Shraman Bhawan, Rupa Mistri St",Unknown,Unknown,141008,Punjab,Unknown,hospital,Unknown,Unknown,Unknown,Unknown,30.9267356,75.8643573
Shri Baba Jai Ram Das Jain Eye Hospital,"City Colony, New Grain Market,Jalandhar Bypass",Unknown,Unknown,141008,Punjab,Unknown,hospital,Unknown,Unknown,Unknown,Unknown,30.9423187,75.8435695
Dayanand Medical College And Hospital / Dayanad Medcial College and Hospital,"Civil Lines, Tagore Nagar",Unknown,Unknown,141001,Punjab,Unknown,hospital,Unknown,Unknown,Unknown,Unknown,30.9164669,75.8362119
"Handa Hospital, Ludhiana","Guru Nanak Pura, New Kundanpuri, Civil Lines",Unknown,Unknown,141001,Punjab,Unknown,hospital,Unknown,Unknown,Unknown,Unknown,30.9203895,75.8424634
Kapoor Nursing Home - Ludhiana,"Sunder Nagar Rd, New Madhopuri",Unknown,Unknown,141007,Punjab,Unknown,clinic,Unknown,Unknown,Unknown,Unknown,30.9221723,75.8641339
Anurag Eye And Maternity Centre,"Opp - Kali Mata Mandir, Hambran Rd, Haibowal Kalan",Unknown,Unknown,141004,Punjab,Unknown,hospital,Unknown,Unknown,Unknown,Unknown,30.9173012,75.8029469
Lifeline Polyclinic and Nursing Home,"New Deep Nagar, Civil Lines",Unknown,Unknown,141001,Punjab,Unknown,clinic,Unknown,Unknown,Unknown,Unknown,30.9173358,75.8241813
"Singla Hospital, Ludhiana","Durga Puri, Haibowal Kalan",Unknown,Unknown,141001,Punjab,Unknown,hospital,Unknown,Unknown,Unknown,Unknown,30.9226879,75.8132549
"Kalyan Hospital, Ludhiana","Division Number 3, Samrala Rd, Near Fire Brigade",Unknown,Unknown,141008,Punjab,Unknown,hospital,Unknown,Unknown,Unknown,Unknown,30.9149153,75.8653278
"Gupta Children Hospital,Ludhiana","654 Street Number 5, Samrala Road, Shingar Cinema Rd,Harcharan Nagar",Unknown,Unknown,141003,Punjab,Unknown,hospital,Unknown,Unknown,Unknown,Unknown,30.9126822,75.8751747
Avasthi Bone And Joint Clinic And Hospital,"135, Prince Hostel Rd, opp. Prince Hostel, Patel Nagar, Green Park, Civil Lines",Unknown,Unknown,141001,Punjab,Unknown,hospital,Unknown,Unknown,Unknown,Unknown,30.9131215,75.8332667
Kulwant Heart And Vascular Centre,"11-d, D-Block, Kitchlu Nagar",Unknown,Unknown,141001,Punjab,Unknown,hospital,Unknown,Unknown,Unknown,Unknown,30.9122072,75.8193694
Kanchan Hospital,"Main Road, Haibowal Kalan,near, Salem Tabri",Unknown,Unknown,141008,Punjab,Unknown,hospital,Unknown,Unknown,Unknown,Unknown,30.938216,75.833276
"Raman Hospital, Ludhiana","Line No.1, Raman Enclave, Kitchlu Nagar Rd, Kitchlu Nagar",Unknown,Unknown,141001,Punjab,Unknown,hospital,Unknown,Unknown,Unknown,Unknown,30.9155611,75.8115623
SAD Haibowal Khurd,"Near Ravidas Dharamshala, Habowal, Kitchlu Nagar Ext.",Unknown,Unknown,141027,Punjab,Unknown,clinic,centre,Unknown,Unknown,Unknown,30.9144731,75.8104469
UPHC New Shivpuri,"USPC Jain Hospital, Sardar Nagar,New Shivpuri, sardar nagar,",Unknown,Unknown,141007,Punjab,Unknown,clinic,centre,Unknown,Unknown,Unknown,30.9266507,75.8633062
RC Kundanpuri,"Civil line.Gurunanak pura, Upkar nagar.Dusshera Ground",Unknown,Unknown,141008,Punjab,Unknown,clinic,centre,Unknown,Unknown,Unknown,30.92018,75.836953
UPHC Salem Tabri,"Near PNB bank, Salem Tabri",Unknown,Unknown,141008,Punjab,Unknown,Unknown,centre,Unknown,Unknown,Unknown,30.933452,75.838556
RC Chawani Mohalla,Petrol Pump,Unknown,Unknown,141008,Punjab,Unknown,clinic,centre,Unknown,Unknown,Unknown,30.944506,75.8503533
Guru Amardas Hospital,"Sector 32A, Sanjay Gandhi Colony",Unknown,Unknown,141014,Punjab,Unknown,hospital,Unknown,Unknown,Unknown,Unknown,30.9112254,75.896354
Shiv Ram Charitable Clinic,"Mayapuri, Ramesh Nagar",Unknown,Unknown,141007,Punjab,Unknown,clinic,Unknown,Unknown,Unknown,Unknown,30.9214346,75.8859132
Hunar Hospital,"Kuldeep Nagar, Jodhewal",Unknown,Unknown,141007,Punjab,Unknown,hospital,Unknown,Unknown,Unknown,Unknown,30.9318004,75.8700965
Surjit Memorial Clinic,Jodhewal,Unknown,Unknown,141007,Punjab,Unknown,clinic,Unknown,Unknown,Unknown,Unknown,30.9331112,75.8729276
Shivam Hospital,"Heera Nagar, Lajpat Nagar",Unknown,Unknown,141008,Punjab,Unknown,hospital,Unknown,Unknown,Unknown,Unknown,30.9383318,75.8575533
Satpal Clinic,"Street Number 5, Gulab Bagh, Subhash Nagar",Unknown,Unknown,141007,Punjab,Unknown,clinic,Unknown,Unknown,Unknown,Unknown,30.924643,75.885334
Gupta Health Clinic,Kirti Nagar,Unknown,Unknown,141014,Punjab,Unknown,clinic,Unknown,Unknown,Unknown,Unknown,30.9060338,75.8885528
Jacha Bacha Hospital,Guru Arjan Dev Nagar,Unknown,Unknown,141008,Punjab,Unknown,hospital,Unknown,Unknown,Unknown,Unknown,30.911225,75.89077
Jain Health Centre,Unknown,Unknown,Unknown,141007,Punjab,Unknown,hospital,Unknown,Unknown,Unknown,Unknown,30.9409548,75.8582754
Bhandari Star Life Eye Hospital & Bladefree Lasik Laser Centre,Jodhewal,Unknown,Unknown,141007,Punjab,Unknown,hospital,Unknown,Unknown,Unknown,Unknown,30.9327935,75.871873
Dr. A K Clinic,Unknown,Unknown,Unknown,141007,Punjab,Unknown,clinic,Unknown,Unknown,Unknown,Unknown,30.928437,75.886748
Anand Hospital,"Karam Colony, Beantpura",Unknown,Unknown,141010,Punjab,Unknown,hospital,Unknown,Unknown,Unknown,Unknown,30.90382,75.885202
R.J Clinic,Unknown,Unknown,Unknown,141008,Punjab,Unknown,clinic,Unknown,Unknown,Unknown,Unknown,30.9458456,75.8567934
Sharma Poly Clinic,"Heera Nagar, Lajpat Nagar",Unknown,Unknown,141008,Punjab,Unknown,clinic,Unknown,Unknown,Unknown,Unknown,30.9387628,75.8576786
Maa Vaishno Devi Charitable Hospital,Govind Pura,Unknown,Unknown,141008,Punjab,Unknown,hospital,hospital,Unknown,Unknown,Unknown,30.9429411,75.8528615
Government Dispensary,"Gulab Bagh, Subhash Nagar",Unknown,Unknown,141007,Punjab,Unknown,Unknown,centre,Unknown,Unknown,Unknown,30.9274318,75.8842623
Himalaya Hospital,Guru Arjan Dev Nagar,Unknown,Unknown,141008,Punjab,Unknown,hospital,Unknown,Unknown,Unknown,Unknown,30.911079,75.885213
Preet Nursing Home,"Kuldeep Nagar, Jodhewal",Unknown,Unknown,141007,Punjab,Unknown,clinic,Unknown,Unknown,Unknown,Unknown,30.9324802,75.8711839
Goldy Clinic,"Guru Arjun Dev Nagar, Ludhiana",Unknown,Unknown,141008,Punjab,Unknown,clinic,Unknown,Unknown,Unknown,Unknown,30.9127325,75.8849077
Nirmal Clinic,Guru Arjan Dev Nagar,Unknown,Unknown,141008,Punjab,Unknown,clinic,Unknown,Unknown,Unknown,Unknown,30.9165306,75.8873115
J.D Maternity and General Hospital,"Anandpuri Colony, Lajpat Nagar",Unknown,Unknown,141008,Punjab,Unknown,hospital,Unknown,Unknown,Unknown,Unknown,30.943027,75.858408
Warsi Clinic,"New Sarwan Park, Jai Singh Nagar",Unknown,Unknown,141007,Punjab,Unknown,clinic,Unknown,Unknown,Unknown,Unknown,30.941452,75.889904
Community Health Centre,"Swatanter Nagar, Subhash Nagar",Unknown,Unknown,141007,Punjab,Unknown,Unknown,centre,Unknown,Unknown,Unknown,30.935084,75.883956
Chhabra Hospital,Unknown,Unknown,Unknown,141007,Punjab,Unknown,hospital,Unknown,Unknown,Unknown,Unknown,30.9393509,75.8639137
Inder Hospital,Guru Arjan Dev Nagar,Unknown,Unknown,141008,Punjab,Unknown,hospital,Unknown,Unknown,Unknown,Unknown,30.9115829,75.8822573
Mannat Hospital,"Anandpuri Colony, Lajpat Nagar",Unknown,Unknown,141008,Punjab,Unknown,hospital,Unknown,Unknown,Unknown,Unknown,30.9426348,75.8587326
Sood Clinic,"Ghelewal, Meharban",Unknown,Unknown,141007,Punjab,Unknown,clinic,Unknown,Unknown,Unknown,Unknown,30.9467759,75.8901544
Garcha Clinic,Guru Preet Nagar,Unknown,Unknown,141008,Punjab,Unknown,clinic,Unknown,Unknown,Unknown,Unknown,30.949922,75.8551308
Beasa Homeo Clinic,"Kailash Nagar, Jodhewal",Unknown,Unknown,141007,Punjab,Unknown,clinic,Unknown,Unknown,Unknown,Unknown,30.938337,75.8676022
Bombay Hospital,Govind Pura,Unknown,Unknown,141008,Punjab,Unknown,hospital,Unknown,Unknown,Unknown,Unknown,30.9430164,75.8466322
Hari Om Health Care and Treatment Centre,"Jagdishpura, Haibowal",Unknown,Unknown,141008,Punjab,Unknown,hospital,Unknown,Unknown,Unknown,Unknown,30.917034,75.88815
Mahindra Eye Centre,Thapar Nagar,Unknown,Unknown,141008,Punjab,Unknown,clinic,Unknown,Unknown,Unknown,Unknown,30.9405522,75.8459926
Max City Hospital and Trauma Centre,"Barati Colony, Thapar Nagar",Unknown,Unknown,141008,Punjab,Unknown,hospital,Unknown,Unknown,Unknown,Unknown,30.9442506,75.8463982
Fitwell Health Clinic,Meharban,Unknown,Unknown,141007,Punjab,Unknown,clinic,Unknown,Unknown,Unknown,Unknown,30.9536041,75.8984279
Metro Hospital,Unknown,Unknown,Unknown,141008,Punjab,Unknown,hospital,Unknown,Unknown,Unknown,Unknown,30.916827,75.878864
Preet Clinic,Guru Arjan Dev Nagar,Unknown,Unknown,141008,Punjab,Unknown,clinic,Unknown,Unknown,Unknown,Unknown,30.913703,75.882909
Joshi Clinic,Kakowal,Unknown,Unknown,141007,Punjab,Unknown,clinic,Unknown,Unknown,Unknown,Unknown,30.9506686,75.8593582
Shri BR Memorial Hospital,Unknown,Streen No.1,Priya Colony,141007,Punjab,Unknown,hospital,hospital,Unknown,Unknown,Unknown,30.95253,75.8950127
Chaudary Clinic,Subhash Nagar,Unknown,Unknown,141007,Punjab,Unknown,clinic,Unknown,Unknown,Unknown,Unknown,30.9251704,75.8855896
Shivram Hospital,Subhash Nagar,Unknown,Unknown,141007,Punjab,Unknown,hospital,Unknown,Unknown,Unknown,Unknown,30.9310839,75.8785901
Gobind Clinic,Haibowal,Unknown,Unknown,141008,Punjab,Unknown,clinic,Unknown,Unknown,Unknown,Unknown,30.9169773,75.8808076
Harpreet Child Care Centre,Subhash Nagar,Unknown,Unknown,141007,Punjab,Unknown,clinic,Unknown,Unknown,Unknown,Unknown,30.931903,75.877679
Chander Clinic,Subhash Nagar,Unknown,Unknown,141007,Punjab,Unknown,clinic,Unknown,Unknown,Unknown,Unknown,30.9306486,75.8745995
Health Max Multi Speciality Hospital,Indira Colony,Unknown,Unknown,141008,Punjab,Unknown,hospital,Unknown,Unknown,Unknown,Unknown,30.9107962,75.8854344
Anand Clinic,Unknown,Unknown,Unknown,141007,Punjab,Unknown,clinic,Unknown,Unknown,Unknown,Unknown,30.9384624,75.8669292
Jank Hospital,Unknown,Unknown,Unknown,141014,Punjab,Unknown,hospital,Unknown,Unknown,Unknown,Unknown,30.9084644,75.885121
Guru Ravidaas Hospital,"Guru Vihar, Jodhewal",Unknown,Unknown,141007,Punjab,Unknown,hospital,Unknown,Unknown,Unknown,Unknown,30.9367335,75.8670012
Simran Hospital,"Basement Nagar, Guru Arjan Dev Nagar",Unknown,Unknown,141008,Punjab,Unknown,hospital,Unknown,Unknown,Unknown,Unknown,30.9119503,75.8858117
Kataria Clinic,Unknown,Unknown,Unknown,141014,Punjab,Unknown,clinic,Unknown,Unknown,Unknown,Unknown,30.9131742,75.8971707
Pathak Clinic,Guru Arjan Dev Nagar,Unknown,Unknown,141008,Punjab,Unknown,clinic,Unknown,Unknown,Unknown,Unknown,30.9123354,75.8912487
Ayush Health Care Centre,"Jai Singh Nagar, Meharban",Unknown,Unknown,141007,Punjab,Unknown,Unknown,centre,Unknown,Unknown,Unknown,30.9385889,75.8995276
Sukhmani Hospital,"Sector 32A, Sanjay Gandhi Colony",Unknown,Unknown,141014,Punjab,Unknown,hospital,Unknown,Unknown,Unknown,Unknown,30.914444,75.897336
Jain Charitable Hospital,Beantpura,Unknown,Unknown,141014,Punjab,Unknown,hospital,Unknown,Unknown,Unknown,Unknown,30.9086005,75.8858055
Patel Clinic,"Shimla Colony, Gagandeep Colony",Unknown,Unknown,141007,Punjab,Unknown,clinic,Unknown,Unknown,Unknown,Unknown,30.9381177,75.8672186
Malik Dental Charitable Hospital,Subhash Nagar,Unknown,Unknown,141007,Punjab,Unknown,hospital,Unknown,Unknown,Unknown,Unknown,30.9232219,75.8898996
Singh Clinics,"Heera Nagar, Lajpat Nagar",Unknown,Unknown,141008,Punjab,Unknown,clinic,Unknown,Unknown,Unknown,Unknown,30.9394271,75.857738
Vidya Hospital,"Mayapuri, Haibowal",Unknown,Unknown,141007,Punjab,Unknown,hospital,Unknown,Unknown,Unknown,Unknown,30.9212062,75.8856617
Verma Ayurvedic Clinic,"Sector 32A, Sanjay Gandhi Colony",Unknown,Unknown,141014,Punjab,Unknown,clinic,Unknown,Unknown,Unknown,Unknown,30.9129019,75.8956383
Nawes Clinic,Basant Vihar,Unknown,Unknown,141007,Punjab,Unknown,clinic,Unknown,Unknown,Unknown,Unknown,30.9450041,75.8589951
P.S Diagnostic Centre and Hospital,Unknown,Unknown,Unknown,141007,Punjab,Unknown,hospital,Unknown,Unknown,Unknown,Unknown,30.9313344,75.876083
Agarwal Nursing Home,"Gulab Bagh, Subhash Nagar",Unknown,Unknown,141007,Punjab,Unknown,clinic,Unknown,Unknown,Unknown,Unknown,30.9259115,75.8839865
Guru Nanak Clinic,Jai Singh Nagar,Unknown,Unknown,141007,Punjab,Unknown,clinic,Unknown,Unknown,Unknown,Unknown,30.94436,75.890647
Dr. Raman's Clinic,Bajrah,Unknown,Unknown,141007,Punjab,Unknown,clinic,Unknown,Unknown,Unknown,Unknown,30.943053,75.885776
Ramchand Uppal Memorial Hospital,Jodhewal,Unknown,Unknown,141007,Punjab,Unknown,hospital,Unknown,Unknown,Unknown,Unknown,30.939745,75.881106
Sanjeevani Hospital,"Rishi Nagar, Haibowal",Unknown,Unknown,141007,Punjab,Unknown,hospital,Unknown,Unknown,Unknown,Unknown,30.919413,75.879792
Dr. Karamchand Charitable Dispensary,Unknown,Unknown,Unknown,141014,Punjab,Unknown,Unknown,centre,Unknown,Unknown,Unknown,30.916078,75.894825
Arora Clinic,Moti Nagar,Unknown,Unknown,141010,Punjab,Unknown,clinic,Unknown,Unknown,Unknown,Unknown,30.903424,75.883893
Dr. Bal Clinic,Subhash Nagar,Unknown,Unknown,141007,Punjab,Unknown,clinic,Unknown,Unknown,Unknown,Unknown,30.931793,75.871521
Kumar Charitable Hospital,"EWS Colony, Guru Arjan Dev Nagar",Unknown,Unknown,141008,Punjab,Unknown,hospital,Unknown,Unknown,Unknown,Unknown,30.915555,75.8909314
Dr. Whig's Clinic,"Maya Nagar, Ludhiana",Unknown,Unknown,141001,Punjab,Unknown,clinic,Unknown,Unknown,Unknown,Unknown,30.907135,75.827971
Dr. Rohit Singla's Clinic,Unknown,Unknown,Unknown,141001,Punjab,Unknown,clinic,Unknown,Unknown,Unknown,Unknown,30.906397,75.8313241
Khaira Clinic,"Guru Nanak Pura, Kundanpuri",Unknown,Unknown,141008,Punjab,Unknown,clinic,Unknown,Unknown,Unknown,Unknown,30.920239,75.843214
Sanjeev Heart Centre,Maya Nagar,Unknown,Unknown,141001,Punjab,Unknown,hospital,Unknown,Unknown,Unknown,Unknown,30.90479,75.8261066
Pride Hospital,"Kundanpuri, Civil Lines",Unknown,Unknown,141008,Punjab,Unknown,hospital,hospital,Unknown,Unknown,Unknown,30.9225627,75.8360347
Refine Aesthetic Clinic,Unknown,Unknown,Unknown,141001,Punjab,Unknown,clinic,Unknown,Unknown,Unknown,Unknown,30.9139527,75.8452653
Railway Hospital,Unknown,Unknown,Unknown,141001,Punjab,Unknown,hospital,Unknown,Unknown,Unknown,Unknown,30.9121431,75.846828
Dr. Shashi Kapoor Nursing Home,Maya Nagar,Unknown,Unknown,141001,Punjab,Unknown,clinic,Unknown,Unknown,Unknown,Unknown,30.902903,75.827387
Dr. Sathinder Pal Jain Clinic,Civil Lines,Unknown,Unknown,141001,Punjab,Unknown,clinic,Unknown,Unknown,Unknown,Unknown,30.9176025,75.8345283
Chugh Clinic,"Kundanpuri, Civil Lines",Unknown,Unknown,141008,Punjab,Unknown,clinic,Unknown,Unknown,Unknown,Unknown,30.9207689,75.8387538
Chopra Maternity and Nursing Home,Civil Lines,Unknown,Unknown,141008,Punjab,Unknown,hospital,Unknown,Unknown,Unknown,Unknown,30.9174366,75.8428754
Care and Cure Clinic,Unknown,Unknown,Unknown,141001,Punjab,Unknown,clinic,Unknown,Unknown,Unknown,Unknown,30.9088208,75.8295146
Chandan Hospital,Unknown,Unknown,Unknown,141001,Punjab,Unknown,hospital,Unknown,Unknown,Unknown,Unknown,30.904725,75.832415
Nayyar Child Care Centre,"Kundan Puri, Civil Lines",Unknown,Unknown,141008,Punjab,Unknown,hospital,Unknown,Unknown,Unknown,Unknown,30.920698,75.836159
Uppal Clinic,"Guru Nanak Pura, Upkar Nagar",Unknown,Unknown,141008,Punjab,Unknown,clinic,Unknown,Unknown,Unknown,Unknown,30.9210023,75.8346029
ESI Dispensary,Civil Lines,Unknown,Unknown,141008,Punjab,Unknown,Unknown,centre,Unknown,Unknown,Unknown,30.917031,75.839271
Ohri Clinic,Maya Nagar,Unknown,Unknown,141001,Punjab,Unknown,clinic,Unknown,Unknown,Unknown,Unknown,30.9041961,75.8312498
Bali Clinic,"Kundanpuri, Civil Lines",Unknown,Unknown,141008,Punjab,Unknown,clinic,Unknown,Unknown,Unknown,Unknown,30.9222636,75.8349809
Dr. Sumeet Chopra Eye Clinic,Civil Lines,Unknown,Unknown,141008,Punjab,Unknown,clinic,Unknown,Unknown,Unknown,Unknown,30.9166396,75.8387207
Sibia Heart Centre,Unknown,Unknown,Unknown,141001,Punjab,Unknown,hospital,Unknown,Unknown,Unknown,Unknown,30.9144144,75.8376495
Sethi Kidney Care,"Patel Nagar, Green Park",Unknown,Unknown,141001,Punjab,Unknown,hospital,Unknown,Unknown,Unknown,Unknown,30.913286,75.833222
Shri Ram Clinic,"Kundanpuri, Civil Lines",Unknown,Unknown,141008,Punjab,Unknown,clinic,clinic,Unknown,Unknown,Unknown,30.9225796,75.8351549
Sharma Sabhlok Hospital,"Kundanpuri, Civil Lines",Unknown,Unknown,141008,Punjab,Unknown,hospital,Unknown,Unknown,Unknown,Unknown,30.920427,75.8422601
Vijayanand Dignostic Centre and Hospital,Civil Lines,Unknown,Unknown,141001,Punjab,Unknown,hospital,Unknown,Unknown,Unknown,Unknown,30.9104642,75.8335603
Chawla Hospital,Ghumar Mandi,Unknown,Unknown,141001,Punjab,Unknown,hospital,Unknown,Unknown,Unknown,Unknown,30.9030889,75.8298741
Dr. HS Pannu Clinic,Krishna Nagar,Unknown,Unknown,141001,Punjab,Unknown,clinic,Unknown,Unknown,Unknown,Unknown,30.9002386,75.8245829
Sharma Clinic,"Guru Nanak Pura, New Kundanpuri",Unknown,Unknown,141008,Punjab,Unknown,clinic,Unknown,Unknown,Unknown,Unknown,30.9205251,75.8410192
Child Cancer Clinic,Civil Lines,Unknown,Unknown,141001,Punjab,Unknown,clinic,Unknown,Unknown,Unknown,Unknown,30.904558,75.833491
Vardhaman Mahavir Jain Hospital,"Ram Nagar, Civil Lines",Unknown,Unknown,141008,Punjab,Unknown,hospital,Unknown,Unknown,Unknown,Unknown,30.919598,75.843353
Asghari Tariq Hospital,Unknown,Unknown,Unknown,141001,Punjab,Unknown,hospital,Unknown,Unknown,Unknown,Unknown,30.9004551,75.8258252
Karma Super Specialist Hospital,Civil Lines,Unknown,Unknown,141001,Punjab,Unknown,hospital,Unknown,Unknown,Unknown,Unknown,30.911614,75.833407
Agarwal Hospital,Tagore Nagar,Unknown,Unknown,141001,Punjab,Unknown,hospital,Unknown,Unknown,Unknown,Unknown,30.9158611,75.8227557
Dr. Sarabjot Clinic,Kitchlu Nagar,Unknown,Unknown,141004,Punjab,Unknown,clinic,Unknown,Unknown,Unknown,Unknown,30.9128966,75.8147194
Triveni Ayurveda Hospital,Unknown,Unknown,Unknown,141008,Punjab,Unknown,hospital,hospital,Unknown,Unknown,Unknown,30.9375003,75.8374171
Major Singh Hospital,Churpur,Unknown,Unknown,141001,Punjab,Unknown,hospital,Unknown,Unknown,Unknown,Unknown,30.9381144,75.8008697
Government Dispensary,Kitchlu Nagar,Unknown,Unknown,141027,Punjab,Unknown,Unknown,centre,Unknown,Unknown,Unknown,30.914515,75.8104493
Primary Healthcare Sehgal,Unknown,Unknown,Unknown,141001,Punjab,Unknown,hospital,Unknown,Unknown,Unknown,Unknown,30.9318131,75.8110452
Bhandari Eye Hospital and Starlife Lasik Laser Centre,Unknown,Unknown,Unknown,141027,Punjab,Unknown,hospital,Unknown,Unknown,Unknown,Unknown,30.9169329,75.8030048
Vardaan Clinic,"Hargovind Pura, Haibowal Kalan",Unknown,Unknown,141001,Punjab,Unknown,clinic,Unknown,Unknown,Unknown,Unknown,30.9238944,75.8245707
Shan Hospital,"Golden Avenue Colony, Haibowal Kalan",Unknown,Unknown,141001,Punjab,Unknown,hospital,Unknown,Unknown,Unknown,Unknown,30.9316291,75.8018515
Swasthik Charitable Hospital,Sandhu Nagar,Unknown,Unknown,141001,Punjab,Unknown,hospital,Unknown,Unknown,Unknown,Unknown,30.9325715,75.8229862
S.P Clinic,Unknown,Unknown,Unknown,141008,Punjab,Unknown,clinic,Unknown,Unknown,Unknown,Unknown,30.9461903,75.8362304
Satyam Clinic,"Bhattian, Bahadarke",Unknown,Unknown,141008,Punjab,Unknown,clinic,Unknown,Unknown,Unknown,Unknown,30.9603201,75.8357378
Dr. Pooja's Sai Clinic,Kitchlu Nagar,Unknown,Unknown,141004,Punjab,Unknown,clinic,Unknown,Unknown,Unknown,Unknown,30.9130098,75.8186437
Gupta Hospital,"Haibowal Khurd, Rishi Nagar",Unknown,Unknown,141027,Punjab,Unknown,hospital,Unknown,Unknown,Unknown,Unknown,30.9162214,75.8086272
Dr. K.P Singh Hospital & Diagnostic Centre,Kitchlu Nagar,Unknown,Unknown,141027,Punjab,Unknown,hospital,Unknown,Unknown,Unknown,Unknown,30.91369,75.817139
IM Clinics,Tagore Nagar,Unknown,Unknown,141001,Punjab,Unknown,clinic,Unknown,Unknown,Unknown,Unknown,30.915808,75.826375
JSR Clinic,Haibowal Kalan,Unknown,Unknown,141001,Punjab,Unknown,clinic,Unknown,Unknown,Unknown,Unknown,30.9247476,75.8163196
Tarun Hospital and Dental Care Centre,"New Maya Nagar, Bank Colony, Haibowal Kalan",Unknown,Unknown,141001,Punjab,Unknown,hospital,Unknown,Unknown,Unknown,Unknown,30.9278248,75.8076446
Singla Clinic,"New Tagore Nagar, Haibowal Kalan",Unknown,Unknown,141001,Punjab,Unknown,clinic,Unknown,Unknown,Unknown,Unknown,30.9208724,75.8166496
AIMC Bassi Hospital,Unknown,Unknown,Unknown,141001,Punjab,Unknown,hospital,Unknown,Unknown,Unknown,Unknown,30.9141197,75.8243595
Dr. Anuraag Sood's Speciality Homeopathy,Unknown,Unknown,Unknown,141027,Punjab,Unknown,hospital,Unknown,Unknown,Unknown,Unknown,30.914112,75.80613
Jeevan Hospital,Tagore Nagar,Unknown,Unknown,141001,Punjab,Unknown,hospital,Unknown,Unknown,Unknown,Unknown,30.9163036,75.8231778
Kansal's Arthritis and Rheumotology Clinic,Kitchlu,Unknown,Unknown,141004,Punjab,Unknown,clinic,Unknown,Unknown,Unknown,Unknown,30.912668,75.818829
Kyra Cosmetic Surgery Clinic,Unknown,Unknown,Unknown,141001,Punjab,Unknown,clinic,Unknown,Unknown,Unknown,Unknown,30.9123222,75.8218897
Dr. Sanjeev Mahajan Clinic,Tagore Nagar,Unknown,Unknown,141001,Punjab,Unknown,clinic,Unknown,Unknown,Unknown,Unknown,30.9150146,75.8207202
Dr. Gurusharan's Clinic,Haibowal Kalan,Unknown,Unknown,141001,Punjab,Unknown,clinic,Unknown,Unknown,Unknown,Unknown,30.9215989,75.8140902
Vikas Garg Clinic,"Udham Singh Nagar, Tagore Nagar",Unknown,Unknown,141001,Punjab,Unknown,clinic,Unknown,Unknown,Unknown,Unknown,30.913267,75.8207915
BR Thakur Memorial Hospital,"Maya Nagar, Haibowal Kalan",Unknown,Unknown,141001,Punjab,Unknown,hospital,Unknown,Unknown,Unknown,Unknown,30.9284358,75.8078001
Chahal General Hospital,"Bhattian, Bahadarke",Unknown,Unknown,141008,Punjab,Unknown,hospital,Unknown,Unknown,Unknown,Unknown,30.9589137,75.8330821
Jain Child Care and Vaccination Clinic,Rishi Nagar,Unknown,Unknown,141027,Punjab,Unknown,clinic,Unknown,Unknown,Unknown,Unknown,30.914858,75.806777
Aman Clinic,Unknown,Unknown,Unknown,141008,Punjab,Unknown,clinic,Unknown,Unknown,Unknown,Unknown,30.9461541,75.8354011
Rayam Physio Clinic,"Durga Puri, Haibowal Kalan",Unknown,Unknown,141001,Punjab,Unknown,clinic,Unknown,Unknown,Unknown,Unknown,30.929006,75.8092865
Jeevodaya Clinics,Hargovind Pura,Unknown,Unknown,141001,Punjab,Unknown,clinic,Unknown,Unknown,Unknown,Unknown,30.9298824,75.8275467
Bhagat Tarsem Lal Ji Charitable Hospital,Haibowal,Unknown,Unknown,141001,Punjab,Unknown,hospital,Unknown,Unknown,Unknown,Unknown,30.9403016,75.8165383
Sandeep Hospital,Unknown,Unknown,Unknown,141001,Punjab,Unknown,hospital,Unknown,Unknown,Unknown,Unknown,30.9245768,75.8113381
Liver & Gastro Clinic,Kitchlu Nagar,Unknown,Unknown,141027,Punjab,Unknown,clinic,Unknown,Unknown,Unknown,Unknown,30.9120294,75.8149433
Vikalang Sahayata and Punarvasa Kendra,"Balmiki Nagar, Rishi Nagar",Unknown,Unknown,141027,Punjab,Unknown,hospital,Unknown,Unknown,Unknown,Unknown,30.9128245,75.8047377
Katyal Heart Centre,Unknown,Unknown,Unknown,141001,Punjab,Unknown,hospital,Unknown,Unknown,Unknown,Unknown,30.911608,75.823945
Shri Bala Ji Healthcare and Physiotherapy Centre,Haibowal Kalan,Unknown,Unknown,141001,Punjab,Unknown,hospital,Unknown,Unknown,Unknown,Unknown,30.9211187,75.8154441
Dr. Shavinder Walia's Best Homeopathic Clinic,Unknown,Unknown,Unknown,141027,Punjab,Unknown,clinic,Unknown,Unknown,Unknown,Unknown,30.9170043,75.8023216
Arora Clinic,Rishi Nagar,Unknown,Unknown,141027,Punjab,Unknown,clinic,Unknown,Unknown,Unknown,Unknown,30.9108,75.8011903
Mishra Hospital,Kitchlu Nagar,Unknown,Unknown,141027,Punjab,Unknown,hospital,Unknown,Unknown,Unknown,Unknown,30.9146589,75.8136453
JMD Sethi Clinic,Unknown,Unknown,Unknown,141001,Punjab,Unknown,clinic,Unknown,Unknown,Unknown,Unknown,30.9300984,75.8167708
Neeru Homeopathy Clinic,Unknown,Unknown,Unknown,141027,Punjab,Unknown,clinic,Unknown,Unknown,Unknown,Unknown,30.914029,75.8049423
Datta Clinic,Haibowal Kalan,Unknown,Unknown,141001,Punjab,Unknown,clinic,Unknown,Unknown,Unknown,Unknown,30.9311582,75.8165157
Hopkin's Heart Clinic,Unknown,Unknown,Unknown,141027,Punjab,Unknown,clinic,Unknown,Unknown,Unknown,Unknown,30.9167668,75.8047166
"SubCentre, Jassian",Jassian,Unknown,Unknown,141001,Punjab,Unknown,Unknown,centre,Unknown,Unknown,Unknown,30.9444258,75.8177186
"SubCentre,Chhawani Mohalla",Chhawani Mohalla,Unknown,Unknown,141008,Punjab,Unknown,Unknown,centre,Unknown,Unknown,Unknown,30.9218069,75.8470509
"SubCentre,Bhattian Bet",Bhattian Bet,Unknown,Unknown,141008,Punjab,Unknown,Unknown,centre,Unknown,Unknown,Unknown,30.9585834,75.8274315
"SubCentre,Noorwala",Noorwala,Unknown,Unknown,141007,Punjab,Unknown,Unknown,centre,Unknown,Unknown,Unknown,30.9603067,75.8658683
"SubCentre,Madhopuri",Madhopuri,Unknown,Unknown,141008,Punjab,Unknown,Unknown,centre,Unknown,Unknown,Unknown,30.9201445,75.8650435
