Name,Full Address,Street,City,Postcode,State,Country,Amenity,Healthcare,Phone,Website,Opening Hours,Latitude,Longitude
Ramakrishna Math and Ramakrishna Mission Sevashrama,Unknown,Unknown,Unknown,Unknown,Unknown,Unknown,hospital,Unknown,+91 9259271811,https://rkmsvrind.org/,Unknown,27.572907,77.693199
Maa Saraswati Hospital,"Jaisinghpura,Vrindaban Road",Unknown,Unknown,281003,Uttar Pradesh,Unknown,hospital,Unknown,Unknown,Unknown,Unknown,27.519359,77.6722463
"रामकृष्ण मिशन सेवाश्रम, मथुरा","Near Anandmayee Maa Temple,Vrindaban",Unknown,Unknown,281121,Uttar Pradesh,Unknown,hospital,Unknown,Unknown,https://rkmsvrind.org/,Unknown,27.5719404,77.6944113
Sunayan Eye Centre,"Near Deep Nursing Home,Krishna Nagar Chauraha",Unknown,Unknown,281004,Uttar Pradesh,Unknown,hospital,Unknown,Unknown,Unknown,Unknown,27.5013454,77.6609822
Vipin Nursing Home,Krishna Nagar,Unknown,Unknown,281001,Uttar Pradesh,Unknown,clinic,Unknown,Unknown,Unknown,Unknown,27.5005431,77.6625131
"Maheshwari Hospital Pvt Ltd,",B/4 E Pass Po Chatikara,Unknown,Unknown,281003,Uttar Pradesh,Unknown,hospital,Unknown,Unknown,Unknown,Unknown,27.5059174,77.6790261
"CHC, Brindawan",Brindawan,Unknown,Unknown,281001,Uttar Pradesh,Unknown,Unknown,centre,Unknown,Unknown,Unknown,27.5646029,77.6718874
Shri Laxmi Life Line Hospital,"Near Luteria Hanuman, Mathura Road, Vrindaban",Unknown,Unknown,281121,Uttar Pradesh,Unknown,hospital,Unknown,Unknown,Unknown,Unknown,27.5605594,77.6815581
Spandan Care,Jaisinghpura,Unknown,Unknown,281003,Uttar Pradesh,Unknown,hospital,Unknown,Unknown,Unknown,Unknown,27.5233501,77.6734096
"Utkarsh Hospital, Mathura","Opposite Akashwani, Vrindavan Road",Unknown,Unknown,281005,Uttar Pradesh,Unknown,hospital,Unknown,Unknown,Unknown,Unknown,27.5156917,77.6733152
"Vatsalya Hospital, Mathura","Opposite Birla Mandir Jaisingh Pura, Vrindavan Road",Unknown,Unknown,281001,Uttar Pradesh,Unknown,hospital,Unknown,Unknown,Unknown,Unknown,27.5257079,77.6754172
Mehta Nursing Home and Maternity Hospital and Ortho,Krishna Nagar,Unknown,Unknown,281004,Uttar Pradesh,Unknown,hospital,Unknown,Unknown,Unknown,Unknown,27.5007078,77.6583832
Madhu Bala Hospital and Ultrasound Clinic,"Kalakunj Colony , Opposite Shri Ji Baba Ashram",Unknown,Unknown,281001,Uttar Pradesh,Unknown,hospital,Unknown,Unknown,Unknown,Unknown,27.5004295,77.6701929
Brij Health Care & Research Center,"Near Brij Tb Sanitorium, Attala Chungi, Mathura-Vrindavan Road",Unknown,Unknown,281121,Uttar Pradesh,Unknown,clinic,Unknown,Unknown,Unknown,Unknown,27.5667357,77.6863807
"Prayag Hospital, Mathura",Bhuteshwar (Near Fire Station ),Unknown,Unknown,281005,Uttar Pradesh,Unknown,hospital,Unknown,Unknown,Unknown,Unknown,27.500439,77.6668181
Vrindaban Arogya Deep (P) Ltd,"Atalla Chungi, Vrindaban",Unknown,Unknown,281121,Uttar Pradesh,Unknown,hospital,Unknown,Unknown,Unknown,Unknown,27.5686497,77.6898703
Uppal Nursing Home,Krishna Nagar Crossing,Unknown,Unknown,281001,Uttar Pradesh,Unknown,clinic,Unknown,Unknown,Unknown,Unknown,27.5030054,77.662835
Radhey Shyam Multispeciality Hospital,"Vrndavan Road, NH2-Bhuteshwar Road Masani Mathura",Unknown,Unknown,281003,Uttar Pradesh,Unknown,hospital,Unknown,Unknown,Unknown,Unknown,27.5164085,77.6734387
Brij Chikitsa Sansthan,Sansthan Daresi Road,Unknown,Unknown,281001,Uttar Pradesh,Unknown,clinic,Unknown,Unknown,Unknown,Unknown,27.5027378,77.674459
Deep Nursing Home,"Bhuteshwar Road, Shankar Vihar, Krishna Nagar",Unknown,Unknown,281004,Uttar Pradesh,Unknown,hospital,Unknown,Unknown,Unknown,Unknown,27.5011081,77.6614228
Dr. K. Gopal Hospital,"Bankebihari Colony, Vrindavan",Unknown,Unknown,281121,Uttar Pradesh,Unknown,hospital,Unknown,Unknown,Unknown,Unknown,27.5783061,77.687444
"Primary Health Centre, Laxmi Nagar",Laxmi Nagar,Unknown,Unknown,281004,Uttar Pradesh,Unknown,Unknown,centre,Unknown,Unknown,Unknown,27.5090803,77.6588412
"Primary Health Centre, Radheshyam Colony",Radheshyam Colony,Unknown,Unknown,281004,Uttar Pradesh,Unknown,Unknown,centre,Unknown,Unknown,Unknown,27.5259761,77.6679231
"SubCentre, Sunrakh",Sunrakh,Unknown,Unknown,281121,Uttar Pradesh,Unknown,Unknown,centre,Unknown,Unknown,Unknown,27.5709905,77.6536739
"SubCentre, Rajpura",Rajpura,Unknown,Unknown,281121,Uttar Pradesh,Unknown,Unknown,centre,Unknown,Unknown,Unknown,27.5694082,77.6997784
Saroj Poly Clinic,Unknown,Unknown,Unknown,Unknown,Unknown,Unknown,hospital,hospital,Unknown,Unknown,Unknown,27.5001521,77.6559342
K.D. Dental College & Hospital,Unknown,Unknown,Unknown,Unknown,Unknown,Unknown,hospital,hospital,Unknown,Unknown,Unknown,27.5419395,77.6438829
arihant hospital,Unknown,Unknown,Unknown,Unknown,Unknown,Unknown,hospital,hospital,Unknown,Unknown,Unknown,27.5818407,77.6062701
