Name,Full Address,Street,City,Postcode,State,Country,Amenity,Healthcare,Phone,Website,Opening Hours,Latitude,Longitude
Veom hospital ,Unknown,dutt road,Unknown,Unknown,Unknown,Unknown,hospital,Unknown,Unknown,Unknown,Unknown,30.8212063,75.1793872
Sandhu Bone and Joint Hospital,"Near Hotel Dev, Main Bazar,Amritsar Road",Unknown,Unknown,142001,Punjab,Unknown,hospital,Unknown,Unknown,Unknown,Unknown,30.8095459,75.1696223
"Medizone Hospital, Moga",Opposite New Telephone Exchange Old Dussehra Ground,Unknown,Unknown,142001,Punjab,Unknown,hospital,Unknown,Unknown,http://medizonehospitals.com/,Unknown,30.8173241,75.1787184
Savera Hospital,Railway Road,Unknown,Unknown,142001,Punjab,Unknown,hospital,Unknown,Unknown,Unknown,Unknown,30.8494355,75.1793025
"Sood Nursing Home, Moga","Singla Street, Akalsar Road",Unknown,Unknown,142001,Punjab,Unknown,clinic,Unknown,Unknown,Unknown,Unknown,30.8196467,75.1687185
Dr Iqbals Psychiatric Care Centre,"kotkapura-Moga Road,Jain Street",Unknown,Unknown,142001,Punjab,Unknown,hospital,Unknown,Unknown,Unknown,Unknown,30.8116415,75.1705196
Dr. Satya Pal Mittal Hospital,"Canal Rest House Road, Opp,Khalsa Sr,Sec School",Unknown,Unknown,142001,Punjab,Unknown,hospital,Unknown,Unknown,Unknown,Unknown,30.8166744,75.1687841
Bansal Nursing Home And Maternity Hospital,Aara Road,Unknown,Unknown,142001,Punjab,Unknown,hospital,Unknown,Unknown,Unknown,Unknown,30.8170483,75.163984
"Goyal Hospital, Moga","Tanki Wali Gali,Amritsar,opposite to Sadik Joint Hospital",Unknown,Unknown,142001,Punjab,Unknown,hospital,Unknown,Unknown,Unknown,Unknown,30.8119331,75.1706104
Moga Medicity Multispeciality & Supers Speciality Hospital,"Ferozpur Road, Near Truck Union",Unknown,Unknown,142001,Punjab,Unknown,hospital,Unknown,01636500665,Unknown,Unknown,30.8207633,75.176758
G.S. Memorial Prem Hospital,"Main Bazar, Khalsa School Road",Unknown,Unknown,142001,Punjab,Unknown,hospital,Unknown,Unknown,Unknown,Unknown,30.8222932,75.1686172
Kaura Lapro Endoscopic Center (Kaura Nursing Home),"A-56-57, Near Bala Sahib Gurudwara",Unknown,Unknown,142001,Punjab,Unknown,hospital,Unknown,Unknown,Unknown,Unknown,30.8231175,75.1770562
Mittal Nursing Home - Moga,"Akalsar Road, Near Railway Crossing,Opp water tank",Unknown,Unknown,142001,Punjab,Unknown,clinic,Unknown,Unknown,Unknown,Unknown,30.8178968,75.1824602
Dr. Jatinder Kaur Eye Care Centre,"Opposite Railway Station , Railway Road",Unknown,Unknown,142001,Punjab,Unknown,hospital,Unknown,Unknown,Unknown,Unknown,30.8086202,75.1638396
Amrit Hospital,"Kot Ise Khan - Moga Rd, Moga",Unknown,Unknown,142001,Punjab,Unknown,hospital,Unknown,Unknown,https://amrithospital.in/,Unknown,30.8326564,75.1731697
"Rajeev Hospital Bone , Joint, Trauma and Maternity Centre","Near Truck Union, Friends Colony",Unknown,Unknown,142001,Punjab,Unknown,hospital,Unknown,Unknown,Unknown,Unknown,30.8231518,75.1682197
Sharma Surgical City Hospital,"Aara Rd, Krishna Nagar",Unknown,Unknown,142001,Punjab,Unknown,hospital,Unknown,Unknown,Unknown,Unknown,30.8107163,75.1720341
Arun Nursing Home,Krishna Nagar,Unknown,Unknown,142001,Punjab,Unknown,clinic,Unknown,Unknown,Unknown,Unknown,30.8106906,75.170475
Aastha Hospital,"Dutt Rd, Friends Colony",Unknown,Unknown,142001,Punjab,Unknown,hospital,Unknown,Unknown,Unknown,Unknown,30.8200659,75.1780733
Gomti Thapar Hospital,"Opp.New Dana Mandi, Ferozepur Road",Unknown,Unknown,142001,Punjab,Unknown,hospital,Unknown,Unknown,Unknown,Unknown,30.8240872,75.1574845
Sham Nursing Home and Heart Centre,"Railway Rd, Dashmesh Nagar",Unknown,Unknown,142001,Punjab,Unknown,hospital,Unknown,Unknown,Unknown,Unknown,30.8168148,75.1662004
Garg Hospital - Moga,"ZIra Road, Opp. Army Cantonment",Unknown,Unknown,142001,Punjab,Unknown,hospital,Unknown,Unknown,Unknown,Unknown,30.8296968,75.1650453
"Singla Nursing Home, Moga","Dutt Rd, Friends Colony",Unknown,Unknown,142001,Punjab,Unknown,clinic,Unknown,Unknown,Unknown,Unknown,30.82064,75.1784448
Hans Raj Hospital,"tanki wali gali, Amritsar Rd",Unknown,Unknown,142001,Punjab,Unknown,hospital,Unknown,Unknown,Unknown,Unknown,30.827061,75.1731116
Mittal Hospital and Heart Center,"Old Dusshera Ground Road, Opposite New Telephone Exchange, Anand Nagar",Unknown,Unknown,142001,Punjab,Unknown,hospital,Unknown,Unknown,Unknown,Unknown,30.8132011,75.1732813
Dhaliwal Hospital,"Dr. Dhaliwal Gali, Friends Colony",Unknown,Unknown,142001,Punjab,Unknown,hospital,Unknown,Unknown,Unknown,Unknown,30.8176205,75.1780536
Delhi Eye Hospital,"Aara Rd, Krishna Nagar",Unknown,Unknown,142001,Punjab,Unknown,hospital,Unknown,Unknown,Unknown,Unknown,30.8109415,75.1699358
Aulakh Nursing Home and Maternity Centre,"Aulakh Hospital And Maternity Center, Gulabi Bagh",Unknown,Unknown,142001,Punjab,Unknown,hospital,Unknown,Unknown,Unknown,Unknown,30.8204147,75.1925222
PHC Khosa Randhir,Near Khosa Link Road,Unknown,Unknown,152028,Punjab,Unknown,Unknown,centre,Unknown,Unknown,Unknown,30.8944709,75.1282959
Civil Hospital Moga,Main Bazar Moga,Unknown,Unknown,142001,Punjab,Unknown,hospital,Unknown,Unknown,Unknown,Unknown,30.811726,75.169352
"SubCentre, Khosa Pando",Khosa Pando,Unknown,Unknown,142048,Punjab,Unknown,Unknown,centre,Unknown,Unknown,Unknown,30.8686935,75.1155377
"SubCentre,Dhalleke",Dhalleke,Unknown,Unknown,142001,Punjab,Unknown,Unknown,centre,Unknown,Unknown,Unknown,30.8450867,75.1579347
"SubCentre,Ghall Kalan",Ghall Kalan,Unknown,Unknown,142048,Punjab,Unknown,Unknown,centre,Unknown,Unknown,Unknown,30.8217637,75.1083527
"SubCentre,Rattian",Rattian,Unknown,Unknown,142048,Punjab,Unknown,Unknown,centre,Unknown,Unknown,Unknown,30.839714,75.1174515
