Name,Full Address,Street,City,Postcode,State,Country,Amenity,Healthcare,Phone,Website,Opening Hours,Latitude,Longitude
Global Super Speciality Hospital,"Vip Road, Iti Corner",VIP Rd,Nanded,431601,Maharashtra,Unknown,hospital,hospital,Unknown,Unknown,Unknown,19.1685403,77.3065067
Godavari Hospital ( Giccm ),Near Hingoli Gate (Under Bridge),Unknown,Unknown,431602,Maharashtra,Unknown,hospital,Unknown,Unknown,Unknown,Unknown,19.1618072,77.3176132
Suvidha Cardiac Centre Pvt. Ltd.,"2nd Floor, Ashwini Hospital & Ramakant Heart Care Centre, Shivaji Nagar",Unknown,Unknown,431602,Maharashtra,Unknown,Unknown,centre,Unknown,Unknown,Unknown,19.1612371,77.3047627
Bokare Hospital,"Near : Sbi, Opp: Kala Mandir Ghamodia, Doctor's Lane",Unknown,Unknown,431601,Maharashtra,Unknown,hospital,Unknown,Unknown,Unknown,Unknown,19.157964,77.3081519
Toshniwal Chest Hospital Maternity and Nursing Home,"Doctor Lane, Chamodiya Area,Opposite Sbi Bank,Vazirabad",Unknown,Unknown,431601,Maharashtra,Unknown,hospital,Unknown,Unknown,Unknown,Unknown,19.1589189,77.3086345
Lavekar Hospital,Lavekar Hospital Subhash Road Vazirabad,Unknown,Unknown,431601,Maharashtra,Unknown,hospital,Unknown,Unknown,Unknown,Unknown,19.1518923,77.3131105
Radha Govind Hospital,Shivajinagar,Unknown,Unknown,431602,Maharashtra,Unknown,hospital,Unknown,Unknown,Unknown,Unknown,19.1617154,77.3045093
Ashwini Hospital and RamaKant Heart Center Pvt.Ltd.,Shivaji Nagar,Unknown,Unknown,431602,Maharashtra,Unknown,hospital,Unknown,Unknown,Unknown,Unknown,19.1612093,77.3047158
Motewar Netrlaya,"Near Bus Stand,Ghamodiya,Doctors Lane",Unknown,Unknown,431601,Maharashtra,Unknown,hospital,Unknown,Unknown,Unknown,Unknown,19.1588093,77.3075844
Mahale Hospital,"Borban Goverdhanghat Road, Nanded",Unknown,Unknown,431601,Maharashtra,Unknown,hospital,Unknown,Unknown,Unknown,Unknown,19.1516585,77.3079519
Tungenwar Orthopaedic and Maternity Hospital,"No. 2-9-70, Somesh Colony,Behind Kala Mandir",Unknown,Unknown,431601,Maharashtra,Unknown,hospital,Unknown,Unknown,Unknown,Unknown,19.1561901,77.3070078
"Wadekar Hospital, Nanded",Near Shivaj Putla,Unknown,Unknown,431601,Maharashtra,Unknown,hospital,Unknown,Unknown,Unknown,Unknown,19.1561331,77.3100252
Marathawada Bal Rugnalya,"Borban Factory Area,Govardhan Ghat Road",Unknown,Unknown,431601,Maharashtra,Unknown,hospital,Unknown,Unknown,Unknown,Unknown,19.1528348,77.3101547
Dr Komawar Hospital,Doctors Lane,Unknown,Unknown,431601,Maharashtra,Unknown,hospital,Unknown,Unknown,Unknown,Unknown,19.1589429,77.306995
Bidwai Nursing Home,"12, Doctor`S Lane , Vaziirabad",Unknown,Unknown,431601,Maharashtra,Unknown,clinic,Unknown,Unknown,Unknown,Unknown,19.1578079,77.3089322
Kadam Hospital,"1,2 & 3, Doctors Lane",Unknown,Unknown,431601,Maharashtra,Unknown,hospital,Unknown,Unknown,Unknown,Unknown,19.1570554,77.3081812
Gargi Hospital,"Near Peoples High School, Gokul Nagar",Unknown,Unknown,431602,Maharashtra,Unknown,hospital,Unknown,Unknown,Unknown,Unknown,19.1620979,77.302049
Lotus Hospital and Critical Care Centre,"Doctor's Plaza, Doctor's Lane ,Near Bus Stand & Railway Station",Unknown,Unknown,431731,Maharashtra,Unknown,hospital,Unknown,Unknown,Unknown,Unknown,19.1582411,77.308951
Jayashree Ent and Maternity Nursing Home,"Aarif Sir's Account Classes, Dr Lane Rd Number 1, Khadakpura",Unknown,Unknown,431601,Maharashtra,Unknown,hospital,Unknown,Unknown,Unknown,Unknown,19.1577014,77.3088706
Vishwa Institute Urology and Kidney Centre,"Somesh Colony, Behind Kalamandir",Unknown,Unknown,431601,Maharashtra,Unknown,hospital,Unknown,Unknown,https://www.vishwaurology.com/,Unknown,19.1551133,77.3066255
Samarth Orthopedic and Accident Hospital,"Near Lokmanya Mangal Karyalay,Hingoli Gate",Unknown,Unknown,431602,Maharashtra,Unknown,hospital,Unknown,Unknown,Unknown,Unknown,19.1624666,77.3191146
Kardile Hospital,Goverdhan Ghat Road,Unknown,Unknown,431601,Maharashtra,Unknown,hospital,Unknown,Unknown,Unknown,Unknown,19.1502029,77.3092648
Shri Venkatadri Hospital,"V.I.P. Road, Visen Nagar",Unknown,Unknown,431602,Maharashtra,Unknown,hospital,Unknown,Unknown,Unknown,Unknown,19.1649058,77.3146601
Max Hospital,"Hingoli Gate Flyover, Samrat Nagar, Hyder Bagh,Nanded",Unknown,Unknown,431601,Maharashtra,Unknown,hospital,Unknown,Unknown,Unknown,Unknown,19.1616063,77.316343
Cure Max Multi_Speciality Hospital And Critical Care Centre,"Hingoli Gate Subway Road, Ashraf Nagar, Hyder Bagh, Nanded",Unknown,Unknown,431601,Maharashtra,Unknown,hospital,Unknown,Unknown,Unknown,Unknown,19.1617475,77.316378
Sharma Hospital,"Hingoli Gate Flyover,nanded",Unknown,Unknown,431605,Maharashtra,Unknown,hospital,Unknown,Unknown,Unknown,Unknown,19.1617948,77.3170365
Shriniwas Orthopaedic Nursing Home,"NearMseb Office, Hingoli Gate, Ashraf Nagar,nanded",Unknown,Unknown,431605,Maharashtra,Unknown,hospital,Unknown,Unknown,Unknown,Unknown,19.161792,77.3168407
Samarth Hospital,Opposite Mseb Office New Mondha,Unknown,Unknown,431601,Maharashtra,Unknown,hospital,Unknown,Unknown,Unknown,Unknown,19.1624466,77.3168754
"PHC, Tuppa",Unknown,Unknown,Unknown,431603,Maharashtra,Unknown,Unknown,centre,Unknown,Unknown,Unknown,19.1022766,77.3589879
Women Hospital,"Opp. Pharmacy College, Nanded",Unknown,Unknown,431602,Maharashtra,Unknown,hospital,Unknown,Unknown,Unknown,Unknown,19.175827,77.309114
"PHC, Wadgaon",Wadgaon,Unknown,Unknown,431603,Maharashtra,Unknown,Unknown,centre,Unknown,Unknown,Unknown,19.1178193,77.3743446
Hyder Bagh Urban Community Health Centre,"Hyder Bagh Road, Hyder Bagh, Dashmesh Nagar, Itwara Nanded",Unknown,Unknown,431601,Maharashtra,Unknown,Unknown,centre,Unknown,Unknown,Unknown,19.155233,77.332512
NDMC Jangamwadi Government Hospital,"Nanded-Malegaon Road, Near Employment Office, Nanded",Unknown,Unknown,431602,Maharashtra,Unknown,hospital,Unknown,Unknown,Unknown,Unknown,19.180153,77.302463
NDMC Arabgalli Municipal Hospital,"Arab Galli Area, Darbaar Masjid Road, Near Nanded Fort, Nanded",Unknown,Unknown,431604,Maharashtra,Unknown,hospital,Unknown,Unknown,Unknown,Unknown,19.143427,77.324738
"Dr Shankarrao Chavan Government Medical College and Hospital, Vazirabad","Vazirabad, Nanded",Unknown,Unknown,431601,Maharashtra,Unknown,hospital,Unknown,Unknown,Unknown,Unknown,19.156482,77.313095
"Government Hospital, Nanded",Nanded,Unknown,Unknown,431603,Maharashtra,Unknown,hospital,Unknown,Unknown,Unknown,Unknown,19.1100465,77.3220992
"Government Hospital, Kautha",Pahar Ganj,Unknown,Unknown,431603,Maharashtra,Unknown,hospital,Unknown,Unknown,Unknown,Unknown,19.1423055,77.3095579
Marathwada Children Hospital,"Doctor Lane Borban, Vazirabad, Nanded-Waghala",Unknown,Unknown,431601,Maharastra,Unknown,hospital,Unknown,Unknown,Unknown,Unknown,19.1512345,77.3085905
Motewar Hospital,"Somesh Colony, Behind Kalamandir, Nanded",Unknown,Unknown,431601,Maharastra,Unknown,hospital,Unknown,Unknown,Unknown,Unknown,19.156572,77.307015
Sai Children's Hospital,"Chikhalwadi, Hyder Bagh, Dashmesh Nagar, Dulleshah Raheman Nagar, Nanded",Unknown,Unknown,431601,Maharastra,Unknown,hospital,Unknown,Unknown,Unknown,Unknown,19.15376,77.314747
Nidan Singh Memorial Hospital,"Ganeem Pura, Khadakpura, Nanded",Unknown,Unknown,431604,Maharastra,Unknown,hospital,Unknown,Unknown,Unknown,Unknown,19.1480054,77.3152162
Sahyadri Children's Hospital,"Ashraf Nagar, Hingoli Gate, Opp. Samarth Hospital, Nanded",Unknown,Unknown,431601,Maharastra,Unknown,hospital,Unknown,Unknown,Unknown,Unknown,19.162154,77.316643
Jija Mata Hospital,"Samrat Nagar, Hyder Bagh, Dashmesh Nagar, Harsh Nagar, Nanded",Unknown,Unknown,431601,Maharastra,Unknown,hospital,Unknown,Unknown,Unknown,Unknown,19.1516681,77.3160923
Patil Hospital,"Mill Gate Road, Beside Bus Stand, Kalamandir, Nanded",Unknown,Unknown,431602,Maharastra,Unknown,hospital,Unknown,Unknown,Unknown,Unknown,19.157936,77.306463
Arham Hospital Maternity & Surgical Home,"Behind S. P. Office, Police Head Quaters Road, Vazirabad, Nanded",Unknown,Unknown,431601,Maharastra,Unknown,hospital,Unknown,Unknown,Unknown,Unknown,19.1539523,77.3083028
Dr. Ashok Bhise Hospital,"CIDCO Colony, Nanded",Unknown,Unknown,431603,Maharastra,Unknown,hospital,Unknown,Unknown,Unknown,Unknown,19.1103523,77.323613
Rayat General Hospital,"Somesh Colony, Khadakpura, Nanded",Unknown,Unknown,431601,Maharastra,Unknown,hospital,Unknown,Unknown,Unknown,Unknown,19.155925,77.305928
Dr. A. P. Deshmukh Kahalekar,"Gurudwara Road, Samrat Nagar, Hyder Bagh, Dashmesh Nagar, Harsh Nagar, Nanded",Unknown,Unknown,431601,Maharastra,Unknown,hospital,Unknown,Unknown,Unknown,Unknown,19.151792,77.31584
Dr. M.A.Gaffar Hospital,"Vazirabad, Nanded",Unknown,Unknown,431601,Maharastra,Unknown,hospital,Unknown,Unknown,Unknown,Unknown,19.1526995,77.3097008
Ardhapurkar Hospital,"Chikhalwadi to Gurudwara Road, Samrat Nagar, Hyder Bagh, Harsh Nagar, Nanded",Unknown,Unknown,431601,Maharastra,Unknown,hospital,Unknown,Unknown,Unknown,Unknown,19.151406,77.315139
Raheman Clinic & Nursing Home,"Opp. Madina Medical, Hyderabad Road, Deglour Naka, Nanded",Unknown,Unknown,431604,Maharastra,Unknown,clinic,Unknown,Unknown,Unknown,Unknown,19.151474,77.3327858
Shafaque Clinic,"Hyder Bagh, Dashmesh Nagar, Deglour Naka, Nanded",Unknown,Unknown,431601,Maharastra,Unknown,clinic,Unknown,Unknown,Unknown,Unknown,19.1622598,77.3295291
Tawakkal Clinic,"Near Liberty Function Hall, Hatai, Ganipura, Nanded",Unknown,Unknown,431604,Maharastra,Unknown,clinic,Unknown,Unknown,Unknown,Unknown,19.143333,77.328909
Shifa Family Clinic,"Beside New Hindustan Medical Qudwai Nagar Chowk, Eidgah Road, Deglour Naka, Nanded",Unknown,Unknown,431604,Maharastra,Unknown,clinic,Unknown,Unknown,Unknown,Unknown,19.1526957,77.3383123
Raziya Memorial Hospital,"Beside Iqra School, Degloor Naka Nanded",Unknown,Unknown,431604,Maharastra,Unknown,hospital,Unknown,Unknown,Unknown,Unknown,19.1528109,77.329597
Mathurai Hospital,"NTC Mill Road, Khadakpura, Nanded",Unknown,Unknown,431601,Maharastra,Unknown,hospital,Unknown,Unknown,Unknown,Unknown,19.1575492,77.3049299
Goda Nursing Home,"Mohammed Ali Road, Hyder Bagh, Dashmesh Nagar, Saibaba Chowk, Nanded",Unknown,Unknown,431604,Maharastra,Unknown,hospital,Unknown,Unknown,Unknown,Unknown,19.1494332,77.3236343
Krushnai Hospital,"Besides Hanuman Mandir, Opp Water Tank, Wasarni, Kautha, Nanded",Unknown,Unknown,431603,Maharastra,Unknown,hospital,Unknown,Unknown,Unknown,Unknown,19.1320644,77.3204612
Ankur Super-Speciality Women Hospital,"Aanabhau, Sathi Chowk, Samrat Nagar, Nanded",Unknown,Unknown,431601,Maharastra,Unknown,hospital,Unknown,Unknown,Unknown,Unknown,19.1622231,77.3198726
Sai Netralaya Hospital,"Behind Kala Mandir, Near Nehru English School, Somesh colony, Khadakpura, Nanded",Unknown,Unknown,431601,Maharastra,Unknown,hospital,Unknown,Unknown,Unknown,Unknown,19.154975,77.306508
Ansari Hospital,"Arab Galli Area, Hyder Bagh, Dashmesh Nagar, Harsh Nagar, Nanded",Unknown,Unknown,431604,Maharastra,Unknown,hospital,Unknown,Unknown,Unknown,Unknown,19.1444092,77.325184
Deshmukh Hospital,"Itwara Road, Near kela Market, Near Solanki Brothers, Nanded",Unknown,Unknown,431604,Maharastra,Unknown,hospital,Unknown,Unknown,Unknown,Unknown,19.1488467,77.3242074
Rehman Hospital,"Doctor Lane Road, Number 2, Railway Station Road, Opposite SBI ATM, Khadakpura, Nanded-Waghala,",Unknown,Unknown,431601,Maharastra,Unknown,hospital,Unknown,Unknown,Unknown,Unknown,19.1591059,77.3088177
Shusurusha Hospital ICSI & Test Tube Centre,"Chikhalwadi Corner, Samrat Nagar, Hyder Bagh, Dashmesh Nagar, Harsh Nagar, Nanded",Unknown,Unknown,431601,Maharastra,Unknown,hospital,Unknown,Unknown,Unknown,Unknown,19.1528035,77.3147142
Bajaj Hospital,"Vazirabad, Nanded-Waghala",Unknown,Unknown,431601,Maharastra,Unknown,hospital,Unknown,Unknown,Unknown,Unknown,19.1526299,77.3104517
Patil Eye Hospital and Maternity Home,"Doctor Lane, Khadakpura, Nanded",Unknown,Unknown,431601,Maharastra,Unknown,hospital,Unknown,Unknown,Unknown,Unknown,19.157743,77.308388
Ashtvinayak Hospital and ICU,"Ghamodiya, Doctor Lane, Nanded-Waghala",Unknown,Unknown,431601,Maharastra,Unknown,hospital,Unknown,Unknown,Unknown,Unknown,19.1584868,77.3086669
Deglurkar Hospital & Suyog Maternity Home,"Gavalipura, Railway Station Road, Nanded",Unknown,Unknown,431601,Maharastra,Unknown,hospital,Unknown,Unknown,Unknown,Unknown,19.1578167,77.3107968
YashoSai Hospital,"Gowardhan Ghat Bridge Road, MHADA Colony, Navakotha, Nanded",Unknown,Unknown,431603,Maharastra,Unknown,hospital,Unknown,Unknown,Unknown,Unknown,19.1348301,77.3052956
Mala Hospital,"Hingoli Gate, Opp. M.S.E.B Office, Nanded",Unknown,Unknown,431601,Maharastra,Unknown,hospital,Unknown,Unknown,Unknown,Unknown,19.163688,77.317455
Umrekar Multispeciality Hospital,"Ghamodia Compound, Doctor Line Road, Opp. Kalamandir, Nanded",Unknown,Unknown,431601,Maharastra,Unknown,hospital,Unknown,Unknown,Unknown,Unknown,19.158047,77.307799
Swami Vivekanand Hospital,"Samrat Nagar, Hyder Bagh, Dashmesh Nagar, Harsh Nagar, Nanded",Unknown,Unknown,431601,Maharastra,Unknown,hospital,Unknown,Unknown,Unknown,Unknown,19.1647284,77.3180888
Galaxy Hospital - Centre for GI & liver diseases,"Doctor Lane Borban, Vazirabad, Nanded-Waghala",Unknown,Unknown,431601,Maharastra,Unknown,hospital,Unknown,Unknown,Unknown,Unknown,19.152335,77.3079834
Dr. Santosh Malpani Hospital,"Behind Kalamandir, Somesh colony, Khadakpura, Nanded",Unknown,Unknown,431601,Maharastra,Unknown,hospital,Unknown,Unknown,Unknown,Unknown,19.1568706,77.3059721
S.G.G.S Memorial Government Hospital,"Railway Station Road, Vazirabad, Nanded",Unknown,Unknown,431601,Maharastra,Unknown,hospital,Unknown,Unknown,Unknown,Unknown,19.1553972,77.3117703
Dashmesh Hospital,"Harsh Nagar, Hyder Bagh, Dashmesh Nagar, Nanded",Unknown,Unknown,431601,Maharastra,Unknown,hospital,Unknown,Unknown,Unknown,Unknown,19.155569,77.317018
Gayakwad Hospital,"Doctor Lane Borban, Vazirabad, Nanded",Unknown,Unknown,431601,Maharastra,Unknown,hospital,Unknown,Unknown,Unknown,Unknown,19.1509416,77.3083445
Bhaskar Hospital,"Gowardhan Ghat, Bridge Road, Vazirabad, Nanded",Unknown,Unknown,431601,Maharastra,Unknown,hospital,Unknown,Unknown,Unknown,Unknown,19.1524681,77.3099237
Shree Yogeshwari Hospital,"Doctor Lane Borban, Vazirabad, Nanded-Waghala",Unknown,Unknown,431601,Maharastra,Unknown,hospital,Unknown,Unknown,Unknown,Unknown,19.152223,77.3087808
Omsai Surgical and Leproscopy Centre,"Borban Factory Area, Vazirabad, Nanded",Unknown,Unknown,431604,Maharastra,Unknown,hospital,Unknown,Unknown,Unknown,Unknown,19.1504038,77.3087515
Apeksha Dental Hospital and Superspeciality Clinic,"Opp Zilla Parishad, Old Chunhi Naka, Infront of Station, Nanded",Unknown,Unknown,431601,Maharastra,Unknown,hospital,Unknown,Unknown,Unknown,Unknown,19.158179,77.310505
Renuka Eye Hospital,"Vazirabad, Nanded",Unknown,Unknown,431601,Maharastra,Unknown,hospital,Unknown,Unknown,Unknown,Unknown,19.1520827,77.3109069
Dr. Saqueb Seva Children's Hospital,"Tipu Sultan Road, Hyder Bagh, Dashmesh Nagar, Harsh Nagar, Nanded",Unknown,Unknown,431601,Maharastra,Unknown,hospital,Unknown,Unknown,Unknown,Unknown,19.1574129,77.3281975
New Sanjeevani Clinic,"MHADA Colony, Mujampeth",Unknown,Unknown,431603,Maharastra,Unknown,clinic,Unknown,Unknown,Unknown,Unknown,19.1257809,77.3268645
Fatima Clinic,"Itwara Chowk Bazar, Nanded",Unknown,Unknown,431604,Maharastra,Unknown,clinic,Unknown,Unknown,Unknown,Unknown,19.1320308,77.3204558
Dr. Narlawar Vishal Hospital,"Doctor Line Road, No.1, Khadakpura, Nanded",Unknown,Unknown,431601,Maharastra,Unknown,hospital,Unknown,Unknown,Unknown,Unknown,19.159075,77.309335
Mangalmurti Hospital,"Anham Somesh Colony, Kalamandir, Nanded",Unknown,Unknown,431601,Maharastra,Unknown,hospital,Unknown,Unknown,Unknown,Unknown,19.158627,77.307806
Shri Chidrawar Super Specality Hospital,"Doctor Lane Road, Number 1, Doctor Lane, Khadakpura, Nanded",Unknown,Unknown,431601,Maharastra,Unknown,hospital,Unknown,Unknown,Unknown,Unknown,19.15791,77.308593
Rayet Hospital,"Near Hotel Gokul, Khadakpura, Nanded",Unknown,Unknown,431601,Maharastra,Unknown,hospital,Unknown,Unknown,Unknown,Unknown,19.155136,77.307919
Vighnharta Hospital,"Doctor Line Borban, Vazirabad, Nanded-Waghala",Unknown,Unknown,431601,Maharastra,Unknown,hospital,Unknown,Unknown,Unknown,Unknown,19.1512793,77.3089281
Shams Hospital and Maternity Home,"Baba Seth Complex, Opp Police Chowki, Madina Chowk, Degloor Road, Nanded-Waghala",Unknown,Unknown,431601,Maharastra,Unknown,hospital,Unknown,Unknown,Unknown,Unknown,19.1517437,77.3313175
Monark Cancer Hospital,"Behind District Court, Near Andhra Samiti School, Gawalipura, Khadakpura, Nanded",Unknown,Unknown,431601,Maharastra,Unknown,hospital,Unknown,Unknown,Unknown,Unknown,19.157568,77.312
Katte Hospital,"Besides Marathwada Bai Rugnalaya Borban Area, Nanded",Unknown,Unknown,431601,Maharastra,Unknown,hospital,Unknown,Unknown,Unknown,Unknown,19.15109,77.3085592
Perke Hospital and Maternity Home,"Chikhalwadi, Hyder Bagh, Dashmesh Nagar, Harsh Nagar, Nanded",Unknown,Unknown,431601,Maharastra,Unknown,hospital,Unknown,Unknown,Unknown,Unknown,19.1515622,77.3153292
Jaundice Hospital,"Tuppa Wadgaon, Tuppa",Unknown,Unknown,431603,Maharastra,Unknown,hospital,Unknown,Unknown,Unknown,Unknown,19.102134,77.358352
Railway Hospital,"Railway Station - Bafna Road, Khadakpura, Nanded",Unknown,Unknown,431601,Maharastra,Unknown,hospital,Unknown,Unknown,Unknown,Unknown,19.160153,77.315151
"Sparsh Skin, Dental, Hair, Cosmetology and Laser Clinic","Borban Factory Area, Vazirabad, Nanded",Unknown,Unknown,431601,Maharastra,Unknown,clinic,Unknown,Unknown,Unknown,Unknown,19.1505122,77.3087722
Dr. Sharma's Ayush Clinic,"Laxmi Narayan Niwas, Beside Akshay All In One Shopping Center, Juna Kautha Road, Nanded",Unknown,Unknown,431603,Maharastra,Unknown,clinic,Unknown,Unknown,Unknown,Unknown,19.140129,77.313672
Sajne Hospital,"Dilipsingh Colony, Vazirabad, Nanded",Unknown,Unknown,431601,Maharastra,Unknown,hospital,Unknown,Unknown,Unknown,Unknown,19.1517755,77.309636
Abhyuday's Lifecare Superspeciality Hospital,"Samratnagar/ Duttanagar, Near Anna Bhau Sathe Chowk, Nanded-Waghala",Unknown,Unknown,431601,Maharastra,Unknown,hospital,Unknown,Unknown,Unknown,Unknown,19.1622615,77.3190715
Bannalikar Children's Hospital,"Doctor's Lane, Khadakpura, Nanded",Unknown,Unknown,431601,Maharastra,Unknown,hospital,Unknown,Unknown,Unknown,Unknown,19.1584257,77.3072857
Jeevan Jyoti Hospital,"Vazirabad Square, Behind SP Office, Nanded",Unknown,Unknown,431601,Maharastra,Unknown,hospital,Unknown,Unknown,Unknown,Unknown,19.1540321,77.3091705
Shri Parth Netralaya Eye Care Centre,"Maharaja Complex, Near S.B.I Bank, Doctor Lane, Khadakpura, Nanded",Unknown,Unknown,431601,Maharastra,Unknown,clinic,Unknown,Unknown,Unknown,Unknown,19.158553,77.308812
Sanvedana Skin Care Hospital,"Doctor Lane, Khadakpura, Nanded-Waghala",Unknown,Unknown,431601,Maharastra,Unknown,hospital,Unknown,Unknown,Unknown,Unknown,19.1589457,77.3074618
Prathamesh Eye Care Clinic,"Behind Kalamandir, Somesh colony, Nanded",Unknown,Unknown,431601,Maharastra,Unknown,clinic,Unknown,Unknown,Unknown,Unknown,19.1570521,77.3057897
Dr. Samuel Hahnemann Homoeopathic Clinic,"Kautha, Vasarani",Unknown,Unknown,431603,Maharastra,Unknown,clinic,Unknown,Unknown,Unknown,Unknown,19.132495,77.322589
Mamidwar Hospital,"Shivaji Road, Dilipsingh Colony, Vazirabad, Nanded",Unknown,Unknown,431601,Maharastra,Unknown,hospital,Unknown,Unknown,Unknown,Unknown,19.1520955,77.3111285
Quadri Hospital,"Itwara Bazar Road, Hyder Bagh, Dashmesh Nagar, Harsh Nagar, Nanded",Unknown,Unknown,431604,Maharastra,Unknown,hospital,Unknown,Unknown,Unknown,Unknown,19.147492,77.325204
Sharada Hospital,"Vivek Nagar Corner, Shivaji Nagar Nanded, Near Shri Nagar",Unknown,Unknown,431602,Maharastra,Unknown,hospital,Unknown,Unknown,Unknown,Unknown,19.1758422,77.3041161
Dr. Kalambkar's Sushroot Hospital,"Lalbadi, Shrawasti Nagar, Nanded",Unknown,Unknown,431602,Maharastra,Unknown,hospital,Unknown,Unknown,Unknown,Unknown,19.1613548,77.3023891
Dhondge Hospital,"Shivaji Nagar, Near Hanuman Mandir, Nanded",Unknown,Unknown,431602,Maharastra,Unknown,hospital,Unknown,Unknown,Unknown,Unknown,19.162177,77.304319
Kadam Hospital and Nursing Home,"Opp Bhagya Nagar, Near Home Guard Office, Bhagya Nagar, Nanded",Unknown,Unknown,431000,Maharastra,Unknown,hospital,hospital,Unknown,Unknown,Unknown,19.176553,77.309913
Chounde Hospital,"Lalbadi, Shrawasti Nagar, Nanded-Waghala",Unknown,Unknown,431602,Maharastra,Unknown,hospital,Unknown,Unknown,Unknown,Unknown,19.1610739,77.3044972
Prabhu Clinic,"Nanded Malegaon Road, Kohinor City, Shri Nagar, Nanded",Unknown,Unknown,431605,Maharastra,Unknown,clinic,Unknown,Unknown,Unknown,Unknown,19.1840137,77.3011968
Srinath Prasutigruh Children's Hospital,"Taroda Nakka Road, Ashok Nagar Road, Nanded",Unknown,Unknown,431605,Maharastra,Unknown,hospital,Unknown,Unknown,Unknown,Unknown,19.181231,77.302801
Dagadiya Dental Hospital,"Shivaji Road, Shivaji Nagar Nai Abaadi, Vishnu Nagar, Nanded",Unknown,Unknown,431602,Maharastra,Unknown,hospital,Unknown,Unknown,Unknown,Unknown,19.16158,77.305655
Gayatri Clinic,"Hingoli Naka, Gandhi Nagar, Opp. Bus Stop, Nanded",Unknown,Unknown,431601,Maharastra,Unknown,clinic,Unknown,Unknown,Unknown,Unknown,19.1725685,77.3228906
Gajanan Hospital,"Maharashtra Gramin Bank, Near Manik Nagar, Chaitanya Nagar, Taroda Bk",Unknown,Unknown,431605,Maharastra,Unknown,hospital,Unknown,Unknown,Unknown,Unknown,19.1848524,77.305179
Bhagwati Multispeciality Hospital,"Wadiya, Shivaji Putala, Nanded",Unknown,Unknown,431602,Maharastra,Unknown,hospital,Unknown,Unknown,Unknown,Unknown,19.1609476,77.305161
Nirgude PolyClinic,"Maharana Pratap Chowk, Hingoli Naka, Nanded",Unknown,Unknown,431605,Maharastra,Unknown,clinic,Unknown,Unknown,Unknown,Unknown,19.1715844,77.3217655
Shree Durga Hospital,"Sadbavana Marga, Vasnat Nagar, Nanded",Unknown,Unknown,431603,Maharastra,Unknown,hospital,Unknown,Unknown,Unknown,Unknown,19.170741,77.3157702
Radhika Hospital,"Shivaji Nagar Lalbadi, Mahavir Society, Nanded",Unknown,Unknown,431602,Maharastra,Unknown,hospital,Unknown,Unknown,Unknown,Unknown,19.1640257,77.3010512
Maher Hospital,"Sanmitra Colony, Opp. Sinchan Bhawan Gate No. 2, Regional Workshop, Jangamwadi Road, Nanded",Unknown,Unknown,431605,Maharastra,Unknown,hospital,Unknown,Unknown,Unknown,Unknown,19.18121,77.303191
City Hospital Super Speciality Centre,"Mahavir Society Road, Shivaji Road, Nanded",Unknown,Unknown,431602,Maharastra,Unknown,hospital,Unknown,Unknown,Unknown,Unknown,19.16224,77.3018575
Aditi Endocrine Clinic,"R.K.M, Kabde Hospital, Mahaveer Society, Nanded",Unknown,Unknown,431602,Maharastra,Unknown,clinic,Unknown,Unknown,Unknown,Unknown,19.164454,77.300491
Pulse Multispeciality Hospital,"Fasal Nagar, Irrigation Colony, Peer Burhan Nagar, Nanded",Unknown,Unknown,431605,Maharastra,Unknown,hospital,Unknown,Unknown,Unknown,Unknown,19.1829459,77.3047435
City Care Hospital,"Airport Road, Manik Nagar, Balaji Nagar, Nanded",Unknown,Unknown,431605,Maharastra,Unknown,hospital,Unknown,Unknown,Unknown,Unknown,19.1843049,77.3070119
Indira Clinic,"Visavanagar Colony, Vishnu Nagar, Nanded",Unknown,Unknown,431602,Maharastra,Unknown,clinic,Unknown,Unknown,Unknown,Unknown,19.169036,77.305095
Utkarsh Clinic,"kalyan Nagar, Canal Road, Ashtvinayak Nagar, Nanded",Unknown,Unknown,431605,Maharastra,Unknown,clinic,Unknown,Unknown,Unknown,Unknown,19.1851303,77.3039237
Surya Hospital,"Ashtvinayak Nagar, Nanded",Unknown,Unknown,431605,Maharastra,Unknown,hospital,Unknown,Unknown,Unknown,Unknown,19.1850325,77.3041658
Dr. Kotalwar ENT Hospital,"Wadiya Factory Area, Shivaji Nagar, Behind Hanuman Mandir, Nanded",Unknown,Unknown,431602,Maharastra,Unknown,hospital,Unknown,Unknown,Unknown,Unknown,19.1615303,77.3053063
Jivala Hospital,"Ashtvinayak Nagar, Nanded",Unknown,Unknown,431605,Maharastra,Unknown,hospital,Unknown,Unknown,Unknown,Unknown,19.1854024,77.3007593
Swami Vivekanand Hospital,"Bhagya Nagar Road, Hyder Bagh, Dashmesh Nagar, Anand Nagar, Nanded",Unknown,Unknown,431601,Maharastra,Unknown,hospital,Unknown,Unknown,Unknown,Unknown,19.1721654,77.31525
Shree Naarayana Super Speciality Hospital,"Lalbadi, Mahavir Society, Nanded",Unknown,Unknown,431602,Maharastra,Unknown,hospital,Unknown,Unknown,Unknown,Unknown,19.1642427,77.3000506
Sanjeevani Critical Care & Trauma Care centre,"Lalbadi, Shrawasti Nagar, Nanded-Waghala",Unknown,Unknown,431602,Maharastra,Unknown,hospital,Unknown,Unknown,Unknown,Unknown,19.161288,77.303511
Shri Siddhivinayak Clinic,"Ulhas Nagar, Malegaon Road, Nanded",Unknown,Unknown,431605,Maharastra,Unknown,clinic,Unknown,Unknown,Unknown,Unknown,19.1868594,77.300801
Dhonde Hospital,"Lalbadi, Shrawasti Nagar, Nanded",Unknown,Unknown,431602,Maharastra,Unknown,hospital,Unknown,Unknown,Unknown,Unknown,19.1618391,77.3023378
Madhavbaug Clinic,"Plot No 59, Ravichandra Bunglow, Opp Chowgule Classes, Bhagyanagar, Nanded",Unknown,Unknown,431605,Maharastra,Unknown,clinic,Unknown,Unknown,Unknown,Unknown,19.1768235,77.3089499
Sadbhavana Netralaya Hospital,"Vishnu Nagar, Nanded-Waghala",Unknown,Unknown,431602,Maharastra,Unknown,hospital,Unknown,Unknown,Unknown,Unknown,19.163261,77.308655
Lions Eye Hospital,"Shrinagar Taroda Naka Road, Prabhat Nagar, Shri Nagar, Nanded",Unknown,Unknown,431602,Maharastra,Unknown,hospital,Unknown,Unknown,Unknown,Unknown,19.179741,77.3025717
Mansi Hospital,"Vishwadeep Nagar, Balaji Nagar, Nanded",Unknown,Unknown,431605,Maharastra,Unknown,hospital,Unknown,Unknown,Unknown,Unknown,19.1906613,77.3085817
Gitai Hospital,"Infront Of SBH Workshop Corner, Bhagya Nagar Road, Nanded",Unknown,Unknown,431602,Maharastra,Unknown,hospital,Unknown,Unknown,Unknown,Unknown,19.179101,77.305864
Sai Matruseva Hospital,"Zilla Parishad Coloney, Opp Mahalaxmi Oil Shop, Malegaon Road, Nanded",Unknown,Unknown,431605,Maharastra,Unknown,hospital,Unknown,Unknown,Unknown,Unknown,19.1864235,77.3005504
Mandakhalikar Hospital,"Shivaji Road, Vivek Nagar, Kailash Nagar, Nanded-Waghala",Unknown,Unknown,431605,Maharastra,Unknown,hospital,Unknown,Unknown,Unknown,Unknown,19.17657,77.3041998
Sana Clinic,"Ganesh Nagar Road, Mugdum Nagar, Opp. Remand Home, Nanded",Unknown,Unknown,431602,Maharastra,Unknown,clinic,Unknown,Unknown,Unknown,Unknown,19.1651439,77.3000946
Shri Swami Samarth Clinic,"Canal Road, Pundhage Complex, Jyotiba Nagar,Taroda, Nanded",Unknown,Unknown,431605,Maharastra,Unknown,clinic,Unknown,Unknown,Unknown,Unknown,19.1868681,77.3054461
Aahilya Clinic,"Kohinor City, Shri Nagar, Taroda",Unknown,Unknown,431605,Maharastra,Unknown,clinic,Unknown,Unknown,Unknown,Unknown,19.183291,77.301144
Joshi Hospital,"Shivaji Nagar, Wadia Factory Compound, Nanded",Unknown,Unknown,431602,Maharastra,Unknown,hospital,Unknown,Unknown,Unknown,Unknown,19.16067,77.304683
N M C Hospital,"Taroda Back Road, Balaji Nagar, Nanded",Unknown,Unknown,431605,Maharastra,Unknown,hospital,Unknown,Unknown,Unknown,Unknown,19.1921768,77.3088739
Rachewad Hospital,"Shivaji Nagar Nai Abaadi, Gokul Nagar, Nanded",Unknown,Unknown,431602,Maharastra,Unknown,hospital,Unknown,Unknown,Unknown,Unknown,19.1622017,77.3068192
Aadhar Hospital,"Wadiya Compound, Shivaji Nagar, Near Ashwini Hospital, Nanded",Unknown,Unknown,431602,Maharastra,Unknown,hospital,Unknown,Unknown,Unknown,Unknown,19.161304,77.304524
"Sangmeshwar Niwas, Sai seva Hospital","Vasant Nagar, Hyder Bagh, Dashmesh Nagar, Harsh Nagar, Nanded",Unknown,Unknown,431601,Maharastra,Unknown,hospital,Unknown,Unknown,Unknown,Unknown,19.1718775,77.3158994
Sahyadri Hospital,"Lalbadi, Shrawasti Nagar, Nanded",Unknown,Unknown,431602,Maharastra,Unknown,hospital,Unknown,Unknown,Unknown,Unknown,19.1609243,77.304772
Jadhav Hospital,"Vivek Nagar, Vishnu Nagar, Nanded",Unknown,Unknown,431605,Maharastra,Unknown,hospital,Unknown,Unknown,Unknown,Unknown,19.1764667,77.3069032
Dr. More Hospital,"Wadia factory, Shivaji Road, Nanded",Unknown,Unknown,431602,Maharastra,Unknown,hospital,Unknown,Unknown,Unknown,Unknown,19.1607557,77.3052491
Ishwar Multispeciality Hospital,"Beside Bojalwar Hospital, Kailash Nagar, Nanded",Unknown,Unknown,431605,Maharastra,Unknown,hospital,Unknown,Unknown,Unknown,Unknown,19.1783035,77.3050528
Triveni Hospital,"Vivek Nagar, Vishnu Nagar, Nanded",Unknown,Unknown,431605,Maharastra,Unknown,hospital,Unknown,Unknown,Unknown,Unknown,19.175922,77.304937
Kalpataru Children's Hospital,"Near Mahaveer Society, Lalbadi, Vishnu Nagar, Nanded",Unknown,Unknown,431602,Maharastra,Unknown,hospital,Unknown,Unknown,Unknown,Unknown,19.1619623,77.3035026
Pooja Women's Hospital,"Chaitanya Nagar, Near Soubhadra Mangal Karyalaya, Balaji Nagar, Nanded",Unknown,Unknown,431605,Maharastra,Unknown,hospital,Unknown,Unknown,Unknown,Unknown,19.1845727,77.3094347
Vinayak Hospital,"Lalbadi, Shrawasti Nagar, Nanded",Unknown,Unknown,431602,Maharastra,Unknown,hospital,Unknown,Unknown,Unknown,Unknown,19.161023,77.304598
Vision Hospital,"Wadiya Factory Area, Shivaji Putala, Nanded",Unknown,Unknown,431602,Maharastra,Unknown,hospital,Unknown,Unknown,Unknown,Unknown,19.160932,77.302843
Allampallewar Hospital,"Bhagya Nagar Road, Anand Nagar, Nanded",Unknown,Unknown,431601,Maharastra,Unknown,hospital,Unknown,Unknown,Unknown,Unknown,19.173436,77.315226
Saleema Clinic,"Farooq Nagar, Hingoli Naka, Nanded",Unknown,Unknown,431605,Maharastra,Unknown,clinic,Unknown,Unknown,Unknown,Unknown,19.17042,77.325491
Adhav Hospitals Nirmal Neurocare And Superspeciality Center,"Khadakpura, Nanded",Unknown,Unknown,431601,Maharashtra,Unknown,hospital,Unknown,Unknown,Unknown,Unknown,19.1587555,77.307563
Renukai Hospital,"Hyder Bagh, Dashmesh Nagar, Harsh Nagar, Nanded",Unknown,Unknown,431601,Maharashtra,Unknown,hospital,Unknown,Unknown,Unknown,Unknown,19.1695573,77.3220308
Sharyu Hospital,Unknown,Unknown,Unknown,Unknown,Unknown,Unknown,Unknown,hospital,Unknown,Unknown,Unknown,19.1859699,77.310092
Shyam Medical,Unknown,Guru Gobind Singh Ji Rd,Nanded,431602,Unknown,Unknown,pharmacy,pharmacy,Unknown,Unknown,Mo-Su 09:00-21:00,19.1619033,77.3054959
Pawde Medical Agency,Unknown,MAHATMA PHULE MARKET ITI ROAD,Nanded,431602,Unknown,Unknown,pharmacy,pharmacy,Unknown,Unknown,Mo-Su 10:00-18:00,19.1672754,77.3050246
Sonwane Medical,Unknown,ShriNagar,Nanded,431605,Unknown,Unknown,pharmacy,pharmacy,Unknown,Unknown,24/7,19.1778932,77.3044261
