Name,Full Address,Street,City,Postcode,State,Country,Amenity,Healthcare,Phone,Website,Opening Hours,Latitude,Longitude
Jasmine Hospital And Wow Clinic,"Panchsheel Vishal Complex, 1st Floor, Sector-5 Near Sai Nidhi Hotel Airoli Navi Mumbai",Unknown,Unknown,400708,Maharashtra,Unknown,hospital,Unknown,Unknown,Unknown,Unknown,19.1486707,72.9998192
Dr Kasbekar Sterling Hospital,On Sion-Panvel Exprsssway Sector - 7 Vashi Navi Mumbai,Sion Panvel Highway,Unknown,400703,Maharashtra,Unknown,hospital,hospital,02266804444,http://www.navimumbai.wockhardthospitals.com,24/7,19.0698454,72.9873953
Sai Medical Stores,Unknown,Unknown,Unknown,Unknown,Unknown,Unknown,pharmacy,pharmacy,Unknown,Unknown,Mo-Sa 08:00-21:00,19.044174,72.9294714
Powai Dental Clinic,Unknown,Unknown,Unknown,Unknown,Unknown,Unknown,hospital,Unknown,Unknown,Unknown,Unknown,19.1246531,72.9172844
Powai Hospital,"1-A, BSNL Colony, Powai, Mumbai",Unknown,Unknown,400076,Maharastra,Unknown,hospital,Unknown,Unknown,Unknown,Unknown,19.124088,72.9164511
Balaji Medicals,Unknown,Unknown,Unknown,Unknown,Unknown,Unknown,pharmacy,Unknown,Unknown,Unknown,Unknown,19.0610835,72.9004589
Jhonsons Diagnostics,Unknown,Unknown,Unknown,Unknown,Unknown,Unknown,clinic,Unknown,Unknown,Unknown,Unknown,19.0501047,72.919391
Sai Snehdeep Hospital,"Plot 12-13, Sector-20, Koparkhairane",Unknown,Unknown,400709,Maharashtra,Unknown,hospital,Unknown,Unknown,Unknown,Unknown,19.1085023,73.0017953
Dr.zamil,Unknown,Unknown,Unknown,Unknown,Unknown,Unknown,hospital,Unknown,Unknown,Unknown,Unknown,19.0615785,72.9282129
Anu Medicals,Unknown,Chembur Station Road,Unknown,Unknown,Unknown,Unknown,pharmacy,Unknown,Unknown,Unknown,Unknown,19.0625309,72.9001192
jonsons diagnostics,Unknown,Unknown,Unknown,Unknown,Unknown,Unknown,hospital,Unknown,Unknown,Unknown,Unknown,19.0501477,72.9193344
IMTIYAZ Dr.,Unknown,Road Number 4,MUMBAI,400043,Unknown,Unknown,clinic,Unknown,Unknown,Unknown,Unknown,19.0655806,72.9231105
Unknown,Unknown,Road 1,Unknown,400089,Unknown,Unknown,clinic,clinic,Unknown,Unknown,Unknown,19.0681654,72.9045538
nidan hospital,Unknown,Unknown,Unknown,Unknown,Unknown,Unknown,hospital,Unknown,Unknown,Unknown,Unknown,19.0924663,72.9121731
bba,Unknown,Unknown,Unknown,Unknown,Unknown,Unknown,hospital,Unknown,Unknown,Unknown,Unknown,19.0602605,72.9113338
mahaveer hospital,Unknown,Unknown,Unknown,Unknown,Unknown,Unknown,hospital,Unknown,Unknown,Unknown,Unknown,19.0677525,72.9275925
khawaja garaib nawaz hopital,Unknown,Road Number 3,MUMBAI,400043,Unknown,Unknown,clinic,Unknown,Unknown,Unknown,Unknown,19.0673394,72.9227347
sanjeevan hospital,Unknown,Jeejabai Bhosle Marg,mumbai,400043,Unknown,Unknown,hospital,Unknown,Unknown,Unknown,Unknown,19.0608709,72.9247689
Metalife,Unknown,Unknown,Unknown,Unknown,Unknown,Unknown,hospital,Unknown,Unknown,Unknown,Unknown,19.0668912,72.9134181
MILLAT OSPITAL,Unknown,Unknown,Unknown,Unknown,Unknown,Unknown,clinic,Unknown,Unknown,Unknown,Unknown,19.0678107,72.921216
LOTUS HOSPITAL,Unknown,Unknown,MUMBAI,Unknown,Unknown,Unknown,clinic,Unknown,022-25565041/25565051,Unknown,Unknown,19.0674664,72.9207522
Diamond Polyclinic,Unknown,Unknown,Unknown,Unknown,Unknown,Unknown,clinic,Unknown,Unknown,Unknown,Unknown,19.0536873,72.9010665
AMAN,Unknown,Unknown,Unknown,Unknown,Unknown,Unknown,hospital,Unknown,Unknown,Unknown,Unknown,19.0524549,72.9185421
Unknown,Unknown,Unknown,Unknown,Unknown,Unknown,Unknown,clinic,Unknown,Unknown,Unknown,Unknown,19.0582796,72.9018695
Saidhanhospital Iccu and Eye Care,"Vidhataapartments, Groundfloor, Mulund(E)",V B Phadke Marg,Mulund (East),400081,Maharashtra,Unknown,hospital,Unknown,Unknown,Unknown,Unknown,19.1682476,72.9612909
"Chandraganga Hospital, Mulund","Chandraganga Apartments, V.B.Phadke Marg, Near Subway,Mulund (East)",Unknown,Mulund (East),400081,Maharashtra,Unknown,hospital,Unknown,Unknown,Unknown,Unknown,19.1760293,72.9618357
Ambaji Medical Store,Unknown,Lokmanya Tilak Road,Mulund (East),Unknown,Unknown,Unknown,pharmacy,Unknown,Unknown,Unknown,Unknown,19.1701579,72.9590168
MILLENIUM HOSPITAL,Unknown,Unknown,MUMBAI,400043,Unknown,Unknown,clinic,Unknown,Unknown,Unknown,Unknown,19.0668878,72.9204587
SABA HOSPITAL,Unknown,Unknown,MUMBAI,400043,Unknown,Unknown,clinic,Unknown,Unknown,Unknown,Unknown,19.0680437,72.9210506
Jupiter Scan Centre,Unknown,Purushottam Kheraj Road,Mulund(West),Unknown,Unknown,Unknown,clinic,Unknown,Unknown,Unknown,Unknown,19.172135,72.9474337
new life hospital,Unknown,R B Kadam Road,mumbai,Unknown,Unknown,Unknown,hospital,Unknown,Unknown,Unknown,Unknown,19.0897614,72.9049996
muktabai hospital,Unknown,Unknown,mumbai,Unknown,Unknown,Unknown,hospital,Unknown,Unknown,Unknown,Unknown,19.0946018,72.9032913
Anket Nursing Home,Unknown,Unknown,Unknown,Unknown,Unknown,Unknown,hospital,Unknown,Unknown,Unknown,Unknown,19.1308944,72.9299048
Medicity Hospital,Unknown,Sector 7,Kharghar,410210,Unknown,Unknown,hospital,hospital,Unknown,Unknown,Unknown,19.0347843,73.0685485
Aryan Hospital,Unknown,Unknown,Unknown,Unknown,Unknown,Unknown,hospital,Unknown,Unknown,Unknown,Unknown,19.0391617,72.9488101
Dr.Mukhi's Raj Hospital,"109/1 Saraswati Sadan, Chs, Devi Dayal Road, Opposite Jalaram Ashish, Near T Ward Office, Mulund West",Unknown,Unknown,400080,Maharashtra,Unknown,hospital,Unknown,Unknown,http://www.drmukhirajhospital.com/,Unknown,19.1760945,72.9490036
Unknown,Unknown,Sane Guruji Rd,Unknown,400601,Unknown,Unknown,pharmacy,Unknown,9757432665,Unknown,Mo-Su 08:30-23:00,19.1871605,72.9718898
Ashwini Hospital and I. C. C. U. with Dialysis Centre,"P. K. Road, (Annexe), Lalan Building, 1st Floor Mulund (W)",Unknown,Unknown,400080,Maharashtra,Unknown,hospital,Unknown,Unknown,Unknown,Unknown,19.1753107,72.9514943
Chiranjeevi Hospital,Unknown,Almeda Road,Unknown,Unknown,Unknown,Unknown,hospital,Unknown,Unknown,Unknown,Unknown,19.1979406,72.9681922
Wellness Forever ,Unknown,Unknown,Unknown,Unknown,Unknown,Unknown,pharmacy,Unknown,Unknown,Unknown,Unknown,19.1990805,72.9644017
Unknown,Unknown,Unknown,Unknown,400077,Unknown,Unknown,pharmacy,Unknown,Unknown,Unknown,Mo-Su 10:30-23:00,19.0758859,72.9115589
Unknown,Unknown,Powai Road,Unknown,40076,Unknown,Unknown,pharmacy,Unknown,Unknown,Unknown,Mo-Su 10:00-22:30,19.1211552,72.9172853
"Aayush Hospital, Thane","Bldg No. E-2, 2nd & 3Road Floor, Radha Nagarshopping Complex, Radha Nagar, Opposite Radha Nagar Police Chowki, Khadakpada, Kalyan (West)","Marigold Apt. , Panchpakhdi, Opp Nitin co & Honda showroom,",Thane (West),421301,Maharashtra,Unknown,hospital,hospital,Unknown,Unknown,Unknown,19.1984892,72.9657017
Wellness Forever,Unknown,Central Avenue,Mumbai,400076,Unknown,Unknown,pharmacy,Unknown,022 6162 0659,https://wellnessforever.in,24/7,19.1166725,72.9097223
Upasani Maternity and Surgical Nursing Home,"Rashman Apartments ,Sevaram Lalwani Road,Mulund ( West )",Sewaram Lalwani Road,Unknown,400080,Maharashtra,Unknown,hospital,Unknown,Unknown,Unknown,Unknown,19.1732429,72.9547642
Highway Hospital,"Dev Ashish Chs, Maruthon Circle, E. E. Highway, Near Highway Darshan",Eastern Express Highway,Unknown,400604,Maharashtra,Unknown,hospital,Unknown,Unknown,Unknown,Unknown,19.1894902,72.9630092
Army Medical Facility,Unknown,Unknown,Unknown,Unknown,Unknown,Unknown,hospital,Unknown,Unknown,Unknown,Unknown,19.0260761,73.029474
Unknown,Unknown,GV Scheme Road 4,Unknown,400081,Unknown,Unknown,pharmacy,pharmacy,Unknown,Unknown,Unknown,19.1698068,72.9597163
Meher Ambe Nursing Home,"Raj-Sneha, Opposite Rationing Office, Tambe Nagar, S N Road, Mulund (W)",Sarojini Naidu Road,Unknown,400080,Maharashtra,Unknown,hospital,Unknown,Unknown,Unknown,Unknown,19.1753796,72.9569965
Unknown,Unknown,Ganesh Gawde Road,Unknown,400080,Unknown,Unknown,hospital,Unknown,Unknown,Unknown,Unknown,19.172178,72.9509527
Unknown,"A/203, Heritage Holy, J.N.Road, Ambika Nagar, Next To Apna Bazar,Mulund (West)",Pandit Jawaharlal Nehru Road,Unknown,400081,Maharashtra,Unknown,clinic,Unknown,Unknown,Unknown,Unknown,19.1674407,72.9512848
Unknown,Unknown,Ramratan Trivedi Road,Unknown,Unknown,Unknown,Unknown,hospital,Unknown,Unknown,Unknown,Unknown,19.1733919,72.9538799
Unknown,Unknown,Unknown,Unknown,Unknown,Unknown,Unknown,hospital,Unknown,Unknown,Unknown,Unknown,19.0205127,73.0894908
Shraddha Polyclinic and Nursing Home,"Opposite Mirani Nagar, 1st Floor, Junction Of Ganesh Gawade Road, Mulund (W)",Ganesh Gawade Road,Unknown,400080,Maharashtra,Unknown,clinic,Unknown,Unknown,Unknown,Unknown,19.1713754,72.9505328
Unknown,Unknown,Gopal Krushna Gokhale Marg,Unknown,400081,Unknown,Unknown,clinic,Unknown,Unknown,Unknown,Unknown,19.1696994,72.9579507
Maruti Nursing Home,"1st Floor, Girnar Building, Next To Dominos Pizza, Hanuman Chowk, Gokhale Road, Mulund(East)",Gopal Krushna Gokhale Marg,Unknown,400081,Maharashtra,Unknown,clinic,Unknown,Unknown,Unknown,Unknown,19.169569,72.9583566
Unknown,Unknown,Mavli Mandal Marg,Unknown,Unknown,Unknown,Unknown,pharmacy,Unknown,Unknown,Unknown,Unknown,19.1974072,72.9760395
Unknown,Unknown,Dr Ambedkar Road,Unknown,400080,Unknown,Unknown,hospital,Unknown,Unknown,Unknown,Unknown,19.1729063,72.9496899
Lav-Kush Nursing Home,"Laxmi Niwas, N.S. Road, Near Syndicate Bank, Mulund",Subhash Chandra Bose Road,Unknown,400080,Maharashtra,Unknown,clinic,Unknown,Unknown,Unknown,Unknown,19.1758537,72.9540893
Unknown,Unknown,Navghar Marg,Unknown,400081,Unknown,Unknown,hospital,Unknown,Unknown,Unknown,Unknown,19.1689031,72.9601586
Unknown,Unknown,Unknown,Unknown,Unknown,Unknown,Unknown,hospital,Unknown,Unknown,Unknown,Unknown,19.185962,72.9674462
Doctor's Clinic,Unknown,Unknown,Unknown,Unknown,Unknown,Unknown,hospital,Unknown,Unknown,Unknown,Unknown,19.006584,73.0157937
Saarthi Health Care,"Jamuna Sadan,1st. Floor M.G.Road Mulund West",Mahatma Gandhi Road,Unknown,400080,Maharashtra,Unknown,hospital,Unknown,Unknown,Unknown,Unknown,19.1764944,72.9514785
Unknown,Unknown,Navghar Marg,Unknown,400081,Unknown,Unknown,pharmacy,Unknown,Unknown,Unknown,Unknown,19.1680429,72.9614413
Unknown,Unknown,Mahatma Phule Marg,Unknown,400081,Unknown,Unknown,clinic,Unknown,Unknown,Unknown,Unknown,19.1718213,72.9596517
Unknown,Unknown,Dargah Road,Unknown,Unknown,Unknown,Unknown,hospital,hospital,Unknown,Unknown,Unknown,19.1627973,72.9369083
Unknown,Unknown,Unknown,Unknown,Unknown,Unknown,Unknown,clinic,Unknown,Unknown,Unknown,Unknown,19.1610001,72.9444509
Ashirvaad Heart Hospital,Unknown,Unknown,Unknown,Unknown,Unknown,Unknown,hospital,hospital,Unknown,Unknown,Unknown,19.0763785,72.9054696
Dr. Sabnis Maternity and Nursing Home,"Ground Floor, Saurabh V.B. Phadke Road , Gavanpada, Mulund (E)",Unknown,Unknown,400081,Maharashtra,Unknown,hospital,Unknown,Unknown,Unknown,Unknown,19.1737405,72.9621216
Vagholikar Hospital,Unknown,Unknown,Thane,Unknown,Unknown,Unknown,hospital,Unknown,Unknown,Unknown,Unknown,19.1894009,72.9718231
Lobo Eye Clinic,Unknown,Unknown,Unknown,Unknown,Unknown,Unknown,clinic,clinic,Unknown,Unknown,Unknown,19.0555171,72.9002715
Unknown,Unknown,Central Avenue,Unknown,400076,Unknown,Unknown,pharmacy,Unknown,Unknown,Unknown,Mo-Su 09:00-23:00,19.1153837,72.908029
Unknown,Unknown,Central Avenue,Unknown,Unknown,Unknown,Unknown,hospital,Unknown,+912233993939,Unknown,Unknown,19.1150444,72.9073885
Unknown,Unknown,Central Avenue - from Tulip to Forest Street Junction,Unknown,Unknown,Unknown,Unknown,pharmacy,Unknown,Unknown,Unknown,Mo-Su 09:00-23:00,19.1151144,72.907089
Unknown,Unknown,Central Avenue - from Tulip to Forest Street Junction,Unknown,Unknown,Unknown,Unknown,clinic,Unknown,+912225706680,Unknown,Unknown,19.1154307,72.9075164
Unknown,Unknown,Central Avenue - from Tulip to Forest Street Junction,Unknown,Unknown,Unknown,Unknown,hospital,Unknown,Unknown,Unknown,Unknown,19.1154259,72.9075074
Unknown,Unknown,Unknown,Unknown,Unknown,Unknown,Unknown,dentist,dentist,Unknown,Unknown,Unknown,19.1190316,72.9111686
Dental Clinic - Dr Tania Thukral,Unknown,Unknown,Unknown,Unknown,Unknown,Unknown,dentist,dentist,Unknown,Unknown,Unknown,19.1195109,72.9116464
Mamaji's Medical Store,Unknown,Unknown,Unknown,Unknown,Unknown,Unknown,pharmacy,pharmacy,Unknown,Unknown,Unknown,19.1192134,72.9115491
Unknown,Unknown,Apna Bazar,Unknown,400076,Unknown,Unknown,pharmacy,Unknown,Unknown,Unknown,Unknown,19.1257637,72.9177994
Nihal Nursing Home & Opthalmologist,Unknown,Unknown,Unknown,Unknown,Unknown,Unknown,hospital,Unknown,Unknown,Unknown,Unknown,19.1253722,72.9190861
Sagar Medical store,Unknown,Unknown,Unknown,Unknown,Unknown,Unknown,pharmacy,Unknown,Unknown,Unknown,Unknown,19.1257238,72.9194583
Powai Opticians,Unknown,Unknown,Unknown,Unknown,Unknown,Unknown,Unknown,optometrist,Unknown,Unknown,Unknown,19.1280194,72.9194586
unique homoeo pharmacy,Unknown,Unknown,Unknown,Unknown,Unknown,Unknown,pharmacy,pharmacy,Unknown,Unknown,Unknown,19.1267112,72.9187525
Dhanvantari maternity and endoscopy centre,Unknown,Unknown,Unknown,Unknown,Unknown,Unknown,Unknown,yes,Unknown,Unknown,Unknown,19.1254932,72.9191472
Dr. Jadhav's Dental clinic,Unknown,Unknown,Unknown,Unknown,Unknown,Unknown,dentist,dentist,Unknown,Unknown,Unknown,19.1268376,72.9192672
Dr. Rajesh Gandhi,Unknown,Unknown,Unknown,Unknown,Unknown,Unknown,Unknown,hospice,Unknown,Unknown,Unknown,19.1268544,72.9192628
Unknown,Unknown,Unknown,Unknown,Unknown,Unknown,Unknown,pharmacy,Unknown,Unknown,Unknown,Unknown,19.115253,72.9080263
Unknown,Unknown,Unknown,Unknown,Unknown,Unknown,Unknown,clinic,Unknown,Unknown,Unknown,Unknown,19.1152669,72.9082663
Unknown,Unknown,Unknown,Unknown,Unknown,Unknown,Unknown,pharmacy,Unknown,Unknown,Unknown,Unknown,19.1154248,72.9080115
Unknown,Unknown,Unknown,Unknown,Unknown,Unknown,Unknown,pharmacy,Unknown,Unknown,Unknown,Unknown,19.11506,72.9070198
Unknown,Unknown,Unknown,Unknown,Unknown,Unknown,Unknown,pharmacy,Unknown,Unknown,Unknown,Unknown,19.1178201,72.9049924
Unknown,Unknown,Unknown,Unknown,Unknown,Unknown,Unknown,clinic,Unknown,Unknown,Unknown,Unknown,19.1691638,72.9594699
Advanced Key Physiotherapy,Unknown,Unknown,Unknown,Unknown,Unknown,Unknown,clinic,clinic,Unknown,Unknown,Unknown,19.0727545,73.0724748
Unknown,Unknown,Hanuman Rd.,Unknown,400076,Unknown,Unknown,clinic,Unknown,Unknown,Unknown,Unknown,19.1275141,72.9198111
Unknown,Unknown,Adi Sankaracharya Marg,Unknown,400076,Unknown,Unknown,pharmacy,Unknown,Unknown,Unknown,Unknown,19.1270859,72.9187604
Unknown,Unknown,Adi Sankaracharya Marg,Unknown,400076,Unknown,Unknown,pharmacy,Unknown,Unknown,Unknown,Unknown,19.1268364,72.9185152
Arogya Health Care,"1st Floor, Ambe Maiya Apartments",Unknown,Unknown,400080,Maharashtra,Unknown,clinic,Unknown,Unknown,Unknown,Unknown,19.179126,72.9499134
Daxini Heart Centre,"10,Lavkush, M.G.Road, Near Panch Rasta, Mulund (W)",Unknown,Unknown,400080,Maharashtra,Unknown,hospital,Unknown,Unknown,Unknown,Unknown,19.1757098,72.9527646
Ashirwad Critical Care Unit,1st Floor Jalaram Ashish Devidayal Road Mulund W,Unknown,Unknown,400080,Maharashtra,Unknown,hospital,Unknown,Unknown,Unknown,Unknown,19.1744516,72.9527345
Prasad Surgical and Children Nursing Home,"Yogeshwer Dham, 1st Floor, Above Andhra Bank M G Road, Near Panch Rasta Mulund (W)",Unknown,Unknown,400080,Maharashtra,Unknown,hospital,Unknown,Unknown,Unknown,Unknown,19.1762443,72.9521906
Dr Bhanushali Hospital,Kaushalya Shivaji Path Thane - West,Unknown,Unknown,400601,Maharashtra,Unknown,hospital,Unknown,Unknown,Unknown,Unknown,19.1882382,72.9761146
"Royal Nursing Home, Govandi","3/A/5, Shivaji Nagar, Main Road Govandi",Unknown,Unknown,400043,Maharashtra,Unknown,clinic,Unknown,Unknown,Unknown,Unknown,19.0660331,72.9202681
Bhatti Eye Clinic,"No. 22, Amar Mansion,Trombay Road, Chembur",Unknown,Unknown,400071,Maharashtra,Unknown,clinic,Unknown,Unknown,Unknown,Unknown,19.0495254,72.9176794
Niramaya General Hospital,"B-28/1, Maitri Park, Sion Trombay Road, Next To Maitri Park Bus Stop,Chembur",Unknown,Unknown,400071,Maharashtra,Unknown,hospital,Unknown,Unknown,niramayahospitals.in,Unknown,19.0500033,72.9044715
Gokul Nursing Home and ICCU,"1st Floor Munshi Estate , M G Road Mulund (West)",Unknown,Unknown,400001,Maharashtra,Unknown,hospital,Unknown,Unknown,Unknown,Unknown,19.1734002,72.9553535
Ascent Clinic,"Shop No-6, Next To Canara Bank,LBS Road",Unknown,Unknown,400049,Maharashtra,Unknown,clinic,Unknown,Unknown,Unknown,Unknown,19.089016,72.9069257
Excel Urology Centre,"Opposite Basant Theatre,CG Road,Chembur",Unknown,Unknown,400071,Maharashtra,Unknown,clinic,Unknown,Unknown,Unknown,Unknown,19.0460875,72.9034173
"Sai Seva Hospital and Icu, Mumbai","Row House B1, Sector-4, Infront of CIDCO Water Tank, Airoli",Unknown,Unknown,400078,Maharashtra,Unknown,hospital,Unknown,Unknown,http://www.saisevahospitalandicu.com/,Unknown,19.1554376,72.9974642
Ria Nursing Home,"104, Patils Heritage, Sarojini, Naidu Road,Tambe Nagar, Mulund(W)",Unknown,Unknown,400080,Maharashtra,Unknown,hospital,Unknown,Unknown,Unknown,Unknown,19.1790754,72.9565283
Pooja Nursing Home - Thane,"1st Floor, Shridhar Smruti, Opposite Bajaj Allianz Gen. Insu. Co. Ltd., Gokhale Road, Naupada, Thane ( W )",Unknown,Unknown,400602,Maharashtra,Unknown,clinic,Unknown,Unknown,Unknown,Unknown,19.187065,72.9683445
Amber Eye Care and Microsurgery Centre,"1st Floor,Hosbanoo Mansion,Ice Factory Bldg,Above Kohinoor Televideo,Naupada,Gokhale Road",Unknown,Unknown,400602,Maharashtra,Unknown,hospital,Unknown,Unknown,Unknown,Unknown,19.1872664,72.9692407
Dr.Pathak's Hospital,"Ist Floor,Saraswati Niwas,Opposite Malhar Cenema,Gokhale Road,Naupada",Unknown,Unknown,400601,Maharashtra,Unknown,hospital,Unknown,Unknown,Unknown,Unknown,19.187441,72.9663971
Vatsal Nicu and Childrens Hospital,Ghatkopar(E),Unknown,Unknown,400077,Maharashtra,Unknown,hospital,Unknown,Unknown,Unknown,Unknown,19.0824458,72.9092512
Aditya Health Care Hospital,"NJ,1&2,Khardev Nagar,Ghatla,N.G Adhaya Marg,Chembur",Unknown,Unknown,400071,Maharashtra,Unknown,hospital,Unknown,Unknown,Unknown,Unknown,19.0579944,72.9087979
Asha Polyclinic and Sheetal Nursing Home,"145, 60 Ft. Road, Opposite Icicii Bank, Ghatkopar (E)",Unknown,Unknown,400077,Maharashtra,Unknown,clinic,Unknown,Unknown,Unknown,Unknown,19.0796718,72.9078745
Nayak Medicare - Chembur,"16, Maitri Vijay, Opposite Basant Cinema, Chembur",Unknown,Unknown,400074,Maharashtra,Unknown,hospital,Unknown,Unknown,drudaynayak.com,Unknown,19.0456831,72.9025014
Padmashree Nursing Home (Mulund),"A - 11,Apurva Apartment,Above Cosmos Bank, L.B.S.Marg,Mulund (West)",Unknown,Unknown,400080,Maharashtra,Unknown,clinic,Unknown,Unknown,Unknown,Unknown,19.182171,72.9468651
"Aastha Health Care, Mumbai","Mulund Colony, Opposite Chhedda Petrol Pump, Off L. B. S. Road, Mulund (West)",Unknown,Unknown,400082,Maharashtra,Unknown,clinic,Unknown,Unknown,Unknown,Unknown,19.1784725,72.9433364
"Sai Siddhi Hospital, Mumbai","E-5/03, Highland, Park, Jaishuskinagar, Mulundcolony, Mulund(W)",Unknown,Unknown,400082,Maharashtra,Unknown,hospital,Unknown,Unknown,Unknown,Unknown,19.1699191,72.9321205
Sahayog Nursing Home,"LBS Road,near Navpada ,Thane",Unknown,Unknown,400606,Maharashtra,Unknown,clinic,Unknown,Unknown,Unknown,Unknown,19.1896827,72.9660165
Devkunj Charitablr Trust Matushri Mankbai Nagji Sa,Mulund,Unknown,Unknown,400080,Maharashtra,Unknown,hospital,Unknown,Unknown,Unknown,Unknown,19.170637,72.9498291
Dr Nandita Rane's Eye Clinic,"Rane Hospital, 2nd Floor, Pestom Sagar Road No. 2, Chembur, Mumbai 400089, India",Dr Nandita Rane's Eye Clinic,Mumbai,400089,Maharashtra,Unknown,hospital,Unknown,Unknown,https://drnandita.com/,24/7,19.0694366,72.9038545
"CGHS Dispensary No.19, Mulund","B-2, Type II, P & T colony, Mulund (W)",Unknown,Unknown,400080,Maharashtra,Unknown,clinic,centre,Unknown,http://nb.bsf.gov.in/CGHS%20DIspenseries.pdf,Unknown,19.1720993,72.9440412
"Indira Nursing Home, Mumbai","M.G. Road, Opposite Dena Bank, Mulund (W)",Unknown,Unknown,400080,Maharashtra,Unknown,clinic,Unknown,Unknown,Unknown,Unknown,19.1753733,72.9531227
Nav Drishti Netralaya,"A-7 , 1st Floor, Alps Heights, Dr. R.P.Road,Opposite396, Bus Stop, Near Railway Station, Mulund ( West )",Unknown,Unknown,400080,Maharashtra,Unknown,hospital,hospital,Unknown,Unknown,Unknown,19.1739604,72.9570701
Surya Eye Institute and Research Centre,"104, Aroto House, P.K.Road, Saidham, Mulund (west)",Unknown,Unknown,400080,Maharashtra,Unknown,hospital,Unknown,Unknown,https://suryaeye.com/,Unknown,19.1686019,72.9450512
Dr. Khona's E. N. T. Hospital & Regional Center,"Gala Manor, 1st Floor Near Dhanvantari Hosipta,l Above Silver Hardware, N.S.Road, Mulund(W)",Unknown,Unknown,400080,Maharashtra,Unknown,hospital,Unknown,Unknown,Unknown,Unknown,19.175445,72.9539676
Sumitra Eye Hospital,"Wama Apt, Behind Maitri Park, St Bust Stop, Ghatala Road . Near R K Studio, Chembur",Unknown,Unknown,400071,Maharashtra,Unknown,clinic,Unknown,Unknown,Unknown,Unknown,19.0492503,72.9062028
Dr. Shettys E.N.T. Hospital,"9, Lavkush, M G Road, Panchrasta, Mulund (West)",Unknown,Unknown,400080,Maharashtra,Unknown,hospital,Unknown,Unknown,Unknown,Unknown,19.1758149,72.9528357
Dr. R.N. Patil's Suraj Neurologiacal and Multispeciality Hospital,"Plot No.-1&1A, Sun Palm View Bldg., Sanapada, Sector-15, Navi Mumbai",Unknown,Unknown,400705,Maharashtra,Unknown,hospital,Unknown,Unknown,Unknown,Unknown,19.0624707,73.0060434
THC-Thane Health Care,"Opposite Gokhale Road Post Office, Near Hotel Usha Kiran, Brahmin Society, Naupada, Thane(W)",Unknown,Unknown,400602,Maharashtra,Unknown,hospital,Unknown,Unknown,Unknown,Unknown,19.1867653,72.9696322
Sri Sai Eye Care Centre,"1st Floor, Paradise,Jain Mandir Road, I.I.T Market, Powai",Unknown,Unknown,400076,Maharashtra,Unknown,hospital,Unknown,Unknown,Unknown,Unknown,19.1254925,72.9181845
Dr. Kunnure Hospital and Iccu,"F2/D2 Sector 9 Vashi, Navi Mumbai",Unknown,Unknown,400703,Maharashtra,Unknown,hospital,Unknown,Unknown,Unknown,Unknown,19.081001,72.9988839
Aditi Children Hospital and Nursing,"Ground Floor, Nandadeep Chs, Old Belapur Road",Unknown,Unknown,400605,Maharashtra,Unknown,hospital,Unknown,Unknown,Unknown,Unknown,19.1930041,72.9906975
Risk Care Hospital and Iccu,"1st Floor, Shirin Appartment",Unknown,Unknown,400606,Maharashtra,Unknown,hospital,Unknown,Unknown,Unknown,Unknown,19.1996346,72.9721436
Vaidya Maternity Home,"Vaidya Bunglow, Opp Telephone Exc, Naupada Thane",Unknown,Unknown,400602,Maharashtra,Unknown,hospital,Unknown,Unknown,Unknown,Unknown,19.1871764,72.9678346
"Noble Hospital, Ghatkopar","203- A, 205, Trimurti Arcade, Near Sarvodya Hospital, L.B.S.Marg, Ghatkopar(W)",Unknown,Unknown,400086,Maharashtra,Unknown,hospital,Unknown,Unknown,Unknown,Unknown,19.0878158,72.9069324
Parulekar Hospital,"Vikas Niketan, Plot 8/3A, Sector 6, Near Siemens Quarters, Airoli, Navi Mumbai",Unknown,Unknown,400708,Maharashtra,Unknown,hospital,Unknown,Unknown,Unknown,Unknown,19.1467481,72.9974623
Disha Hospital,"U-119, Sector 4, Airoli",Unknown,Unknown,400708,Maharashtra,Unknown,hospital,Unknown,Unknown,Unknown,Unknown,19.1511429,72.9979656
Excel Ent Hospital,"501, Vishal Building, Above Subhiksha, Junction Of Hingwala Lane & 60 Feet Road,Ghatkopar East",Unknown,Unknown,400077,Maharashtra,Unknown,hospital,Unknown,Unknown,Unknown,Unknown,19.0824573,72.9092287
Dr. Vinod B Joshi Maternity Nursing Home,"Ghatkopar,West",Unknown,Unknown,400086,Maharashtra,Unknown,clinic,Unknown,Unknown,Unknown,Unknown,19.0867651,72.9061371
Dr.Bhatia's Ruby Hospital,"1st Floor, Arunoday Tower, Sps Marg, Kokan Nagar",Unknown,Unknown,400078,Maharashtra,Unknown,hospital,Unknown,Unknown,Unknown,Unknown,19.1457239,72.9293557
Ojas Nursing Home,"Plot No 8-3,Sector -8, Nerul Phase-Ii, Behind M G M School, Nerul Navi Mumbai",Unknown,Unknown,400706,Maharashtra,Unknown,clinic,Unknown,Unknown,Unknown,Unknown,19.0418141,73.016746
Janam Hospital,"1st Floor, Nirmal Apartmens, Uttam Angrey Road, Joshiwala Charai",Unknown,Unknown,400601,Maharashtra,Unknown,hospital,Unknown,Unknown,Unknown,Unknown,19.1964227,72.9762286
Archana Maternity & Nursing Home,"101-102, 1st Floor, Girirajdham Chs, Sector-10, Plot No.11, Near D-Mart, Koper Khairane",Unknown,Unknown,400709,Maharashtra,Unknown,clinic,Unknown,Unknown,Unknown,Unknown,19.0994257,73.0057222
"Aparna Hospital, Mulund (W)","J Nehru Road, Mulund (W)",Unknown,Unknown,400080,Maharashtra,Unknown,hospital,Unknown,Unknown,Unknown,Unknown,19.169912,72.9536431
Shree Ramkrishna Netralaya,"A- 102/103, Shree Balaji Co-Op. Hsg. Society Near Makhmali Talao, L.B.S. Road (Agra Road ) Panchpakhadi",Unknown,Unknown,400601,Maharashtra,Unknown,hospital,Unknown,Unknown,Unknown,Unknown,19.1998018,72.9722703
"Vikas Nursing Home, Mumbai","Plot No-18-U-1-1(A) & 2, Near Bhaji Market, Shivaji Nagar, Govandi",Unknown,Unknown,400043,Maharashtra,Unknown,hospital,Unknown,Unknown,Unknown,Unknown,19.0628176,72.9207404
"Shanti Nursing Home, Mumbai","Prabhu Krupa,103, L.B.S. Marg, Sarvodaya Hospital, Ghatkopar(W)",Unknown,Unknown,400086,Maharashtra,Unknown,clinic,Unknown,Unknown,Unknown,Unknown,19.0898651,72.9083754
Dr. Prakash Doshis Fracture and Orthopaedic Nursing Home,"Neelkanth Market, M.G.Road, Ghatkopar (E)",Unknown,Unknown,400077,Maharashtra,Unknown,clinic,Unknown,Unknown,Unknown,Unknown,19.0810999,72.9041764
Tara Neo Surg Hospital,"C-5, Satyam Shopping Centre, 1st Flr, M.G. Road, Ghatkopar (E)",Unknown,Unknown,400077,Maharashtra,Unknown,hospital,Unknown,Unknown,Unknown,Unknown,19.0757589,72.9030552
The Eye Super Specialities,"201,Punit Plaza , Second Floor , Next To Rajawadi Post Office , Rajawadi , Ghatkopar ( East )",Unknown,Unknown,400077,Maharashtra,Unknown,hospital,Unknown,Unknown,Unknown,Unknown,19.0793026,72.902154
Dr Wavikar Eye Hospital,"4Th & 5Th Floor Level, Amber Arcade , Off Bhiwandi Bypass Road, Near Lodha Paradise, Majiwadi",Unknown,Unknown,400601,Maharashtra,Unknown,hospital,hospital,Unknown,Unknown,Unknown,19.188266,72.9723501
Advanced Orthopaedic and Super Speciality Center,"Jayant Arcade, Ist Floor, 140-142, M.G. Road, Ghatkopar(E)",Unknown,Unknown,400077,Maharashtra,Unknown,hospital,Unknown,Unknown,Unknown,Unknown,19.0791531,72.9039431
Furia's Eye Clinic,"301-302/B, Bhaveshwar Plaza, Near Shreyas Cinema, Lbs Marg, Ghatkopar East",Unknown,Unknown,400086,Maharashtra,Unknown,clinic,Unknown,Unknown,Unknown,Unknown,19.0921451,72.9124483
Dr Subodh Mehtas Advance Orthopedic and Joint Replacement Center,"Pasaydan, Next To Dnyanraj Sabhagruh, Sant Dnyaneshwar Marg, Near Tmc Bldg., Panchpakhadi",Unknown,Unknown,400602,Maharashtra,Unknown,hospital,Unknown,Unknown,Unknown,Unknown,19.1962657,72.9663366
Dr Manes Gawali Hospital,"Rabale Naka, Thane - Belapur Road, Navi Mumbai",Unknown,Unknown,400708,Maharashtra,Unknown,hospital,Unknown,Unknown,Unknown,Unknown,19.1428364,73.0015627
Dewang Nursing Home Pvt. Ltd.,"Bhaveshwar Market, 2nd Floor, M.G. Road Next To Gandhi Market, Ghatkopar (E)",Unknown,Unknown,400077,Maharashtra,Unknown,clinic,Unknown,Unknown,Unknown,Unknown,19.0808704,72.9040141
Unnati Critical Care Unit and I.C.C.U,"B1/B2, Rajanigandha C.H.S., Gr.Floor, Vandana Cinema, Thane (W)",Unknown,Unknown,400602,Maharashtra,Unknown,hospital,Unknown,Unknown,Unknown,Unknown,19.1959389,72.9708615
Bodas Surgical and Maternity Home,"2nd Floor,Near Saibaba Mandir,Ghantali Road",Unknown,Unknown,400601,Maharashtra,Unknown,hospital,Unknown,Unknown,Unknown,Unknown,19.1930892,72.9710492
Dr Bothra's Hospital,"1st Floor, Ramkrishna Bldg , Gadhav Naka, Bhandup (W)",Unknown,Unknown,400078,Maharashtra,Unknown,hospital,Unknown,Unknown,Unknown,Unknown,19.1532611,72.9308885
Gautami Nursing Home,"Shree Siddhivinayak,Rhushab Nagar, OppositeMumbra Police Station",Unknown,Unknown,400612,Maharashtra,Unknown,clinic,Unknown,Unknown,Unknown,Unknown,19.1836812,73.0216542
Dr Singh's City Hospital and Medical Research Centre,"Plot No-32, Sector-4 Kalamboli",Unknown,Unknown,410218,Maharashtra,Unknown,hospital,Unknown,Unknown,Unknown,Unknown,19.028344,73.0967107
"Maher Maternity and Nursing Home, Mumbai",Gayatri Building 1st Floor Hanuman Chowk L T Road Mulund(E),Unknown,Unknown,400081,Maharashtra,Unknown,hospital,Unknown,Unknown,Unknown,Unknown,19.1703693,72.9588425
Avadhoot Hospital and Iccu,"Plot No. 29, Sector-19, Opposite Nhp School, Airoli, Navi Mumbai",Unknown,Unknown,400708,Maharashtra,Unknown,hospital,Unknown,Unknown,Unknown,Unknown,19.1597689,72.9925981
Shri Bal Chikitsalaya,"14-A Miniland Tank Road,Shivaji Talau,Bhandup (W)",Unknown,Unknown,400078,Maharashtra,Unknown,clinic,Unknown,Unknown,Unknown,Unknown,19.1475221,72.9315859
I and Eye Dr Kolhes Eye Clinic,"1st Floor, Kailas Complex L.B.S. Marg",Unknown,Unknown,400078,Maharashtra,Unknown,clinic,Unknown,Unknown,Unknown,Unknown,19.1461995,72.9356709
Eyemax Super Speciality Eye Centre,"104, Neelkanth Plaza, Opposite D-Mart, Sector 40, Nerul- Seawoods West, Navi Mumbai",Unknown,Unknown,400706,Maharashtra,Unknown,hospital,Unknown,Unknown,Unknown,Unknown,19.0192015,73.0156638
Kolekar Hospital & ICCU,"Omprakash Arcade, 2nd Floor, Unit No.209, Ambedkar Garden, Chembur",Unknown,Unknown,400071,Maharashtra,Unknown,hospital,Unknown,Unknown,Unknown,Unknown,19.0598819,72.9011294
Dr.Priya's Sai Niwas Maternity and Infertility Nursing Home,"28/29,A Building, C Wing, Hira Moti Complex, Shivaji Nagar, Wagle Estate",Unknown,Unknown,400601,Maharashtra,Unknown,hospital,Unknown,Unknown,https://www.sainiwashealthcare.com/,Unknown,19.1877619,72.9522537
Dr Uppal's ENT Hospital & Sonic Hearing & Speech Centre,"Mohan Heritage, 2nd Floor, Opposite TMC, Almeida Road, Panchpakhadi",Unknown,Unknown,400602,Maharashtra,Unknown,hospital,Unknown,Unknown,Unknown,Unknown,19.1982794,72.9670675
Uma Hospital,"F-7/A-1,Sector-10,(Above Hotel Trimurti),Near Vijaya Bank,Vashi,Navi Mumbai",Unknown,Unknown,400703,Maharashtra,Unknown,hospital,Unknown,Unknown,Unknown,Unknown,19.0823723,72.9998548
Dr. Sonawane's Hospital,"F-1 / C-2, Sector-11, Next To Bus Depot, Nerul, Navi Mumbai",Unknown,Unknown,400706,Maharashtra,Unknown,hospital,Unknown,Unknown,Unknown,Unknown,19.0217017,73.0241248
"Mahaveer Nursing Home, Mumbai","Plot No. 44,A-1-2-3, Shivaji Nagar, Govandi",Unknown,Unknown,400043,Maharashtra,Unknown,clinic,Unknown,Unknown,Unknown,Unknown,19.0849756,72.9047477
Vatsalya Maternity and Surgical Nursing Home,"3Road Floor, M G Road , Near Bank Of India, Ghatkopar West",Unknown,Unknown,400086,Maharashtra,Unknown,hospital,Unknown,Unknown,Unknown,Unknown,19.0858653,72.9053056
"Shreeji Hospital, Ghatkopar","Nilkanth Shopping Centre Corner Cama Lane , Ghatkopar, West Mumbai",Unknown,Unknown,400001,Maharashtra,Unknown,hospital,Unknown,Unknown,Unknown,Unknown,19.0844927,72.9048134
Dr. Malwankar's Romeen Nursing Home,"Gr.Floor,Gautam Dham Society, Opposite Gama House, Bhandup (W)",Unknown,Unknown,400078,Maharashtra,Unknown,clinic,Unknown,Unknown,Unknown,Unknown,19.1511385,72.93391
Sushrut Nursing Home,"101,Akshata Apts Almeida Road",Unknown,Unknown,400602,Maharashtra,Unknown,clinic,Unknown,Unknown,Unknown,Unknown,19.1968432,72.9696532
Netra Jyot Eye Care Centre,"206, Jai Commercial Complex, At The Junction Of M. G. Road And S. L. Road, Opposite Hotel Gurukrupa, Mulund (West)",Unknown,Unknown,400080,Maharashtra,Unknown,hospital,Unknown,Unknown,Unknown,Unknown,19.1739389,72.9550807
Indravati Hospital,"Sector-3, Near Airoli Bus Depot, Airoli, Nav",Unknown,Unknown,400708,Maharashtra,Unknown,hospital,hospital,Unknown,Unknown,Unknown,19.1566538,72.9977667
Sulochan Eye,7/6R.R. Point Grount Floor Off Lbs Marg Opp Dreams Mall Bhandup (W),Unknown,Unknown,400078,Maharashtra,Unknown,hospital,Unknown,Unknown,Unknown,Unknown,19.1473308,72.9363066
Vedaant Multispeciality Hospital,"1st Floor, Natasha Towers, Plot No.84, Sector No.17,OppositeMmmc Hospital,Khairane,Navi Mumbai",Unknown,Unknown,400709,Maharashtra,Unknown,hospital,Unknown,Unknown,Unknown,Unknown,19.1006081,72.9986988
Surya Hospital and Iccu,"Plot No.21-B, Sec-11, Near Ayyappa Temple, Nerul(E), Navi Mumbai",Unknown,Unknown,400706,Maharashtra,Unknown,hospital,Unknown,Unknown,Unknown,Unknown,19.0360934,73.0231659
Shivani Maternity Home Thane,"Akshi Bunglow, Sector 1, Plot No. 9&10 Shreenagar Wagle Estate",Unknown,Unknown,400604,Maharashtra,Unknown,hospital,Unknown,Unknown,Unknown,Unknown,19.1902469,72.946963
OrthoSpine Clinic,"M.G. Road, Naupada, Thane (W)",Godbole Hospital M. G. Road,"Naupada, Shivaji Nagar, Thane West -Maharashtra, India",400602,Maharashtra,Unknown,clinic,clinic,Unknown,https://www.orthospineclinic.in/orthospineclinic,Unknown,19.185432,72.9674457
Vivek Maternity and Nursing Home,"101-102-103, Sai Darshan Co-Opp Soc Asaifa, Bhattwadi Ghatkopar - West",Unknown,Unknown,400084,Maharashtra,Unknown,hospital,Unknown,Unknown,Unknown,Unknown,19.0940612,72.9000364
Aayush Multispeciality Hospital,"Aayush Villa, K-6 & 7, Row House, Sector-4, Airoli, Navi Mumbai",Unknown,Unknown,400708,Maharashtra,Unknown,hospital,Unknown,Unknown,Unknown,Unknown,19.1525023,72.9985231
Hi-Tech Urology Centre,"Landmark Arcade, 1st Floor, Louis Wadi, Highway Service Road, Nitin Company Junction, Thane West",Unknown,Unknown,400604,Maharashtra,Unknown,hospital,Unknown,Unknown,http://hitechurologythane.com/,Unknown,19.1990415,72.9627861
Siddiqui Nursing Home,"Rohan Complex , B Wing Amrut Nagar, Mumbra Thane",Unknown,Unknown,400612,Maharashtra,Unknown,clinic,Unknown,Unknown,Unknown,Unknown,19.1756617,73.0236499
Aryan Hospital,"Sai Prasad Shopping Complex,Plot, No.17, Sec-8,Nerul, Navi Mumbai",Unknown,Unknown,400706,Maharashtra,Unknown,hospital,Unknown,Unknown,Unknown,Unknown,19.0410522,73.014902
Shushrusha Hospital and Icu,"Shreenath Plaza, L. T. Marg, Mulund East",Unknown,Unknown,400081,Maharashtra,Unknown,hospital,Unknown,Unknown,Unknown,Unknown,19.1712725,72.9580539
Shivam Eye Foundation P P N,"Plot No. 14, Sec-25, Behind H. P. Petrol Pump, Seawood - West, Nerul (E), Navi Mumbai",Unknown,Unknown,400706,Maharashtra,Unknown,hospital,Unknown,Unknown,Unknown,Unknown,19.0238279,73.0219696
Shree Sukh Shanti Hospital,"Vikram Apartments , G Wing, New Maniklal Estate, L B Marg, Ghakopar (West)",Unknown,Unknown,400086,Maharashtra,Unknown,hospital,Unknown,Unknown,Unknown,Unknown,19.0878791,72.9023337
Modi General Hospital and Iccu,"237/3258, Tagore Nagar, Opp: Muncipal Market, Vikroli - East",Unknown,Unknown,400083,Maharashtra,Unknown,hospital,Unknown,Unknown,Unknown,Unknown,19.1154687,72.9306605
"Saraswati Eye Hospital, Mumbai","C-23, 2nd Floor, Satyam Shopping Centre, M.G. Road",Unknown,Unknown,400077,Maharashtra,Unknown,hospital,Unknown,Unknown,Unknown,Unknown,19.0799959,72.9043213
TMC C R Wadia Dispensary,"Cursetji Rustomji Wadia Dispensary, Tembhi Naka, Thane West",Unknown,Unknown,400602,Maharashtra,Unknown,clinic,centre,Unknown,Unknown,Unknown,19.1967672,72.9770735
Ashirwad Heart Hospital,"# 1, Vivek - 67, Tilak Road, Ghatkopar (E)",Tilak Road,Mumbai,400077,Maharashtra,Unknown,hospital,hospital,Unknown,Unknown,Unknown,19.076179,72.9056409
Dr.Nalavade Multispeciality Hospital,"1st Floor, Om Deep Saipuja Co-Operative Housing Society, L.B.S. Marg, Opposite Kadambari Building, Charai Naka",Unknown,Unknown,400601,Maharashtra,Unknown,hospital,Unknown,Unknown,Unknown,Unknown,19.196828,72.9718137
J. K. Child Health Care and Nicu,"Shrenik Hospital, Dina Patil Estate, Station Road, Bhandup (W)",Unknown,Unknown,400078,Maharashtra,Unknown,hospital,hospital,Unknown,Unknown,Unknown,19.1449554,72.9347174
Suruchi Eye Centre,"U-123, Near Durga Mata Mandir, Sector 4, Airoli",Unknown,Unknown,400708,Maharashtra,Unknown,hospital,Unknown,Unknown,https://suruchieyecentre.com/,Unknown,19.1511493,72.9979008
Amruta Surgical and Maternity Home,"C Wing, 4th Floor, Bhaveshwar Plaza, L.B.S.Marg, Ghatkopar (West)",Unknown,Unknown,400086,Maharashtra,Unknown,hospital,Unknown,Unknown,http://www.amrutasurgicalandmaternityhome.com/,Unknown,19.0926292,72.9125141
Varun Cardiac Clinic,"101-102, Gayatridham, Derasar Lane, Ghatkopar(E)",Unknown,Unknown,400022,Maharashtra,Unknown,clinic,Unknown,Unknown,Unknown,Unknown,19.0824053,72.9050481
Pkc Hospital,"Plot No:57, Sector 15-A,Vashi",Unknown,Unknown,400705,Maharashtra,Unknown,hospital,Unknown,Unknown,Unknown,Unknown,19.0805599,73.0030265
Aasha Cancer Hospital and Children First,"1st Floor, Ajit Darshan Building, Near Petrol Pump,",Unknown,Unknown,400602,Maharashtra,Unknown,hospital,Unknown,Unknown,Unknown,Unknown,19.193409,72.9706731
Anurag Nursing Home,"Shreeji Plaza, Plot No. 24, Opposite Seawoods Railway Station, Sector 25, Nerul",Unknown,Unknown,400706,Maharashtra,Unknown,clinic,Unknown,Unknown,Unknown,Unknown,19.0227591,73.0208632
Holy Trinity Hospital,"1st Floor, Heritage Holy J N Road Mulund",Unknown,Unknown,400080,Maharashtra,Unknown,hospital,Unknown,Unknown,Unknown,Unknown,19.1676317,72.9513688
Chetna Critical Care Unit,"Navinjyot Building, RRT Road, Mulund West",Unknown,Unknown,400080,Maharashtra,Unknown,hospital,Unknown,Unknown,Unknown,Unknown,19.1747167,72.9526278
Omkar Eye Care Center,302-303 Koteshwar Plaza Junction Of Jn Road And R.H.B Road Mulund(W),Unknown,Unknown,400065,Maharashtra,Unknown,hospital,Unknown,Unknown,Unknown,Unknown,19.1708418,72.9541071
Sushrusha Heart Care Center and Speciality Hospital,"Plot No 22A, Palm Beach Road Nerul (W) , Sector 6 Navi Mumbai",Unknown,Unknown,400705,Maharashtra,Unknown,hospital,Unknown,Unknown,Unknown,Unknown,19.0432478,73.0096382
Dr.Badwaik's Maternity and General Hospital,"Lal Bahadur Shastri Marg, Bhandup West",Unknown,Unknown,400078,Maharashtra,Unknown,hospital,Unknown,Unknown,Unknown,Unknown,19.1503562,72.9381332
Sanjivani Hospital and Iccu,"Sangharsha Bldg., Plot No. 53A 1st Floor, Near Sarsole Bus Depot, Phase Iii, Nerul",Unknown,Unknown,400706,Maharashtra,Unknown,hospital,Unknown,Unknown,Unknown,Unknown,19.0409539,73.0145547
Gandhi Hospital - Navi Mumbai,"101,103 Ruby Commercial Compelx Sector 4, Airoli,Navi Mumbai",Unknown,Unknown,400022,Maharashtra,Unknown,hospital,Unknown,Unknown,Unknown,Unknown,19.1511011,72.9995356
Suyog Urology Centre,"401, Rajshree Plaza, L.B.S. Marg, Opposite Shreyas Theatre, Ghatkopar(West)",Unknown,Unknown,400086,Maharashtra,Unknown,hospital,Unknown,Unknown,Unknown,Unknown,19.0931817,72.9131524
Mehta Eye Clinic Pvt Ltd,"Jayant Arcade,3Road Floor,Above Shamrao Vithal Bank",Unknown,Unknown,400077,Maharashtra,Unknown,clinic,Unknown,Unknown,Unknown,Unknown,19.0810124,72.9024477
Zynova Heart Hospital,"Near Sarvodaya Hospital, L.B.S.Marg, Ghatkoper (West)",Unknown,Unknown,400086,Maharashtra,Unknown,hospital,Unknown,Unknown,http://zynovaheart.com/,Unknown,19.0890312,72.9071443
Kedia Nursing Home,"2A/2B, Dhanwantari Bldg., Opposite Abhiyudaya Bank , Jeevdaya Lane, Off L.B.S Marg , Ghatkopar ( West )",Unknown,Unknown,400086,Maharashtra,Unknown,clinic,Unknown,Unknown,Unknown,Unknown,19.0885838,72.9051957
Vidhi Eye and Skin Care Centre,"Giriraj Dham Plot. No11, Sector -10,1st Floor, Nxt 2 Pancharatna Hotel,Koparkhairane,Navi Mumbai",Unknown,Unknown,400709,Maharashtra,Unknown,hospital,Unknown,Unknown,Unknown,Unknown,19.0994752,73.005757
Dr Milind Patils Revival Bone and Joint Hospital,"Yojana Behind Idbi Bank, Near Malhar Cinema, Off Gokhale Road",Unknown,Unknown,400602,Maharashtra,Unknown,hospital,Unknown,Unknown,Unknown,Unknown,19.1880456,72.9660389
Kamlesh Mother and Child Hospital,"Ambika Shopping Complex, Plot No. 23 , Sector 8, Nerul, Navi Mumbai",Unknown,Unknown,400706,Maharashtra,Unknown,hospital,Unknown,Unknown,Unknown,Unknown,19.0434152,73.0155337
Dr. Dive S Eye Clinic,"Rh-3, Jitendra Soc ,Plot No .91, Sector -3, Main Road Koperkhairane, Navi Mumbai",Unknown,Unknown,400709,Maharashtra,Unknown,clinic,Unknown,Unknown,Unknown,Unknown,19.1058064,73.0032277
Thanawala Maternity Home,New Bombay,Unknown,Unknown,400705,Maharashtra,Unknown,hospital,Unknown,Unknown,Unknown,Unknown,19.0739489,72.9993063
Suyash Hospital,"Raj Avenue, G-43-44,Sector - 20, Belapur, Navi Mumbai",Unknown,Unknown,400614,Maharashtra,Unknown,hospital,Unknown,Unknown,Unknown,Unknown,19.0117366,73.0323776
Parekh Eye Clinic and Child Clinic,"301, Madhav Apts., Avove Samrat Hotel, Opposite Railway Station, Ghatkopar (E)",Unknown,Unknown,400077,Maharashtra,Unknown,clinic,Unknown,Unknown,Unknown,Unknown,19.0845421,72.9076847
Saraswati Skin and Eye Care Centre,"A/42, Sagar Co.Ophousing Society, Sector-10, Koparkhairane, Navi Mumbai",Unknown,Unknown,400709,Maharashtra,Unknown,hospital,Unknown,Unknown,Unknown,Unknown,19.0980824,73.0056068
Laxmi Health Care Center and Iccu,"210/3042, Near Sangali Sahakari Bank, Tagore Nagar No.1, Vikhroli(E)",Unknown,Unknown,400083,Maharashtra,Unknown,hospital,Unknown,Unknown,Unknown,Unknown,19.1134362,72.9315296
Khushal Hospital and Maternity Home,"102/108, Karmavihar, Station Road,Opposite Muncipal Market, Near Railway Station",Unknown,Unknown,400077,Maharashtra,Unknown,hospital,Unknown,Unknown,Unknown,Unknown,19.0852037,72.9100598
Pooja Nursing Home Pvt. Ltd.,"Shreeram Apt, 1st Floor , Jn Road, Mulund West",Unknown,Unknown,400080,Maharashtra,Unknown,clinic,Unknown,Unknown,Unknown,Unknown,19.1674418,72.9502031
Hiren Mehta Eye Care Centre,18-A Happy Home 1st Floor Opp Achija & Guru Kurupa Hotel Ghatkopar (E),Unknown,Mumbai,400077,Maharashtra,Unknown,hospital,hospital,Unknown,Unknown,Unknown,19.0798083,72.9058863
Bapat Nursing Home,"Near Rupee Co-Op. Bank, A.K. Vaidya Marg, Panch Pakhadi",Unknown,Unknown,400602,Maharashtra,Unknown,clinic,Unknown,Unknown,Unknown,Unknown,19.1940163,72.9668958
Kamdar Nursing Home and Polyclinic Pvt. Ltd.,"Ist Floor, Kiran Niketan,Next To Bhatia Wadi, Tilak Road, Ghatkopar East",Tilak Road,Mumbai,400077,Maharashtra,Unknown,clinic,clinic,Unknown,Unknown,Unknown,19.0804205,72.9060399
"Lakshmi Nursing Home, Mumbai","Sheetal Chayya Premises Co-Op Society, Jawaharlal Nehru Road, Mulund West",Unknown,Unknown,400080,Maharashtra,Unknown,clinic,Unknown,Unknown,Unknown,Unknown,19.1701185,72.9532246
Gaurav Maternity and Surgical Hospital,"Arunoday Tower, C Wing, Ground Floor, Opp Kokan Nagar Bus Stop, Bhandup (W)",Unknown,Unknown,400078,Maharashtra,Unknown,hospital,Unknown,Unknown,Unknown,Unknown,19.1456895,72.9292135
Sanghavi Eye Clinic,"Gr. Flr, Prem Ashish, Opposite Param Keshav Baug, Navroji Lane, Ghatkopar (W)",Unknown,Unknown,400086,Maharashtra,Unknown,clinic,Unknown,Unknown,Unknown,Unknown,19.0853102,72.9036681
Shivneri Hospital Pvt. Ltd.,"Shivneri Hospital, Agra Road, B/H Vandana Theatre",Unknown,Unknown,400602,Maharashtra,Unknown,hospital,Unknown,Unknown,Unknown,Unknown,19.1951365,72.9720235
Sas Health Care Pvt. Limited,"23-C, Miniland, Shivaji Talao, Tank Road, Bhandup (W)",Unknown,Unknown,400078,Maharashtra,Unknown,hospital,Unknown,Unknown,Unknown,Unknown,19.1476957,72.9307269
"Om Gagangiri Hospital, Thane","102, Shubham Cooperative Society, Sector-18, Plot-77, Near Kotak Mahindra Bank, Koparkhairane",Unknown,Unknown,400709,Maharashtra,Unknown,hospital,Unknown,Unknown,Unknown,Unknown,19.1024207,73.0037589
Shree Childrens Hospital,New Panvel,Unknown,Unknown,410206,Maharashtra,Unknown,hospital,hospital,Unknown,Unknown,Unknown,19.0437397,73.0680594
Aniket Nursing Home,Kanjurmarg East,Unknown,Unknown,400042,Maharashtra,Unknown,clinic,Unknown,Unknown,Unknown,Unknown,19.1304243,72.93483
More Eye Center,"7,Yogesh Society, Gr.Flr, Near Icici Bank Ram Maruti Road,Thane (W)",Unknown,Unknown,400602,Maharashtra,Unknown,hospital,Unknown,Unknown,Unknown,Unknown,19.1954297,72.9717761
Thanawalas Maternity Home & IVF Clinic,"Rosewood, Sector 2, Airoli Navi Mumbai",Unknown,Unknown,400708,Maharashtra,Unknown,hospital,Unknown,Unknown,Unknown,Unknown,19.0737816,72.9997086
Asha Hospital and Iccu,"Sector - 4, Near Max Mall,Asiatic Society, Near Petrol Pump",Unknown,Unknown,400708,Maharashtra,Unknown,hospital,Unknown,Unknown,Unknown,Unknown,19.1503714,72.9999474
Sanjeevan Nursing Home and Iccu,"1st Floor, Neha Annexe, Khot Road, Near Madhuban Garden, Bhandup (W)",Unknown,Mumbai,SS,Maharashtra,Unknown,clinic,clinic,Unknown,Unknown,Mo-Su 09:00-21:00,19.150607,72.9368417
Dhanwantary Hospital and ICCU,"545, Thawaroadas Bhavan, N. S. Road, Near Abhyudaya Bank",Unknown,Unknown,400080,Maharashtra,Unknown,hospital,Unknown,Unknown,Unknown,Unknown,19.1763038,72.9535586
Dr Yewale Multispeciality Hospital For Children,"Plot 6B, Sector 9, Vashi, Navi Mumbai",Unknown,Unknown,400703,Maharashtra,Unknown,hospital,Unknown,Unknown,Unknown,Unknown,19.0817095,72.9966067
Samarth Maternity and Nursing Home,"102, Samarth C.H.S Ltd., Lokmanya Tilak Road(Extn)",Unknown,Unknown,400080,Maharashtra,Unknown,hospital,Unknown,Unknown,Unknown,Unknown,19.1685629,72.9594474
Mulund Nursing Home,"Shanti Sadan Gv Scheme Road, 90 Ft Road Mulund (E)",Unknown,Unknown,400081,Maharashtra,Unknown,clinic,Unknown,Unknown,Unknown,Unknown,19.1694268,72.9612163
Drishti Eye Care Centre,"1st Floor, Shri Siddhi Plaza, Above Hast Kala Showroom, R.R.T. Road, Mulund",Unknown,Unknown,400080,Maharashtra,Unknown,hospital,Unknown,Unknown,Unknown,Unknown,19.1745628,72.9521015
Harish Hospital and Iccu,"Sec-3, Plot-22, Near Rajiv Gandhi Bridge, Nerul (E) Navi Mumbai",Unknown,Unknown,400706,Maharashtra,Unknown,hospital,Unknown,Unknown,Unknown,Unknown,19.0434063,73.0204596
Gunjotikar Nursing Home,"1st Floor, Mahadeo Tower, Above Krishna Chemist, Hari Niwas. L B S Road",Unknown,Unknown,400602,Maharashtra,Unknown,clinic,Unknown,Unknown,Unknown,Unknown,19.1935983,72.9709017
Ashirwad Hospital and Polyclinic,"101, 102, 103, Ashirwad Hospital, Anurag Bussiness Center, Waman- Tukaram Patil Marg, Chembur",Unknown,Unknown,400071,Maharashtra,Unknown,hospital,Unknown,Unknown,Unknown,Unknown,19.0521469,72.9091445
Dr. Doke's Shraddha Hospital,"Panchsheel Arcade, 1st Floor, Near Sahakar Bazar, Sector-5, Airoli, Navi Mumbai",Unknown,Unknown,400708,Maharashtra,Unknown,hospital,Unknown,Unknown,Unknown,Unknown,19.1490462,72.999828
Sanpada General Hopital,"1st Floor, Priyanka Palace, Sector -10,Sanpada Navi Mumbai",Unknown,Unknown,400705,Maharashtra,Unknown,hospital,Unknown,Unknown,Unknown,Unknown,19.0634121,73.0124558
"Samarth Hospital, Mumbai","A- Kumar Apartments, Behind St.Joseph School,Vikhroli(W)",Unknown,Unknown,400079,Maharashtra,Unknown,hospital,Unknown,Unknown,Unknown,Unknown,19.1095801,72.9264937
Navnirman Maternity and Surgical Hospital,"302/303, Trimurti Arcade, 3Road Flr, L.B.S. Road, Near Sarvodaya Hospital, Ghatkopar (W)",Unknown,Unknown,400086,Maharashtra,Unknown,hospital,Unknown,Unknown,Unknown,Unknown,19.0890115,72.9070786
Mody Hospital Iccu,"Plot 1,2, 3, 4, Sector 2, Airoli",Unknown,Unknown,400708,Maharashtra,Unknown,hospital,hospital,Unknown,Unknown,Unknown,19.1611029,72.9988141
Manak Healthcare Hospital,"Plot No. 2, Sector - 8, Phase Ii, Near Rajiv Gandhi Bridge, Nerul(W)",Unknown,Unknown,400053,Maharashtra,Unknown,hospital,Unknown,Unknown,Unknown,Unknown,19.0432833,73.017892
Bhaskar Eye and Lens Implant Clinic,"Opp Gavdevi Market, Behind Rupee Co-Op Bank Ghokale Road, Thane (W)",Unknown,Unknown,400602,Maharashtra,Unknown,clinic,Unknown,Unknown,Unknown,Unknown,19.1876074,72.9723756
Deodhar Hospitals Pvt. Ltd,"Geet-Ganga, Gokhale Road, Opposite Ice Factory, Navpada, Thane(W)",Unknown,Unknown,400602,Maharashtra,Unknown,hospital,Unknown,Unknown,Unknown,Unknown,19.187216,72.9684891
Dr.Paradkar Hospital,"Dipalaya Bhaskar Colony, Naupada",Unknown,Unknown,400602,Maharashtra,Unknown,hospital,Unknown,Unknown,Unknown,Unknown,19.1849741,72.9660858
Abhimaan Maternity and Surgical Hospital - Thane,"Abhimman, 1st Floor, Near Traffic, Police Chowky, Teen Hath Naka, Mumbai-Agra Road, Thane (W)",Unknown,Unknown,400602,Maharashtra,Unknown,hospital,Unknown,Unknown,Unknown,Unknown,19.1890488,72.9644363
"Nulife Hospital, Mumbai","A1, Harekrishna Building,First Floor,Near Telephone Exchange,L.B.S. Marg,Ghatkopar(West)",Unknown,Unknown,400086,Maharashtra,Unknown,hospital,Unknown,Unknown,Unknown,Unknown,19.0881022,72.9051983
Jivdaya Hospital,"Jivdaya Lane, Dharmodaya B Wing, 1st Floor, Ghatkopar (W)",Unknown,Unknown,400086,Maharashtra,Unknown,hospital,Unknown,Unknown,Unknown,Unknown,19.0882556,72.9053311
Shradha Heart Hospital,"A/101,Chandradaya Bldg,Above Saibaba Temple,R.B. Kadam Marg, Lbs Road,Ghatkopar(W)",Unknown,Unknown,400086,Maharashtra,Unknown,hospital,Unknown,Unknown,Unknown,Unknown,19.0881504,72.9051822
Kkasturi Medicare Pvt Ltd,"Harshniketan, Gaondevi Road, Behind Navrang Hotel, Bhayander(West)",GaonDevi Road,Unknown,401101,Maharashtra,Unknown,hospital,hospital,Unknown,Unknown,Unknown,19.1895959,72.9769085
H.J. Doshi Ghatkopar Hindu Sabha Hospital,"Shradhanand Road, Ghatkopar (W)",Unknown,Unknown,400086,Maharashtra,Unknown,hospital,Unknown,Unknown,Unknown,Unknown,19.085295,72.9062873
Suyog Hospital and Iccu,"Arya Samaj Bhavan, 1st Floor Near Galanagar, J N Road",Unknown,Unknown,400080,Maharashtra,Unknown,hospital,Unknown,Unknown,Unknown,Unknown,19.1665006,72.9503077
Shree Sai Maternity and Surgical Nursing Home,Sarvodaya Parshwanath Nagar Mulund W,Unknown,Unknown,400080,Maharashtra,Unknown,hospital,Unknown,Unknown,Unknown,Unknown,19.1639918,72.9469208
"Raj Hospital, Mumbai","B-105, Isha Shopping Complex, Sector 15, Near Rly Station, Nerul Navi Mumbai",Unknown,Unknown,400001,Maharashtra,Unknown,hospital,Unknown,Unknown,Unknown,Unknown,19.0341612,73.0193428
Aashirwad Nursing Home,"A-3, New Green Apartment, Tilak Chowk, T.P.Road, Malad (W)",Unknown,Unknown,400064,Maharashtra,Unknown,clinic,Unknown,Unknown,Unknown,Unknown,19.1442389,72.9308999
Ashwini Nursing Home,"1 St Floor Shreeji Complex, Plot No.2 Sector-48,Nerul , Navi Mumbai",Unknown,Unknown,400706,Maharashtra,Unknown,clinic,Unknown,Unknown,Unknown,Unknown,19.0145228,73.0159345
Naik Nursing Home and Endoscopy Centre,Sector 12-E Near Balaji Garden Koperkhairane (Bonkode) Navi Mumbai,Unknown,Unknown,400019,Maharashtra,Unknown,clinic,Unknown,Unknown,Unknown,Unknown,19.0961529,73.0122359
"Ashirwad Maternity and Nursing Home, Mulund","Buiding No. E/5 , Highland Park , Guru Gobind Singh Road , Jai Shastri Nagar , Mulund Colony , Mulund ( West )",Unknown,Unknown,400082,Maharashtra,Unknown,hospital,Unknown,Unknown,Unknown,Unknown,19.1702287,72.9322658
National Burns Center,"Sector - 13, Plot No. 1, Ramdas Swami Marg",Unknown,Unknown,400708,Maharashtra,Unknown,hospital,Unknown,Unknown,Unknown,Unknown,19.1533004,72.9862292
"Yashwant Hospital, Mumbai","No. 199/2952, Group No. 08/B,Opposite Old Tagore Nagar Post Office,Vikhroli East",Unknown,Unknown,400083,Maharashtra,Unknown,hospital,Unknown,Unknown,Unknown,Unknown,19.1152368,72.9335748
Dr. Thakurs Ear Nose Throat Clinic and Hospital - Bhandup (W) Mumbai,"100A, RR Realty, Lbs Marg, Bhandup (W)",Unknown,Unknown,400078,Maharashtra,Unknown,hospital,Unknown,Unknown,Unknown,Unknown,19.1473486,72.9364809
Oma Hospital,"Near Diamond Garden, Sion-Trombay Road, Near Fairlawn So., Chembur",Unknown,Unknown,400071,Maharashtra,Unknown,hospital,Unknown,Unknown,Unknown,Unknown,19.0512684,72.9018161
"Sai Ganesh Hospital, Thane",Palghar,Unknown,Unknown,400601,Maharashtra,Unknown,hospital,Unknown,Unknown,Unknown,Unknown,19.1872952,72.9678822
Nadkarni Eye Care Centre,"Neha Annexe, Khot Road, Bhandup (W)",Unknown,Unknown,400078,Maharashtra,Unknown,hospital,Unknown,Unknown,Unknown,Unknown,19.1506818,72.9374432
Omkar Surgical and Maternity Home,"1st Flr Sitamai Apartmets Hanuman Chowk L.T. Road, Mulund (East)",Unknown,Unknown,400081,Maharashtra,Unknown,hospital,Unknown,Unknown,Unknown,Unknown,19.1699994,72.959279
"Samarth Nursing Home, Thane","Krishnamrut, 1st Flr Creed Road, Mahagiri, Thane (W)",Unknown,Unknown,400603,Maharashtra,Unknown,clinic,Unknown,Unknown,Unknown,Unknown,19.1945381,72.9827531
Surya Netralaya,"14, 2nd Floor, Shanti Centre Bulding, Near Navratna Hotel, Sector-17",Unknown,Unknown,400703,Maharashtra,Unknown,doctors,doctor,Unknown,Unknown,Unknown,19.0725762,72.9981892
Divine Multispecialty Hospital and Research Centre,"Plot No.21 , Sector 6, Ghansoli, Navi Mumbai",Unknown,Unknown,400701,Maharashtra,Unknown,hospital,Unknown,Unknown,Unknown,Unknown,19.1206928,73.0028686
Rushabh Eye Hospital and Laser Centre,"18th Road, Near Ambedkar Garden, Chembur",Unknown,Unknown,400071,Maharashtra,Unknown,hospital,Unknown,Unknown,https://rushabheyehospital.com/,Unknown,19.0594446,72.9000807
Ashirwad Hospital Maternity Surgical and General,"A-01, Mahavir Dham Plot No 112, Sector 12, Vashi, Navi Mumbai",Unknown,Unknown,400703,Maharashtra,Unknown,hospital,Unknown,Unknown,Unknown,Unknown,19.0897992,73.0047123
Madhu Polyclinic and Nursing Home,"Mini Apartments, Opp Sarvodaya Nagar, Jungle Mangle Road, Bhandup(W)",Unknown,Unknown,400078,Maharashtra,Unknown,clinic,Unknown,Unknown,Unknown,Unknown,19.1479041,72.9323456
Dr. Narkhedes Advance Ent Centre,"Naupada, Thane West",Unknown,Unknown,400602,Maharashtra,Unknown,hospital,Unknown,Unknown,Unknown,Unknown,19.1870475,72.97325
Ashwini Maternity and Nursing Home,Amit Apts. Gr. Fl Shivaji Road,Unknown,Unknown,410206,Maharashtra,Unknown,clinic,Unknown,Unknown,Unknown,Unknown,19.1951682,72.9746635
Aakashdeep Hospital and I.C.U,"Amar House, 1st Floor,Plot No.98, Sector - 7, Kopar Khairne Main Road",Unknown,Unknown,400601,Maharashtra,Unknown,hospital,Unknown,Unknown,Unknown,Unknown,19.1013786,73.0046265
Srushti Orthotech Hospital,"111,R R Realty 1st Floor Junction Of L B S Road &, Tank Road Bhandup West, Above Axis Bank",Unknown,Unknown,400078,Maharashtra,Unknown,hospital,Unknown,Unknown,Unknown,Unknown,19.1473346,72.9361148
Dr. Thakur's Shree Hospital,"Sukh Laxmi Building, 1st & 2nd Floor, Shree Nagar, Opposite Tata Vision , Wagle Estate, Thane West",Unknown,Unknown,400604,Maharashtra,Unknown,hospital,Unknown,Unknown,Unknown,Unknown,19.1894712,72.9456628
Medico Surgical Clinic and Hospital,"B103-104, Lal Bahadur Chs, Opposite Sarvodaya Hospital, L B S Road Ghatkopar",Unknown,Unknown,400086,Maharashtra,Unknown,hospital,Unknown,Unknown,Unknown,Unknown,19.088305,72.9069599
Dr Bedekars Hospital,"Shiva Sakthi Maha Rushi Serve Road, Naupada, Thane West",Unknown,Unknown,400602,Maharashtra,Unknown,hospital,Unknown,Unknown,Unknown,Unknown,19.1894971,72.9735222
Shaha Children Hospital,"A 102/103, Wing Arunoday Tower,1st Floor,Kokan Nagar ,J.M.Road",Unknown,Unknown,400065,Maharashtra,Unknown,hospital,Unknown,Unknown,Unknown,Unknown,19.1456572,72.9292417
Nirmiti Fertility and Ivf Centre,"1st Floor, Parasmani, Opposite Shahu Marke, Near Naupada Police Station, M.G.Road, Naupada, Thane (W)",Unknown,Unknown,400602,Maharashtra,Unknown,hospital,Unknown,Unknown,Unknown,Unknown,19.1881647,72.9673988
"Ashwini Maternity and Surgical Hospital,Ghatkopar(E)","Ambika Darshan, M. G. Road, Ghatkopar (E), Ghatkopar (E)",Unknown,Unknown,400077,Maharashtra,Unknown,hospital,Unknown,Unknown,Unknown,Unknown,19.0800884,72.9043441
Mahek Nursing Home,"Chetna Appartment, J. M. Road, Bhandup (W)",Unknown,Unknown,400078,Maharashtra,Unknown,clinic,Unknown,Unknown,Unknown,Unknown,19.1493693,72.9326279
Thane Eye Care Hospital,"Om Shri Swami Samarth Soc, 1st Floor, Next to Siddhesh Hospital, Yashodhan Nagar Bus Stop, Near Lokmanya Nagar Bus Depot, Thane (West)",Unknown,Unknown,400606,Maharashtra,Unknown,hospital,Unknown,Unknown,https://www.thaneeyecare.com/,Unknown,19.197209,72.9710193
Dhanvantri Childrens Hospital,"2nd Floor, Mohan Heritage Building, Opp Tmc Offices Panchpakhadi Thane (West)",Unknown,Unknown,400601,Maharashtra,Unknown,hospital,Unknown,Unknown,Unknown,Unknown,19.1984719,72.9668181
Anil Cancer Clinic,"117-O, Hallmark, Vasant Oscar, Opp- Greenworld, Near Nirmal Life Style, Mulund",Unknown,Unknown,400080,Maharashtra,Unknown,hospital,Unknown,Unknown,Unknown,Unknown,19.1681778,72.9388078
Jain Eye Clinic,"301, Sapphire Arcade, Above Sejal Jewellery, M.G. Road, Near Rajawadi Signal, Ghatkopar(E)",Unknown,Unknown,400077,Maharashtra,Unknown,hospital,Unknown,Unknown,Unknown,Unknown,19.0796436,72.9043186
Mandakini Nuclear Imaging Centre,48 Swastic Park Chembur,Unknown,Unknown,400071,Maharashtra,Unknown,hospital,Unknown,Unknown,Unknown,Unknown,19.0741124,72.90572
Chaitanya Child Care Centre,"Plot No 8-1, Sector 8, Near M G M School & L Market Nerul",Unknown,Unknown,400706,Maharashtra,Unknown,hospital,Unknown,Unknown,Unknown,Unknown,19.0420029,73.0169338
Dhrushti Eye Clinic and Microsourgery Centre,"Ralkar Bhavan Premises, Plot No.44, Sector-17, Vashi, Navi Mumbai",Unknown,Unknown,400705,Maharashtra,Unknown,doctors,doctor,Unknown,Unknown,Unknown,19.0729185,72.9981637
"Saarthi Hospital, Mumbai","Vakratunda Palace, Tank Road, Lodha Imperia, Bhandup (W)",Unknown,Unknown,400018,Maharashtra,Unknown,hospital,Unknown,Unknown,Unknown,Unknown,19.1467015,72.934857
Platinum Hospitals,"The Color Scape Shopping Mall, G-103, D D Upadhayay Marg, Near Mulund Check Naka, Mulund West",Unknown,Unknown,400080,Maharashtra,Unknown,hospital,Unknown,Unknown,https://www.platinumhospitals.in/,Unknown,19.1828494,72.9541553
Ramanand Hospital and Iccu,Mumbai Pune Road Kalwa Thane (W),Unknown,Unknown,400605,Maharashtra,Unknown,hospital,Unknown,Unknown,Unknown,Unknown,19.1964765,72.9904442
Priya Maternity Home,"2/252/3369, Tagore Nagar, Vikhroli",Unknown,Unknown,400089,Maharashtra,Unknown,hospital,Unknown,Unknown,Unknown,Unknown,19.1161551,72.9306163
"CGHS Dispensary No.6, Ghatkopar","Flat No.25, C.G.S.Colony, Ghatkopar",Unknown,Unknown,400088,Maharashtra,Unknown,clinic,centre,Unknown,http://nb.bsf.gov.in/CGHS%20DIspenseries.pdf,Unknown,19.0903544,72.9099532
"Risk Care Hospital and Iccu, Thane","Siddheshwar Arcade Opp Manisha Nagar Gate No 1, Old Mumbai Pune Road",Unknown,Unknown,400605,Maharashtra,Unknown,hospital,Unknown,Unknown,Unknown,Unknown,19.1967127,72.9882932
Doshi Nursing Home,"Amrut Kunj Anjaria Wadi , Near Rly Stn M G Road Ghatkopar East",Unknown,Unknown,400001,Maharashtra,Unknown,hospital,Unknown,Unknown,Unknown,Unknown,19.0831721,72.9047189
Rathod Nursing Home and Iccu,"Shiv Sagar Complex, Plot No. B, 'A' Wing Off. T.P. Road, Bhandup (W)",Unknown,Unknown,400078,Maharashtra,Unknown,clinic,Unknown,Unknown,Unknown,Unknown,19.1477274,72.9282814
Atul - Lok Hospital,"139/2447, Group Vii, Tagore Nagar, Vikhroli (E)",Unknown,Unknown,400083,Maharashtra,Unknown,hospital,Unknown,Unknown,Unknown,Unknown,19.1190712,72.9344156
Dr Sule's Vaibhav Polyclinic and Siddharth Nursing Home,"Chandrodaya Building, Jivdaya Lane, L.B.S. Road, Between Ghatkopar Telephone Exchange & Sarvodaya Hospital, Ghatkopar West",Unknown,Unknown,400086,Maharashtra,Unknown,clinic,Unknown,Unknown,Unknown,Unknown,19.088182,72.9053291
KRYPTON Heritage Health Care,"Plot No.6A, Sec 6,Behind Icici Bank,Airloi",Unknown,Unknown,400708,Maharashtra,Unknown,hospital,Unknown,Unknown,Unknown,Unknown,19.1475981,72.9973564
Navjeevan Hospital,"Archana Jyoti, 1st Floor, Plot No. 18, Sector 17 Dbc, Vashi, , Navi Mumbai",Unknown,Unknown,400705,Maharashtra,Unknown,hospital,hospital,Unknown,Unknown,Unknown,19.0705622,72.998676
Dr Mehta Nursing Home,"198/1, Garodia Palace, Garodia Nagar, 90 Feet Road, Ghatkopar (E)",Unknown,Unknown,400077,Maharashtra,Unknown,clinic,Unknown,Unknown,Unknown,Unknown,19.0748311,72.9067406
International Institute Of Sleep Sciences,"Bunglow 10, Mhada Clolony, Mulund Ease",Unknown,Unknown,400081,Maharashtra,Unknown,hospital,Unknown,Unknown,Unknown,Unknown,19.1879462,72.9688123
Dr. Tilwe Maternity and Nursing Home,"102/A, Anand Sagar, Abhyudaya Bank Marg, Sector-17, Vashi, Navi Mumbai",Unknown,Unknown,400705,Maharashtra,Unknown,hospital,hospital,Unknown,Unknown,Unknown,19.0719742,72.9999232
Bilal Hospital I.C.U,"1st Floor A-Wing, Royal Garden Bildg. Near Shimla Park Kause Mumbra",Unknown,Unknown,400612,Maharashtra,Unknown,hospital,Unknown,Unknown,Unknown,Unknown,19.1632399,73.0291231
Sukrut Maternity Clinic,"1-B/ 101, Vignahar Complex, Plot No. F-72, Sector-12, Kharghar, Navi",Unknown,Unknown,410210,Maharashtra,Unknown,clinic,clinic,Unknown,Unknown,Unknown,19.0405729,73.0676973
Sai Sparsh Hospital and Iccu,"2nd Floor,Jamil Nagar,J.M.Road,Near Maratha Mitra Mandal",Unknown,Unknown,400078,Maharashtra,Unknown,hospital,Unknown,Unknown,Unknown,Unknown,19.1432944,72.9253297
Dr Chauhans Sanjeevani Hospital,"No:4, Pestom Sugar Road Opp: Pestom Pollice Station",Road No. 4 near shopper stop,chembur,400089,Maharashtra,Unknown,hospital,hospital,Unknown,Unknown,Unknown,19.0699633,72.9047685
"Krishna Nursing Home, Mumbai","Neha Apts, L.B.S Marg, Bhandup (W)",Unknown,Unknown,400078,Maharashtra,Unknown,clinic,Unknown,Unknown,Unknown,Unknown,19.1506539,72.9373527
Ami Drashti Eye Care Centre,"27-D, Navnit Nagar, Gandhi Mkt. Bldg, M.G.Road, Ghatkopar (E)",Unknown,Unknown,400077,Maharashtra,Unknown,hospital,Unknown,Unknown,Unknown,Unknown,19.0806727,72.9039069
Satyam Multispeciality Hospital and Trauma Centre,"Plot No.12, Sec-14, Opposite D-Mart Circle, Koparkhairane, Navi Mumbai",Unknown,Unknown,400709,Maharashtra,Unknown,hospital,Unknown,Unknown,Unknown,Unknown,19.0990443,73.0046439
"Sanjivni Hospital, Thane","Rajkamal Building, 1st Floor",Unknown,Unknown,400708,Maharashtra,Unknown,hospital,hospital,Unknown,Unknown,Unknown,19.1574092,72.9984902
Narurkar Ent Hospital,"Shop No.7, Waman Appartments, Behind Maitri Park St.Bus Stand, Ghatla Road, Chembur",Unknown,Unknown,400071,Maharashtra,Unknown,hospital,Unknown,Unknown,Unknown,Unknown,19.0494367,72.9063436
Shivaani Mother and Child Care Hospital,"1st Flr, B Wing Hallmark Commercial Complex Vasant Oscar Layout Near Duncan Co, Mulud",Unknown,Unknown,400080,Maharashtra,Unknown,hospital,Unknown,Unknown,Unknown,Unknown,19.1684046,72.9390344
Diamond Maternity and General Hospital,"D-301, New Ushanagar Co Op Hos Society, Village Road, Bhandup (W)",Unknown,Unknown,400078,Maharashtra,Unknown,hospital,Unknown,Unknown,Unknown,Unknown,19.1496936,72.9423738
Dr. Trivedi's Maternity Nursing Home & Aakar IVF Test Tube Baby Centre,"1 , 2 , 3 Gautam Building , Opposite Balaji Temple , Tilak Road , Ghatkopar ( East )",Unknown,Unknown,400077,Maharashtra,Unknown,hospital,Unknown,Unknown,Unknown,Unknown,19.0782709,72.9058555
Pramila Hospital,"Manisha Nagar,Old Mumbai- Pune Road, Kalwa",Unknown,Unknown,400605,Maharashtra,Unknown,hospital,Unknown,Unknown,Unknown,Unknown,19.1971731,72.9907112
Dr Sonagra Medical and Surgical Centre,"Shiva Plaza, Lbs Road, Opp Ghatkopar Tel Exchange, Ghatkopar (W)",Unknown,Unknown,400086,Maharashtra,Unknown,hospital,Unknown,Unknown,Unknown,Unknown,19.0875674,72.9045278
Jeevan Jyot Hospital,"Opposite Ghatkopar Railway Station, Ghatkopar West",Unknown,Unknown,400086,Maharashtra,Unknown,hospital,Unknown,Unknown,Unknown,Unknown,19.0853723,72.9067473
Clear Vision Eye Center,"1A, Ashoka Road , 15 S.V. Road, Santacruz(W)",Unknown,Unknown,400065,Maharashtra,Unknown,hospital,Unknown,Unknown,Unknown,Unknown,19.0880578,72.9052141
Mohanlal Jivandas Hospital managed by Krishnai Hospital,"Plot No.:51, Sector -15, Near Maratha Bhavan, Opposite Cidco Samaj Mandir, Vashi, Navi Mumbaai",Unknown,Unknown,400705,Maharashtra,Unknown,hospital,Unknown,Unknown,Unknown,Unknown,19.0814104,73.0005576
Dr Gadgil Eye Clinic and Lasik Laser Centre,"Ground Floor, Shreyas Apartments, Esis Hospital Road, Ramchandra Nagar No 1, Thane West",Unknown,Unknown,400601,Maharashtra,Unknown,hospital,Unknown,Unknown,Unknown,Unknown,19.1993572,72.9620062
Shakuntala Nursing Home,"254/3383, Tagore Nagar, Ganesh Mandir Road, Vikhroli East",Unknown,Unknown,400083,Maharashtra,Unknown,clinic,Unknown,Unknown,Unknown,Unknown,19.1163266,72.9304688
Eye Essential Hospital,"3, Milan, Ground Floor, 169-Garodia Nagar,90Ft Road, Opposite Lavender Baugh",Unknown,Unknown,400077,Maharashtra,Unknown,hospital,Unknown,Unknown,Unknown,Unknown,19.0754851,72.9085484
Shanti Maternity Clinic,Bhandup,Unknown,Unknown,400078,Maharashtra,Unknown,hospital,Unknown,Unknown,Unknown,Unknown,19.1476634,72.9284638
Manawata Hospital and Smt Nalinighag Maternity,"1 St Floor Nalini Apartment , Bhatsadi Road, Kisan Nagar No 3 Wagle Estate",Unknown,Unknown,421203,Maharashtra,Unknown,hospital,Unknown,Unknown,Unknown,Unknown,19.1868196,72.9546422
Horizon Hospital,"Malati Mohan Bunglow Opp Naupada Telephone Exchange M G Road , Naupada",Unknown,Unknown,400602,Maharashtra,Unknown,hospital,Unknown,Unknown,Unknown,Unknown,19.1872825,72.9677092
"Sanjeevan Hospital, Raigarh","Plot No. C-28, Sector-12. Opp, Gokhale High School, Kharghar, Navi",Unknown,Unknown,410210,Maharashtra,Unknown,hospital,Unknown,Unknown,Unknown,Unknown,19.0429195,73.0670951
Ankur Maternity and Surgical Nursing Home,"Shree Vijay Kunj, Cooperative Housing Society",Unknown,Unknown,400042,Maharashtra,Unknown,hospital,Unknown,Unknown,Unknown,Unknown,19.130945,72.9363066
"Dr. Uppal's Ent Hospital, Thane","Mohan Heritage, 2nd Flr, Opp T.M.C., Almeida Road, Thane (W)",Unknown,Unknown,400602,Maharashtra,Unknown,hospital,Unknown,Unknown,Unknown,Unknown,19.1983814,72.967146
Dr. Sapatnekar Hospital I.C.C.U and Polyclinic,"Mahadev Tower, 1st Floor, Lbs Marg, Near Hari Niwas Circle , Near Hari Niwas Circle, Naupada, Thane West",Unknown,Unknown,400602,Maharashtra,Unknown,hospital,Unknown,Unknown,Unknown,Unknown,19.1920468,72.9687519
Dr. Muddebihalkar Hospital and Iccu,"Silver Park, Road No. 3, Wagle Estate, Thane (W)",Unknown,Unknown,400604,Maharashtra,Unknown,hospital,Unknown,Unknown,Unknown,Unknown,19.1869703,72.9538925
Dr. Bhanushalis Nursing Home,"Avantika Apt., New Maneklal Estate, Ghatkopar (W)",Unknown,Unknown,400086,Maharashtra,Unknown,clinic,Unknown,Unknown,Unknown,Unknown,19.0888005,72.9022694
Bakul Parekh Children Hospital,"Jayant Arcade,4Th Floor, Rajawadi,M.G.Road,Ghatkopar(E)",Unknown,Unknown,400077,Maharashtra,Unknown,hospital,Unknown,Unknown,Unknown,Unknown,19.0791429,72.9038519
Dr. Paranjpes Eye Clinic,"` Sulochan`, Near Ing Vysya Bank, Ram Maruti Toad",Unknown,Unknown,400602,Maharashtra,Unknown,clinic,Unknown,Unknown,Unknown,Unknown,19.1930005,72.9723863
Dr. Parikhs Nursing Home and Iccu - Vashi,"20,30 & 31, Mahavir Centre, Sector 17",Unknown,Unknown,400703,Maharashtra,Unknown,hospital,Unknown,Unknown,Unknown,Unknown,19.0738577,72.9993036
Dr. Jairaj's Hospital,"2nd Floor, Om Chanakya Complex, Sector-6, C.B.D,Belapur, Navi Mumbai",Unknown,Unknown,400615,Maharashtra,Unknown,hospital,hospital,Unknown,Unknown,Unknown,19.0253823,73.0421519
Satyam Hospital,"Bhaveshwar Plaza, C Wing, 2nd Floor, Lal Bahadur Shastri Road, Ghatkoper West",Unknown,Unknown,400086,Maharashtra,Unknown,hospital,Unknown,Unknown,Unknown,Unknown,19.0924974,72.9124309
Rajpal Hospital and I.C.U.,"Plot 13, Sector 10, D - Mart, Kopar Khairane, Navi Mumbai",Unknown,Unknown,400709,Maharashtra,Unknown,hospital,Unknown,Unknown,https://www.rajpaloldagehome.com/,Unknown,19.0995664,73.006162
Global 5 Health Care Centre,"F-2/D-1, Aditi Apartments, F-Type Building, Main Road, Sector No 9, Near Shabri Hotel, Vashi, Navi Mumbai",Unknown,Unknown,400703,Maharashtra,Unknown,hospital,Unknown,Unknown,https://www.global5hospital.com/,Unknown,19.0797703,72.9981503
Anmmol Orthovision,"101 / 102, Manisha Heights,Balrajeshwar Road",Unknown,Unknown,400080,Maharashtra,Unknown,hospital,Unknown,Unknown,Unknown,Unknown,19.1864066,72.9470327
Patoriya Eye Hospital,"Plot No.301, Mahavir Niwas, Sec-21, Nerul, Navi Mumbai",Unknown,Unknown,400706,Maharashtra,Unknown,hospital,Unknown,Unknown,Unknown,Unknown,19.0250793,73.0211227
Kolekar Nursing Home,"N G Acharya Marg, Khardeo Nagar Ghatla Chembur",Unknown,Unknown,400071,Maharashtra,Unknown,clinic,Unknown,Unknown,Unknown,Unknown,19.0555486,72.9102771
Dr.Redkar's Maternity and Nursing Home,"A-10,Apurva Apartment,Govardhan Nagar,L.B.S.Marg,Mulund(W)",Unknown,Unknown,400080,Maharashtra,Unknown,hospital,Unknown,Unknown,Unknown,Unknown,19.1820019,72.9467753
Pharmacy,"Creek View Apartment, 3Road Floor, Opp Bus Stop. Kalwa",SC Bose Road,Thane,400605,Maharashtra,Unknown,pharmacy,pharmacy,Unknown,Unknown,24/7,19.195146,72.9913844
The Metropolitan Heart Institute and Research Centre,"(Previously Known As The Metropolitan Heart Institute And Research Centre) Trimurti Arcade, L B S Marg, Near Sarvoday Hospital, Ghatkopar, (West)",Unknown,Unknown,400086,Maharashtra,Unknown,hospital,Unknown,Unknown,Unknown,Unknown,19.0889539,72.9070102
Dr Malatibai Chitnis Clinic and Hospital,"Madhu - Malati, Malatibai Chitnis Chowk, V. S Marg ,Thane(W)",Unknown,Unknown,400601,Maharashtra,Unknown,clinic,Unknown,Unknown,Unknown,Unknown,19.1956476,72.976528
Om Children Maternity and Surgical Nursing Home,Wagle Estate,Unknown,Unknown,400601,Maharashtra,Unknown,hospital,Unknown,Unknown,Unknown,Unknown,19.1874244,72.9515509
Koshti Maternity and Surgical Hospital,"Sai Pooja Apt. Ii Nd Floor, Charai Naka/ Old Agra Road . Thane (W)",Unknown,Unknown,400602,Maharashtra,Unknown,hospital,Unknown,Unknown,Unknown,Unknown,19.1967925,72.9718787
Anjali Maternity and Surgical Hospital - Mulund,"1st Floor, Bps Plaza, Bps Estates, Devidayal Road, Near Best Bus Depot",Unknown,Unknown,400080,Maharashtra,Unknown,hospital,Unknown,Unknown,Unknown,Unknown,19.1755267,72.9460879
Lotus Multispeciality Hospital and Icu,"Unit 8-8A, Balaji Sadan, Plot 20-D, Sector-15, Opposite Icl School Ground,Near Modern College",Unknown,Unknown,400705,Maharashtra,Unknown,hospital,Unknown,Unknown,Unknown,Unknown,19.0787817,73.0014119
Maauli Hospital,"Sharda Appt.-B, Ashok Kedare Chowk, Bhandup (W)",Unknown,Unknown,400078,Maharashtra,Unknown,hospital,Unknown,Unknown,Unknown,Unknown,19.1482633,72.9287884
"Criti Care Iccu, Multispeciality and Trauma Centre","Plot No-2A, Swami Samarth Complex Sector-16 Airoli New Mumbai",Unknown,Unknown,400708,Maharashtra,Unknown,hospital,Unknown,Unknown,Unknown,Unknown,19.1483963,72.9950698
Abhishek Nursing Home,"Jagruti Co-Op Hsg Near Maratha Mandir Co-Op Bank,Bhatwadi Ghatkopar",Unknown,Unknown,400084,Maharashtra,Unknown,clinic,Unknown,Unknown,Unknown,Unknown,19.0942628,72.900939
Qamar Nursing Home,"Noorjahan Apartment, Behind Kandhari Building, Mujahid Road, Kausa, Mumbra",Unknown,Unknown,400612,Maharashtra,Unknown,clinic,Unknown,Unknown,Unknown,Unknown,19.1682754,73.0263779
"Mangal Prabhu Nursing Home, Polyclinic and Diagnostic Center","Plot No.27, Sector - 24, Near To Juinagar, West Railway Station, Sanpada - Juinagar, Navi Mumbai","Sanpada, Ganesh Mandir Marg, Sector 24, Juinagar",Navi Mumbai,400706,Maharashtra,Unknown,clinic,clinic,Unknown,https://mangalprabhu.com/,24/7,19.0518189,73.0173206
"CGHS Dispensary No., Vikhroli","Flat No.81 and 83, Type III, OCS Qrts., Vikroli",Unknown,Unknown,400083,Maharashtra,Unknown,clinic,centre,Unknown,http://nb.bsf.gov.in/CGHS%20DIspenseries.pdf,Unknown,19.1094433,72.9330839
Dr.Mahajan Hospital and Industrial Trauma Center,"Plot No R 831,TTC Industrial Area,Thane-Belapur Road, Rabale , Navi",Unknown,Unknown,400701,Maharashtra,Unknown,hospital,Unknown,Unknown,Unknown,Unknown,19.1452581,73.0016197
Vartak Nursing Home,"Near Sainath Temple, 3 Petrol Pump, Ghantali Road",Unknown,Unknown,400602,Maharashtra,Unknown,clinic,Unknown,Unknown,Unknown,Unknown,19.1929866,72.9710948
Sapna Health Care Centre Pvt Ltd,"A Wing,Bhaveshwar Plaza Lbs Marg Ghatkopar - West",Unknown,Unknown,400086,Maharashtra,Unknown,hospital,Unknown,Unknown,Unknown,Unknown,19.0921146,72.9123692
Cg Eye Foundaton and Shree Ghatkopar Brahman Samaj,"Samaj Bhavan, 5Th Floor, Joshi Lane, M G Road, Ghatkopar",Unknown,Unknown,400077,Maharashtra,Unknown,hospital,Unknown,Unknown,Unknown,Unknown,19.0814154,72.9057965
Millennium Life Line Hospital and Research Centre,1st Floor Priyanka Palace Sec-10 Sanpada Navi Mumbai,Unknown,Unknown,400705,Maharashtra,Unknown,hospital,Unknown,Unknown,Unknown,Unknown,19.0599009,73.0143441
"Pooja Hospital, Thane","9/10, Shridhar Smruti, Gpkhale Road Behind Deodhar Hospital, Naupada",Unknown,Unknown,400605,Maharashtra,Unknown,hospital,Unknown,Unknown,Unknown,Unknown,19.1912704,72.9567289
Dr Patanis Eye Clinic,"210, R R Realty, Tank Road, Lbs Marg Junction Opposite Dreamas Mall, Bhandup(West)",Unknown,Unknown,400078,Maharashtra,Unknown,clinic,clinic,Unknown,Unknown,Unknown,19.147092,72.9360699
Shree Eye Clinic,"Rh No: 14, National C H S Behind Airoli Bus Depot Sector-3 Navi Mumbai",Unknown,Unknown,400708,Maharashtra,Unknown,clinic,Unknown,Unknown,Unknown,Unknown,19.1567969,72.998039
Orhtocare Hospital,"1st Floor, Gautam Chambers, Near Punjani Industrial Estate Near Tmc School No.13",Unknown,Unknown,400602,Maharashtra,Unknown,hospital,Unknown,Unknown,Unknown,Unknown,19.1972206,72.9714315
Ek Omkar Healthcare Centre,"Sanjeevani Centre, Plot No.F-3,Sector-12, Kharghar,Near Gokhale School",Unknown,Unknown,410210,Maharashtra,Unknown,hospital,Unknown,Unknown,Unknown,Unknown,19.0429385,73.0663012
Veena Nagar Health Care Center and Hospital,"C-1, Shivkrishna Dham, Lal Bahadur Shastri Marg, Mulund West",Unknown,Unknown,400080,Maharashtra,Unknown,hospital,Unknown,Unknown,Unknown,Unknown,19.1748655,72.9422598
Matangi Nursing Home,"B-1,Anand Bhuvan,Hira Chand Desai Road , Ghatkopar (West)",Unknown,Unknown,400086,Maharashtra,Unknown,clinic,Unknown,Unknown,Unknown,Unknown,19.0879666,72.9078242
Nachiketa Health Care Center,"B/6-7, 1st Floor, Dharmodaya Building, Near Telephone Exchange, Jivdaya Lane, Ghatkopar West",Unknown,Unknown,400086,Maharashtra,Unknown,hospital,Unknown,Unknown,Unknown,Unknown,19.0887333,72.9050951
Shweta Nursing Home,"Manas Residency A Wing, 1st Floor, Veer Savarkar Marg, 3 Petrol Pump, Thane West",Unknown,Unknown,400602,Maharashtra,Unknown,clinic,Unknown,Unknown,Unknown,Unknown,19.1929942,72.9705624
Amar Jyot Eye Care Centre,"207, Jyoti Chambers, Khot Lane, Above New Bata Showroom,Ghatkopar(W)",Unknown,Unknown,400086,Maharashtra,Unknown,hospital,Unknown,Unknown,Unknown,Unknown,19.0887777,72.9074769
M.S.Maternity and General Hospital,"10/ A & B, Miniland,Tank Road,Near Shivaji Talao, Bhandup(W)",Unknown,Unknown,400078,Maharashtra,Unknown,hospital,Unknown,Unknown,Unknown,Unknown,19.1473676,72.9321921
"Sai Hospital, Mumbai","Sambhaji Maidan Circle,Sai Prasad Shopping Centre",Unknown,Unknown,400083,Maharashtra,Unknown,hospital,Unknown,Unknown,Unknown,Unknown,19.1166953,72.9370737
"Jeevandeep Children Hospital, Mumbai","No. A/102, Chandrodaya Building,Jivdaya Lane,Between Sarvodaya Hospital & Telephone Exchange,Ghatkopar (W)",Unknown,Unknown,400086,Maharashtra,Unknown,hospital,Unknown,Unknown,Unknown,Unknown,19.0881256,72.905198
"Snehal Hospital, Thane","Udyam OppositeBank Of Baroda, Gokhale Road, Naupa",Unknown,Unknown,400602,Maharashtra,Unknown,clinic,Unknown,Unknown,Unknown,Unknown,19.1875821,72.9720028
Aaditya Netralaya,"Maruti Darshan, C Wing, 2nd Floor, Mulund East",Unknown,Unknown,400081,Maharashtra,Unknown,hospital,Unknown,Unknown,Unknown,Unknown,19.1691361,72.9594333
"CGHS Dispensary No.15, Deonar","Deanor Post Office Building, Telecom Factory Camp, Deonar",Unknown,Unknown,400088,Maharashtra,Unknown,clinic,centre,Unknown,http://nb.bsf.gov.in/CGHS%20DIspenseries.pdf,Unknown,19.0450103,72.918836
Apex Kidney Care (Dialysisnetworks),Mulund,Unknown,Unknown,400080,Maharashtra,Unknown,hospital,Unknown,Unknown,Unknown,Unknown,19.1737818,72.9537423
Prakruti Hospital,"1st Floor, Siddheshwar Arcade, Opposite Manisha Nagar, Gate No-1, Old Mumbai-Pune Road, Kalwa",Unknown,Unknown,400605,Maharashtra,Unknown,hospital,Unknown,Unknown,Unknown,Unknown,19.1968027,72.9919088
New Life Clinic & Hijama Center,"Lallubhai Compount, Mankhurd",Unknown,Unknown,400043,Maharashtra,Unknown,clinic,Unknown,Unknown,Unknown,Unknown,19.051972,72.9268418
Vertex Hospital,"Veena Nagar Phase Ii, Near Swapna Nagari Tulsi Pipe Line Road, Mulund(W)",Unknown,Unknown,400080,Maharashtra,Unknown,hospital,Unknown,Unknown,Unknown,Unknown,19.1809728,72.9425508
Modi Hospital - Thane,"Shreenagar, Wagle Estate, Thane (West)",Unknown,Unknown,400604,Maharashtra,Unknown,hospital,Unknown,Unknown,Unknown,Unknown,19.1888518,72.9459263
Zaveri Eye Clinic,"415, JK Chambers, 4Th Floor, Next To Golden Punjab Restaurant, Sector 17, Vashi, Navi Mumbai",Unknown,Unknown,400703,Maharashtra,Unknown,clinic,Unknown,Unknown,Unknown,Unknown,19.0739565,72.9997462
Dr. Dipak Desai's Ear Nose and Throat Hospital,"206, Gayatri Dham, Jn. Of M.G Road , & Derasar Lane , Ghatkopar (East)",Unknown,Unknown,400077,Maharashtra,Unknown,hospital,Unknown,Unknown,Unknown,Unknown,19.0824839,72.9049838
Sanjeevani Nursing Home,"Rangwala Appt, 1st Flr, Mahatma Gandhi Road , Opp Bank Of India, Ghatkopar W)",Unknown,Unknown,400086,Maharashtra,Unknown,clinic,Unknown,Unknown,Unknown,Unknown,19.0861593,72.9059494
Amruta Maternity and Surgical Nursing Home,"Mahadeo Appt., Off. Jangal Mangal Road , Behind Abhyudaya Bank, Bhandup (W)",Unknown,Unknown,400078,Maharashtra,Unknown,clinic,Unknown,Unknown,Unknown,Unknown,19.1494599,72.9329149
Mokashi Nursing Home,"Dr. Moose Road,Talaopali.",Unknown,Unknown,400602,Maharashtra,Unknown,clinic,Unknown,Unknown,Unknown,Unknown,19.1916928,72.9744369
Bhadkamkar Hospital,"Near Commissioner Office, Yeshwant Apartment, Thane West",Unknown,Unknown,400601,Maharashtra,Unknown,hospital,Unknown,Unknown,Unknown,Unknown,19.1949206,72.9812577
Shivaji Nagar Health Post,"Plot No. 44, Near Ram Temple, Govandi, Mumbai",Unknown,Unknown,400044,Maharashtra,Unknown,Unknown,centre,Unknown,Unknown,Unknown,19.0653613,72.9167818
Dr.Babasaheb Ambedkar Maternity Home Tagore Nagar,"Tagore Nagar, Vikhroli, Mumbai",Unknown,Unknown,400083,Maharashtra,Unknown,Unknown,centre,Unknown,Unknown,Unknown,19.118616,72.93459
NMMC UHP Ghansoli,"Narayan Madhvi Road, Near Post Office, Ghansoli",Unknown,Unknown,400701,Maharashtra,Unknown,Unknown,centre,Unknown,Unknown,Unknown,19.1239491,72.9978758
BMC Kanjur Village Health Post,"BMC, Pariwar Road, Mirashi Nagar, Kanjurmarg East",Unknown,Unknown,400042,Maharashtra,Unknown,Unknown,centre,Unknown,Unknown,Unknown,19.1303562,72.9380041
NMMC UHP Sanpada,"Ashok Shantaram Thakur Marg, Near Shri Datta Marathi School, Sanpada",Unknown,Unknown,400705,Maharashtra,Unknown,Unknown,centre,Unknown,Unknown,Unknown,19.0646067,73.0145373
Savitribai Jyotiba Phule Maternity Home Bhandup,"850-b, Subhash Rd, Shivaji Udyam Nagar, Kolhapur",Unknown,Unknown,400078,Maharashtra,Unknown,Unknown,centre,Unknown,Unknown,Unknown,19.1462122,72.9345132
"PHC, Nilaje","Kolegaon-Dombivali Road, Near Palava Sub-Station, Niljegaon",Unknown,Unknown,421204,Maharashtra,Unknown,Unknown,centre,Unknown,Unknown,Unknown,19.160601,73.088377
Unknown,"RN Gandhi Road, Near Somaiya College, Ghatkopar East, Mumbai",Unknown,Unknown,400077,Maharashtra,Unknown,hospital,Unknown,Unknown,Unknown,Unknown,19.0786832,72.9013145
TMC Kalwa Health Centre,"Kalwa Health Centre, Chhatrapati Shivaji Maharaj Hospital, Kalwa Naka, Kalwa West",Unknown,Unknown,400605,Maharashtra,Unknown,Unknown,centre,Unknown,Unknown,Unknown,19.192343,72.986771
NMMC UHP Rabale,"Sitaram Nagar Road, Near Railway Station, Rabale, Talvali",Unknown,Unknown,400701,Maharashtra,Unknown,Unknown,centre,Unknown,Unknown,Unknown,19.1314242,73.0005372
NMMC UHP Vashi,"Radha Krishna Marg, Near Juhu Chowpatty Police Chowky, Vashi",Unknown,Unknown,400703,Maharashtra,Unknown,Unknown,centre,Unknown,Unknown,Unknown,19.0828118,72.9960862
TMC Kopri Health Centre,"Kopri Maternity Centre, Siddartha Nagar, Thane East, Dhobi ghat",Unknown,Unknown,400603,Maharashtra,Unknown,Unknown,centre,Unknown,Unknown,Unknown,19.181999,72.971466
Rajiv Gandhi Medical College Thane,"CSMH Hospital, Kalwa Naka, Kalwa (W), kalwa TMT bus depo agar",Unknown,Unknown,400605,Maharashtra,Unknown,hospital,Unknown,Unknown,Unknown,Unknown,19.19344,72.988038
Cheetacamp Municipal Maternity Home,"VN Purav Rd, Opposite New, Deonar, Trombay",Unknown,Unknown,400088,Maharashtra,Unknown,Unknown,centre,Unknown,Unknown,Unknown,19.0374413,72.9458924
Hiranandani Health Post,"Shiivkrupa Apts. Below Nehal Hospital , I.I.T Market Powai (W), Nehal Hospital, Pawai, Mumbai",Unknown,Unknown,400076,Maharashtra,Unknown,Unknown,centre,Unknown,Unknown,Unknown,19.1252369,72.9190284
NMMC UHP Turbhe,"Thane-Belapur Road, Near MIDC Police Station, Turbhe",Unknown,Unknown,400705,Maharashtra,Unknown,Unknown,centre,Unknown,Unknown,Unknown,19.080266,73.021173
NMMC MCH Airoli,"Rajrishi Shahu Maharajah Marg, Near Navi Mumbai Mahanagar Palika, Airoli",Unknown,Unknown,400708,Maharashtra,Unknown,hospital,Unknown,Unknown,Unknown,Unknown,19.1565434,72.997212
"UHC, Digha","Near Hindmata Vidyalaya, Digha",Unknown,Unknown,400708,Maharashtra,Unknown,Unknown,centre,Unknown,Unknown,Unknown,19.1753207,72.9962714
NMMC UHP Koperkhairane,"Bonkode Gaon Road, Near MSEB Office, Koparkhairane",Unknown,Unknown,400709,Maharashtra,Unknown,Unknown,centre,Unknown,Unknown,Unknown,19.098363,73.009659
"Municipality Hospital, Mumbra","Mumbra Health Centre, Anand Koliwada Road, Zainy Colony, Anand Koliwada, Near Mumbra Police Station, Mumbra East",Unknown,Unknown,400612,Maharashtra,Unknown,hospital,Unknown,Unknown,Unknown,Unknown,19.1857353,73.022636
TMC Shivaji Nagar Health Centre,"Shivaji Nagar Health Centre, Modella Compound, Padwal Nagar, Thane (W), Municipal school",Unknown,Unknown,400601,Maharashtra,Unknown,Unknown,centre,Unknown,Unknown,Unknown,19.1880493,72.9527675
"Shahaji Nagar, UHC","Cheeta Camp, Sector A, Trombay",Unknown,Unknown,400088,Maharashtra,Unknown,Unknown,yes,Unknown,Unknown,Unknown,19.038064,72.945434
M.T. Agrawal Hospital,"Mahakavi Kalidas Road, Near B.M.C.T. Ward Office, Mulund",Unknown,Unknown,400080,Maharashtra,Unknown,hospital,Unknown,Unknown,Unknown,Unknown,19.1753236,72.9510961
Sant Muktabai Hospital,"Sant Muktabai Mun. Gen. Hospital, Barve Nagar, Ghatkopar (W)",Unknown,Unknown,400086,Maharashtra,Unknown,hospital,Unknown,Unknown,Unknown,Unknown,19.0984853,72.904147
NMMC UHP Karave,"Palm Beach Road, Near Sector-48 Post Office, Karave",Unknown,Unknown,400706,Maharashtra,Unknown,Unknown,centre,Unknown,Unknown,Unknown,19.0142583,73.0095343
TMC Wagle Estate Health Centre,"Wagle Estate Health Centre, 15, Wagle Estate Road, Shivaji Nagar, Padwal Nagar, Near Wagle Estate Bus Depot, Thane West",Unknown,Unknown,400604,Maharashtra,Unknown,Unknown,centre,Unknown,Unknown,Unknown,19.1885129,72.9526788
"Krantiveer Mahatma Jyotiba Phule Hospital, Vikhroli","Krantiveer Mahatma Jyotiba Phule Hospital, Vikas College Road, Kannamwar Nagar - 2",Unknown,Unknown,400083,Maharashtra,Unknown,hospital,Unknown,Unknown,Unknown,Unknown,19.1180038,72.9394753
NMMC UHP Shiravane,"P-752, Hanuman Mandir Road, Near Bharat Petroleum Petrol Pump, Shirvane, Navi Mumbai",Unknown,Unknown,400706,Maharashtra,Unknown,Unknown,centre,Unknown,Unknown,Unknown,19.047375,73.0193
Unknown,Unknown,Unknown,Unknown,Unknown,Unknown,Unknown,pharmacy,Unknown,Unknown,Unknown,Unknown,19.1715919,72.957294
Mauli Hospital,Unknown,Unknown,Unknown,Unknown,Unknown,Unknown,Unknown,hospice,Unknown,Unknown,Unknown,19.0146586,73.015518
NMMC Clinic - Sector 48,Unknown,Unknown,Unknown,Unknown,Unknown,Unknown,Unknown,hospice,Unknown,Unknown,Unknown,19.0114523,73.0161393
"Government Hospital, Mulund",Mulund West,Unknown,Unknown,400080,Maharashtra,Unknown,hospital,Unknown,Unknown,Unknown,Unknown,19.1751524,72.9526962
Savitribai Jyotiba Phule Maternity Home Bhandup,Bhandup,Unknown,Unknown,400078,Maharashtra,Unknown,hospital,Unknown,Unknown,Unknown,Unknown,19.1462704,72.9345511
Matoshree Ramabai Maternity BMC Hospital,"Sainath Nagar, Indira Nagar, Ghatkopar West, Mumbai",Unknown,Unknown,400086,Maharashtra,Unknown,hospital,Unknown,Unknown,Unknown,Unknown,19.0960915,72.9103804
Deonar Maternity Home,Deonar,Unknown,Unknown,400043,Maharashtra,Unknown,hospital,Unknown,Unknown,Unknown,Unknown,19.0536272,72.9232104
DFY - MRVC Health Center,"Hiranandani Gardens, Lallubhai Compound, Mankhurd, Mumbai",Unknown,Unknown,400043,Maharashtra,Unknown,Unknown,centre,Unknown,Unknown,Unknown,19.0500768,72.9270972
"Government Dispensary, Govandi","Govandi Slums, Govandi West, Raman Mama Nagar, Shivaji Nagar, Mumbai",Unknown,Unknown,400043,Maharashtra,Unknown,Unknown,centre,Unknown,Unknown,Unknown,19.0605293,72.9231594
"Government Dispensary, Chandivali","Nahar Amrit Shakti, Chandivali, Powai, Mumbai",Unknown,Unknown,400072,Maharashtra,Unknown,Unknown,centre,Unknown,Unknown,Unknown,19.1089858,72.9010007
Vihaan Hospital,"Shraddha Heritage, Plot no.9, Sector 7, Kamothe, Navi Mumbai",Unknown,Unknown,410209,Maharastra,Unknown,hospital,Unknown,Unknown,Unknown,Unknown,19.023203,73.091679
Primary Health Centre,"Dhansoli Nirman Yojana Marg, Block G, Sector 12, Kharghar, Navi Mumbai",Unknown,Unknown,410210,Maharastra,Unknown,Unknown,centre,Unknown,Unknown,Unknown,19.0417122,73.069861
Deshpande Children's Hospital,"Soni CHS, Plot No, F-83, Sector 12, Kharghar, Navi Mumbai",Unknown,Unknown,410210,Maharastra,Unknown,clinic,clinic,Unknown,Unknown,Unknown,19.0411745,73.0684468
Sunrise Multispeciality Hospital,"Shiv Kalpataru Arcade, Plot 1, Sector - 17, Kamothe, Navi Mumbai",Unknown,Unknown,410206,Maharastra,Unknown,hospital,Unknown,Unknown,Unknown,Unknown,19.0166504,73.0865486
Kalpataru Hospital & Maternity Clinic,"Akshar CHS, Plot No 64, Ground Floor, Sector 21, Kharghar, Navi Mumbai",Unknown,Unknown,410210,Maharastra,Unknown,hospital,Unknown,Unknown,Unknown,Unknown,19.0489327,73.0690274
B &J Superspeciality Hospital and Research Centre,"Mhalsa Residency, Plot no. 6, Above State Bank Of India, Sector 36, Kamothe, Navi Mumbai",Unknown,Unknown,410209,Maharastra,Unknown,hospital,Unknown,Unknown,Unknown,Unknown,19.023744,73.091256
Purohit Hospital,"Prem Amber, Sector 16, Kamothe, Panvel, Navi Mumbai",Unknown,Unknown,410206,Maharastra,Unknown,hospital,Unknown,Unknown,Unknown,Unknown,19.0156975,73.089637
Jeevan Jyot Hospital,"Ground & 1st Floor, Shubh Avenue Building, Sector 21, Opp. Khandeshwar, Navi Mumbai",Unknown,Unknown,410209,Maharastra,Unknown,hospital,Unknown,Unknown,Unknown,Unknown,19.013508,73.094637
Amar Hospital,"Plot No.-27, Sector 10, Kalamboli, Panvel, Navi Mumbai",Unknown,Unknown,410218,Maharastra,Unknown,hospital,Unknown,Unknown,Unknown,Unknown,19.032021,73.096637
Criticare Lifeline Hospital,"Sector 19, Kamothe, Panvel, Navi Mumbai",Unknown,Unknown,410209,Maharastra,Unknown,hospital,Unknown,Unknown,Unknown,Unknown,19.0141503,73.0936979
Al Shifa Multi Speciality Hospital,"Dream Corner, Plot no 18, Kharghar, Navi Mumbai",Unknown,Unknown,410210,Maharastra,Unknown,hospital,Unknown,Unknown,Unknown,Unknown,19.06893,73.08229
Children's Wellness Clinic,"Sector 20, Kamothe, Panvel, Navi Mumbai",Unknown,Unknown,410209,Maharastra,Unknown,clinic,Unknown,Unknown,Unknown,Unknown,19.015802,73.095901
Saanvi Children's Hospital,"2nd Floor, The Pacific Building, Shilp Chowk Road, Block G, Sector 20, Kharghar, Navi Mumbai",Unknown,Unknown,420210,Maharastra,Unknown,hospital,Unknown,Unknown,Unknown,Unknown,19.0467212,73.0699938
Health gs Hospitals,"Station Road, Sector 12, Kamothe, Panvel, Navi Mumbai",Unknown,Unknown,410206,Maharastra,Unknown,hospital,Unknown,Unknown,Unknown,Unknown,19.017414,73.088555
Polaris Hospital,"Sector 20, Kharghar, Navi Mumbai",Unknown,Unknown,410210,Maharastra,Unknown,hospital,Unknown,Unknown,Unknown,Unknown,19.0479424,73.0727656
Tathastu Women's Hospital,"Plot No. 19, Opp. Punjab & Sind bank, Sector 14, Kalamboli, Panvel, Navi Mumbai",Unknown,Unknown,410218,Maharastra,Unknown,hospital,Unknown,Unknown,Unknown,Unknown,19.0372121,73.0998879
Raghunath Children's Clinic,"Maruti Tower, Ramsheth Thakur School Road, Secror 19, Kharghar, Navi Mumbai",Unknown,Unknown,410210,Maharastra,Unknown,clinic,Unknown,Unknown,Unknown,Unknown,19.0500314,73.0759568
Holkar Multispeciality Hospital & Dental Care,"Shop no 10,11,12, Plot No 7, Sector-17, Bhoomi Gardenia-1, Roadpali, Kalamboli, Panvel, Navi Mumbai",Unknown,Unknown,410218,Maharastra,Unknown,hospital,Unknown,Unknown,Unknown,Unknown,19.0372371,73.0951525
Shree Sai Multispeciality Hospital,"Vishvakarma Towers,Tata Hospital Road, Near Tawa Hotel, Kharghar, Navi Mumbai",Unknown,Unknown,410210,Maharastra,Unknown,hospital,Unknown,Unknown,Unknown,Unknown,19.050017,73.065144
Gayatri Gynac Clinic,"Sector 20, Kharghar, Navi Mumbai",Unknown,Unknown,410210,Maharastra,Unknown,clinic,Unknown,Unknown,Unknown,Unknown,19.0480306,73.07035
Sri Sai Clinic,"Sector 23, Taloja Panchanand, Taloja, Navi Mumbai",Unknown,Unknown,410208,Maharastra,Unknown,clinic,Unknown,Unknown,Unknown,Unknown,19.070721,73.098615
Riddhi Children's Hospital and Dental Clinic,"Ekta Avenue, Plot C94, F-35, Opp. Sector 12, Kharghar, Navi Mumbai",Unknown,Unknown,410210,Maharastra,Unknown,hospital,Unknown,Unknown,Unknown,Unknown,19.0425962,73.0666427
Sai Samarth Hospital Accident & Trauma Care Centre,"Shree Yogeshwar Complex, Sector 12, Kamothe, Panvel, Navi Mumbai",Unknown,Unknown,410206,Maharastra,Unknown,hospital,Unknown,Unknown,Unknown,Unknown,19.019429,73.088983
Chirayu Hospital;hospital kamothe,"1st Floor, Anchit Homes, Plot no.77, Sector 22, Kamothe, Navi Mumbai",Unknown,Unknown,410209,Maharastra,Unknown,hospital,hospital,Unknown,Unknown,10:00-22:00,19.0146468,73.0996697
Suman Kanta Hospital,"Shop No. 04/05, Shree Raj CHS, Plot No. 33, Shiv Shushila Marg, Sector 20, Kharghar, Navi Mumbai",Unknown,Unknown,410210,Maharastra,Unknown,hospital,Unknown,Unknown,Unknown,Unknown,19.051433,73.071179
Care and Cure Hospital,"Sector 21, Kamothe, Panvel, Navi Mumbai",Unknown,Unknown,410209,Maharastra,Unknown,hospital,Unknown,Unknown,Unknown,Unknown,19.0130491,73.0967603
Ashwini General Hospital,"Arm Arcade, Navrang Road, Opp. Shree Sai Baba Mandir - Om Sai Pratishthan Trust, Sector 7, Kharghar, Navi Mumbai",Unknown,Unknown,410210,Maharastra,Unknown,hospital,Unknown,Unknown,Unknown,Unknown,19.036577,73.064653
Ayesha Hospital,"Taloja Panchanand, Taloja, Navi Mumbai",Unknown,Unknown,410208,Maharastra,Unknown,hospital,Unknown,Unknown,Unknown,Unknown,19.07017,73.089486
Kamothe Criticare Hospital,"Near Banyan Tree, Manas Complex Road, Sector 12, Kamothe, Panvel, Navi Mumbai",Unknown,Unknown,410206,Maharastra,Unknown,hospital,Unknown,Unknown,Unknown,Unknown,19.0176554,73.0873383
Anjani Maternity and Nursing Home,"Plot No: A48, 49, Behind Pranam Hotel, Sector 12, Kharghar, Navi Mumbai",Unknown,Unknown,410210,Maharastra,Unknown,hospital,Unknown,Unknown,Unknown,Unknown,19.0450286,73.0660506
Dr. Nitin Amale Hospital,"Sector 20, Kharghar, Navi Mumbai",Unknown,Unknown,410210,Maharastra,Unknown,hospital,Unknown,Unknown,Unknown,Unknown,19.0516879,73.073388
Sai Hospital for Child & Skin Hospital,"ShreeRam Arcade, Shop-01/Plot no.30,31,32/Sector-20, Near Central Bank of India, Kamothe, Navi Mumbai",Unknown,Unknown,410209,Maharastra,Unknown,hospital,Unknown,Unknown,Unknown,Unknown,19.0154106,73.095642
Pooja Eye Clinic,"KPC High School Road, Sector-19, Kharghar, Navi Mumbai",Unknown,Unknown,410210,Maharastra,Unknown,clinic,Unknown,Unknown,Unknown,Unknown,19.0481451,73.0785906
Children's Hospital,"Sector 21, Kharghar, Navi Mumbai",Unknown,Unknown,410210,Maharastra,Unknown,hospital,Unknown,Unknown,Unknown,Unknown,19.047864,73.0691598
Shree Sai Multispecialist Hospital,"2, Jui-Kamothe Sector - 36, Sector 7, Kamothe, Panvel, Navi Mumbai",Unknown,Unknown,410206,Maharastra,Unknown,hospital,Unknown,Unknown,Unknown,Unknown,19.0221261,73.0914689
Shree Sangam Multispeciality Hospital,"Sector 8, Kamothe, Panvel, Navi Mumbai",Unknown,Unknown,410206,Maharastra,Unknown,hospital,Unknown,Unknown,Unknown,Unknown,19.020416,73.093798
Shree Manav Kalyan Hospital,"Shakuntla Plaza, Opp. Gurudwara, Bhawani Chowk Lodha Heaven, Nilje Gaon",Unknown,Unknown,421204,Maharastra,Unknown,hospital,Unknown,Unknown,Unknown,Unknown,19.15871,73.076519
Horizon Hospital,"Malati Mohan Bunglow, Opp. Naupada Telephone Exchange, Thane West",Unknown,Unknown,400602,Maharastra,Unknown,hospital,Unknown,Unknown,Unknown,Unknown,19.1868009,72.967635
Ratnadeep Children's Hospitals,"Mahaveer Shopping Centre, Lodha Heaven, Palava, Dombivali(E), Nilje Gaon",Unknown,Unknown,421204,Maharastra,Unknown,hospital,Unknown,Unknown,Unknown,Unknown,19.159537,73.0756645
MGM Hospital,"Kalyan - Shilphata Road, Nilje Gaon",Unknown,Unknown,421204,Maharastra,Unknown,hospital,Unknown,Unknown,Unknown,Unknown,19.1668511,73.0790568
Bijankur Hospital,"Kalyan - Shilphata Road, Katai Village, Nilje Gaon",Unknown,Unknown,421204,Maharastra,Unknown,hospital,Unknown,Unknown,Unknown,Unknown,19.166802,73.0789062
Jeevan Jyot Hospital,"Satyam Apartment, Mahatma Gandhi Road, Opposite Shahu Market, Naupada, Thane West",Unknown,Unknown,400602,Maharastra,Unknown,hospital,Unknown,Unknown,Unknown,Unknown,19.187879,72.967356
Aadhar Hospital,"Dharmaveer Marg, Near Express Highway, Dandekar Colony, Panch Pakhdi, Thane West",Unknown,Unknown,400602,Maharastra,Unknown,hospital,Unknown,Unknown,Unknown,Unknown,19.1963719,72.9634539
Dr. Ashfaque Shah's City Hospital,"Sonapur Road, New Gautam Nagar, Govandi East, Mumbai",Unknown,Unknown,400043,Maharastra,Unknown,hospital,Unknown,Unknown,Unknown,Unknown,19.0605847,72.9169906
Dadasaheb Gaikwad BMC Hospital,"Eastern Express Highway, Ramabai Ambedkar Nagar, Mumbai",Unknown,Unknown,400075,Maharastra,Unknown,hospital,Unknown,Unknown,Unknown,Unknown,19.076394,72.91527
Vikas Fracture Clinic and Nursing Home,"Opp. Bank of Baroda, Rajawadi Colony, Ghatkopar East, Mumbai",Unknown,Unknown,400077,Maharastra,Unknown,clinic,Unknown,Unknown,Unknown,Unknown,19.0792069,72.9029013
Mrudula Hospital,"MD Kini Road, Nahur, Friends Colony, Bhandup East, Mumbai",Unknown,Unknown,400080,Maharastra,Unknown,hospital,Unknown,Unknown,Unknown,Unknown,19.1517439,72.9458994
Sona Maternity and Surgical Nursing Home,"Kirol Gaon, Ramabai Ambedkar Nagar, Mankur, Mumbai",Unknown,Unknown,400075,Maharastra,Unknown,hospital,Unknown,Unknown,Unknown,Unknown,19.07815,72.916753
Kankal Hospital Child Specialist,"Pestom Sagar Road, Number 2, Chembur West, Asha Nagar, Mumbai",Unknown,Unknown,400089,Maharastra,Unknown,hospital,hospital,Unknown,Unknown,Unknown,19.068348,72.901948
Upasani Super Speciality Hospital,"Devi Dayal Cross Road, Behind Fire Station, P&T Staff Colony, Mulund West, Mumbai",Unknown,Unknown,400080,Maharastra,Unknown,hospital,Unknown,Unknown,Unknown,Unknown,19.1745359,72.9424095
Pasaydan Hospital and Trust,"Bhatwadi, Bhim Nagar, Barve Nagar, Ghatkopar West, Mumbai",Unknown,Unknown,400084,Maharastra,Unknown,hospital,Unknown,Unknown,Unknown,Unknown,19.0929208,72.9038731
Amarnath Multidisciplinary Children's Hospital,"Baman Apartment, Sion - Trombay Road, Chembur, Mumbai",Unknown,Unknown,400071,Maharastra,Unknown,hospital,Unknown,Unknown,Unknown,Unknown,19.0492423,72.9060511
Ruby Hospital,"Seth Govindram Jolly Marg, Group 2, Sona Intp Colony, Tagore Nagar, Vikhroli, Mumbai",Unknown,Unknown,400083,Maharastra,Unknown,hospital,Unknown,Unknown,Unknown,Unknown,19.116499,72.931802
Mahavir Hospital,"Baji Prabhu Deshpande Road, Govandi West, Phase 1, Shivaji Nagar, Mumbai",Unknown,Unknown,400043,Maharastra,Unknown,hospital,Unknown,Unknown,Unknown,Unknown,19.0632122,72.9197954
Naval Hospital,"Dockyard Goi Employees, N C H Colony, Kanjurmarg West, Bhandup West, Mumbai",Unknown,Unknown,400078,Maharastra,Unknown,hospital,Unknown,Unknown,Unknown,Unknown,19.132448,72.925483
Shree Hospital,"Near Station, Ambedkar Garden, 19th Road, D Marg, Chembur, Mumbai",Unknown,Unknown,400071,Maharastra,Unknown,hospital,hospital,Unknown,Unknown,Unknown,19.0605329,72.9000956
Devaki Hospital,"Quarry Road, Bhandup, JM Nagar, Ganesh Nagar, Bhandup West, Mumbai",Unknown,Unknown,400078,Maharastra,Unknown,hospital,Unknown,Unknown,Unknown,Unknown,19.1403995,72.9283565
Shashikant Hospital,"B, 82, 72, Govandi Station Road, Deonar, Chembur, Mumbai",Unknown,Unknown,400088,Maharastra,Unknown,hospital,Unknown,Unknown,Unknown,Unknown,19.061966,72.901475
Shrenik Hospital and Maternity House,"Bhandup Station Road, Bhandup, Dina Bama Estate, Bhandup West, Mumbai",Unknown,Unknown,400078,Maharastra,Unknown,hospital,Unknown,Unknown,Unknown,Unknown,19.1438077,72.9370628
Jeevan Jyot Hospital and Nursing Home,"Shivaji Nagar, Govandi West, Phase 1, Shivaji Nagar, Mumbai",Unknown,Unknown,400043,Maharastra,Unknown,hospital,Unknown,Unknown,Unknown,Unknown,19.0636814,72.9199586
Shakari Bhandar Pharmacy,Unknown,Unknown,Unknown,Unknown,Unknown,Unknown,pharmacy,pharmacy,Unknown,Unknown,Unknown,19.0418012,72.9202258
Dr. Lad's Orthodontics Clinic,Unknown,Mahapalika Bhavan Marg,Thane,400602,Unknown,Unknown,dentist,dentist,+912225378130,http://www.drladsortho.com/,"Mo-Sa 10:00-13:00,17:00-20:00",19.1979079,72.9665332
Dentistree Imaging,Unknown,Unknown,Unknown,Unknown,Unknown,Unknown,dentist,dentist,Unknown,Unknown,Unknown,19.1882064,72.9722733
"Dr Bhatias Hospital, Bhandup","Kukreja, Govind Nagar, Bhandup West, Mumbai",Bhandup Village Road,Mumbai,400078,Maharashtra,Unknown,hospital,hospital,Unknown,Unknown,Unknown,19.1522033,72.9399276
Shantiniketan Hospital,"E-1, Society, Ghatkopar West, Mumbai",Unknown,Unknown,400086,Maharashtra,Unknown,hospital,Unknown,Unknown,Unknown,Unknown,19.0952772,72.9137056
Sunrise Hospital,"3rd Floor, Bhandup",Unknown,Unknown,400078,Maharashtra,Unknown,hospital,Unknown,Unknown,Unknown,Unknown,19.1463034,72.9369932
Ashirwad Critical Care Unit & Multi speciality,"Hanuman Chowk, Mulund East, Mumbai",Unknown,Unknown,400081,Maharashtra,Unknown,hospital,Unknown,Unknown,Unknown,Unknown,19.1710723,72.9586105
Zen Hospital,"Mulund West, Mumbai",Unknown,Unknown,400080,Maharashtra,Unknown,hospital,Unknown,Unknown,Unknown,Unknown,19.1721231,72.9508348
Apollo Hospital,"Thane West, Navi Mumbai",Unknown,Unknown,400601,Maharashtra,Unknown,hospital,Unknown,Unknown,Unknown,Unknown,19.1930727,72.9777045
"Civil Hospital ,Thane","Dhobi Ali, Charai, Thane",Unknown,Unknown,400601,Maharashtra,Unknown,hospital,Unknown,Unknown,Unknown,Unknown,19.1991907,72.9774014
Mathadi Hospital,"Kopar Khairane, Navi Mumbai",Unknown,Unknown,400709,Maharashtra,Unknown,hospital,Unknown,Unknown,Unknown,Unknown,19.1043782,73.0037038
Acharya Shri Nanesh Hospital,"Plot No 34-37, CBD Belapur, Navi Mumbai",Unknown,Unknown,400614,Maharashtra,Unknown,hospital,Unknown,Unknown,Unknown,Unknown,19.0332935,73.0411944
Suyash Hospital,"Ugam Complex, 51, Sector 40, Navi Mumbai",Unknown,Unknown,400706,Maharashtra,Unknown,hospital,Unknown,Unknown,Unknown,Unknown,19.0197137,73.0161439
Vinamra Swaraj Hospital,"plot 108, 109, Juhu ,Vashi, Navi Mumbai",Unknown,Unknown,400703,Maharashtra,Unknown,hospital,Unknown,Unknown,Unknown,Unknown,19.0875015,73.0030788
"Primary Health Centre, Atkoneswar Nagar","Atkoneswar Nagar ,Kalwa",Unknown,Unknown,400605,Maharashtra,Unknown,Unknown,centre,Unknown,Unknown,Unknown,19.1978007,73.008456
NMMC Hospitals,"Nibban Tekadi, Rabale, Navi Mumbai",Unknown,Unknown,400708,Maharashtra,Unknown,hospital,Unknown,Unknown,Unknown,Unknown,19.1475082,73.0052622
S.N. Hospital,"Plot No. 46/K/1,2 3, Govandi West, Shivaji Nagar, Mumbai",Unknown,Unknown,400043,Maharashtra,Unknown,hospital,Unknown,Unknown,Unknown,Unknown,19.062128,72.921592
Bansal Specialty Clinic,Unknown,"Hem Parbat CHS, Plot No. 72, Sector - 19, Nerul(E)",Navi Mumbai,400706,Unknown,Unknown,clinic,clinic,Unknown,https://www.drsbansal.com/,Unknown,19.0278767,73.02305
Dr Vaisya Eye Center,Unknown,Unknown,Unknown,Unknown,Unknown,Unknown,hospital,hospital,Unknown,Unknown,Unknown,19.1869971,72.9733533
Radhakrishna Hospital,Unknown,Dr Hemu Kalani Road,Thane,400605,Unknown,Unknown,hospital,hospital,Unknown,Unknown,Unknown,19.1829552,72.9749344
Anant Seva Hospital,Unknown,Unknown,Unknown,Unknown,Unknown,Unknown,hospital,hospital,Unknown,Unknown,Unknown,19.1773323,72.9675883
Gomathi Eye & Cornea Centre,"Hanuman Chowk, Mulund East",Unknown,Unknown,400081,Maharashtra,Unknown,hospital,Unknown,Unknown,Unknown,Unknown,19.1673177,72.9632883
Unknown,Unknown,Unknown,Unknown,Unknown,Unknown,Unknown,hospital,hospital,Unknown,Unknown,Unknown,19.0374607,73.099885
Spandan Hospital,Unknown,"Spandan Hospital Plot no.127, behind Gram Vikas Bhavan, Sector 21, Kharghar, NaviMaharashtra, India",Mumbai,410210,Unknown,Unknown,clinic,clinic,Unknown,https://www.spandanhospitalkharghar.in/,24/7,19.0514535,73.0665713
Vaishali Hospital,Unknown,Unknown,Unknown,Unknown,Unknown,Unknown,hospital,hospital,Unknown,Unknown,Unknown,19.1464171,72.9877616
Laxmi Medical,Unknown,Unknown,Unknown,Unknown,Unknown,Unknown,pharmacy,pharmacy,Unknown,Unknown,Unknown,19.1468299,72.9890603
Waykar Medical,Unknown,Unknown,Unknown,Unknown,Unknown,Unknown,pharmacy,pharmacy,Unknown,Unknown,Unknown,19.1467118,72.9889853
Unknown,Unknown,Unknown,Unknown,Unknown,Unknown,Unknown,Unknown,blood_donation,Unknown,Unknown,Unknown,19.0948349,73.0059461
Dr Hemant Anarthe Clinic,Unknown,Unknown,Unknown,Unknown,Unknown,Unknown,doctors,doctor,Unknown,Unknown,Unknown,19.149972,72.9975659
Dr. Kaushal Malhan,Unknown,"Goregaon Link Rd, Mulund West, Mumbai- 400078,Maharashtra, India",Mumbai,400078,Unknown,Unknown,clinic,clinic,Unknown,https://www.drkaushalmalhan.in/,Available on call,19.1604812,72.9464854
Medivision Sonography Centre,Unknown,Unknown,Unknown,Unknown,Unknown,Unknown,clinic,Unknown,Unknown,Unknown,Unknown,19.1870977,72.9737862
Advanced Arthritis and Rheumatology Center,Unknown,"Colours hospital, Shree Krishna Paradise, Tower 10, plot d59, near HDFC bank and ajwa dry fruit store, Sector 12, Kharghar,Maharashtra, India",Navi Mumbai,410210,Unknown,Unknown,clinic,clinic,Unknown,https://www.rheumatologistnavimumbai.in/,"Mo,Tu,We,Th,Fr,Sa 14:00-21:00; Su 09:00-13:00",19.0432762,73.0640507
apple hospital,Unknown,4567891011,Navi Mumbai,400708,Unknown,Unknown,hospital,hospital,Unknown,Unknown,Unknown,19.1444443,72.9951001
Metro medical,Unknown,P.L. Lokhande Marg,mumbai,400043,Unknown,Unknown,pharmacy,pharmacy,Unknown,Unknown,Unknown,19.0602984,72.9105212
DR. CHALWADE'S HRUDAYAM HEART CARE CLINIC AND SONOGRAPHY CENTRE,Unknown,"Bhoomi gardenia 1, Sector 17, Roadpali, Kalamboli, Kalamboli, Navi Mumbai",Navi Mumbai,410218,Unknown,Unknown,clinic,clinic,Unknown,Unknown,Unknown,19.0374187,73.0948628
Nayak medicare -chembur,Unknown,Unknown,Unknown,Unknown,Unknown,Unknown,hospital,hospital,Unknown,Unknown,Unknown,19.0456806,72.9024989
Unknown,Unknown,Purushottam Kheraj Road,Unknown,400080,Unknown,Unknown,pharmacy,Unknown,Unknown,Unknown,Unknown,19.1673865,72.9444782
Spandan Healthcare center,Unknown,Yashodeep Heights Shop no 12/13 Sector 8A/29C,"Airoli, Navi Mumbai",400708,Unknown,Unknown,clinic,clinic,Unknown,Unknown,Unknown,19.1447834,72.9956649
"Dr Ninad Tamboli- Urologist at Terna Hospital, Terna Speciality Hospital and research center",Unknown,"Shree polyclinic, Nirman Vyapar Kendra, C/O Shree Poly Clinic, 114 Hotel Navratna Building, Sector 17, vashi",Navi Mumbai,400703,Unknown,Unknown,hospital,hospital,Unknown,Unknown,Unknown,19.0315293,73.0163389
Tulsi medicals,Unknown,Unknown,Unknown,Unknown,Unknown,Unknown,pharmacy,pharmacy,Unknown,Unknown,Unknown,19.0453941,72.9138673
Dr Kamat,Unknown,Unknown,Unknown,Unknown,Unknown,Unknown,doctors,doctor,Unknown,Unknown,Mo-Su 16:00-19:00,19.0535117,72.9140335
Orange Pharmacy,Unknown,Unknown,Unknown,Unknown,Unknown,Unknown,pharmacy,pharmacy,Unknown,Unknown,Unknown,19.0456943,72.902467
Unknown,Unknown,Unknown,Unknown,Unknown,Unknown,Unknown,pharmacy,pharmacy,Unknown,Unknown,Unknown,19.0456891,72.9025701
Unknown,Unknown,Unknown,Unknown,Unknown,Unknown,Unknown,pharmacy,pharmacy,Unknown,Unknown,Unknown,19.0456907,72.9025243
Unknown,Unknown,Ram Nagar,Unknown,400086,Unknown,Unknown,pharmacy,Unknown,Unknown,Unknown,Mo-Su 09:00-23:00,19.10155,72.9097096
Unknown,Unknown,Amrut Nagar,Unknown,400086,Unknown,Unknown,hospital,Unknown,022 2500 7853,Unknown,Unknown,19.1015846,72.9121067
BMC Health Centre,Unknown,Unknown,Unknown,Unknown,Unknown,Unknown,clinic,clinic,Unknown,Unknown,Unknown,19.1678618,72.9510472
Bhanushali Hospital,Unknown,Unknown,Unknown,Unknown,Unknown,Unknown,hospital,hospital,Unknown,Unknown,Unknown,19.1887405,72.9765945
Bhanushali hospital,Unknown,Unknown,Unknown,Unknown,Unknown,Unknown,hospital,hospital,Unknown,Unknown,Unknown,19.188282,72.9761226
Noble chemist,Unknown,Unknown,Unknown,Unknown,Unknown,Unknown,hospital,hospital,Unknown,Unknown,Unknown,19.0771201,72.9022577
 ,Unknown,Unknown,Unknown,Unknown,Unknown,Unknown,pharmacy,Unknown,Unknown,Unknown,Unknown,19.0292296,72.9035646
Soham Medical and General Store,Unknown,Unknown,Unknown,Unknown,Unknown,Unknown,pharmacy,pharmacy,Unknown,Unknown,Unknown,19.0469461,72.9300706
dr.anjali's hospital,Unknown,Adi Sankaracharya Marg,Mumbai,400076,Unknown,Unknown,hospital,hospital,Unknown,Unknown,Mo-Su 09:00-21:00,19.1245264,72.9160425
Satnam Chemist & Druggist,Unknown,Unknown,Unknown,Unknown,Unknown,Unknown,pharmacy,pharmacy,Unknown,Unknown,Unknown,19.0075828,73.033781
Cessna Lifeline Veterinary Hospital,Unknown,Unknown,Unknown,Unknown,Unknown,Unknown,hospital,hospital,Unknown,Unknown,Unknown,19.0072459,73.0338451
Dr Rashmi Singh,Unknown,Unknown,Unknown,Unknown,Unknown,Unknown,clinic,clinic,Unknown,Unknown,Unknown,19.0324997,72.9298577
PK Rasa,Unknown,Unknown,Unknown,Unknown,Unknown,Unknown,Unknown,alternative,Unknown,Unknown,Unknown,19.0326011,72.9298964
Sneha House,Unknown,Unknown,Unknown,Unknown,Unknown,Unknown,Unknown,alternative,Unknown,Unknown,Unknown,19.039042,72.9158071
"Rahul Jagtap, Orthopedics Surgeon",Unknown,"Medicity Hospital, Aum Sai CHS, Plot No. C/23, next to Kharghar Police Station, Highway Facing, Sector 7, Kharghar,",Navi Mumbai,410210,Unknown,Unknown,clinic,clinic,Unknown,Unknown,Unknown,19.0417782,73.0167125
North Florida Medical Center,Unknown,Cypress Green Dr,Jacksonville,32256,Unknown,Unknown,Unknown,alternative,904-269-2437,https://nfmcjax.com/,Mo-Fri 08:00-18:00,19.1962544,72.9680901
Tisekar Clinic,Unknown,Unknown,Unknown,Unknown,Unknown,Unknown,clinic,clinic,Unknown,Unknown,Unknown,19.1152244,72.9324519
Tisekar Lab,Unknown,"Group No. 8B, Post Office, Opposite Old,Sona Enterproses Colony , Sona Intp Colony, Tagore Nagar, Vikhroli",mumbai,400083,Unknown,Unknown,Unknown,laboratory,+91 9146510780,Unknown,Unknown,19.1152321,72.9324057
Apollo Pharmacy,Unknown,Unknown,Unknown,Unknown,Unknown,Unknown,pharmacy,pharmacy,Unknown,Unknown,Unknown,19.0333651,73.0169923
Wellness Forever,Unknown,Unknown,Unknown,Unknown,Unknown,Unknown,pharmacy,pharmacy,Unknown,Unknown,Unknown,19.033422,73.0169854
D.N.A Pathology Lab,Unknown,Unknown,Unknown,Unknown,Unknown,Unknown,Unknown,laboratory,Unknown,Unknown,Unknown,19.0339807,73.0168482
Dinesh Medical,Unknown,Unknown,Unknown,Unknown,Unknown,Unknown,pharmacy,pharmacy,Unknown,Unknown,Unknown,19.0275162,73.0162329
Dr. (Mrs) Anita Soans M.B.B.S. (Mum),Unknown,Unknown,Unknown,Unknown,Unknown,Unknown,doctors,doctor,Unknown,Unknown,"Mo-Sa 10:00-13:00, 18:00-17:30",19.0370349,73.0211665
Vinod Medical,Unknown,Unknown,Unknown,Unknown,Unknown,Unknown,pharmacy,pharmacy,Unknown,Unknown,Unknown,19.0370639,73.0206355
Nerul Chemist,Unknown,Unknown,Unknown,Unknown,Unknown,Unknown,pharmacy,pharmacy,Unknown,Unknown,Unknown,19.0372967,73.0197125
Sai Asha Hospital,Unknown,Unknown,Unknown,Unknown,Unknown,Unknown,hospital,hospital,Unknown,Unknown,Unknown,19.0375461,73.019054
Parakh Hospital and Research Centre - Ghatkopar,"Khokhani Lane, Opposite Ghatkopar Rly. Station, Ghatkopar",Unknown,Unknown,400077,Maharashtra,Unknown,hospital,Unknown,Unknown,Unknown,Unknown,19.0845459,72.907615
Mahalaxmi Medical,Unknown,Unknown,Unknown,Unknown,Unknown,Unknown,pharmacy,pharmacy,Unknown,Unknown,Unknown,19.0336779,73.0160065
Suyash Clinic,Unknown,Unknown,Unknown,Unknown,Unknown,Unknown,doctors,doctor,Unknown,Unknown,"Mo-Su 09:00-10:00, 17:00-21:00",19.0340079,73.0166573
Dr. Rashmi Menon,Unknown,Unknown,Unknown,Unknown,Unknown,Unknown,doctors,doctor,Unknown,Unknown,"Mo-Sa 11:30-13:00, 19:00-21:00",19.0297216,73.0227253
Brainwonders - Career Counselling in Navi Mumbai,Unknown,"Plot nos. 1, 2 and 3, Sector 11 Rd, Kharghar",Navi Mumbai,410210,Unknown,Unknown,Unknown,counselling,+919892771999,https://www.brainwonders.in/career-counselling-in-navi-mumbai,Unknown,19.0380872,73.0708001
Brainwonders Vashi,Unknown,"Plot No 26, Sector-16A, Vashi",Navi Mumbai,400703,Unknown,Unknown,Unknown,counselling,+919892771999,https://www.brainwonders.in/career-counselling-in-vashi,Mo-Sa 09:30-19:30,19.0754554,73.0021784
