Name,Full Address,Street,City,Postcode,State,Country,Amenity,Healthcare,Phone,Website,Opening Hours,Latitude,Longitude
Sardar Patel Cantonment General Hospital,"40, Solapur Baza Road",Unknown,Unknown,411001,Maharashtra,Unknown,hospital,Unknown,Unknown,Unknown,Unknown,18.5027163,73.87712
Dr. Babasaheb Ambedkar Cantonment General Hospital,"Bus Stop, Elphinston Road, Kasamali Jumbo Marg, Khadki",Unknown,Unknown,411003,Maharashtra,Unknown,hospital,Unknown,Unknown,Unknown,Unknown,18.569025,73.8486994
Command Hospital Southern Command,Unknown,Right Flank Road,Pune,Unknown,Maharashtra,IN,hospital,Unknown,Unknown,Unknown,Unknown,18.5005828,73.8894328
Ishwar Medical,Unknown,Unknown,Unknown,Unknown,Unknown,Unknown,pharmacy,Unknown,Unknown,Unknown,Unknown,18.5538796,73.8050612
Sassoon Hospital,Unknown,Unknown,Unknown,Unknown,Unknown,Unknown,hospital,hospital,Unknown,Unknown,Unknown,18.5251434,73.8695664
Sanjeevani Vitalife Medipoint Hospital,Unknown,New DP Road,Pune,411007,Unknown,Unknown,hospital,hospital,Unknown,Unknown,Unknown,18.5649263,73.8022626
LifeLine Hospital,Unknown,Unknown,Unknown,Unknown,Unknown,Unknown,hospital,hospital,Unknown,Unknown,Unknown,18.5597445,73.8062674
Dr. Chowdhary,Unknown,Unknown,Unknown,Unknown,Unknown,Unknown,hospital,Unknown,Unknown,Unknown,Unknown,18.5547291,73.8082012
Dr. Bonagiri,Unknown,Unknown,Unknown,Unknown,Unknown,Unknown,hospital,hospital,Unknown,Unknown,Unknown,18.5554816,73.8088556
Shree Sakthi Hospital,Unknown,Unknown,Unknown,Unknown,Unknown,Unknown,hospital,Unknown,Unknown,Unknown,Unknown,18.5883392,73.8015444
Ishwar Drug House,Unknown,Unknown,Unknown,Unknown,Unknown,Unknown,pharmacy,Unknown,Unknown,Unknown,Unknown,18.5434538,73.7845372
Metro Chemists,Unknown,Unknown,Unknown,Unknown,Unknown,Unknown,pharmacy,Unknown,Unknown,Unknown,Unknown,18.543525,73.7843119
Karva Hospital,Unknown,Unknown,Unknown,Unknown,Unknown,Unknown,hospital,hospital,Unknown,Unknown,Unknown,18.5009733,73.8461063
Jeevan Deep Medicare Centre,"A-35-36,Niranjan Complex,Sus Roadashan",Unknown,Pune,411021,Maharashtra,Unknown,hospital,hospital,Unknown,Unknown,Unknown,18.5433023,73.7838607
Dr. Rangappa's Ayurvedic Clinic,Unknown,Unknown,Unknown,Unknown,Unknown,Unknown,clinic,Unknown,Unknown,Unknown,Unknown,18.5437305,73.7852375
Dr. Mane's Dental Clinic,Unknown,Unknown,Unknown,Unknown,Unknown,Unknown,dentist,dentist,Unknown,Unknown,Unknown,18.5424578,73.7907722
VitaLife Clinic,"111, Mont-Vert Arcade, Above Icici Atm, Pashan-Sus Road",Pashan-Sus Road,Pune,411021,Maharashtra,Unknown,clinic,hospital,+912066859900,https://vitalife.in/pashan/,Mo-Sa 07:30-21:00; Su 07:30-12:00,18.5424692,73.7907426
Dr. Nitin Joglekar's Clinic,Unknown,Unknown,Unknown,Unknown,Unknown,Unknown,clinic,Unknown,Unknown,Unknown,Unknown,18.5435561,73.7843869
Sahyadri Hospital,"Plot No.9B, Neena Society, S.No.1484.A/B, Paud Road, Opposite Vanaz Engineering",Unknown,Unknown,411038,Maharashtra,Unknown,hospital,hospital,Unknown,https://sahyadrihospital.com/,Unknown,18.5074625,73.8057842
"Krishna Hospital, Pune","2, Anjanwel, Prashant Society, Paud Road",Unknown,Unknown,411038,Maharashtra,Unknown,hospital,Unknown,Unknown,Unknown,Unknown,18.5092055,73.8128199
Rahul Medicals,Unknown,Unknown,Unknown,Unknown,Unknown,Unknown,pharmacy,Unknown,Unknown,Unknown,Unknown,18.5117315,73.8088896
Pharmacy,Unknown,Unknown,Unknown,411004,Unknown,Unknown,pharmacy,pharmacy,Unknown,Unknown,Unknown,18.516684,73.833895
Apollo Pharmacy,Unknown,Unknown,Unknown,411004,Unknown,Unknown,pharmacy,pharmacy,Unknown,Unknown,Unknown,18.517157,73.8339486
Shubham Medical,Unknown,"Lane No. 5, Prabhat Road",Unknown,411004,Unknown,Unknown,pharmacy,pharmacy,Unknown,Unknown,Unknown,18.5134285,73.8376342
Unknown,Unknown,Unknown,Unknown,Unknown,Unknown,Unknown,pharmacy,pharmacy,Unknown,Unknown,Unknown,18.5109715,73.842591
Unknown,Unknown,Unknown,Unknown,Unknown,Unknown,Unknown,pharmacy,pharmacy,Unknown,Unknown,Unknown,18.5076678,73.8062921
Shewale Hospital,"Chikhalwadi, Bopodi, Pune",Unknown,Unknown,411020,Maharashtra,Unknown,hospital,Unknown,Unknown,Unknown,Unknown,18.5626652,73.8325327
Apollo Pharmacy,Unknown,Solapur Road,Pune,411040,Maharashtra,IN,pharmacy,pharmacy,+91 20 26861583,Unknown,Unknown,18.5063944,73.8990745
Vasu Medicals,Unknown,Unknown,Unknown,Unknown,Unknown,Unknown,pharmacy,Unknown,Unknown,Unknown,Unknown,18.502253,73.8047919
Surya Sahyadri Hospital,Near Shaniwar Wada,Agarwal Road,Pune,411011,Unknown,Unknown,hospital,hospital,02024574232,https://www.sahyadrihospital.com/,Unknown,18.521259,73.8556767
Sumitz,Unknown,Echinus Court road,Balewadi,411045,Unknown,Unknown,clinic,clinic,Unknown,Unknown,24/7,18.5765004,73.7645476
Prakash Netralaya,Unknown,Pashan-Sus Road,Pune,411 021,Unknown,Unknown,Unknown,optometrist,Unknown,Unknown,Unknown,18.5424791,73.7907148
Neel Medicals,Unknown,Pu. Bha. Bhave Path,Pune,411038,Unknown,Unknown,pharmacy,Unknown,Unknown,Unknown,10:00-22:00,18.5062595,73.8174209
Dr. Chavan Clinic,Unknown,Unknown,Unknown,Unknown,Unknown,Unknown,clinic,Unknown,Unknown,Unknown,Unknown,18.5062105,73.8169503
Ranveer Medical,Unknown,Unknown,Unknown,Unknown,Unknown,Unknown,pharmacy,Unknown,Unknown,Unknown,Unknown,18.5098183,73.9281935
Fatima Convent Sahyadri Clinic,"Fatima Convent Compound, Near Vishal Mega Mart, Fatima Nagar",Unknown,Unknown,411013,Maharashtra,Unknown,hospital,Unknown,Unknown,Unknown,Unknown,18.5045156,73.9008129
Gupte Hospital Of Accurate Diagnostics Pvt Ltd,"904, Bhandarkar Road , Deccan Gymkhana",Unknown,Unknown,411004,Maharashtra,Unknown,hospital,hospital,Unknown,Unknown,Unknown,18.519051,73.8398724
Dr Gupte Hospital,Unknown,Gopal Hari Deshmukh Marg,Pune,411009,Unknown,Unknown,doctors,doctor,Unknown,Unknown,Mo-Sa 08:00-18:00,18.5576203,73.7936755
Accord Hospital,Unknown,Baner Road,Unknown,Unknown,Unknown,Unknown,hospital,hospital,077740 98697,https://accordhospitals.com/,Unknown,18.567225,73.7689211
AIMS Hospital,Unknown,Unknown,Unknown,Unknown,Unknown,Unknown,hospital,hospital,Unknown,Unknown,24/7,18.5625409,73.8106962
"Naik Hospital, Pune","781/782, Shukrawar Peth, Opposite Jain Mandir",Unknown,Unknown,411002,Maharashtra,Unknown,hospital,Unknown,Unknown,Unknown,Unknown,18.5102879,73.8594694
Bora Hospital,"# 589, Ganesh Peth, Dhor Lane, Opposite Pravin Masalewale",Unknown,Unknown,411002,Maharashtra,Unknown,hospital,hospital,Unknown,Unknown,Unknown,18.511463,73.8625468
Raj Chemist,Unknown,Unknown,Unknown,Unknown,Unknown,Unknown,pharmacy,Unknown,Unknown,Unknown,Unknown,18.5114771,73.8782146
Sahyadri Hospital,Unknown,Unknown,Unknown,Unknown,Unknown,Unknown,hospital,Unknown,Unknown,Unknown,Unknown,18.5029092,73.9277341
Unknown,Unknown,Unknown,Unknown,Unknown,Unknown,Unknown,pharmacy,Unknown,Unknown,Unknown,Unknown,18.5519673,73.8416628
NON,Unknown,Unknown,Unknown,Unknown,Unknown,Unknown,hospital,Unknown,Unknown,Unknown,Unknown,18.5098623,73.9286042
Unknown,Unknown,Unknown,Unknown,Unknown,Unknown,Unknown,pharmacy,pharmacy,Unknown,Unknown,Unknown,18.5085318,73.8306736
Unknown,Unknown,Dhanori Road,Unknown,Unknown,Unknown,Unknown,pharmacy,Unknown,Unknown,Unknown,Unknown,18.5972628,73.9088536
Define Aesthetics,Unknown,Vitthalrao Shivarkar Marg,Pune,411040,Unknown,Unknown,clinic,Unknown,+918888370371,https://www.defineaesthetics.com/,08:00-20:00,18.5026729,73.9011164
Define Aesthetics,Unknown,Senapati Bapat Marg,Pune,411016,Unknown,Unknown,clinic,clinic,+918888370371,https://www.defineaesthetics.com/,08:00-20:00,18.5319944,73.830273
Unknown,Unknown,Unknown,Unknown,Unknown,Unknown,Unknown,clinic,Unknown,Unknown,Unknown,Unknown,18.5130522,73.8539021
Apple Hospital,Unknown,Unknown,Unknown,Unknown,Unknown,Unknown,hospital,Unknown,Unknown,Unknown,Unknown,18.5884835,73.7802163
Chetan Pharmacy,Unknown,Unknown,Unknown,Unknown,Unknown,Unknown,pharmacy,Unknown,Unknown,Unknown,Unknown,18.5461638,73.7905057
Nature Medico,Unknown,Unknown,Pune,411021,Unknown,Unknown,pharmacy,pharmacy,+91 99214 42230,Unknown,Mo-Su 08:00-23:00,18.5482191,73.7934788
Dr Rasika's Dental Wellness Centre,"A/8, Kumar Sahawas, Baner Pashan Link Rd, Pune - 411021",Unknown,Unknown,Unknown,Unknown,Unknown,dentist,dentist,+91 7588871443 / (020) 41225502,Unknown,"Mo-Sa 10:00-13:00, 17:00-20:30",18.5481911,73.7933549
Raj Medico,Unknown,Unknown,Unknown,Unknown,Unknown,Unknown,pharmacy,pharmacy,+91 77750 11274,Unknown,Unknown,18.5481866,73.7933904
Drug House,Unknown,Unknown,Unknown,Unknown,Unknown,Unknown,pharmacy,Unknown,Unknown,Unknown,Unknown,18.5055168,73.8250954
PH Diagnostic Center,Unknown,"5, Karve Rd, opp. Bank of Maharashtra, Mayur Colony, Kothrud, Pune, Maharashtra 411029",Unknown,Unknown,Unknown,Unknown,Unknown,laboratory,020 2543 8888,https://www.phdiagnosticcentre.com/,Mo-Sa 07:30-20:00; Su 08:00-16:00,18.5030756,73.8185576
Vishwas Medico,Unknown,Unknown,Unknown,Unknown,Unknown,Unknown,pharmacy,Unknown,Unknown,Unknown,Unknown,18.5046246,73.8310976
Health Care Medical,Unknown,Unknown,Unknown,Unknown,Unknown,Unknown,pharmacy,pharmacy,Unknown,Unknown,Unknown,18.5181862,73.8376844
Neo Artery and Vein Clinic,Unknown,Unknown,Unknown,Unknown,Unknown,Unknown,clinic,clinic,Unknown,Unknown,Unknown,18.5180037,73.8360362
Golwilkar Metropolis Heath Service (India) Pvt Ltd,"Flat No - 2, Abhyudaya Apartment-771, Bhandarkar Road",Unknown,Unknown,411004,Maharashtra,Unknown,hospital,laboratory,Unknown,Unknown,Unknown,18.5181296,73.8344155
Dr. Batra's Homeopathy Clinic,Unknown,Unknown,Unknown,Unknown,Unknown,Unknown,clinic,Unknown,Unknown,Unknown,Unknown,18.5025575,73.8169547
Shubhamkar Hand Clinic,Unknown,"Third floor, Galleria building, Mayur colony, Opp. Mrutyunjayeshwar Mandir, Karve Road, Kothrud",Pune,411038,Unknown,Unknown,clinic,Unknown,Unknown,https://www.handsurgerypune.in/hand-surgeon-pune,Unknown,18.5025462,73.8168342
Mayur Medicals,Unknown,Unknown,Unknown,Unknown,Unknown,Unknown,pharmacy,Unknown,Unknown,Unknown,Unknown,18.5050332,73.8395314
Arihant Medicals,Unknown,Lokmanya Tilak Road,Pune,411030,Unknown,Unknown,pharmacy,pharmacy,Unknown,Unknown,Mo-Sa 10:00-22:00; Su 10:30-13:30,18.5093148,73.8481215
Paranjape Hospital,Unknown,Unknown,Unknown,Unknown,Unknown,Unknown,hospital,hospital,Unknown,Unknown,Unknown,18.5143979,73.8460515
Nadkarni Pathology Laboratory,Unknown,Unknown,Unknown,Unknown,Unknown,Unknown,Unknown,laboratory,+91 20 25460178,Unknown,Mo-Sa 07:00-20:00,18.5033675,73.8193354
Emke Medicals,Unknown,Unknown,Unknown,Unknown,Unknown,Unknown,pharmacy,pharmacy,Unknown,Unknown,Unknown,18.5411459,73.8297739
Prakash Medicals,Unknown,Ramchandra Gayakwad Path,Pune,411007,Unknown,Unknown,pharmacy,pharmacy,Unknown,Unknown,Unknown,18.5604427,73.808984
Kimaya Skin Clinic,Unknown,Sanghvi Kesari Road,Pune,411007,Unknown,Unknown,clinic,clinic,+91 992 244 1228;+91 804 806 0114,https://www.drrajshreepatil.com,Mo-Sa 10:00-19:00,18.5604582,73.8126654
Modkharkar Clinic,Unknown,Sanghvi Kesari Road,Pune,411007,Unknown,Unknown,clinic,clinic,+91 992 244 1228,Unknown,Unknown,18.5604899,73.8127794
Ashwin Clinic,Unknown,Unknown,Unknown,Unknown,Unknown,Unknown,clinic,clinic,Unknown,Unknown,Unknown,18.5655305,73.8068928
Shrinath Medicos,Unknown,Unknown,Unknown,Unknown,Unknown,Unknown,pharmacy,pharmacy,Unknown,Unknown,Unknown,18.5074422,73.7974539
Phoenix Polyclinic and Diagnostics,Unknown,Unknown,Unknown,Unknown,Unknown,Unknown,Unknown,laboratory,Unknown,Unknown,Unknown,18.5718879,73.7811106
Phoenix Pharmacy,Unknown,Unknown,Unknown,Unknown,Unknown,Unknown,pharmacy,Unknown,Unknown,Unknown,Unknown,18.5719368,73.7811099
Ashakiran Hospital,Unknown,Unknown,Unknown,Unknown,Unknown,Unknown,hospital,Unknown,Unknown,Unknown,Unknown,18.5719235,73.7811374
Dhande Pathlab,Unknown,Unknown,Unknown,Unknown,Unknown,Unknown,Unknown,laboratory,Unknown,Unknown,Unknown,18.5657448,73.7728268
Medical Stores,Unknown,Unknown,Unknown,Unknown,Unknown,Unknown,pharmacy,pharmacy,Unknown,Unknown,Unknown,18.5598021,73.8030202
Wellness Forever,Unknown,Unknown,Unknown,Unknown,Unknown,Unknown,pharmacy,pharmacy,Unknown,Unknown,24/7,18.5603653,73.8093737
The Inamdar Heart Clinic,Unknown,Unknown,Unknown,Unknown,Unknown,Unknown,clinic,clinic,+91 25883398,theinamdarheartclinic.in,Unknown,18.5604009,73.8086133
Admire Chemist,Unknown,Unknown,Unknown,Unknown,Unknown,Unknown,pharmacy,Unknown,Unknown,Unknown,Unknown,18.5547294,73.8092101
Life Care Medico,Unknown,Unknown,Unknown,Unknown,Unknown,Unknown,pharmacy,Unknown,Unknown,Unknown,Unknown,18.504266,73.8208116
Healthspring,Unknown,Unknown,Unknown,Unknown,Unknown,Unknown,pharmacy,pharmacy,Unknown,Unknown,Unknown,18.5308191,73.8298309
Kaya Skin Clinic,Unknown,Unknown,Unknown,Unknown,Unknown,Unknown,clinic,Unknown,Unknown,Unknown,Unknown,18.5547027,73.8095145
I-Care Medicals,Unknown,Unknown,Unknown,Unknown,Unknown,Unknown,pharmacy,Unknown,Unknown,Unknown,Unknown,18.5628839,73.8305819
Apollo Pharmacy,Unknown,Unknown,Unknown,Unknown,Unknown,Unknown,pharmacy,pharmacy,Unknown,Unknown,Unknown,18.5357769,73.8762452
Pawar Surgical Hospital,"Laxmi Angan, Shatanand Complex, Hadapsar",Pune Solapur Road,Pune,411028,Maharashtra,Unknown,hospital,hospital,Unknown,https://www.pawarsurgicalhospital.com/,Unknown,18.5012035,73.9379293
ONP Leela Hospital,near Hotel Pride,Ganeshkhind Road,Pune,411005,Unknown,Unknown,hospital,hospital,020 6721 6600;020 6721 6699;9373813199,https://onphospitals.com,Unknown,18.5329215,73.8468085
Meera Hospital,"710 B 4, Opp. Dhobi Ghat, Bhawani Peth, Pune",Shankar Sheth Rd,Pune,411042,Maharashtra,Unknown,hospital,hospital,020 6721 2099;020 6721 2000,https://onphospitals.com,Unknown,18.5022882,73.8746894
Jupiter Hospital,Unknown,Pimple Nilkh Road,Pune,411045,Maharashtra,IN,hospital,hospital,+91-2027992799,https://www.jupiterhospital.com/about-us.php,Unknown,18.5656598,73.7859859
Seth Ramdas Shah Memorial Hospital and Research Centre,Unknown,Janawadi Road,Pune,411016,Unknown,IN,hospital,hospital,Unknown,https://www.sehat.com,Unknown,18.5293628,73.8284091
Ashwini Hospital,Unknown,Unknown,Pune,411045,Unknown,Unknown,hospital,hospital,+91 97877 30400,http://ashwinhospital.com,Unknown,18.576745,73.7757678
Unknown,Unknown,Unknown,Unknown,Unknown,Unknown,Unknown,clinic,clinic,Unknown,Unknown,Unknown,18.5174323,73.8430746
Unknown,Unknown,Pimple Nilakh,Unknown,411027,Unknown,Unknown,hospital,Unknown,Unknown,Unknown,Mo-Sa 10:00-17:00,18.571183,73.7948972
VEDACARE AYURVEDA,Unknown,Ramchandra Gayakwad Path,Pune,411007,Unknown,Unknown,Unknown,VEDACARE AYURVEDA,Unknown,Unknown,Unknown,18.5604087,73.8083945
Yashda Hospital,"420, Moti Chowk Ravivar Peth , 420, Moti Chowk Ravivar Peth",Unknown,Unknown,411001,Maharashtra,Unknown,hospital,hospital,Unknown,Unknown,Unknown,18.5168084,73.859535
Mohite Eye Hospital,"106, Ramanand Complex, Near Gadital, Sofapur Road, Hadapsar",Unknown,Unknown,411028,Maharashtra,Unknown,hospital,Unknown,Unknown,Unknown,Unknown,18.5006535,73.936556
Joglekar Hospital,"1066-A, Gokhale Road, Shivajinagar",Unknown,Unknown,411016,Maharashtra,Unknown,hospital,hospital,Unknown,Unknown,Unknown,18.5327524,73.8336359
"Rakshak Hospital, Pune","52/1/1, Shreeram Nagar Society, Chandan Nagar Kharadi Pune Nagar Highway",Unknown,Unknown,411014,Maharashtra,Unknown,hospital,Unknown,Unknown,Unknown,Unknown,18.5628712,73.9377429
Parmar Multi Speciality Hospital and Maternity Home,"Plot No.13, Sr No 157, Behind Hotel Polka Dots, Parihar Chowk, Aundh",Unknown,Unknown,411007,Maharashtra,Unknown,hospital,hospital,Unknown,Unknown,Unknown,18.5600564,73.8072065
Siddhi Health Care Center,Sadguru Kashid Nagar Opp Swimming Tank Near Kate Chowk Pimple Gurav,Unknown,Unknown,411001,Maharashtra,Unknown,hospital,hospital,Unknown,Unknown,Unknown,18.5857676,73.818174
"Aditya Eye Clinic, Pune","No. 1A, Kumar Plaza, Next To Wonder Land, 8 M G Road M G Road",Unknown,Unknown,411004,Maharashtra,Unknown,clinic,Unknown,Unknown,Unknown,Unknown,18.5160339,73.8792372
Argade Infertility and Endoscopic Surgery and Icu Center,"1st Floor, Kothrud Telephone Exchange Building, Kothrude",Unknown,Unknown,411038,Maharashtra,Unknown,hospital,Unknown,Unknown,Unknown,Unknown,18.5017523,73.8102353
CGHS Dispensary No.2,Pune,Unknown,Unknown,Unknown,Maharashtra,Unknown,clinic,centre,Unknown,http://nb.bsf.gov.in/CGHS%20DIspenseries.pdf,Unknown,18.5556244,73.8756169
Nikhil Polyclinic,"1st Lane,Nagpurchawl,Yerwada",Unknown,Unknown,411006,Maharashtra,Unknown,clinic,Unknown,Unknown,Unknown,Unknown,18.5611231,73.8938338
Chaitanya Stem Cell Center,"Rahi Sakha Apt., S.No.133, Pune - Sinhagad Road, Parvati",Unknown,Unknown,411030,Maharashtra,Unknown,hospital,Unknown,Unknown,https://chaitanyastemcell.com/,Unknown,18.5000189,73.8503981
Shree Shakti Hospital,"59/3, Near Katc Wosti, Next To Planet Hiueniem Societi, Pimple, Saudagar",Unknown,Unknown,411027,Maharashtra,Unknown,hospital,Unknown,Unknown,Unknown,Unknown,18.5887256,73.8014048
"Welfare Medical Foundatios, Mohintara Hospital",84 Placino Behind Vaibhav Theatre Hadapsar Behind Vaibhav Theatre Hadapsar,Unknown,Unknown,411028,Maharashtra,Unknown,hospital,Unknown,Unknown,Unknown,Unknown,18.503468,73.9292309
Galaxy Care Laparoscopy Institute Pvt. Ltd.,"25-A, Karve Road, Campus Of Ayurved Ras-Shala Near Garware College",Unknown,Unknown,411004,Maharashtra,Unknown,hospital,hospital,Unknown,Unknown,Unknown,18.5110031,73.837105
Punarvasu Chikitsalaya,"1123 B, Shanti-Prasad, Shivaji Nagar, Near Hotel Lalit Mahal, Model Colony",Unknown,Unknown,411016,Maharashtra,Unknown,hospital,hospital,Unknown,Unknown,Unknown,18.5284781,73.8423179
Ushakiran General Hospital,"Sr No 229/A 1, Kamdhenu Estate, Hadapsar",Unknown,Unknown,411028,Maharashtra,Unknown,hospital,Unknown,Unknown,Unknown,Unknown,18.5019965,73.9348286
"Zenith Hospital, Pune","15/2A/2A, Opp Vaibhav Theatre, Pune Solapur Road,Hadapsar",Unknown,Unknown,411028,Maharashtra,Unknown,hospital,Unknown,Unknown,Unknown,Unknown,18.5025879,73.9294803
Umarji Hospital,351 Shukrawar Peth,Unknown,Unknown,411013,Maharashtra,Unknown,hospital,hospital,Unknown,Unknown,Unknown,18.5119352,73.857758
Latkar Hospital,"Niyoshi Park-Ii, Sanghvi Nagar, Opposite Dass Showroom, D.P. Road, Aundh",Unknown,Unknown,411007,Maharashtra,Unknown,hospital,hospital,Unknown,Unknown,Unknown,18.5609006,73.8132226
Lunkad Hospital,"33 A, Mumbai-Pune Road, Dapodi",Unknown,Unknown,411012,Maharashtra,Unknown,hospital,hospital,Unknown,Unknown,Unknown,18.5840808,73.833248
Medipoint Hospital,"Plot No:38, Survey No.49/2, Off Pune Nagar Road, Shivraj Chowk, Near Bhaji Market, Chandan Nagar, Kharadi",Unknown,Unknown,411014,Maharashtra,Unknown,hospital,Unknown,Unknown,https://medipointhospitalpune.in/,Unknown,18.5623861,73.933849
Indira Maternity Home,"2009, Gaffar baig Street, Opposite Charbawadi Police Station, Camp",Unknown,Unknown,411001,Maharashtra,Unknown,hospital,Unknown,Unknown,Unknown,Unknown,18.5122188,73.8762961
Alatkar Hospital,"# 163/A,Bhosale Garden, Iii Pmc Stop, ,Hadapsar",Unknown,Unknown,411028,Maharashtra,Unknown,hospital,Unknown,Unknown,Unknown,Unknown,18.5018572,73.9322779
Bhide Hospital,"18, Laxmi Park, Shastri Road, Navi Peth",Unknown,Unknown,411030,Maharashtra,Unknown,hospital,hospital,Unknown,https://bhidehospital.in/contact-us/,Unknown,18.5048666,73.8443399
Poona Laser Center,"33/15B, Regent Chambers Opp Garware College Gate Karve Road",Unknown,Unknown,411004,Maharashtra,Unknown,hospital,hospital,Unknown,Unknown,Unknown,18.5123701,73.8381752
CGHS Dispensary No.4,"23, Mangalwar Peth",Unknown,Unknown,411011,Maharashtra,Unknown,clinic,centre,Unknown,http://nb.bsf.gov.in/CGHS%20DIspenseries.pdf,Unknown,18.5189181,73.8599682
Om Netralaya Eye Clinic,New Sangvi,Unknown,Unknown,411027,Maharashtra,Unknown,clinic,Unknown,Unknown,Unknown,Unknown,18.5787163,73.8154797
Remedy Hospital,"228, Ramanand Complex,Poona Sholapur, Road, Near Jenaseva Bank",Unknown,Unknown,411028,Maharashtra,Unknown,hospital,Unknown,Unknown,Unknown,Unknown,18.5005568,73.9365077
Amit Hospital,"1289, Seiko Apartment, Next To Gunjan Theater, Yerawada",Unknown,Unknown,411006,Maharashtra,Unknown,hospital,Unknown,Unknown,Unknown,Unknown,18.5463494,73.8880362
Shaikh Hospital,"114, Ganesh Peth, Pune, Near Dhule Maruti Mandir",Unknown,Unknown,411002,Maharashtra,Unknown,Unknown,hospital,Unknown,Unknown,Unknown,18.5146103,73.8629547
"Purandare Hospital, Pune","972, Shukruwar Peth",Unknown,Unknown,411002,Maharashtra,Unknown,hospital,Unknown,Unknown,Unknown,Unknown,18.5022916,73.8586646
Pramodini Urology Foundation,"9/7/20 A, Fergnsson College Road,Opp Hotel Vaishali,Next To Obc Bank",Unknown,Unknown,411004,Maharashtra,Unknown,hospital,hospital,Unknown,Unknown,Unknown,18.5199125,73.8410217
Shraddha Hospital,"1st Floor L P Classic, Hadapsar, Pune",Unknown,Unknown,411028,Maharashtra,Unknown,hospital,Unknown,Unknown,Unknown,Unknown,18.5019482,73.9315805
Lifeline Speciality Hospital,"Near Kesanand Phata, Nagar Phata,Wagholia",Nagar Road,Pune,412207,Maharashtra,Unknown,clinic,clinic,Unknown,Unknown,24/7,18.5823761,73.9894465
Salunke Hospital,"Old Mundhva Road, Near Sundarabai Marathe School, Ganeshnagar, Wadgaon Sheri",Unknown,Unknown,411014,Maharashtra,Unknown,hospital,Unknown,Unknown,Unknown,Unknown,18.5585931,73.9273694
Moolanis Eye Care Centre,"103, Pundol Aprtments (Opp Pantaloom) M G Road",Unknown,Unknown,411001,Maharashtra,Unknown,hospital,hospital,Unknown,Unknown,Unknown,18.5057737,73.8783494
Gokhale Hospital,"996, Shukrawar Peth, Tilak Road, 996",Unknown,Unknown,411002,Maharashtra,Unknown,hospital,Unknown,Unknown,Unknown,Unknown,18.502172,73.857062
Pune Fertility Center,"1162/3, Crescent Exclusee, Shivaji Nagar",Unknown,Unknown,411005,Maharashtra,Unknown,hospital,hospital,Unknown,Unknown,Unknown,18.5287757,73.8479868
Health Plus Nursing Home,"Above Cosmos Bank,Near Siddharth Nagar,Aundhgaon",Unknown,Unknown,411007,Maharashtra,Unknown,clinic,Unknown,Unknown,Unknown,Unknown,18.564719,73.8129873
Joshi Hospital,"No. 778, Shivajinagar, Opposite Kamla Nehru Park",Bhandarkar Path,Pune,411004,Maharashtra,Unknown,hospital,hospital,Unknown,Unknown,Unknown,18.5171772,73.8332118
"Lifeline Hospital, Pune",Hutatma Chawk Near Sbi Bank Bhosari,Unknown,Unknown,411039,Maharashtra,Unknown,hospital,Unknown,Unknown,Unknown,Unknown,18.5875463,73.8625391
Shri Samarth Hospital,"227, Rasta Peth, Omkar Apt",Unknown,Unknown,411011,Maharashtra,Unknown,hospital,hospital,Unknown,Unknown,Unknown,18.5180616,73.865867
Khares Eye Institute,Swojas Royal 116-B Erandawane It Lane,Unknown,Unknown,411004,Maharashtra,Unknown,hospital,hospital,Unknown,Unknown,Unknown,18.5145168,73.8317379
"Suraj Hospital, Hadaspur","Mahadevnagar Manjari Road, Hadaspur",Unknown,Unknown,412308,Maharashtra,Unknown,hospital,Unknown,Unknown,Unknown,Unknown,18.5052573,73.9541258
Agarwal Maternity and General Hospital,"45/1+2+5,Sangarsh Chowk Kharodi Road, Chandanagar",Unknown,Unknown,411014,Maharashtra,Unknown,hospital,Unknown,Unknown,Unknown,Unknown,18.5588804,73.931217
Ashakiran Hospital,"555, Narayan Peth, N C Kelkar Road",Unknown,Unknown,411030,Maharashtra,Unknown,hospital,hospital,Unknown,Unknown,Unknown,18.5158253,73.8474959
Sant Dnyaneswar Medical Education Research Centre,"No. 695, Sadashiva Peth, ,Opposite Vijay Cinema,Laxmi Road",Unknown,Unknown,411030,Maharashtra,Unknown,hospital,hospital,Unknown,Unknown,Unknown,18.5137805,73.8476971
"Tanmay Nursing Home, Pune",M.K Apts. Fatima Nagar,Unknown,Unknown,411013,Maharashtra,Unknown,clinic,Unknown,Unknown,Unknown,Unknown,18.5050341,73.9012172
Kohakade Hospital,"Plot No 21, Sr.No 49/2, Near Rupee Co Op Bank,In Front Of Maruti Mandir & Chandan Nagar Bus Stop, Pune-Nagar Road",Unknown,Unknown,411014,Maharashtra,Unknown,hospital,Unknown,Unknown,Unknown,Unknown,18.5628578,73.9320606
Patankar Nursing Home,"500/B/1, Parvati, Opposite Sarasbaug, Pune",Unknown,Unknown,411009,Maharashtra,Unknown,clinic,Unknown,Unknown,Unknown,Unknown,18.5003686,73.8542886
Dr. Karve Childrens Hospital,"1233, Shivaji Nagar, J.M. Road",Unknown,Unknown,411005,Maharashtra,Unknown,hospital,hospital,Unknown,Unknown,Unknown,18.5252254,73.8499763
Vinayak Netralaya - Pune,"Vinayak, 128/1B, Paud Road",Unknown,Unknown,411038,Maharashtra,Unknown,hospital,Unknown,Unknown,Unknown,Unknown,18.5105851,73.817981
Shaishav Clinic,"No. 695-A , Sadashiv Peth Laxmi Road, Opp Vijay Talkies",Unknown,Unknown,411030,Maharashtra,Unknown,clinic,Unknown,Unknown,Unknown,Unknown,18.5138215,73.8477098
Seva Hospital,"Priyadarshani Nagar,Near S.T.Colony,Old Sanghvi",Unknown,Unknown,411027,Maharashtra,Unknown,hospital,Unknown,Unknown,Unknown,Unknown,18.5748353,73.8277468
Mams Sumatibhai Shah Ayurved Mahavidyalayas,Hadapsar,Unknown,Unknown,411028,Maharashtra,Unknown,hospital,Unknown,Unknown,Unknown,Unknown,18.5035837,73.9387286
Nayan Tara Eye Clinic,"2nd Floor, Yugay Complex, Ganesh Nagar, Erandwana",Unknown,Unknown,411038,Maharashtra,Unknown,clinic,Unknown,Unknown,Unknown,Unknown,18.5010261,73.8251773
Rahel Hospital,"903, Sachapir Street, Next To Covent Camp",Unknown,Unknown,411001,Maharashtra,Unknown,hospital,Unknown,Unknown,Unknown,Unknown,18.5152906,73.8754553
Nachiket Hospital Pvt Ltd,"No. 68 / 4, Karve Road",Unknown,Unknown,411004,Maharashtra,Unknown,hospital,hospital,Unknown,Unknown,Unknown,18.5076864,73.831062
Rote Clinic,"Hrishikesh Dham, Parihar Chowk, Aundh",Unknown,Unknown,411007,Maharashtra,Unknown,clinic,clinic,Unknown,Unknown,Unknown,18.5604194,73.8090387
Sai Shree Orthopaedic Super Speciality and Joint Replacement Centre,"251/252, Opp Bsnl Tel Exchange, Near Parihar Chowk, Aundh, Near Dav School",Ramchandra Gayakwad Path,Pune,411007,Maharashtra,Unknown,hospital,hospital,+91 968 993 0608;+91 968 993 0612;+91 706 215 7062;+91 20 2588 8600;+91 20 6744 8600,https://www.saishreehospital.org,Unknown,18.5601581,73.8052712
Sunny Nursing Home,"Shopping Plaza Shop No- 6 Rambaug Colony Near Pallavi Road Pavp Road, Kothrud",Unknown,Unknown,411038,Maharashtra,Unknown,clinic,Unknown,Unknown,Unknown,Unknown,18.5121794,73.8102467
Dada Laser Eye Institute,"Office No. 202, 2nd Floor, A Wing, Gulmohor Apartments, Above State Bank Of India, East Street, Camp.",Unknown,Unknown,411001,Maharashtra,Unknown,hospital,Unknown,Unknown,Unknown,Unknown,18.5109382,73.8799037
Jeevan Sadhana Clinic - Pune,"257-258, Karve Road, Near Paud Phata",Unknown,Unknown,411038,Maharashtra,Unknown,clinic,Unknown,Unknown,Unknown,Unknown,18.5052192,73.8240199
Dr.Prakash Katariya Laser Cure,Ganga Nagar,Unknown,Unknown,411001,Maharashtra,Unknown,hospital,hospital,Unknown,Unknown,Unknown,18.5223591,73.8441311
"Pooja Hospital, Pune","Survey No. 43/1/1, Anand Park Dapopi Road, Pimple Gurav",Unknown,Unknown,411027,Maharashtra,Unknown,hospital,hospital,Unknown,Unknown,Unknown,18.5891781,73.8190953
Sahyadri Hospital Hadapsar,"G & S Tower, Survey No.153/A, Hissa No.1 To 4/21, Magarpatta, Pune-Solapur Road, Hadapsar",Unknown,Unknown,411028,Maharashtra,Unknown,hospital,Unknown,Unknown,Unknown,Unknown,18.5031602,73.9321491
Nande Hospital,"Shatanand Complex, First Floor, Near P.M.T. Depo, Gadital",Unknown,Unknown,411028,Maharashtra,Unknown,hospital,Unknown,Unknown,Unknown,Unknown,18.5011902,73.9383772
Moraya Hospital,"Gauri Appartment, Dapodi, Pimple Gurave Road, Dapodi",Unknown,Unknown,411012,Maharashtra,Unknown,hospital,hospital,Unknown,Unknown,24/7,18.5821441,73.8283718
"Mohintara Hospital, Hadapsar","84, Palacino Appartments, Behind Vaibhav Theatre, Pune-Solapur Road, Hadapsar, Pune-411028",Unknown,Unknown,411028,Maharashtra,Unknown,hospital,hospital,Unknown,Unknown,Unknown,18.5008462,73.9305311
Ameya Clinic,"Gynaec-Surgical & Maternity Home,34/4 B,Erandwana",Unknown,Unknown,411004,Maharashtra,Unknown,clinic,Unknown,Unknown,Unknown,Unknown,18.5037236,73.829328
"Sanjeevani Nursing Home, Pune","Gadital, Solapur Road, Hadapsar",Unknown,Unknown,411028,Maharashtra,Unknown,clinic,Unknown,Unknown,Unknown,Unknown,18.5009816,73.9410272
Kotbagi Hospital,Unknown,Park Avenue Lane,Pune,411007,Maharashtra,Unknown,Unknown,hospice,Unknown,Unknown,Unknown,18.5619808,73.8047278
Dr. Gogate's Eye Clinic,"K-102, Kumar Garima,Tadiwala Road,Behind Pune Rly Station",Unknown,Unknown,411001,Maharashtra,Unknown,clinic,Unknown,Unknown,Unknown,Unknown,18.5327481,73.8743435
Vinod Memorial Multispeciality Hospital,"A-23, Geeta Colony, Kasturba Soceity, Visharant Wadi, Behind Jakat Naka",Unknown,Unknown,411011,Maharashtra,Unknown,hospital,Unknown,Unknown,Unknown,Unknown,18.5732119,73.8774723
Om Hospital,"Anjali Apartments, Vetalbaba Chowk,Shivaji Nagar",Unknown,Unknown,411016,Maharashtra,Unknown,hospital,hospital,Unknown,Unknown,Unknown,18.5292449,73.830716
Bagade Hospital For Women and Maternity Home,"No. 3 & 4/7B, Agrasen Nagar,Opposite Atlas Copco Co. Dapodi",Unknown,Unknown,411012,Maharashtra,Unknown,hospital,hospital,Unknown,Unknown,Unknown,18.5964845,73.8300374
Nayanjyot Eye Clinic and Laser Centre(NEO EYE CLINIC),Pune,"2nd Floor, Status Health Club Building Opp. HDFC Bank., Bhandarkar Road",Pune,411004,Maharashtra,Unknown,clinic,clinic,Unknown,https://www.neoeyeclinic.com/,Unknown,18.5179948,73.8353509
Komal Nursing Home,"Mohan Wadi, Alandi Road, Vishrantwadi Bridge, Yerwada Poona",Unknown,Unknown,411006,Maharashtra,Unknown,clinic,Unknown,Unknown,Unknown,Unknown,18.5687078,73.8802859
Sharda Clinic,408/1 Ghorpade Peth Shankar Seth Road,Unknown,Unknown,411042,Maharashtra,Unknown,clinic,Unknown,Unknown,Unknown,Unknown,18.5012309,73.8663384
Bhavdhan Medicare Centre,"9, Sagar Society, Vidnyan Nagar, Homeland Road, Bavdhan",Unknown,Unknown,411021,Maharashtra,Unknown,clinic,Unknown,Unknown,Unknown,Unknown,18.515372,73.7809637
Om Prasuti Graha,"7/1-2, Jail Road",Unknown,Unknown,411006,Maharashtra,Unknown,hospital,Unknown,Unknown,Unknown,Unknown,18.5470843,73.8885243
"Shreenath Hospital, Pune","Citadel Enclave, Bt Kawde Road, Ghorpadi",Unknown,Unknown,411001,Maharashtra,Unknown,hospital,Unknown,Unknown,Unknown,Unknown,18.5211129,73.906766
Subodh Hospital,"138, Shiayi Statue Chowk, DP Road Kothrud, Pune",Unknown,Unknown,411038,Maharashtra,Unknown,hospital,Unknown,Unknown,Unknown,Unknown,18.5035234,73.8137605
Chinmay Institute Of Paediatrics,"210/B, Navi Peth",Unknown,Unknown,411030,Maharashtra,Unknown,hospital,hospital,Unknown,Unknown,Unknown,18.5083289,73.8457009
Suryaprabha Nursing Home,"Gujrat Colony Plot No. 7, Kothrud, Near Vanaz Company, Poud Road",Unknown,Unknown,411038,Maharashtra,Unknown,clinic,Unknown,Unknown,Unknown,Unknown,18.5073684,73.8083558
Paranjpe Eye Clinic and Eye Surgery Centre,"894, Venkatesh Apparrment, Off F. C. Road ,Deccan Gymkhana",Unknown,Unknown,411004,Maharashtra,Unknown,hospital,hospital,Unknown,Unknown,Unknown,18.5183547,73.8404001
Namrata Clinic,"368/1 Nana Pwth 1st, Floor Ram Prasad Appt.",Unknown,Unknown,411002,Maharashtra,Unknown,clinic,clinic,Unknown,Unknown,Unknown,18.5142815,73.8689294
K. K. Hospital - Pune,"Sn 52 / 1 / 6, Shriram Nagar Society, Mundhwa By Pass Chowk, Pune Nagar Highway, Chandannagar",Unknown,Unknown,411014,Maharashtra,Unknown,hospital,Unknown,Unknown,Unknown,Unknown,18.5626283,73.938176
Kurtkoti Nursing Home,"#95/82, Bhusari Colony,Paud Road,Near Kothrud Bus Depot.",Lane 8,Pune,411038,Maharashtra,Unknown,clinic,clinic,+91 20 2528 3595,Unknown,Unknown,18.509945,73.7963207
Ace Hospital,"32 / 2 A, Erandwane, Gulawani Maharaj Ro,Near Mehendale Garage & Abhishek Hotel",Unknown,Unknown,411004,Maharashtra,Unknown,hospital,Unknown,Unknown,Unknown,Unknown,18.504933,73.8303593
Jeewan Jyot Multispeciality Medical Care Center,"A - 1/II Floor, Hi Line Park Road, Ramwadi Naka, Nagar Road",Unknown,Unknown,411014,Maharashtra,Unknown,hospital,Unknown,Unknown,Unknown,Unknown,18.5569451,73.9074788
Pooja Hospital,"Kanchanjunga Arcade, Off Pune, Solapur Road, Hadapsur",Unknown,Unknown,411028,Maharashtra,Unknown,hospital,Unknown,Unknown,Unknown,Unknown,18.5023551,73.9288205
Global Hospital & Research Institute,"577/2, Near Dattawadi Police Chowky, , Off. Sinhagad Road",Unknown,Unknown,411030,Maharashtra,Unknown,hospital,Unknown,Unknown,Unknown,Unknown,18.5013237,73.8410144
"Lokmanya Hospital, Pune","13/4, Karve Road, Behind Ranka Jwellers",Unknown,Unknown,411004,Maharashtra,Unknown,hospital,hospital,Unknown,Unknown,Unknown,18.5089079,73.834105
Natasha Nursing Home,"Plot No, 336, Pimpri",Unknown,Unknown,411017,Maharashtra,Unknown,clinic,clinic,Unknown,Unknown,Unknown,18.5995668,73.7942742
Pabalkar Nursing Home,"No. 1208, Shukravar Peth, Lane No 3, Near Shivaji Maratha High School",Unknown,Unknown,411002,Maharashtra,Unknown,clinic,Unknown,Unknown,Unknown,Unknown,18.5059721,73.8564974
"Surya Netralaya, Pune","Legacy , 2nd Floor, D P Road, Above Lifeline Hospital, Aundh",Unknown,Unknown,411007,Maharashtra,Unknown,clinic,clinic,Unknown,Unknown,Unknown,18.5600145,73.8064085
Usha Nursing Home,Sector No.149. M.G.Road,Unknown,Unknown,411001,Maharashtra,Unknown,clinic,clinic,Unknown,Unknown,Unknown,18.5074956,73.8788523
Marathe Nursing Home,"26, Shri Niketan Society, Jayant Pandurang Naik Path, Kothrud",Unknown,Unknown,411038,Maharashtra,Unknown,clinic,Unknown,Unknown,Unknown,Unknown,18.5047181,73.8203453
Neo Clinic,917/21 Ii Floor F.C. Road,Unknown,Unknown,411001,Maharashtra,Unknown,clinic,clinic,Unknown,Unknown,Unknown,18.5240377,73.8414207
Dhanwantari Hospital,"339-C, Near Kem Hospital,Rasta Peth",Unknown,Unknown,411011,Maharashtra,Unknown,hospital,hospital,Unknown,Unknown,Unknown,18.5194471,73.8658999
Pungliya Hospital,"No. 562 / 1, Jada Bhuvan, Shivaji Nagaar, Opp Bal Gandharv Bridge;Survey No 1187/13, Chiroda Niwas, Ghole Road, Next to NIO, Pune",Unknown,Unknown,411005,Maharashtra;Maharastra,Unknown,hospital,hospital,Unknown,Unknown,Unknown,18.5226796,73.8508487
B.J.Medical College and Sassoon Hospital,Near Pune Railway Station,Unknown,Unknown,411001,Maharashtra,Unknown,hospital,hospital,Unknown,http://www.bjmcpune.org,Unknown,18.526235,73.871161
S P Deshpande Eye Clinic,Awanti Apartments Opposiste Amti Ganpati Kelkar Road Narayanpeth,Unknown,Unknown,411027,Maharashtra,Unknown,clinic,Unknown,Unknown,Unknown,Unknown,18.5157802,73.8471479
Vibhute Hospital,"No. 2149, Above Axis Bank,Vijayanagar Colony,Opposite Kaveri Hotel,Sadashiv Peth",Unknown,Unknown,411030,Maharashtra,Unknown,hospital,Unknown,Unknown,Unknown,Unknown,18.5040492,73.8518391
Undre Hospital;Undre Hospital Wagholi,"Shanti Park, Plot No-4, Kesnand Pata",Nagar Road,Wagholo,412207,Maharashtra,Unknown,hospital;clinic,clinic,Unknown,Unknown,Unknown,18.5815165,73.9856009
Yash Hospital - V.K. Medical Foundation,"Survey No 168, 10-11, DP Rd, Malwadi",Unknown,Unknown,411028,Maharashtra,Unknown,hospital,Unknown,Unknown,Unknown,Unknown,18.5103392,73.9380687
Kulkarni Endo Surgery Institute and Reconstructive Urology Centre,"3, Rajpat Society Opp: Vanazengg Paud Road",Unknown,Unknown,411038,Maharashtra,Unknown,hospital,Unknown,Unknown,Unknown,Unknown,18.5097841,73.8029893
Dr Makan Surgical Maternity and Accident Hospital,Ganganagar Sangavi,Unknown,Unknown,411027,Maharashtra,Unknown,hospital,Unknown,Unknown,Unknown,Unknown,18.5756743,73.8196734
Shah Hospital,"Netha Park, Yerwada, Opp Gunjan Theatre, Near Airport",Unknown,Unknown,411006,Maharashtra,Unknown,hospital,Unknown,Unknown,Unknown,Unknown,18.5486475,73.8893055
Prathmesh Hospital,"Sr No- 8, Yashwant Nagar Chowk, Hadapsar Bye Pass Road, OppositeBalaji Palace, Chandan Nagar",Unknown,Unknown,411035,Maharashtra,Unknown,hospital,Unknown,Unknown,Unknown,Unknown,18.5518547,73.9368054
Pune City Eye Hospital,"Bharat Arcade Qff No-3/2394-A ,Genthimayya Road,Opp Polgate Police Station",Bund Garden Road,Pune,411001,Maharashtra,Unknown,hospital,hospital,Unknown,Unknown,Unknown,18.5298629,73.8760869
Talesara Hospital,"Plot No.6, S N. No.6/A/1, C.S.T No.1307,Behind Sai - Baba Mandir,Air-Port Road , Yeswada",Unknown,Unknown,411006,Maharashtra,Unknown,hospital,Unknown,Unknown,Unknown,Unknown,18.5498719,73.8887711
Borse Nursing Home,"Paud Road, Bhusari Colony",Raj Path,Pune,411038,Maharashtra,Unknown,hospital,hospital,Unknown,Unknown,Unknown,18.5093803,73.7901476
Dr. Bumb Nursing Home,"1st Floor, Satyam Arcade, Ramwadi, Nagar Road",Unknown,Unknown,411014,Maharashtra,Unknown,clinic,Unknown,Unknown,Unknown,Unknown,18.5577324,73.9089614
Prathamesh Hospital,"Laxminagar, Shinde Nagar, Mulanagar, Old Sangvi, Pimpri-Chinchwad",Unknown,Unknown,411027,Maharashtra,Unknown,hospital,Unknown,Unknown,Unknown,Unknown,18.5735081,73.8239434
Deodhar Eye Hospital,"39/25, Erandwane Behind Kaka Halwai Karve Road",Unknown,Unknown,411004,Maharashtra,Unknown,hospital,hospital,Unknown,Unknown,Unknown,18.5114494,73.836472
"Om Hospital, Bavdhan","Shop no.1, OM hospital building Prashan, NDA Pashan Road",Unknown,Unknown,411021,Maharashtra,Unknown,hospital,Unknown,Unknown,Unknown,Unknown,18.5164841,73.7818475
Shri Sai Clinic,"S.No. 28, Shop No.2, Shri Krishna Nagar Dapodi Road, Pimple Gurav",Unknown,Unknown,411027,Maharashtra,Unknown,clinic,clinic,Unknown,Unknown,Unknown,18.5864474,73.8210222
Dr Meenu Agarwal Clinic,Camp,Unknown,Unknown,411001,Maharashtra,Unknown,clinic,Unknown,Unknown,Unknown,Unknown,18.5139534,73.8781965
Sai Seva Hospital,"Deccantower, Opp:Pulgatepostoffice",Unknown,Unknown,411001,Maharashtra,Unknown,clinic,clinic,Unknown,Unknown,closed,18.5067097,73.8798045
Godbole Hospital,"1301 , Bharat Natya Mandir Road",Unknown,Unknown,411030,Maharashtra,Unknown,hospital,hospital,Unknown,Unknown,Unknown,18.5112078,73.8513154
Kataria Hospital,Nagar Road Yerawada,Unknown,Unknown,411006,Maharashtra,Unknown,hospital,Unknown,Unknown,Unknown,Unknown,18.545411,73.8855249
Dr.Pawar Eye Hospital,"272, Parth Complex, Navi Peth",Unknown,Unknown,411030,Maharashtra,Unknown,hospital,hospital,Unknown,Unknown,Unknown,18.5092716,73.8449264
National Institute Of Ophthalmology,"1187/30 Off Ghole Road, Near Mahatma Phule Museum, Shivaji Nagar",Unknown,Unknown,411005,Maharashtra,Unknown,hospital,Unknown,Unknown,Unknown,Unknown,18.5596864,73.8148253
Nm Wadia Institute Of Cardiology,32 Sassoon Road Pune Station,Unknown,Unknown,411001,Maharashtra,Unknown,hospital,Unknown,Unknown,Unknown,Unknown,18.5307444,73.8771894
Bhakti Hospital,"Sant Abhang Colony, Near Poona Marble, Pimple Gurav",Unknown,Unknown,411027,Maharashtra,Unknown,hospital,hospital,Unknown,Unknown,Unknown,18.5851041,73.819735
Sane Guruji Arogya Kendra,"Near Samidha Gas Agency, Malwadi, Hadapsar",Unknown,Unknown,411028,Maharashtra,Unknown,hospital,Unknown,Unknown,Unknown,Unknown,18.503632,73.9381224
Wagh Eye Clinic,"1194/24, Mugut Apartment, Ghole Road, Shivajinagar",Unknown,Unknown,411005,Maharashtra,Unknown,clinic,clinic,Unknown,Unknown,Unknown,18.5252979,73.8437355
Bhide Clinic,"1st Floor, 1206/A/40, Matru Mandir, Opp, Jangali Maharaj Rd, Sambhaji Garden, Shivajinagar",Unknown,Unknown,411005,Maharashtra,Unknown,clinic,clinic,Unknown,Unknown,Unknown,18.5208179,73.8458765
Prabhudesai Eye Clinic,"14, Saket Society, Opp. Siddharth Palace Hall, Near Karishma Society and Joshi Railway Museum, Kothrud Pune",Unknown,Unknown,411038,Maharashtra,Unknown,clinic,clinic,Unknown,Unknown,Unknown,18.5009346,73.8202762
Disha Diagnostic Center,"Disha Apt, Sandhvi Nagar, Aundh",Sanghvi Kesari Road,Unknown,411007,Maharashtra,Unknown,clinic,clinic,+91 996 072 0849,Unknown,"Mo-Sa 08:30-14:00,05:30-20:00; Su 09:00-12:00",18.5608992,73.8112011
"Samarth Hospital, Pune","1486, Kasba Peth , Next To Daruwala Pool",Unknown,Unknown,411011,Maharashtra,Unknown,hospital,hospital,Unknown,Unknown,Unknown,18.5195234,73.862059
Amai Charitable Trust Institute Of Urology,"S. No. 32/2A, Erandwana, Behind Mehendale Garage, Near Hotel Abhishek, Gulwani Maharaj Strret",Unknown,Unknown,411004,Maharashtra,Unknown,hospital,Unknown,Unknown,Unknown,Unknown,18.5550536,73.8162401
Z Y - Vision,"101, Trikaya House Deendayal Hospital Lane F C Road",Unknown,Unknown,411004,Maharashtra,Unknown,hospital,hospital,Unknown,Unknown,Unknown,18.5247371,73.8408494
Dr. Balani's Speciality Dental Clinic,"215,Parmar Chambers,B Block,2nd Floor",Unknown,Unknown,411001,Maharashtra,Unknown,clinic,Unknown,Unknown,Unknown,Unknown,18.525598,73.8763618
"Shreeyash Hospital, Pune",759 / 53 Deccan Gymkhana,Unknown,Unknown,411001,Maharashtra,Unknown,hospital,hospital,Unknown,Unknown,Unknown,18.5155666,73.8418673
Dr. Todkar Hospital,"8/1, Mangalwar Peth, 137 Mangalwar Peth, 573, Nana Peth",Unknown,Unknown,411001,Maharashtra,Unknown,hospital,hospital,Unknown,Unknown,Unknown,18.5229518,73.8639473
Manoj Clinic / Gore Hospital,"1148,Sadashiv Peth,Opposite Perugate",Unknown,Unknown,411030,Maharashtra,Unknown,hospital,hospital,Unknown,Unknown,Unknown,18.5117788,73.8487867
Vishwaniranjan Eye Hospital,"Chhatrapati Sambhaji Maharaj Rd, Pantancha Gate, Sadashiv Peth",Unknown,Unknown,411030,Maharashtra,Unknown,hospital,hospital,Unknown,Unknown,Unknown,18.5113846,73.8458276
Dhanvantary Hospital,"Pawna Nagar, Old Sangvi, Pimpri-Chinchwad",Unknown,Unknown,411020,Maharashtra,Unknown,hospital,Unknown,Unknown,Unknown,Unknown,18.5728934,73.8249265
"Adarsh Nursing Home, Pune","Deepak Park,Opp Shashtri Nagar, Police Station , Nagar Road",Unknown,Unknown,411006,Maharashtra,Unknown,clinic,Unknown,Unknown,Unknown,Unknown,18.5515102,73.8974829
"Ram Krishna Hospital, Pune","1536, Laxmi Chambers, Sadashiv Peth, Tilak Road",Unknown,Unknown,411030,Maharashtra,Unknown,hospital,hospital,Unknown,Unknown,Unknown,18.5092455,73.8483354
Sanjeevan Maternity and Surgical Hospital,"S.No. 251/3/11 & 252/1/2,OppositeAundh, Telephone Exchange,D.P.Road,Aundh",Unknown,Unknown,411007,Maharashtra,Unknown,hospital,hospital,Unknown,Unknown,Unknown,18.5593966,73.8025528
Serene Hospital Pvt Ltd,"S No.242, Cst No. 7261 Sainik Nagar, Near Pratik Nagar",Unknown,Unknown,411006,Maharashtra,Unknown,hospital,Unknown,Unknown,Unknown,Unknown,18.5697941,73.8818973
Biniwale Clinic,"1, Flat No-3 Dinkar Baug Appt. Bhandarkar Institute Road",Unknown,Unknown,411004,Maharashtra,Unknown,clinic,clinic,Unknown,Unknown,Unknown,18.5183573,73.8344885
CGHS Dispensary No.3;CHGS hospital,"CAD Chitragupta Complex, Hidayattullah Road",Unknown,Unknown,411042,Maharashtra,Unknown,clinic;hospital,centre;hospital,Unknown,http://nb.bsf.gov.in/CGHS%20DIspenseries.pdf,Unknown,18.504568,73.8744199
Polaris Health Care,"Wakad -Dange Chowk Road ,Near Datta Mandir , Wakad",Unknown,Unknown,411057,Maharashtra,Unknown,hospital,Unknown,Unknown,Unknown,Unknown,18.5994905,73.7636078
Deshpande Hospital,"Parekh B Towers, Biaroba Nala, Fatimanagar",Unknown,Unknown,411013,Maharashtra,Unknown,hospital,Unknown,Unknown,Unknown,Unknown,18.5049909,73.9022358
Apte Eye Clinic and Laser Center,"Shop No 7, Abhijeet Apartment, Paud Phata Road, Behind Kirti Hardware, Opposite Indira Heights, Karve Road",Unknown,Unknown,411038,Maharashtra,Unknown,clinic,Unknown,Unknown,Unknown,Unknown,18.504769,73.8251156
Centre For Laproscopy Surgery,"1206/4,OppositeSambhaji Park,K.P Kulkarni Road",Unknown,Unknown,411004,Maharashtra,Unknown,hospital,hospital,Unknown,Unknown,Unknown,18.5207937,73.8452496
Kanitkar Urology Clinic,"Model Colony Road, Near Post Office",Unknown,Unknown,411001,Maharashtra,Unknown,clinic,clinic,Unknown,Unknown,Unknown,18.5283179,73.8383925
Asha Polyclinic,"Anand-Nilay , First Floor, Near Karve Statue ,Kothrud",Unknown,Unknown,411038,Maharashtra,Unknown,clinic,Unknown,Unknown,Unknown,Unknown,18.5014344,73.8149942
Kawedia Hospital,"2144,New Modikhana, Opposite Poolgate Police Chowky, Camp",Unknown,Unknown,411001,Maharashtra,Unknown,hospital,hospital,Unknown,Unknown,Unknown,18.5070645,73.8782608
Ashirwad Hospital,"Mittal Bhavan,G Ward",Unknown,Unknown,410401,Maharashtra,Unknown,hospital,hospital,Unknown,Unknown,Unknown,18.5934583,73.7387454
Pandit Clinic,"Kamal 2nd Floor, 1306 Shivajinagar, Behind Bank Of Baroda",Unknown,Unknown,411005,Maharashtra,Unknown,clinic,clinic,Unknown,Unknown,Unknown,18.5232989,73.8496108
Ambekar Hospital,"Plot No 86, Opposite Jog School, Bank Of Maharashtra, Mayur Colony, Kothrud",Unknown,Unknown,411029,Maharashtra,Unknown,hospital,Unknown,Unknown,http://punedialysis.com/,Unknown,18.5054055,73.817541
Swayam Clinic Pvt. Ltd.,"No. 742/A, Dinshaw Apts,Bhawani Peth",Unknown,Unknown,411001,Maharashtra,Unknown,clinic,clinic,Unknown,Unknown,Unknown,18.5076152,73.8760802
Harijivan Hospital,"Saras Baug Road,Aannabhau Sathe Chowk",Unknown,Unknown,411002,Maharashtra,Unknown,hospital,Unknown,Unknown,Unknown,Unknown,18.5001435,73.8542376
Nityaseva Eye Hsopital and Eye Bank,"Vaishnavi Palace,Shitolenagar,Old Sangavi,P",Unknown,Unknown,411027,Maharashtra,Unknown,hospital,Unknown,Unknown,Unknown,Unknown,18.575223,73.8173626
Primary Health Sub Centre,"Dange Chowk Rd, Hinjawadi Village, Hinjawadi, Pimpri-Chinchwad",Unknown,Unknown,Unknown,Maharashtra,Unknown,Unknown,centre,Unknown,Unknown,Unknown,18.5923591,73.7389167
"Sub Centre, Manjari",Manjri,Unknown,Unknown,Unknown,Maharashtra,Unknown,Unknown,centre,Unknown,Unknown,Unknown,18.5262872,73.9913998
Dhanvantari Hospital,Unknown,Solapur Road,Pune,411028,Unknown,Unknown,hospital,hospital,Unknown,Unknown,Unknown,18.5004494,73.9360535
Inaam General Hospital,"191, Jail Rd, Yerawada",Unknown,Unknown,411006,Maharashtra,Unknown,hospital,Unknown,Unknown,Unknown,Unknown,18.5618595,73.892592
Aditya Eye Hospital & Lasik Centre,"Near Ishanya Mall, Maharashtra Housing Board , Yerwada",Unknown,Unknown,411006,Maharashtra,Unknown,hospital,Unknown,Unknown,Unknown,Unknown,18.560232,73.8953506
Sahyadri Super Speciality Hospital,"Near Hermes Heritage, Nagar Rd, Yerawada",Unknown,Unknown,411006,Maharashtra,Unknown,hospital,Unknown,Unknown,Unknown,Unknown,18.5543086,73.8971383
Rutu Anand Hospital,"191, Nagpur Chawl, Above Sanjay Medicals Near To Saibaba Mandir Nagpur Chawl, Yerwada",Unknown,Unknown,411006,Maharashtra,Unknown,hospital,Unknown,Unknown,Unknown,Unknown,18.56295,73.8942307
Freedom Fighter Gangaram Karne Hospital,"Shastrinagar, Yerawada",Unknown,Unknown,411006,Maharashtra,Unknown,hospital,Unknown,Unknown,Unknown,Unknown,18.5565024,73.8972835
Chatrapati Shivray Hospital PMC Pune,"11, Maharashtra Co-Operative Housing Society, Yerawada",Unknown,Unknown,411006,Maharashtra,Unknown,hospital,Unknown,Unknown,Unknown,Unknown,18.5623853,73.8965795
Shree Hospital,"Nagar Rd, Opp Agakhan Palace, Shastrinagar, Yerawada",Unknown,Unknown,411006,Maharashtra,Unknown,hospital,Unknown,Unknown,Unknown,Unknown,18.5533588,73.8989792
Neney's Hospital,"Flat 9, Uttam Tower, Shastrinagar, Yerawada",Unknown,Unknown,411006,Maharashtra,Unknown,hospital,Unknown,Unknown,Unknown,Unknown,18.5536181,73.899622
PMC ARMED FORCE MEDICAL COLLEGE(AFMC),"Pune Cantonment, Pune",Unknown,Unknown,411040,Maharashtra,Unknown,hospital,Unknown,Unknown,Unknown,Unknown,18.503916,73.890117
Sree Ramchandra Mahadev Nath Chandumama Sonawane Maternity Home,"Ambe Mini Market, Bhawani Peth, Pune",Unknown,Unknown,411042,Maharashtra,Unknown,Unknown,centre,Unknown,Unknown,Unknown,18.505813,73.86884
PMC - Late. Annasaheb Magar Maternity Home,"Magarpatta, Hadapsar, Pune",Unknown,Unknown,411028,Maharashtra,Unknown,Unknown,centre,Unknown,Unknown,Unknown,18.502911,73.927152
Dr. Kotnis Arogya kendra,"Gadikhana, Near Mahatma Phule Mandai, Shukrawar Peth, Pune",Unknown,Unknown,411002,Maharashtra,Unknown,Unknown,centre,Unknown,Unknown,Unknown,18.5095844,73.8585026
Late Anandibai Narhar Gadgil Hospital,"Near Mahatre Bridge, Dattawadi, Pune",Unknown,Unknown,411030,Maharashtra,Unknown,hospital,hospital,Unknown,Unknown,Unknown,18.5024088,73.8386813
PMC - Dr. Homi J Bhabha Maternity Home,"Deep Bangla Chowk, Health Camp, Pune",Unknown,Unknown,411016,Maharashtra,Unknown,Unknown,centre,Unknown,Unknown,Unknown,18.5292437,73.8330763
PMC - Late Sanjay Gandhi Maternity Hospital,"Near Shri Sambhavnath Nutan Jinalay, Bopodi Gaon, Pune",Unknown,Unknown,411003,Maharashtra,Unknown,Unknown,centre,Unknown,Unknown,Unknown,18.5710074,73.8383273
"PHC, Maan","Maan Road, Opp, Z.P. School, Maan",Unknown,Unknown,411057,Maharashtra,Unknown,Unknown,centre,Unknown,Unknown,Unknown,18.5767655,73.709308
PCMC-Dapodi Dispensary,"Near Sambhaji Chowk, Dapodi",Unknown,Unknown,411012,Maharashtra,Unknown,clinic,centre,Unknown,Unknown,Unknown,18.580541,73.827358
Sutika Seva Mandir,"Laxmi Road, Narayan Peth, Pune, Maharashtra",Unknown,Unknown,411030,Maharashtra,Unknown,hospital,hospital,Unknown,Unknown,Unknown,18.513913,73.846551
PMC Sangamnerkar Hospital (N. G. O.),"Vadgaonsheri, Next To Inorbit Mall, Nagar Road, Somnath Nagar, Pune",Unknown,Unknown,411014,Maharashtra,Unknown,hospital,Unknown,Unknown,Unknown,Unknown,18.561134,73.921412
Chris Rock Edward Paul Hospital,"MLS Colony, Dhanori, Pune",Unknown,Unknown,411032,Maharashtra,Unknown,hospital,Unknown,Unknown,Unknown,Unknown,18.5770661,73.8990724
"PHC, Wagholi","Nagar-Pune Road, Ap.Wagholi Tal Haveli Dist Pune",Unknown,Unknown,412207,Maharashtra,Unknown,Unknown,centre,Unknown,Unknown,Unknown,18.5799582,73.9828231
PCMC-Phugewadi Dispensary,"Mumbai-Pandharpur Road, Near Talathi Office, Phugewadi",Unknown,Unknown,411012,Maharashtra,Unknown,clinic,centre,Unknown,Unknown,Unknown,18.587744,73.832099
Sasoon Hospital,"Jay Prakash Narayan Road, Railway Station, Pune",Unknown,Unknown,411001,Maharashtra,Unknown,hospital,hospital,Unknown,Unknown,Unknown,18.521872,73.873118
Siddharth Dawakhana Vishrant Wadi,"Alandi Road, Phulenagar, Visharant Wadi, Pune",Unknown,Unknown,411006,Maharashtra,Unknown,Unknown,centre,Unknown,Unknown,Unknown,18.5721375,73.8788439
PCMC-Pimple Gurav Dispensary,"Sahadu Kashid Road, Near NABARD Financial Services Ltd, Pune",Unknown,Unknown,411061,Maharashtra,Unknown,clinic,centre,Unknown,Unknown,Unknown,18.591247,73.818583
Smart Health Chemist,Unknown,Unknown,Unknown,Unknown,Unknown,Unknown,pharmacy,pharmacy,Unknown,Unknown,Unknown,18.5774997,73.7374633
Kaushal's Dental Care,Unknown,Unknown,Unknown,Unknown,Unknown,Unknown,dentist,dentist,Unknown,Unknown,Unknown,18.577393,73.7374894
Ramdev Medical,Unknown,Unknown,Unknown,Unknown,Unknown,Unknown,pharmacy,pharmacy,Unknown,Unknown,Unknown,18.5773585,73.7374972
Ridgeway Dental Spa,Unknown,Unknown,Unknown,Unknown,Unknown,Unknown,dentist,dentist,+91 72195 10065,Unknown,"Mo-Fr 09:00-19:00; Sa ""by appointment""",18.577186,73.7374981
Dr Bhore's Mother & Child Clinic,Unknown,"Madhav Nagar, Dhanori",Pune,411015,Unknown,Unknown,hospital,hospital,Unknown,Unknown,Unknown,18.5977182,73.9028326
CT Nursing Home,Unknown,Dhanori Road,Pune,411015,Unknown,Unknown,hospital,hospital,Unknown,Unknown,Unknown,18.596865,73.9001514
"FPA , Kothrud","Bhusari Colony, Kothrud, Pune",Unknown,Unknown,411038,Maharashtra,Unknown,hospital,Unknown,Unknown,Unknown,Unknown,18.506552,73.7886402
Colony Nursing Home,"50/51, LB Shastri Road, Near Dandekar Bridge, Navi Peth, Laxmi Park, Sadashiv Peth, Pune",Unknown,Unknown,411030,Maharashtra,Unknown,hospital,Unknown,Unknown,Unknown,Unknown,18.5030769,73.8446917
Vaibhav Hospital,"Opp. Neeta park, Janta Nagar, Yerwada Village, Yerawada, Pune",Unknown,Unknown,411006,Maharashtra,Unknown,hospital,Unknown,Unknown,Unknown,Unknown,18.5490315,73.8887874
Gupte Hospital Extension Clinic,"Shiv Shakti Complex, 2nd Floor, Baner Road, Pune",Unknown,Unknown,411045,Maharashtra,Unknown,hospital,Unknown,Unknown,Unknown,Unknown,18.557773,73.793639
Hinjawadi Hospital,"Muktangan Complex, In Front AXIS Bank, Marunji Road, Hinjawadi, Mulshi, Pune",Unknown,Unknown,411057,Maharastra,Unknown,hospital,hospital,Unknown,Unknown,Unknown,18.5950742,73.7350569
Lotus Hospital,"Takale Nagar, Pune",Unknown,Unknown,411028,Maharastra,Unknown,hospital,Unknown,Unknown,Unknown,Unknown,18.515216,73.964247
Dhanwantari Hospital,"Dhanwantari Building, Baner Road, Pune",Unknown,Unknown,411045,Maharashtra,Unknown,hospital,Unknown,Unknown,Unknown,Unknown,18.5593096,73.7895512
Bora Hospital,"Kawade Nagar, Kranthi Chowk, New Sanghavi, Pimpri-Chinchwad",Unknown,Unknown,411061,Maharashtra,Unknown,hospital,Unknown,Unknown,Unknown,Unknown,18.5828476,73.8122787
Shivam Hospital,"1st Floor, Ramanand Complex, Hadapsar, Pune",Unknown,Unknown,411028,Maharastra,Unknown,hospital,Unknown,Unknown,Unknown,Unknown,18.500617,73.9364994
Dr. Neelima Vaid - ENT Clinic,"32, Ward No. 8, National Housing Society, Aundh, Pune",Unknown,Unknown,411007,Maharastra,Unknown,clinic,Unknown,Unknown,Unknown,Unknown,18.553191,73.810011
Prime Multispeciality Hospital,"Bus Stop, Shakuntal Chembers, Near Sus, Pune",Unknown,Unknown,411021,Maharastra,Unknown,hospital,Unknown,Unknown,Unknown,Unknown,18.5535131,73.7537866
Goodwill Icon Hospital,"4/1, Gold Road, Pandhari Nagar, Rakshak Nagar, Kharadi, Pune",Unknown,Unknown,411014,Maharastra,Unknown,hospital,Unknown,Unknown,Unknown,Unknown,18.5537182,73.9395977
Apex Eye Care Clinic,"Baner - Balewadi Road, Balewadi Phata, Baner, Pune",Unknown,Unknown,411045,Maharashtra,Unknown,clinic,Unknown,Unknown,Unknown,Unknown,18.564414,73.7827206
Dignity 9 Multispecality Hospital,"Wagholi, Pune",Unknown,Unknown,412207,Maharastra,Unknown,hospital;clinic,clinic,Unknown,Unknown,Unknown,18.5797171,73.9894617
Dr. Taruna's Polyclinc,"Shirine Garden, Aundh, Pune",Unknown,Unknown,411007,Maharastra,Unknown,clinic,clinic,Unknown,Unknown,Unknown,18.5590984,73.8075853
Ruby Hall Clinic,"Sasoon Road, Sangamvadi, Pune",Unknown,Unknown,411001,Maharashtra,Unknown,clinic,Unknown,Unknown,Unknown,Unknown,18.5334836,73.8769949
Skin and Hair Clinic,"Wagholi, Pune",Unknown,Unknown,412207,Maharastra,Unknown,clinic,Unknown,Unknown,Unknown,Unknown,18.57782,73.995111
Petals Hospital,"Ganga Complex, Near Gunjan Talkies,Yerawada, Pune",Unknown,Unknown,411006,Maharashtra,Unknown,hospital,Unknown,Unknown,Unknown,Unknown,18.5492968,73.8888427
Dr. Agarwals Eye Hospital,"No.127, Plot 7, Lotus Court, ITI Road, Aundh, Near Tanishq at, Pune",Unknown,Unknown,411007,Maharastra,Unknown,hospital,hospital,Unknown,Unknown,Unknown,18.5535506,73.80838
Imax Multispeciality Hospital;Imax Multispcality Hospital,"Kesnand Phata Chowk, Sant Tukaram Nagar, Wagholi, Pune",Nagar Road,Wagholi,412207,Maharastra,Unknown,hospital;clinic,clinic,Unknown,Unknown,Unknown,18.582959,73.986471
Snehbandh Multispeciality Hospital,"Plot No 24, Near Sambhaji Chowk, Sundar Baug Colony, Pimpri-Chinchwad, Pune",Unknown,Unknown,411012,Maharastra,Unknown,hospital,hospital,Unknown,Unknown,Unknown,18.5806656,73.8307214
N. M. Wadia Hospital,"Sasoon Road, Central Excise Colony, Sangamvadi, Pune",Unknown,Unknown,411001,Maharashtra,Unknown,hospital,Unknown,Unknown,Unknown,Unknown,18.530716,73.876952
Trimiti Clinic,"Shivraj Apartments, DP Road, Aundh, Pune",Unknown,Unknown,411007,Maharastra,Unknown,clinic,clinic,Unknown,Unknown,Unknown,18.5603384,73.8076261
Anand Clinic,"Near Old Relax Hotel, Old Mundhwa Road, Kharadi, Pune",Unknown,Unknown,411014,Maharashtra,Unknown,clinic,Unknown,Unknown,Unknown,Unknown,18.549835,73.929356
Dr. Shraddha Angal,"Shop No. 108/7, Pride House, Pune University Road, Chattushringi, Shivajinagar, Pune",Unknown,Unknown,411016,Maharastra,Unknown,hospital,hospital,Unknown,Unknown,Unknown,18.540958,73.829755
iCare Clinic,"Chandravarsha Building, Above SBI, Pune",Unknown,Unknown,411021,Maharashtra,Unknown,clinic,Unknown,Unknown,Unknown,Unknown,18.541651,73.7910314
Chirayu Hospital,"Manthan Complex, 1st Floor, Near Bus Depo, Kesanand Phata, Wagholi, Pune",Unknown,Pune,412207,Maharastra,Unknown,hospital;clinic,clinic,Unknown,Unknown,Unknown,18.580315,73.9883944
Star Polyclinic,Unknown,Ramchandra Gayakwad Path,Pune,411007,Maharastra,Unknown,clinic,clinic,Unknown,Unknown,Unknown,18.5602871,73.8071745
Dr. Shirish Medhekar,"B-11, Sant Society, Beside Radhika Hotel, Aundh, Near Parihar Chowk, Pune",Unknown,Unknown,411007,Maharastra,Unknown,doctors,doctor,Unknown,Unknown,Unknown,18.560379,73.809502
Noble Hospital,"Magarpatta Road, North Hadapsar, Pune",Unknown,Unknown,411028,Maharastra,Unknown,hospital,Unknown,Unknown,Unknown,Unknown,18.5035846,73.9273481
Primary Health Centre,"Manjri Village Road, Manjri, Manjri Budruk, Pune",Unknown,Unknown,412307,Maharastra,Unknown,Unknown,centre,Unknown,Unknown,Unknown,18.5228833,73.9840037
Aditya Hospital,"Suyog Colony, Pimple Gurav, Pimpri-Chinchwad",Unknown,Unknown,411061,Maharastra,Unknown,hospital,hospital,Unknown,Unknown,Unknown,18.586342,73.813735
Serene Hospital,"Sainik Nagar, Vishrantwadi, Yerawada, Pune",Unknown,Unknown,411006,Maharashtra,Unknown,hospital,Unknown,Unknown,Unknown,Unknown,18.569842,73.8823303
Sanjeevani Hospital,"Hinjewadi Road, Shivaji Chowk, Above IDBI Bank, Phase-I, Hinjawadi, Pune",Hinjawadi Road,Pune,411057,Maharastra,Unknown,hospital,hospital,Unknown,Unknown,Unknown,18.5914168,73.7395295
Chaitanya General Hospital,"Ghoir Colony, Near Ram Krishna More Sabha Gruha, Pune",Unknown,Unknown,411033,Maharashtra,Unknown,hospital,Unknown,Unknown,Unknown,Unknown,18.519983,73.9067768
Dharmadhikari Hospital,"Nitin Heights, Opp. Janaseva Bank, Pune - Solapur Road, Hadapsar, Pune",Unknown,Unknown,411028,Maharastra,Unknown,hospital,Unknown,Unknown,Unknown,Unknown,18.5015481,73.9357865
Health Bay Clinic,"Transbay, Balewadi Road, Pune",Unknown,Unknown,411045,Maharashtra,Unknown,clinic,Unknown,Unknown,Unknown,Unknown,18.574552,73.773626
Pagare Hospital,"Gangardenagar, Pimple Gurav, Pune",Unknown,Unknown,411061,Maharastra,Unknown,hospital,hospital,Unknown,Unknown,Unknown,18.5889738,73.8165592
Shree Hospital,"7/3/B, Gulmohar Sociaty, Behind Radisson Blue Hotel, Kharadi, Pune",Unknown,Unknown,411014,Maharastra,Unknown,hospital,Unknown,Unknown,Unknown,Unknown,18.5515015,73.9411724
Dr. Uma Alurkar,"Mont Vert Zenith, Office No. 101, 1st Floor, Baner Road, Baner, Pune",Unknown,Unknown,411045,Maharastra,Unknown,doctors,doctor,Unknown,Unknown,Unknown,18.555754,73.795425
Dr. Babasaheb Ambedkar Cantonment General Hospital,"Bus Stop, Elphinston Road, Kasamali Jumbo Marg, Khadki, Pune",Unknown,Unknown,411003,Maharashtra,Unknown,hospital,Unknown,Unknown,Unknown,Unknown,18.5687508,73.8486366
Dr. Sanjay Kolte Clinic,"Soham Complex, Opp. CCD, Above T.I.M.E, Parihar Chowk, Raagdari Society, Aundh, Pune",Ramchandra Gayakwad Path,Pune,411007,Maharastra,Unknown,doctors,doctor,Unknown,https://drsanjaykolte.in/,Unknown,18.5601999,73.8057001
Kasturba General Hospital,"Near Janata High School, Kasturba Housing Society, Visharant Wadi, Pune",Unknown,Unknown,411006,Maharashtra,Unknown,hospital,Unknown,Unknown,Unknown,Unknown,18.5725401,73.8815063
Sudarshan Hospital,"49/1, Gangardenagar , Near Katepuram Chowk, Pimpri-Chinchwad, Pune",Unknown,Unknown,411061,Maharastra,Unknown,hospital,hospital,Unknown,Unknown,Unknown,18.588825,73.817373
Jogai Clinic,"Sarjaa Road, Chaitraban Society, Aundh, Pune",Unknown,Unknown,411007,Maharastra,Unknown,clinic,Unknown,Unknown,Unknown,Unknown,18.5531308,73.8081019
Vinayak Hospital,"Pratik Nagar, Phulenagar, Yerawada, Pune",Unknown,Unknown,411006,Maharashtra,Unknown,hospital,Unknown,Unknown,Unknown,Unknown,18.5684211,73.8797365
Madhavbaug Cardiac Care Clinic,"R4-4, Laxmi Vihar, Bhosale Nagar, Hadapsar, Pune",Unknown,Unknown,411028,Maharastra,Unknown,clinic,Unknown,Unknown,Unknown,Unknown,18.503807,73.933446
Sanjeevani Vitalife Medipoint Clinic,"New DP Road, Oriental Gold Society, Aundh, Pune",New DP Road,Pune,411007,Maharashtra,Unknown,clinic,clinic,Unknown,Unknown,Unknown,18.564751,73.802275
Max Neuro Hospital,"Kundan Nagar, Agrasen Nagar Society, Seva Nagar, Kasarwadi, Pimpri-Chinchwad, Pune",Unknown,Unknown,411034,Maharastra,Unknown,hospital,hospital,Unknown,Unknown,Unknown,18.5984676,73.8285109
Alloveda Clinic,"Luv Kush Apartments, Opp Chintamani Society, Near Hyundai Showroom, Aundh, Pune",Unknown,Unknown,411007,Maharastra,Unknown,clinic,Unknown,Unknown,Unknown,Unknown,18.5553058,73.8045564
"Manipal Hospital, Pune","22, 2A, Mundhwa - Kharadi Road, Near Nyati Empire, Santipur, Thite Nagar, Kharadi, Pune",Unknown,Unknown,411014,Maharastra,Unknown,hospital,Unknown,Unknown,Unknown,Unknown,18.5409242,73.935679
Manish Clinic,"Ramganesh Gadkari Path, Yashodatta Housing Society, Kasba Peth, Pune",Unknown,Unknown,411011,Maharastra,Unknown,clinic,clinic,Unknown,Unknown,Unknown,18.5195705,73.8574069
Apex Superspeciality Hospital,"Lal Bahadur Shastri Road, Asha Colony, Lokamanya Nagar, Sadashiv Peth, Pune",Unknown,Unknown,411030,Maharashtra,Unknown,hospital,hospital,Unknown,Unknown,Unknown,18.5075984,73.8439447
Dr. Parag Biniwale,"2nd floor, Dream Presidency, Apte Road, Behind Santosh Bakery, Shivajinagar, Pune",Unknown,Unknown,411005,Maharastra,Unknown,doctors,doctor,Unknown,Unknown,Unknown,18.52269,73.843977
Dr. Swaroop Savanur,"Joshi Wada, Sadashiv Peth, Pune",Unknown,Unknown,411030,Maharastra,Unknown,doctors,doctor,Unknown,Unknown,Unknown,18.5116545,73.8430747
Pratham Clinic,"Pratham Apartment, RB Kumthekar Road, Opposite to Sadashiv Peth, Pune",Unknown,Unknown,411030,Maharastra,Unknown,clinic,clinic,Unknown,Unknown,Unknown,18.5131462,73.8489965
Lavate Clinic,"Ghole Road, Sud Nagar, Shivajinagar, Pune",Unknown,Unknown,411004,Maharastra,Unknown,clinic,clinic,Unknown,Unknown,Unknown,18.5203001,73.8416972
Dhaumya Clinic,"514, Datta Wadi Road, Dattawadi, Pune",Unknown,Unknown,411030,Maharastra,Unknown,clinic,Unknown,Unknown,Unknown,Unknown,18.502148,73.840414
Date Hospital,"Nikhil Nikethan Apartments, Vandemataram Chowk, Near Bhikardas Maruti, Pune",Unknown,Unknown,411030,Maharastra,Unknown,hospital,Unknown,Unknown,Unknown,Unknown,18.51024,73.8522294
Dr. Saha Clinic,"Budhwar Peth, Pune",Unknown,Unknown,411002,Maharastra,Unknown,clinic,clinic,Unknown,Unknown,Unknown,18.5177669,73.859913
Morya General Hospital,"405, Munjabacha Bole Road, Narayan Peth, Pune",Unknown,Unknown,411030,Maharastra,Unknown,hospital,hospital,Unknown,Unknown,Unknown,18.5147901,73.8484343
Niramay Clinic,"Gandhinagar, Mangalwar Peth, Kasba Peth, Pune",Unknown,Unknown,411011,Maharastra,Unknown,clinic,clinic,Unknown,Unknown,Unknown,18.5238058,73.8631174
Mansi Clinic,"Maruti Temple, Near Live Well Furniture, V Kamble Road, Navi Peth, Dattawadi, Pune",Unknown,Unknown,411030,Maharastra,Unknown,clinic,Unknown,Unknown,Unknown,Unknown,18.50356,73.838753
SmilePro Dental Care,"Datta Niwas, Next to Suburban Diagnostics, Deep Bunglow Chowk, Model Colony, Pune",Unknown,Unknown,411016,Maharastra,Unknown,dentist,dentist,Unknown,Unknown,Unknown,18.5322551,73.8322546
Sabane Hospital,"722/Ab/5, Chandrama, Laxmi Park Colony, United Western Bank Building, Pune",Unknown,Unknown,411030,Maharastra,Unknown,hospital,hospital,Unknown,Unknown,Unknown,18.5107027,73.8434338
Shree Datta Clinic,"Om Banglow, Plot No.29, Kamkaditya Society, Laxmi Park Colony, Sadashiv Peth, Pune",Unknown,Unknown,411030,Maharastra,Unknown,clinic,Unknown,Unknown,Unknown,Unknown,18.5047686,73.8428903
Dr. Otiv Clinic,"B6 Mittal Court, 478, Rasta Peth, Pune",Unknown,Unknown,411011,Maharastra,Unknown,clinic,Unknown,Unknown,Unknown,Unknown,18.51988,73.872171
Kamat Hospital,"Ratan Chambers, Shekh Madarasha Kadari Road, Bhawani Peth, Pune",Unknown,Unknown,411002,Maharastra,Unknown,hospital,hospital,Unknown,Unknown,Unknown,18.512445,73.869389
Dr. K M Gangwal,"Shreepal Chambers, Near Shaniwar wada, Bajirao Road, Pune",Unknown,Unknown,411030,Maharastra,Unknown,doctors,doctor,Unknown,Unknown,Unknown,18.5140279,73.8502601
Shri Dattakrupa Clinic,"106/2, Old Tophakhana, Tophakhana, Shivajinagar, Pune",Unknown,Unknown,411005,Maharastra,Unknown,clinic,clinic,Unknown,Unknown,Unknown,18.5262863,73.8550284
Shree Ganga Clinic,"612, Laxmi Road, Anutej Symphony Society, Rasta Peth, Pune",Unknown,Unknown,411002,Maharashtra,Unknown,clinic,clinic,Unknown,Unknown,Unknown,18.5155226,73.8653981
Vishranti Hospital,"804, Mahatma Phule Rasta, Agarwal Colony, Sadar Bazaar, Pune",Unknown,Unknown,411042,Maharashtra,Unknown,hospital,hospital,Unknown,Unknown,Unknown,18.5086317,73.8744506
Matru Seva Hospital;Pacharne Hospital,"407/5(Old) 665 (New) Nana Peth, Opposite Christ Church, Near YMCA, Pune",Unknown,Unknown,411002,Maharastra,Unknown,hospital,hospital,Unknown,Unknown,Unknown,18.516314,73.871996
Asava Clinic,"576, LB Bhopatkar Path, Bhatancha Bol, Narayan Peth, Pune",Unknown,Unknown,411030,Maharastra,Unknown,clinic,Unknown,Unknown,Unknown,Unknown,18.516103,73.8498982
Sammohini Clinic,"Ashok Balakwade Path, Asha Colony, Lokamanya Nagar, Navi Peth, Sadashiv Peth, Pune",Unknown,Unknown,411030,Maharastra,Unknown,clinic,clinic,Unknown,Unknown,Unknown,18.508126,73.843714
Behere Dental Clinic,"Opposite Hotel Basera, Hasabnis Bakhal, Shaniwar Peth, Pune",Unknown,Unknown,411030,Maharastra,Unknown,dentist,dentist,Unknown,Unknown,Unknown,18.517895,73.8538528
Dr. Jamenis Dental Clinic,"40/24 Kamdhenu Apartment, Opp Alurkar Music House, Bhonde Colony, Pune",Unknown,Unknown,411004,Maharastra,Unknown,dentist,dentist,Unknown,Unknown,Unknown,18.5112327,73.8353775
Apollo Clinic,"Datta Mandir Chowk, Viman Nagar, Pune",Unknown,Unknown,411014,Maharashtra,Unknown,clinic,clinic,Unknown,Unknown,Unknown,18.5295508,73.8343444
Dr. Chetan Deshmukh,"Asus Service Center, Sadashiv Peth, Limayewadi Road, Perugate, Pune",Limaye Wadi Road,Pune,411030,Maharastra,Unknown,doctors,doctor,Unknown,Unknown,Unknown,18.5103956,73.8465396
Lupus Clinic,"Tejas Apartment, 1078, Lokmanya Bal Gangadhar Tilak Road, Opp. SBI, Pune",Unknown,Unknown,411002,Maharashtra,Unknown,clinic,Unknown,Unknown,Unknown,Unknown,18.503465,73.856543
Bapat Hospital,"1137/8, Lakaki Road, Rage Path, Model Colony, Shivajinagar, Pune", ,Pune,411016,Maharastra,Unknown,hospital,hospital,Unknown,Unknown,Unknown,18.530365,73.842063
Holistic Clinic,"Swapnali Apartment, 38, Girija Society, Rambaug Colony, Kothrud, Pune",Unknown,Unknown,411038,Maharastra,Unknown,clinic,clinic,Unknown,Unknown,Unknown,18.5149363,73.8176218
Dr. Nitin Abhyankar,"Poona Hospital & Research Centre 27, Sadashiv Peth, Nr. Alka Talkies, Pune",Unknown,Unknown,411030,Maharastra,Unknown,doctors,doctor,Unknown,Unknown,Unknown,18.5108253,73.850646
Dr. Salke Dental and Implant Centre,"394/A, Anjali Apartment Road, Below Om Hospital, Gokhalenagar, Pune",Unknown,Unknown,411016,Maharastra,Unknown,dentist,dentist,Unknown,Unknown,Unknown,18.5292117,73.8306957
Dr. Shailesh Puntambekar,"Ayurvedic Rasashala Premises, Maharshi Karve Road, Khilarewadi, Erandwane, Pune",Unknown,Unknown,411004,Maharastra,Unknown,doctors,doctor,Unknown,Unknown,Unknown,18.5258653,73.850995
Deccan Dental Clinic,"Opposite Chitalebandhu Garware Bridge Corner, Fergusson College Road, Pune",Unknown,Unknown,411004,Maharastra,Unknown,dentist,dentist,Unknown,Unknown,Unknown,18.5159546,73.8421401
Dr. Neelima Beke,"Niranjan Madhav Road, Apte Ghat, Shaniwar Peth, Pune",Unknown,Unknown,411030,Maharastra,Unknown,doctors,doctor,Unknown,Unknown,Unknown,18.5199979,73.853084
Kalyani Hospital,"735, Rashtra Bhushan Chowk, Guruwar Peth, Pune",Unknown,Unknown,411042,Maharashtra,Unknown,hospital,Unknown,Unknown,Unknown,Unknown,18.5046645,73.8592129
Kumbhare Hospital,"Nageshwar Mandir Road, Somwar Peth, Pune",Unknown,Unknown,411011,Maharashtra,Unknown,hospital,hospital,Unknown,Unknown,Unknown,18.5218011,73.8622355
 ,"1188, Limayewadi Road, Vishnu Bhuvan Society, Limayewadi, Sadashiv Peth, Pune",Unknown,Unknown,411030,Maharastra,Unknown,hospital,hospital,Unknown,Unknown,24/7,18.510438,73.847875
Gokhale Hospital,"996, Shukrawar Peth, Tilak Road, Dadawadi, Swargate, Pune",Unknown,Unknown,411042,Maharastra,Unknown,hospital,Unknown,Unknown,Unknown,Unknown,18.502188,73.857108
Apka Clinic,"Shivajinagar, Pune",Unknown,Unknown,411004,Maharastra,Unknown,clinic,clinic,Unknown,Unknown,Unknown,18.5192138,73.8430146
Paras Clinic,"Somwar Peth, Pune",Unknown,Unknown,411011,Maharastra,Unknown,clinic,clinic,Unknown,Unknown,Unknown,18.5214643,73.8625837
Sai Samarth Hospital,"Sai Niketan Building, Narpatgir Chowk, Station Road, Somwar Peth, Pune",Unknown,Unknown,411011,Maharastra,Unknown,hospital,hospital,Unknown,Unknown,Unknown,18.5231039,73.8681573
Shree Clinic,"Mandrindavn Building, Modern Engineering College Road, Sud Nagar, Shivajinagar, Pune",Unknown,Unknown,411005,Maharastra,Unknown,clinic,clinic,Unknown,Unknown,Unknown,18.5263592,73.8430033
Todkar Hospital,"Near Bank of Maharashtra, New Nana Peth, Bhawani Peth, Pune",Unknown,Unknown,411002,Maharastra,Unknown,hospital,hospital,Unknown,Unknown,Unknown,18.5107128,73.8660862
Shaishav Children's Hospital,"695/A, Laxmi Road, Opposite Vijay Talkies, Sadashiv Peth, Pune",Unknown,Unknown,411030,Maharastra,Unknown,hospital,hospital,Unknown,Unknown,Unknown,18.5137927,73.8476204
Milenkari Clinic,"753, Gundacha Ganpati Road, Kasba Peth, Pune",Unknown,Unknown,411011,Maharastra,Unknown,clinic,clinic,Unknown,Unknown,Unknown,18.521921,73.859575
Suyash Hospital,"Plot No.1, Kothrud Bus Stand Road, Dattachhaya Tejas Society, Kothrud, Pune",Unknown,Unknown,411058,Maharastra,Unknown,hospital,Unknown,Unknown,Unknown,Unknown,18.5001862,73.8124022
Swanand Maternity Hospital,"Opp: Apollo Medicals, Model Colony, Shivaji Nagar, Near Senapati Bapat Road, Pune",Unknown,Unknown,411016,Maharastra,Unknown,hospital,hospital,Unknown,Unknown,Unknown,18.5297435,73.8339823
City Hospital,"Motiram Complex, Paud Road, Opp. Kachara Depot, Shastri Nagar, Kothrud, Pune",Paud Road,Pune,411029,Maharastra,Unknown,hospital,hospital,Unknown,Unknown,Unknown,18.5071504,73.7997343
Dr. Seema Shaikh,"2158, Balanna Nimal Marg, New Modikhana, Katad Khana, Pune",Unknown,Unknown,411001,Maharastra,Unknown,doctors,doctor,Unknown,Unknown,Unknown,18.5075529,73.876507
Dr. Shreerang Godbole,"Revenue Colony, Shivajinagar, Pune",Unknown,Unknown,411005,Maharastra,Unknown,doctors,doctor,Unknown,Unknown,Unknown,18.5259463,73.849329
Shintre Hospital,"1021/22, Sadashiv Peth Road, Nagnath Par, Sadashiv Peth, Pune",Sadashiv Peth Houd,Pune,411030,Maharastra,Unknown,hospital,Unknown,Unknown,https://www.shintrehospital.in/,Unknown,18.5122403,73.8499324
Rukhmini Clinic,"Sarthak Tower, Opposite Yashwant Rao Chavan Natya Gruha, Londhe Wada, Kothrud, Pune",Unknown,Unknown,411009,Maharastra,Unknown,clinic,Unknown,Unknown,Unknown,Unknown,18.5017833,73.8120633
Alliance Munot Hospital;munot hospital,"Swargate Chowk, Ekbote Colony, Dadawadi, Swargate, Pune",Unknown,Unknown,411030,Maharashtra,Unknown,hospital,hospital,Unknown,Unknown,Unknown,18.5025447,73.8686993
Kalavati Mavale Hospital,"VG Kothari Path, Narayan Peth, Pune",Unknown,Unknown,411030,Maharashtra,Unknown,hospital,hospital,Unknown,Unknown,Unknown,18.5150421,73.8464127
Nadkarni Clinic,"207,The Fourth Dimension Apts, Gulawani Maharaj Road, Erandwane, Pune",Unknown,Unknown,411004,Maharastra,Unknown,clinic,Unknown,Unknown,Unknown,Unknown,18.502818,73.828831
Nirmal Clinic,"Lokhande Talim Road, Narayan Peth, Pune",Unknown,Unknown,411030,Maharastra,Unknown,clinic,clinic,Unknown,Unknown,Unknown,18.5152266,73.8492849
Dr. NarenDr. a G. Patwardhan,"Chitale Bandhu Mithaiwale Garware Bridge Corner, Deccan Gymkhana, Pune",Unknown,Unknown,411004,Maharastra,Unknown,doctors,doctor,Unknown,Unknown,Unknown,18.5158392,73.8418507
ASG Eye Hospital,"Plot No. 557 / 1, 2 &3, Fergusson College Road, Bhamburda, Shivajinagar, Pune",Unknown,Unknown,411005,Maharastra,Unknown,hospital,hospital,Unknown,Unknown,Unknown,18.528932,73.8436351
Mansanjeevani Clinic,"#42/2, Vighnahar Complex, karve Road, Paud Phata, Pune",Unknown,Unknown,411038,Maharastra,Unknown,clinic,Unknown,Unknown,Unknown,Unknown,18.50551,73.825311
Rode Hospital,"Building No 10, Anand Nagar, Ground Floor, Late GA Kulkarni Path, Kothrud, Pune",Unknown,Unknown,411038,Maharastra,Unknown,hospital,Unknown,Unknown,Unknown,Unknown,18.5091812,73.8149589
Mantri Hospital,"98, Erandawane Gauthan, Near Kamal Prabha Book Store, Pune",Unknown,Unknown,411004,Maharastra,Unknown,hospital,Unknown,Unknown,Unknown,Unknown,18.505204,73.834167
Kering Hospital;kering clinic,"Timber Market Road, Ekbote Colony, Mahatma Phule Peth, Pune",Unknown,Unknown,411042,Maharashtra,Unknown,hospital,hospital,Unknown,Unknown,Unknown,18.5029885,73.8682087
Dr. Girish Puranik,"Sudakshana Apartments, Vishwashanti Marg, Near LIC Colony, Kothrud, Pune",Unknown,Unknown,411038,Maharastra,Unknown,doctors,doctor,Unknown,Unknown,Unknown,18.5150695,73.8168243
Dr. Shriram Athavale Clinic,"810, Maharana Pratap Singh Road, Ganj Peth, Pune",Unknown,Unknown,411002,Maharastra,Unknown,clinic,clinic,Unknown,Unknown,Unknown,18.5098783,73.862231
Dr. Dilip Shah Clinic,"24, Ganesh Road, Kasba Peth, Pune",Unknown,Unknown,411011,Maharashtra,Unknown,clinic,clinic,Unknown,Unknown,Unknown,18.5188008,73.859382
Kirad Hospital,"House No, 368, Jawaharlal Nehru Road, New Nana Peth, Ganesh Peth, Pune",Unknown,Unknown,411002,Maharashtra,Unknown,hospital,hospital,Unknown,Unknown,Unknown,18.5143478,73.868913
Borawake Clinic,"1187/67, Gruhalaxmi Building, Balgandharv Chowk, J M Road, Shivajinagar, Pune",Unknown,Unknown,411005,Maharastra,Unknown,clinic,clinic,Unknown,Unknown,Unknown,18.5232019,73.8480644
Chajed Hospital,"297, Mominpura Road, Ghorpade Peth, Swargate, Pune",Unknown,Unknown,411042,Maharastra,Unknown,hospital,Unknown,Unknown,Unknown,Unknown,18.50451,73.8628189
KEM Hospital,"489, Sardar Mudaliar Road, Rasta Peth, Pune",Unknown,Unknown,411011,Maharashtra,Unknown,hospital,hospital,Unknown,Unknown,Unknown,18.5200596,73.8669776
Dr. Sunil Sathe,"Kamala Plaza, Jawaharlal Nehru Road, Koregaon Park Annexe, Ganesh Peth, Pune",Unknown,Unknown,411002,Maharastra,Unknown,doctors,doctor,Unknown,Unknown,Unknown,18.5109076,73.8659912
Hope Hospital,"New Nana Peth, Ganesh Peth, Pune",Unknown,Unknown,411002,Maharastra,Unknown,hospital,hospital,Unknown,Unknown,Unknown,18.5126915,73.869516
Shrutij Panchkarm Clinic,"NC Kelkar Road, Bhatancha Bol, Narayan Peth, Pune",Unknown,Unknown,411030,Maharastra,Unknown,clinic,clinic,Unknown,Unknown,Unknown,18.5162662,73.8515172
David Sassoon Hospital,"Agarkar Nagar, Pune",Unknown,Unknown,411001,Maharashtra,Unknown,hospital,hospital,Unknown,Unknown,Unknown,18.525279,73.870499
MJM Hospital,"Janardhan Sadan, 1194/23, Ghole Road, Sud Nagar, Shivajinagar, Pune",Unknown,Unknown,411005,Maharashtra,Unknown,hospital,hospital,Unknown,Unknown,Unknown,18.5245059,73.8438216
Joshi Dental Clinic,"Sadashiv Peth, Shivnandan Co-Operative Housing Society Flat, Lokmanya Bal Gangadhar Tilak Road, Pune",Unknown,Unknown,411030,Maharastra,Unknown,dentist,dentist,Unknown,Unknown,Unknown,18.5093043,73.8476913
Patil Clinic,"277, Omkareshwar Path, Shaniwar Peth, Pune",Unknown,Unknown,411030,Maharastra,Unknown,clinic,Unknown,Unknown,Unknown,Unknown,18.5196001,73.8498691
Chavan Hospital,"Chhatrapati Shivaji Maharaj Road, Subhash Nagar, Shukrawar Peth, Pune",Unknown,Unknown,411002,Maharastra,Unknown,hospital,Unknown,Unknown,Unknown,Unknown,18.502202,73.8584592
Vanilla Smiles Kids and Child Dentist,"Soni Capital Building, 1237 Apte Road, Opp. Apte Sabha Graha, Shivajinagar, Pune",Unknown,Unknown,411004,Maharastra,Unknown,dentist,dentist,Unknown,Unknown,Unknown,18.5189686,73.8428946
dental health care,Unknown,Unknown,Unknown,Unknown,Unknown,Unknown,hospital,hospital,Unknown,Unknown,Unknown,18.5062067,73.8625971
Dr Malu's Dental & Maxillofacial Clinic,Unknown,"Kalpatru Apartments, 2129, Sardar Vallabhai Patel Road, New Modikhana,",Pune,411001,Unknown,Unknown,dentist,dentist,Unknown,https://www.drankitmalu.com,Unknown,18.5078792,73.8772043
Dr. Shirish Hiremath - Cardiologist,Unknown,"Model Colony, Shivaji Nagar",Pune,411016,Unknown,Unknown,clinic,clinic,Unknown,https://www.mshiremath.com/mshiremath,Mo-Sa 16:00-19:00,18.5281508,73.8413978
FeverCare- Centre for Infectious Diseases,Unknown,"Sonigara Landmark, Wakad",Pune,411057,Unknown,Unknown,clinic,clinic,Unknown,https://www.fevercarepune.com/,Unknown,18.5970651,73.789612
PAI RAITURKAR IVF CLINIC,Unknown,"Siddhatek Apartments, Near Punjab National Bank, Prabhat Road, Deccan Gymkhana",Pune,411004,Unknown,Unknown,clinic,clinic,Unknown,https://www.spineexpertpune.com/spine,Unknown,18.5139572,73.8346569
Asian Ortho - Spine Clinic Aundh Pune,Unknown,"ITI Road, Pushpak Park Corner, Aundh",Pune,411045,Unknown,Unknown,clinic,clinic,Unknown,https://www.asianspineclinic.com/Dr-Shailesh-Hadgaonkar,Unknown,18.555359,73.809525
Pain Management Clinic,Unknown,"Karve Road,Near Ambar Hall Pune, Karve Road",Pune,411038,Unknown,Unknown,clinic,clinic,Unknown,https://www.painclinicpune.com/painclinicpune,Unknown,18.516483,73.8517463
Sathe Multispeciality Hospital,Unknown,"ground floor Shree Shankar Nagri Paud Road Bhusari Colony, Kothrud",Pune,411038,Unknown,Unknown,hospital,hospital,Unknown,https://www.sathehospital.in/,Unknown,18.5067869,73.8037337
Dr Barve's The Bone and Joint Clinic,Unknown,"Above Ashtekar Jewellers, Maharshi Karve Road,Erandwane",Pune,411004,Unknown,Unknown,clinic,clinic,Unknown,https://www.drbarve.com/,Unknown,18.5109806,73.8363554
Panacea Clinic,Unknown,"Swaroop Nagari, after Karishma Chowk and Cosmos bank, Karve Road",Pune,411038,Unknown,Unknown,clinic,clinic,Unknown,https://www.drnakulshah.in/drnakulshah,Unknown,18.5037668,73.8199793
SHUBHANAND CLINIC,Unknown,"Estonia, B wing , Opposite Manohar Mangal Karyalay , Gulwani Mahahraj Path, Karve Nagar",Pune,411001,Unknown,Unknown,clinic,clinic,Unknown,https://www.rheumatologypune.com/rheumatologypune,Unknown,18.5048298,73.8318954
Synergy Dental Clinic;synergy dental clinic,Unknown,"hantinagar Housing Society, Near Timber market Road",Pune,411042,Unknown,Unknown,clinic;hospital,clinic;hospital,Unknown,https://www.synergydentalsmiles.com/synergydental,Unknown,18.5030501,73.8690963
"Orthopedic Spine Surgeon ,Dr Uday Pote",Unknown,Raj Path,Pune,411038,Unknown,Unknown,clinic,clinic,Unknown,https://www.drudaypote.in/,Unknown,18.5092447,73.7901737
"Robotic, Laparoscopic Uro-Surgeon",Unknown,"Ruby hall clinic 40,sasoon",Pune,41101,Unknown,Unknown,clinic,clinic,Unknown,https://www.roboticsurgeonpune.com/,Unknown,18.5350826,73.8795819
Dr Bhupeshkumar Kaware,Unknown,"Dr Bhupesh kumar kaware,oppo- camp education  society,oppo bajbarn chowk,camp",Pune,411001,Unknown,Unknown,clinic,clinic,Unknown,https://www.drkawarekidneycarepune.in/,Unknown,18.5113271,73.8765134
Baner Heart Institute,Unknown,"Shrinivas Classic , Above Union Bank of India, Opposite Hotel Green Park, Baner Road",Pune,411045,Unknown,Unknown,clinic,clinic,Unknown,https://www.drranjeetpatil.com/cardiologist-pune,Unknown,18.5540288,73.8023441
"Diabetologist Endocrinologist In Pune - Dr Milind Patil SHRI SWAMI DIABETES,& ENDOCRINE CENTER",Unknown,"2nd floor, Sterling Tower, Opposite Hotel Arora Towers, Camp",Pune,411001,Unknown,Unknown,clinic,clinic,Unknown,https://www.swamiclinic.in/,Unknown,18.5180162,73.8793029
Innoveda Dr Mehta,Unknown,"Madhav Laxmi Apt, Vijayanagar Colony, behind S. P. College, Near Dake Classes, Sadashiv Peth",Pune,411030,Unknown,Unknown,clinic,clinic,Unknown,https://www.innovedaindia.com/,Unknown,18.5057324,73.8501866
Orthopaedic Fracture Clinic,Unknown,"First Floor, F-Residences Next to Brahma Sun City, New Kalyani Nagar, Wadgaonsheri",Pune,411014,Unknown,Unknown,clinic,clinic,Unknown,https://www.punejointcare.com/,Unknown,18.572482,73.8789982
DR. AMEET DRAVID,Unknown,"Harmony House, 797/1 A, Behind Idea Office, In front of YES Bank, Bhandarkar Road",Pune,411004,Unknown,Unknown,clinic,clinic,Unknown,https://www.hivspecialistpune.in/,Unknown,18.5184524,73.8331134
Dr Jain's Dental Care,Unknown,"Ashok sankul 2, ABove ICICI Bank, range hills road, Ashok Nagar",Pune,411007,Unknown,Unknown,clinic,clinic,Unknown,https://www.drjainsdentalcare.com/,Unknown,18.5428164,73.8386646
Dr. Prashant Khandelwals Brain & Spine Clinic,Unknown,"Co-op. HSg. Society, Narangi Baug Rd, Off Boat Club Road",Pune,411001,Unknown,Unknown,clinic,clinic,Unknown,https://www.neurosurgerypune.in/neurosurgeonpune,Unknown,18.5386996,73.8798219
Sinkar Cardiac Care,Unknown,"Kalpvishwa,Next to ramchandra sabha Mandap(ICICI Bank) Ghole road, Shivajingar",Pune,410005,Unknown,Unknown,doctors,doctor,Unknown,https://www.sinkarcardiaccare.in/Cardioclinic,Unknown,18.5246519,73.8425005
DR. UPLENCHWAR'S WOMENS & EYE CARE CLINIC,Unknown,"3rd Floor, Mittal Court, Off Dr Ambedkar Road, 478, Rasta Peth, Mudaliar Rd,, Modi Colony",Pune,Unknown,Unknown,Unknown,clinic,clinic,Unknown,https://www.uplenchwarhealthcare.com/,Unknown,18.508241,73.8221756
Vitalife Clinic,Unknown,"Vitalife Clinic, Datta Mandir Road, Shankar Kalat Nagar,Wakad",pune,411057,Unknown,Unknown,clinic,clinic,Unknown,https://drbhaktidhamangaonkar.in/,Unknown,18.5640847,73.7828149
INTEGRITY DENTAL CARE,Unknown,"Roopnagari, Opposite Maruti Mandir, Near Club Solaris, Karve Road,, Kothrud",Pune,411038,Unknown,Unknown,clinic,clinic,Unknown,https://www.integritydentalcare.in/integritydentalcare,Unknown,18.5039346,73.8204928
C/O Life Wellness Clinic,Unknown,"C/O Life Wellness Clinic, Himalaya House,Opposite Renault Showroom , Fatima Nagar Main Signal Chowk, Pune Solapur Road",Pune,411013,Unknown,Unknown,clinic,clinic,Unknown,https://www.spineclinicpune.com/,Unknown,18.5068666,73.9008059
Pendse's PhysiTech Pvt. Ltd.,Unknown,"Pune- Communication Address- Omega Residency , RH7 , Baner-Mhalunge Road, Baner Mhalunge Road",Pune,411045,Unknown,Unknown,clinic,clinic,Unknown,https://www.drrahulvijaypendse.com/drrahulvijaypendse,Unknown,18.5646445,73.7824326
Perfection Hair Transplant Clinic,Unknown,"Ground Floor, Vinay Apartment, Karve Road, Erandwane",Pune,411004,Unknown,Unknown,clinic,clinic,Unknown,https://www.hairtransplantsurgeonpune.in/,Unknown,18.5069161,73.8288573
SNEH CHILD CARE CLINIC,Unknown,"Mittal Court, 3rd Floor, near samarth police station, Rasta Peth",Pune,411011,Unknown,Unknown,clinic,clinic,Unknown,https://www.drdesalechildclinic.in/,Unknown,18.5199725,73.8720724
"Dr. Bhushan Khedkar, Rubi hall  clinic",Unknown,"sasoon road,near pune railway station,Rubi hall clinic",pune,411001,Unknown,Unknown,clinic,clinic,Unknown,https://www.spinespecialistspune.com/,Unknown,18.5341144,73.8771503
Mother Care Clinic,Unknown,"shriniwas classic, above corporation bank, near mauli garden manga Karyalay, Baner., Baner Road",Pune,411045,Unknown,Unknown,clinic,clinic,Unknown,https://www.drkalyanipatil.in/gynaecologist-in-pune,Unknown,18.5539973,73.8023741
Orthopedic Speciality Care Clinic,Unknown,"Commerce Avenue, Office No 4, First Floor Above P N Gadgil Jeweller, Kothrud",Pune,411038,Unknown,Unknown,clinic,clinic,Unknown,https://www.jointcarepune.com/,Unknown,18.5102578,73.8192058
OncoWin Cancer Clinic,Unknown,"DP Road,Opp Aundh telephone exchange, Aundh",Pune,411007,Unknown,Unknown,clinic,clinic,Unknown,https://www.oncowin.in/,Unknown,18.5594375,73.8024728
DR ALIFIA CEMENTWALA CLINIC,Unknown,"Parmar Nagar, Lane Opposite Vishal MegaMart, Fatima nagar",Pune,411040,Unknown,Unknown,clinic,clinic,Unknown,https://www.bestphysiotherapy.in/dralifiacementwala,Unknown,18.5036178,73.9006515
Dr Leena Hiremath,Unknown,"Connaught Plaza, Above Sahara Dining Hall, Opposite G.P.O, Camp",Pune,411001,Unknown,Unknown,clinic,clinic,Unknown,https://www.drleenahiremath.com/,Unknown,18.5231703,73.8766107
HEART HEALTH CLINIC,Unknown,"Upper Ground Floor, Fortune Plaza, NDA-Pashan Road, Bavdhan",Pune,411021,Unknown,Unknown,clinic,clinic,Unknown,https://www.hearthealthclinic.in/heart-health-clinic,Unknown,18.5156893,73.7813244
"Facethetics - Dental, Facial Cosmetics(BOTOX), & Hair Transplant Clinique",Unknown,"Chatur apartments, Besides Maruti Suzuki showroom Near FTII, Law College Rd, Pune,, Deccan Gymkhana,",Pune,411004,Unknown,Unknown,hospital,hospital,Unknown,https://www.facetheticspune.in/,Unknown,18.5136297,73.8285827
Healing Touch Clinic,Unknown,"Shivom Regency, Main Baner Rd, above Jyoti Gas Appliances,, Baner",Pune,411045,Unknown,Unknown,clinic,clinic,Unknown,https://www.healingtouchclinicpune.in/healingtouchclinic,Unknown,18.560809,73.7883569
FAMILY DENTAL CARE,Unknown,"Poonam Plaza, Above Bank of Maharashtra, opposite Kamal nursing home, Market Yard",Pune,411037,Unknown,Unknown,clinic,clinic,Unknown,https://www.drtarusanghvi.com/familydentalcare,Unknown,18.5718549,73.7811819
J M Diagnostic Centre - Madhu - Meet Diabetes,Unknown,"Near Jangali Maharaj Mandir, J M Road, Above Panchali Hotel, Shivajinagar",Pune,411005,Unknown,Unknown,clinic,clinic,Unknown,https://www.jmdiagnostic.com/,Unknown,18.5258066,73.8504215
Neo Clinic Artery and Vein Clinic,Unknown,"Status Health Club Building , next to Raviraj hotel, Opp. HDFC Bank,, Bhandarkar Road",Pune,411004,Unknown,Unknown,clinic,clinic,Unknown,https://www.neoveinclinic.com/,Unknown,18.518268,73.8360102
Dr. Shweta Mehta's SKIN CARE CLINIC,Unknown,"C/O Life Wellness Clinic, Himalaya House, Opposite Renault Showroom, Fatima nagar Main Signal Chowk, Fatimanagar",Pune,411013,Unknown,Unknown,clinic,clinic,Unknown,https://www.skincareclinicpune.com/,Unknown,18.5064371,73.9008053
Prime Care Clinic & Diagnostics,"Shop # F3, First Floor, F-Residences, Commercial Complex, Beside Bramha Suncity, Vadgaonsheri, New Kalyani Nagar,Pune-411014",Unknown,Pune,411014,Unknown,Unknown,clinic,clinic,Unknown,https://www.primecareclinicdiagnostics.com/,Unknown,18.5527073,73.9151093
"Priime Nephrocare, Nutrition and Wellness Clinic",Unknown,"Nirvana, Opposite Seasons Mall, Hadapsar",Pune,411013,Unknown,Unknown,clinic,clinic,Unknown,https://www.priimenephronutrition.in/,Unknown,18.5197595,73.9327827
Dr Kiran Kharat,Unknown,"Sasoon Rd, Ruby Hall Clinic - Sangamvadi",Pune,411001,Unknown,Unknown,clinic,clinic,Unknown,https://www.jointreplacementexpert.in/dr-kiran-kharat,Unknown,18.5336705,73.8771566
RELA INSTITUTE - RUBY HALL CLINIC,Unknown,"Sasoon Rd,, Sangamvadi",Pune,411001,Unknown,Unknown,clinic,clinic,Unknown,https://www.comprehensivelivercare.in/,Unknown,18.5338589,73.8771398
SMILE GALLERY DENTAL CARE CENTRE,Unknown,"Law College Road,Erandwana, Erandwana",Pune,411004,Unknown,Unknown,clinic,clinic,Unknown,https://www.smilegallery.in/smilegallery,Unknown,18.5090997,73.8303229
Dr Sanket Bankar - oncosurgeon,Unknown,"Poona Superspeciality Clinic, Viman Nagar",Pune,411014,Unknown,Unknown,clinic,clinic,Unknown,https://www.oncosurgeonpune.in/,Unknown,18.5689702,73.9071595
SUNSHINE ORTHOPEDIC CLINIC,Unknown,"Aranyeshwar Park Phase-2,S.No-82/2B/1/1A,82/2B/2, Parvati",Pune,411009,Unknown,Unknown,clinic,clinic,Unknown,https://www.kneeandhipsurgeon.in/,Unknown,18.5577768,73.7935332
HEALTH POINT CLINIC - DR. NISHA KAPOOR,Unknown,"Nyati Eureka, next to Columbia Asia Hospital, Kharadi",Pune,411014,Unknown,Unknown,clinic,clinic,Unknown,https://www.gastrolivercarepune.in/,Unknown,18.5415954,73.9358176
SWEET SMILES DENTAL CLINIC & IMPLANT CENTER,Unknown,"1st Floor, Turning Point 2, Landmark: Above Amantra Spa, Lane And Opposite Saraswat Bank,Viman Nagar,",Pune,411045,Unknown,Unknown,clinic,clinic,Unknown,https://www.sweetsmiles.in/,Unknown,18.5639901,73.9146281
Dr. Devendra Vartak,Unknown,"Erandawane, Lane Opp. IDBI Bank, Mehendale Garage Road, Erandawane",Pune,411004,Unknown,Unknown,clinic,clinic,Unknown,https://www.orthodocvartak.com/,Unknown,18.5038101,73.829271
Aadhya Orthopaedic and Physiotherapy Care,Unknown,"4th Floor ,kamala Regency ,Near Dnyaneswar Paduka chowk,opp.Bharat Pertol Pump,FC road, Shivajinagar",Pune,411016,Unknown,Unknown,clinic,clinic,Unknown,https://www.jointsandphysiocare.in/,Unknown,18.52733,73.8421459
Dr Priyamvada Shah,Unknown,"Swaroop nagari, next to Cosmos bank, near Ambar Hall, Karve Road, Kothrud",Pune,411029,Unknown,Unknown,clinic,clinic,Unknown,https://www.drpriyamvadashah.com/drpriyamvadashah,Unknown,18.5035649,73.8197071
THE SPINE CLINIC,Unknown,"2nd Floor, Seasons Business Square 128/2, Seasons Road, Sanewadi Opp. Kothari Hyundai, Aundh",Pune,411007,Unknown,Unknown,clinic,clinic,Unknown,https://www.drdeorespineclinic.com/,Unknown,18.5546658,73.8046907
Happy Dent,Unknown,Dange Chowk Road,Pune,411057,Unknown,Unknown,clinic,clinic,Unknown,https://www.happydentclinic.in/,Unknown,18.5918325,73.7391917
Dr. Sahu's Dental & Orthodontic Care,Unknown,"Siyona Heights, Bhosale Nagar, Landmark: Above Roll Delight &amp;Laxmi Vihar, Kalyan Bhel, Opposite Brick Castle,, Hadapsar",Pune,411028,Unknown,Unknown,clinic,clinic,Unknown,https://www.drsahudentalclinic.com/,Unknown,18.5041351,73.9330393
Dr. Qaedjohar Dhariwal,Unknown,"Tain Square Internal Rd, Fatima Nagar, Wanowrie,",Pune,411040,Unknown,Unknown,clinic,clinic,Unknown,https://www.doctordhariwal.com/,Unknown,18.5032016,73.8998432
TEETHZ TANTRAS,Unknown,"Anand Kanhare Rd, Premanand Society, Lokamanya Nagar, Laxmi Park Colony,, Sadashiv Peth",Pune,411030,Unknown,Unknown,clinic,clinic,Unknown,https://www.teethztantra.com/dr-prasanna-dhumal,Unknown,18.5050856,73.8394771
Krushna Orthodontic & Dental Clinic,Unknown,"Raghunandan Apartments, Sinhgad Road, opp, ss agarwal school Shivaprasad Housing Society, Dattawadi",Pune,411030,Unknown,Unknown,clinic,clinic,Unknown,https://www.krushnaorthodonticdentalclinic.in/dr-nikita-tilekar,Unknown,18.5008306,73.8418888
Dr. Mandar Dhamangaonkar,Unknown,"Jupiter hospital, Pimple Nilakh Rd, Prathamesh Park, Baner",Pune,411045,Unknown,Unknown,clinic,clinic,Unknown,https://www.drmandardhamangaonkar.in/,Unknown,18.5659776,73.7845649
THE DENTAL STUDIO,Unknown,"Ground Floor, Swaraj Complex, Opp. Datta Mandir, Vadgaonsheri,",Pune,411014,Unknown,Unknown,clinic,clinic,Unknown,https://www.drsnehadentalstudio.in/dr-sneha-sardar,Unknown,18.54582,73.921689
Unknown,Unknown,Unknown,Unknown,Unknown,Unknown,Unknown,hospital,hospital,Unknown,Unknown,Unknown,18.5759709,73.8258994
THE SPECIALITY DENTAL CLINIC,Unknown,"Chinar Building, Silver Oak Society, kalyani nagar",Pune,411014,Unknown,Unknown,clinic,clinic,Unknown,https://www.specialitydentalcarepune.com/speciality-dental-clinic-pune,Unknown,18.5484717,73.9062288
Medinova Clinics,Unknown,"First Floor, White Square, Hinjawadi - Wakad Rd, Hinjewadi",Pune,411027,Unknown,Unknown,clinic,clinic,Unknown,https://www.medinovaclinics.in/,Unknown,18.5908381,73.7529005
PRECISION DENTAL CARE,Unknown,"Business Square, Landmark: Diagonally Opposite To Regent Plaza, Baner",Pune,411045,Unknown,Unknown,clinic,clinic,Unknown,https://www.precisiondental.in/,Unknown,18.5518368,73.7920422
Shree Hospital,Unknown,Gulmohor Society Kharadi,Pune,411014,Unknown,Unknown,hospital,hospital,Unknown,http://www.shreehospital.com/kharadi,Unknown,18.5664237,73.8144112
Grace Skin & Hair Transplant Center,Unknown,"Sakhai plaza, opp. ParanjapeSchool Natyagruha, Kothrud",Pune,411038,Unknown,Unknown,clinic,clinic,Unknown,https://www.gracehairtransplant.com/,Unknown,18.5022041,73.8092322
Shifa medical,Unknown,Unknown,Unknown,Unknown,Unknown,Unknown,pharmacy,pharmacy,Unknown,Unknown,Unknown,18.5883067,73.7822359
Unknown,Unknown,Unknown,Unknown,Unknown,Unknown,Unknown,clinic,clinic,Unknown,Unknown,Unknown,18.5027884,73.8341817
Morya clinic (Dr. Abhijit Baheti Hemato-Oncologist),Unknown,"Naren bliss, oppo. Maruti Suzuki showroom, Amanora, Hadapsar,",pune,411028,Unknown,Unknown,clinic,clinic,Unknown,https://www.hematologistdrabhijitbaheti.in/,Unknown,18.5229587,73.9324371
Dental Inn,Unknown,"Shree Capital (Sangriya Developers), 3rd Floor Opposite Oriental Bank of Commerce, Baner Rd, near KFC, Baner",Pune,411045,Unknown,Unknown,dentist,dentist,+91 97662 79155,https://www.dentalinn.co.in/,Mo-Sa 11:00-19:00,18.5644307,73.7750454
,Unknown,Unknown,Unknown,Unknown,Unknown,Unknown,pharmacy,pharmacy,+91 62814 12345,Unknown,08:00-22:30,18.5883173,73.7818926
Unknown,Unknown,Unknown,Unknown,Unknown,Unknown,Unknown,pharmacy,pharmacy,Unknown,Unknown,Unknown,18.5886426,73.781306
Partly cloudy Dr. Sanjay Patil | Spine Surgeon,Unknown,"SPINE CLINIC .Block No. -18, '""B"""" Wing, 3rd Floor,, MITTAL COURT,Near Shantai Hotel, Rastapeeth",Pune,411011,Unknown,Unknown,clinic,clinic,Unknown,https://spinespecialistpune.in/,Unknown,18.5199427,73.8721146
MedPlus,Unknown,Unknown,Unknown,Unknown,Unknown,Unknown,pharmacy,pharmacy,Unknown,Unknown,Unknown,18.5506888,73.9393079
dr kanchankumar Bhagyawant,Unknown,"RUBY HALL CLINIC,  Sasoon Road, Sangamvadi",Pune,431001,Unknown,Unknown,clinic,clinic,Unknown,https://www.drkanchankumar.in/,Unknown,18.5337203,73.8770286
Dr.Pravin Survashe's,Unknown,"Columbia Asia hospital, Mundhwa - Kharadi Rd, Santipur, Thite Nagar, Kharadi,",Pune,411014,Unknown,Unknown,clinic,clinic,Unknown,https://www.drsurvasheneurosurgeonpune.in/,Unknown,18.5410925,73.9357561
Dr. Pramod Bhilare Orthopaedic Spine Clinic,Unknown,"White House, Lokmanya Bal Gangadhar Tilak Rd, opp. Tilak Smarak Mandir, Sadashiv Peth",Pune,411030,Unknown,Unknown,clinic,clinic,Unknown,https://www.spineexpertpune.in/,Unknown,18.5059305,73.8566978
Shreyas Clinic,Unknown,"Akshay Complex 2nd Floor, ITI Road,Pushpak Park Corner, Aundh",Pune,411007,Unknown,Unknown,clinic,clinic,Unknown,https://www.shreyasclinicaundh.in,Unknown,18.5553451,73.8094732
Karan Hospital,Unknown,Dhanori Road,pune,41103,Unknown,Unknown,hospital,hospital,Unknown,Unknown,Unknown,18.5836745,73.8846483
The White Arch Dental Centre,Unknown,"Casa Grande, North Main Road, Koregaon Park,",pune,411001,Unknown,Unknown,dentist,dentist,Unknown,https://www.thewhitearch.com/,Unknown,18.5366881,73.8993858
Ordnance Factory Hospital,"Khadki, Pune",Unknown,Unknown,411003,Maharashtra,Unknown,hospital,Unknown,Unknown,Unknown,Unknown,18.5607785,73.8444489
"Military Hospital ,Pune","Range Hills, Pune",Unknown,Unknown,411020,Maharashtra,Unknown,hospital,Unknown,Unknown,Unknown,Unknown,18.5526036,73.8381779
Care Multispeciality Hospital,"Wagholi, Pune",Unknown,Unknown,412207,Maharashtra,Unknown,hospital;clinic,clinic,Unknown,Unknown,Unknown,18.581328,73.985162
Matoshri Ramabai Ambedkar Prasutigriha,"B Block, Municipal Colony, Pune",Unknown,Unknown,411030,Maharashtra,Unknown,hospital,Unknown,Unknown,Unknown,Unknown,18.502785,73.8500051
Savitribai Phule Meternity Home,"Guruwar Peth, Pune",Unknown,Unknown,411041,Maharashtra,Unknown,hospital,Unknown,Unknown,Unknown,Unknown,18.5048618,73.8611993
Rising Medicare Hospital,"Kharadi, Pune",Unknown,Unknown,411014,Maharashtra,Unknown,hospital,Unknown,Unknown,Unknown,Unknown,18.5537402,73.9393307
Apollo Spectra Hospitals,"Vijayanagar Colony, Sadashiv Peth, Pune",Unknown,Unknown,411030,Maharashtra,Unknown,hospital,Unknown,Unknown,Unknown,Unknown,18.5029796,73.8520221
Apollo Clinic,Unknown,"Sakore Nagar, Viman Nagar,",Pune,Unknown,Unknown,Unknown,clinic,clinic,Unknown,https://drmayankpathak.com/,Unknown,18.5644673,73.9139134
Sneh Child Care Clinic,Unknown,"Rajbharati building, opposite Hotel Shantai, Rasta Peth, Pune, Maharashtra 411011",pune,411011,Unknown,Unknown,clinic,clinic,Unknown,https://www.drdesalechildclinic.in/,Unknown,18.5198011,73.8712374
Tapadiya's Dental Casa,Unknown,"Hirabaug Business Centre, 2nd floor,, Shukrawar Peth","Pune,Maharashtra, India",411002,Unknown,Unknown,clinic,clinic,Unknown,https://www.tapadiyasdentalcasa.in/,Unknown,18.5037932,73.8562917
Dr. Rajesh Badani,Unknown,"Ingawale Nagar, Pimple Nilakh","Pune,Maharashtra, India",411027,Unknown,Unknown,clinic,clinic,Unknown,https://www.drrajeshbadanicardiologist.in/,Unknown,18.5792889,73.7853335
Jagtap Clinic and Research Centre,Unknown,"Mangalmurti Complex, Hirabaug Chowk, Opp Apsara Hotel, Tilak Road,","Pune-,Maharashtra, India",411002,Unknown,Unknown,clinic,clinic,Unknown,https://www.jagtapclinic.com/,Unknown,18.5041547,73.8548551
Caring Clinic,Unknown,Unknown,Unknown,Unknown,Unknown,Unknown,nursing_home,chemist,Unknown,Unknown,Unknown,18.5223414,73.8643689
Oasis Orthopaedic & Sonography Clinic,Unknown,"Gandharva capital Bhosale nagar ,near Villoo Poonawala Hospital, Hadapsar","Pune,Maharashtra, India",411028,Unknown,Unknown,clinic,clinic,Unknown,https://www.oasisclinicpune.com/,Unknown,18.504039,73.9307918
"Dr.Sampat Dumbre Patil, orthopaedic surgeon",Unknown,"Gandharva Capital, Behind Sahayadri Hospital, Bhosale Nagar","Hadapsar, Pune,Maharashtra, India",411028,Unknown,Unknown,clinic,clinic,Unknown,https://www.drsampatdumbrepatil.com/,Unknown,18.5040531,73.9309888
Chellaram Hospital,Unknown,Unknown,Pune,411021,Unknown,Unknown,hospital,hospital,Unknown,Unknown,Unknown,18.5196786,73.769934
Deshmukh Clinic & Research Centre,Unknown,"Pinnacle Prestige, Above Cosmos Bank ,1169 Sadashiv Peth, Tilak Road,","Pune,Maharashtra, India",411030,Unknown,Unknown,clinic,clinic,Unknown,https://www.drvaishalideshmukh.com/,Unknown,18.5104258,73.8464875
Om Childrens Clinic,Unknown,Porwal Road,Pune,411047,Unknown,Unknown,hospital,hospital,Unknown,Unknown,Unknown,18.597536,73.9088733
Matoshree Medico,Unknown,"Uttamnagar, Bavdhan Budruk",Pune,411021,Unknown,Unknown,pharmacy,pharmacy,Unknown,Unknown,Mo-Sa 11:00-22:00,18.5220109,73.7647911
Metro Chemist,Unknown,Bavdhan Budruk,Pune,411021,Unknown,Unknown,pharmacy,pharmacy,Unknown,Unknown,Mo-Fr 09:00-17:00,18.5223748,73.7645098
Golvilkar Pathology Lab,Unknown,Bavdhan Budruk,Pune,411021,Unknown,Unknown,Unknown,laboratory,+918484945767,Unknown,Unknown,18.5220741,73.7646239
Micro Dentist Clinic,Unknown,Bavdhan Budruk,Pune,411021,Unknown,Unknown,dentist,dentist,Unknown,Unknown,Unknown,18.5219991,73.7648398
Thite Multispeciality Hospital,"Shree Ram Society, Lohegaon, Pune",Unknown,Unknown,412216,Maharashtra,Unknown,hospital,Unknown,Unknown,Unknown,Unknown,18.5629303,73.9400147
Metropolis Healthcare Ltd,"Deccan Gymkhana, K.P. Kulkarni Marg, Shivajinagar",Unknown,Unknown,411004,Maharashtra,Unknown,hospital,Unknown,Unknown,Unknown,Unknown,18.5078453,73.8265103
Shree laxmi Hospital,"Thite Nagar, Kharadi",Unknown,Unknown,411014,Maharashtra,Unknown,hospital,Unknown,Unknown,Unknown,Unknown,18.5503243,73.9372721
Yash Medicals,Unknown,Tatyasaheb Karandikar Path,Unknown,411030,Unknown,Unknown,pharmacy,pharmacy,Unknown,Unknown,Unknown,18.5102354,73.8488941
Apple medical store,Unknown,Unknown,Pune,Unknown,Unknown,Unknown,pharmacy,pharmacy,Unknown,Unknown,Unknown,18.5219903,73.7655086
Rahul Pharma,Unknown,Unknown,Unknown,Unknown,Unknown,Unknown,pharmacy,pharmacy,Unknown,Unknown,Unknown,18.5104017,73.8476123
Vasudha Medico,Unknown,"7/22, Baner Rd, Sakal Nagar, Aundh, Pune, Maharashtra 411007",Unknown,Unknown,Unknown,Unknown,pharmacy,Unknown,020 2567 6199,Unknown,Mo-Su 10:00-22:00,18.5463952,73.8203671
Joshi Hospital,Unknown,"Apte Rd., Besides IDBI Bank, Opp. Kohinoor Hotel, Shivaji Nagar",Pune,411004,Unknown,Unknown,hospital,hospital,Unknown,https://www.drabhijeetjoshi.co.in/,Unknown,18.5178773,73.842284
Ruby Hall,Unknown,"Ruby Hall Clinic, Sassoon Road, Sangamvadi, Ruby Hall Clinic,",Pune,411001,Unknown,Unknown,hospital,hospital,Unknown,https://www.cardiologyindia.in/,Unknown,18.5334658,73.8769727
Hridan Speciality Clinic,Unknown,"Shop No. U4, Springfield building, opp. Reliance mart, Kharadi,",Pune,411014,Unknown,Unknown,clinic,clinic,Unknown,https://www.hridanclinic.com,24/7,18.5519038,73.9367351
Benecare Superspeciality Hospital,Unknown,Unknown,Pune,411045,Maharashtra,IN,hospital,hospital,Unknown,Unknown,Unknown,18.5639725,73.777019
Dr. Bilal's Crystal Medicare Clinic,Unknown,"Ganga Complex, Janta Nagar, Yerwada Ganga Complex, first floor, above bafna hardware, Yerawada,",pune,411006,Unknown,Unknown,clinic,clinic,Unknown,https://www.drbilalcrystalmedicareclinic.com/,"Mo-Su 11:30-15:00,18:00-21:00",18.5493077,73.8889117
Dr. Smita deo Vedika Clinic,Unknown,"2, Aditi Classic, Next to Cafe Coffee Day, Oppo. to Kapil Malhar, Baner,",Pune,411045,Unknown,Unknown,clinic,clinic,Unknown,https://www.drsmitadeo.com/,Mo-Fr 11:00-15:00,18.5584551,73.7918433
Tirupati Hospital,Unknown,"Patil nagar road, Bavdhan",Pune,411021,Unknown,Unknown,hospital,hospital,Unknown,Unknown,Unknown,18.5167814,73.774807
Vitalife Clinic Bavdhan,Unknown,Pashan-Bavdhan Road,Pune,Unknown,Unknown,Unknown,clinic,clinic,+918928100300,Unknown,Mo-Sa 07:30-21:00; Su 08:00-12:00,18.5119527,73.7824657
Dr. Advait Kothurkar,Unknown,"1195/8, Ghole Road, Sanjeevan Surgeon, Above Atharva Eye Hospital, Near ICICI bank, Shivaji Nagar,,Maharashtra, India",Pune,411005,Unknown,Unknown,clinic,clinic,Unknown,https://www.dradvaitkothurkar.in/,Tu-Sa 09:00-22:00,18.5246551,73.842476
Pushp Superspeciality Clinic,Unknown,"Shop No. 3 and 4, Royal Imperio Society, Opp. Deepmala Society, Chitale Sweet Shop Lane, Pimple Saudagar,,Maharashtra, India",Pune,411061,Unknown,Unknown,clinic,clinic,Unknown,https://www.skinandplasticsurgerypune.com/,Mo-Sa 19:00-21:30,18.5983213,73.7904995
Dr. Sathe's cardiac clinic,Unknown,Dr. Ketkar Path,Pune,411004,Unknown,Unknown,clinic,clinic,Unknown,Unknown,Unknown,18.5175359,73.8339951
Dr. Gadkari Cardiac clinic,Unknown,K. B. Joshi Path,Pune,Unknown,Unknown,Unknown,clinic,clinic,+919673338046,Unknown,"Mo,We,Fr 12:00-14:30",18.5330242,73.8473745
Panacea Multispeciality Clinic,Unknown,"Panacea Clinic Swaroop Nagari, after Karishma Chowk and Cosmos bank, Karve Road ,",pune,411038,Unknown,Unknown,clinic,clinic,Unknown,https://www.drnakulshah.in/drnakulshah,Mo-Su 06:00-20:00,18.5165382,73.8035744
Jay Bhagwan medical shop,Unknown,Uttamnagar road,Pune,411021,Unknown,Unknown,pharmacy,pharmacy,Unknown,Unknown,Unknown,18.5199799,73.767731
Mataji medicals,Unknown,Unknown,Unknown,Unknown,Unknown,Unknown,pharmacy,pharmacy,Unknown,Unknown,Unknown,18.5215707,73.7657561
Medicare,Unknown,Unknown,Unknown,Unknown,Unknown,Unknown,pharmacy,Unknown,Unknown,Unknown,Unknown,18.5209309,73.7740332
Ganesh medicals,Unknown,Unknown,Unknown,Unknown,Unknown,Unknown,pharmacy,Unknown,Unknown,Unknown,Unknown,18.520179,73.7782086
Shree medicals,Unknown,Unknown,Unknown,Unknown,Unknown,Unknown,pharmacy,Unknown,Unknown,Unknown,Unknown,18.5201524,73.7717954
Dr. Bharat Patel Clinic,Unknown,"Shop 13,14,15/B,#478 Ground floor , Mittal Court, Rasta Peth",Pune,411011,Unknown,Unknown,clinic,clinic,Unknown,https://www.drbharatpatel.com/,24/7,18.5199582,73.8721693
Relax Medico,Unknown,Unknown,Unknown,Unknown,Unknown,Unknown,pharmacy,Unknown,Unknown,Unknown,Unknown,18.5113076,73.7754102
 ,Unknown,Unknown,Unknown,Unknown,Unknown,Unknown,pharmacy,Unknown,Unknown,Unknown,Unknown,18.5853311,73.7817226
Symbiosis University Hospital & Research Centre,Unknown,"Dnyan Marg, Mulshi Rd, Lavale, Maharashtra",Pune,Unknown,Unknown,Unknown,hospital,hospital,Unknown,Unknown,Unknown,18.5389496,73.7279701
Dr Madhusudan Asawa | The Heart Clinic,Unknown,Tanaji Malusare Path,Pune,"411030,",Unknown,Unknown,clinic,clinic,Unknown,https://www.heartclinicpune.com/,Mo-Sa 15:00-20:00,18.5012069,73.8479507
Unmesh Orthopedic Clinic,Unknown,"Parvati, Near Sane Guruji Smarak, Sinhgad road, Pune- 411030,Maharashtra, India",Unknown,Unknown,Unknown,Unknown,clinic,clinic,Unknown,https://www.dratulpatilortho.com/,"Mo,Tu,Th,Fr 17:00-19:00",18.501414,73.8487739
Orange Childrens Clinic,Unknown,"203 2nd Floor Seasons Business Square Opposite Kothari Hyundai showroom, Sanewadi, Aundh,Maharashtra, India",Pune,411007,Unknown,Unknown,clinic,clinic,Unknown,https://www.drshrinivastambe.com/,"Mo-Sa 11:00-13:30,18:00-20:30",18.5547443,73.8047827
,Unknown,Unknown,Unknown,Unknown,Unknown,Unknown,pharmacy,Unknown,Unknown,Unknown,Unknown,18.5952914,73.769299
Wellness forever,Unknown,K Rambhau Dada Kalate Marg,Unknown,411057,Unknown,Unknown,pharmacy,Unknown,+91 20 2986 0041; +91 20 2986 0042,Unknown,24/7,18.5955581,73.768883
Dr. Sarafs Joints Clinic,Unknown,"1st Floor, City Center Building, Opposite Ayurved Rasashala,Near Kaka Halwai, Karve Road , Maharashtra, India;City Center Building, Opposite Ayurved Rasashala,Near Kaka Halwai, Karve Road",Pune,411030,Unknown,Unknown,clinic,clinic,Unknown,https://www.drsarafjointsclinic.in/drsarafjointsclinic,Mo-Fr 07:30-21:00,18.511803,73.8366737
Rainbow clinic,Unknown,Mahadji Shinde Marg,Pune,411007,Unknown,Unknown,clinic,clinic,+91 96899 07296,https://drsachinshah.com/,Mo-Sa 17:30-20:00; Su off,18.5658944,73.8071957
Urozoone Kidney care clinic,Unknown,"102, First Floor, Town Square, Above Dorabjees,, B/H Symbiosis Law School VIP Viman Nagar, New Airport Rd, Mhada Colony,, Viman Nagar,Maharashtra, India",Pune,411014,Unknown,Unknown,clinic,clinic,Unknown,https://www.urozoone.com/,available on call,18.5686242,73.9074649
 ,Unknown,Unknown,Unknown,Unknown,Unknown,Unknown,pharmacy,pharmacy,+91 73044 41203,Unknown,07:00-23:00,18.5961963,73.7720889
 ,Unknown,Unknown,Unknown,Unknown,Unknown,Unknown,pharmacy,pharmacy,Unknown,Unknown,Unknown,18.5958053,73.7719249
     ,Unknown,Unknown,Unknown,Unknown,Unknown,Unknown,clinic,clinic,Unknown,Unknown,Unknown,18.5958207,73.7719831
  ,Unknown,Unknown,Unknown,Unknown,Unknown,Unknown,clinic,clinic,Unknown,Unknown,Unknown,18.5958456,73.7721098
 ,Unknown,Unknown,Unknown,Unknown,Unknown,Unknown,clinic,clinic,Unknown,Unknown,Unknown,18.5869919,73.7804012
Dr Patils dental hospital,Unknown,Unknown,Unknown,Unknown,Unknown,Unknown,clinic,clinic,+91 77099 46076; +91 84464 55063,Unknown,Unknown,18.5947058,73.7688817
Holistic health clinic,Unknown,Unknown,Unknown,Unknown,Unknown,Unknown,clinic,clinic,Unknown,Unknown,"Mo,We,Fr off; Tu,Th 17:00-19:00; Sa-Su 10:00-13:00",18.599153,73.7731198
Yatharth Ayurved,Unknown,Unknown,Unknown,Unknown,Unknown,Unknown,Unknown,ayurved,Unknown,Unknown,Unknown,18.5945342,73.7687624
Mule Hospital and Chikitsalay diagnostics,Unknown,Unknown,Unknown,Unknown,Unknown,Unknown,hospital,Unknown,Unknown,Unknown,Unknown,18.5867313,73.7809817
Tiny steps childcare and vaccination clinic,Unknown,Datta Mandir Road,Unknown,Unknown,Unknown,Unknown,clinic,clinic,+91 77440 88440,Unknown,"Mo-Sa 10:00-14:00,18:00-20:30; Su off",18.5988426,73.7639936
Care Cure,Unknown,Unknown,Unknown,Unknown,Unknown,Unknown,pharmacy,pharmacy,Unknown,Unknown,Unknown,18.5437093,73.7926408
Om Sai medical and surgical,Unknown,Unknown,Unknown,Unknown,Unknown,Unknown,pharmacy,pharmacy,+91 90492 79989,Unknown,Unknown,18.5930057,73.7734116
 ,Unknown,Unknown,Unknown,Unknown,Unknown,Unknown,clinic,clinic,Unknown,Unknown,Unknown,18.5930548,73.7734071
Little miracle childrens hospital,Unknown,Unknown,Unknown,Unknown,Unknown,Unknown,hospital,hospital,+91 77579 33138,Unknown,Unknown,18.5945809,73.7687807
Dr Prachis dental care,Unknown,Unknown,Unknown,Unknown,Unknown,Unknown,dentist,dentist,+91 95032 37262,Unknown,Unknown,18.5928736,73.7687499
Liver and gastro clinic,Unknown,Datta Mandir Road,Unknown,Unknown,Unknown,Unknown,clinic,clinic,Unknown,Unknown,Unknown,18.598837,73.764061
 ,Unknown,Datta Mandir Road,Unknown,Unknown,Unknown,Unknown,clinic,clinic,Unknown,Unknown,Unknown,18.5988097,73.7640696
Babysure IVF centre,Unknown,"2 nd Floor Amar Manor Pune - Solapur Road above Vijay sales, Hadapsar,",Pune,411013,Unknown,Unknown,clinic,clinic,Unknown,https://www.ivfspecialistpune.in/,Mo-Su 11:00-13:00,18.5067162,73.9083588
Manipal Hospital,Unknown,"Veerbhadra Nagar Rd, opposite D-MART, Veerbhadra Nagar, Baner,",Pune,411045,Unknown,Unknown,hospital,hospital,Unknown,Unknown,24/7,18.5663598,73.7695757
Atharva Nursing Home,Unknown,Unknown,Unknown,Unknown,Unknown,Unknown,clinic,clinic,Unknown,Unknown,Unknown,18.5886469,73.7819956
Apollo pharmacy,Unknown,Unknown,Unknown,Unknown,Unknown,Unknown,pharmacy,pharmacy,Unknown,Unknown,Unknown,18.5886218,73.7819979
Shree dental clinic,Unknown,Unknown,Unknown,Unknown,Unknown,Unknown,dentist,dentist,Unknown,Unknown,Unknown,18.5886054,73.7820702
 ,Unknown,Unknown,Unknown,Unknown,Unknown,Unknown,clinic,clinic,+91 99225 52500,Unknown,Unknown,18.588626,73.7820738
 ,Unknown,Unknown,Unknown,Unknown,Unknown,Unknown,pharmacy,pharmacy,Unknown,Unknown,Unknown,18.588608,73.7821037
 ,Unknown,Unknown,Unknown,Unknown,Unknown,Unknown,pharmacy,pharmacy,+91 90289 12191,Unknown,Unknown,18.5886414,73.7817629
Omkar,Unknown,Unknown,Unknown,Unknown,Unknown,Unknown,pharmacy,Unknown,Unknown,Unknown,Unknown,18.5310171,73.8756821
MedPlus,Unknown,Unknown,Unknown,Unknown,Unknown,Unknown,pharmacy,pharmacy,Unknown,Unknown,Unknown,18.5975042,73.7742432
Lupin Diagnostics,Unknown,Unknown,Unknown,Unknown,Unknown,Unknown,Unknown,laboratory,+917030300400,https://www.lupindiagnostics.com/,Unknown,18.5949173,73.7665437
Mamta child care,Unknown,Unknown,Unknown,Unknown,Unknown,Unknown,clinic,clinic,+91 86689 93901,Unknown,"Mo-Sa 10:00-13:00,18:00-21:00; Su off",18.5953913,73.7674474
Midas,Unknown,Unknown,Unknown,Unknown,Unknown,Unknown,Unknown,physiotherapist,Unknown,Unknown,"Mo-Sa 09:00-13:00,17:00-21:00; Su off",18.5886437,73.7817194
Lifeline clinic,Unknown,Unknown,Unknown,Unknown,Unknown,Unknown,clinic,clinic,Unknown,Unknown,Unknown,18.588649,73.7816801
Krishna medical,Unknown,Unknown,Unknown,Unknown,Unknown,Unknown,pharmacy,pharmacy,+91 99606 24460,Unknown,08:30-23:00,18.596399,73.7738041
Todkar Hospital,Unknown,Unknown,Unknown,Unknown,Unknown,Unknown,hospital,hospital,Unknown,Unknown,Unknown,18.5107733,73.8660853
Modern Hospital,Unknown,Unknown,Unknown,Unknown,Unknown,Unknown,hospital,hospital,Unknown,Unknown,Unknown,18.5157161,73.8688388
sharda clinic,Unknown,Unknown,Unknown,Unknown,Unknown,Unknown,hospital,hospital,Unknown,Unknown,Unknown,18.5012435,73.8663445
apollo clinic,Unknown,Unknown,Unknown,Unknown,Unknown,Unknown,hospital,hospital,Unknown,Unknown,Unknown,18.5644671,73.9139265
Bora Hospital,Unknown,Unknown,Unknown,Unknown,Unknown,Unknown,hospital,hospital,Unknown,Unknown,Unknown,18.5104549,73.8639446
kedari Hospital,Unknown,Unknown,Unknown,Unknown,Unknown,Unknown,hospital,hospital,Unknown,Unknown,Unknown,18.5152955,73.8754518
Umarji Hospital,Unknown,Unknown,Unknown,Unknown,Unknown,Unknown,hospital,hospital,Unknown,Unknown,Unknown,18.5119365,73.857759
Panchsheel Hospital,Unknown,Unknown,Unknown,Unknown,Unknown,Unknown,hospital,hospital,Unknown,Unknown,Unknown,18.5140768,73.8692464
Sardar Patel Genral Hospital,Unknown,Unknown,Unknown,Unknown,Unknown,Unknown,hospital,hospital,Unknown,Unknown,Unknown,18.5027364,73.8771188
Meera Hospital,Unknown,Unknown,Unknown,Unknown,Unknown,Unknown,hospital,hospital,Unknown,Unknown,Unknown,18.5023171,73.8746937
Allice Munot Hospital,Unknown,Unknown,Unknown,Unknown,Unknown,Unknown,hospital,hospital,Unknown,Unknown,Unknown,18.5025502,73.8686991
Kering Hospital,Unknown,Unknown,Unknown,Unknown,Unknown,Unknown,hospital,hospital,Unknown,Unknown,Unknown,18.5030034,73.8681299
G.M Babubbhai Memo Hospital,Unknown,Unknown,Unknown,Unknown,Unknown,Unknown,hospital,hospital,Unknown,Unknown,Unknown,18.508112,73.8751436
Oyster and Pearl Hospital,Unknown,Unknown,Unknown,Unknown,Unknown,Unknown,hospital,hospital,Unknown,Unknown,Unknown,18.5318931,73.8472769
Ghaisas ENT Hospital,Unknown,Unknown,Unknown,Unknown,Unknown,Unknown,hospital,hospital,Unknown,Unknown,Unknown,18.5172397,73.8423562
Phadke Hospital,Unknown,Unknown,Unknown,Unknown,Unknown,Unknown,hospital,hospital,Unknown,Unknown,Unknown,18.5183149,73.843879
Seth Tarachand Hospital,Unknown,Unknown,Unknown,Unknown,Unknown,Unknown,hospital,hospital,Unknown,Unknown,Unknown,18.5177725,73.864031
Shre Samarth Hospital,Unknown,Unknown,Unknown,Unknown,Unknown,Unknown,hospital,hospital,Unknown,Unknown,Unknown,18.5180497,73.8658612
Ruby Hall Clinic,Unknown,Unknown,Unknown,Unknown,Unknown,Unknown,hospital,hospital,Unknown,Unknown,Unknown,18.5327841,73.8773654
Red blood hospital,Unknown,Sassoon Marg,Pune,411001,Unknown,Unknown,hospital,hospital,Unknown,Unknown,Unknown,18.5273893,73.8710163
Nityashraddha super speciality hospital,Unknown,Unknown,Unknown,Unknown,Unknown,Unknown,hospital,hospital,Unknown,Unknown,Unknown,18.5278495,73.8760898
N. M. Wadia Institute of Cardiology,Unknown,Unknown,Unknown,Unknown,Unknown,Unknown,hospital,hospital,Unknown,Unknown,Unknown,18.5307461,73.8771922
WEST VALLEY MULTISPECIALITY HOSPITAL PVT LTD,Unknown,Dhole Patil Road,Pune,411001,Unknown,Unknown,hospital,hospital,Unknown,Unknown,Unknown,18.5351432,73.8765318
Kawediya Hospital,Unknown,Unknown,Unknown,Unknown,Unknown,Unknown,hospital,hospital,Unknown,Unknown,Unknown,18.5242312,73.8627099
Unique Hospital,Unknown,Unknown,Unknown,Unknown,Unknown,Unknown,hospital,hospital,Unknown,Unknown,Unknown,18.5221641,73.8676777
Sadhu Vaswani Missions Medical Complex,Unknown,Unknown,Unknown,Unknown,Unknown,Unknown,hospital,hospital,Unknown,Unknown,Unknown,18.5347719,73.8874441
Poona Hospital and Research Centre,Unknown,Unknown,"Pune,Maharashtra, India",411030,Unknown,Unknown,hospital,hospital,Unknown,Unknown,Unknown,18.510644,73.8420437
DEENDAYAL MEMORIAL HOSPITAL,Unknown,Unknown,Pune,Unknown,Unknown,Unknown,hospital,hospital,Unknown,Unknown,Unknown,18.5249802,73.8411721
KAMLA NEHRU HOSPITAL,Unknown,Unknown,Unknown,Unknown,Unknown,Unknown,hospital,hospital,Unknown,Unknown,Unknown,18.5229428,73.8620344
GLOBAL HOSPITAL & RESEARCH,Unknown,Unknown,Pune,Unknown,Unknown,Unknown,hospital,hospital,Unknown,Unknown,Unknown,18.5012869,73.8410045
Joshi Hospital,Unknown,Unknown,Unknown,Unknown,Unknown,Unknown,hospital,hospital,Unknown,Unknown,Unknown,18.5179034,73.8422853
Prayag Hospital,Unknown,Unknown,Unknown,Unknown,Unknown,Unknown,hospital,hospital,Unknown,Unknown,Unknown,18.5174841,73.842789
HARIJIVAN HOSPITAL,Unknown,Unknown,PUNE,411009,Unknown,Unknown,hospital,hospital,Unknown,Unknown,Unknown,18.5001316,73.8543108
Unknown,Unknown,Unknown,Unknown,Unknown,Unknown,Unknown,Unknown,alternative,Unknown,Unknown,Unknown,18.552553,73.8366776
Able speciality clinic,Unknown,  ,Unknown,Unknown,Unknown,Unknown,clinic,clinic,+91 89992 03675; +91 89993 32758,Unknown,Mo-Sa 16:00-18:00; Su off,18.5946149,73.7688923
hospital26,Unknown,Unknown,Unknown,Unknown,Unknown,Unknown,hospital,hospital,Unknown,Unknown,Unknown,18.5583938,73.9309874
UNDRE HP,Unknown,Unknown,Unknown,Unknown,Unknown,Unknown,hospital,hospital,Unknown,Unknown,Unknown,18.5814556,73.9856214
PHC,Unknown,Unknown,Unknown,Unknown,Unknown,Unknown,hospital,hospital,Unknown,Unknown,Unknown,18.5799148,73.9827951
HOSPITAL 9,Unknown,Unknown,Unknown,Unknown,Unknown,Unknown,hospital,hospital,Unknown,Unknown,Unknown,18.5795587,73.9876243
GUPTA CLINIC,Unknown,Unknown,Unknown,Unknown,Unknown,Unknown,hospital,hospital,Unknown,Unknown,Unknown,18.5789142,73.9725763
SKINN AND HAIR CLINIC,Unknown,Unknown,Unknown,Unknown,Unknown,Unknown,hospital,hospital,Unknown,Unknown,Unknown,18.5777941,73.9951355
GUPTA CLINIC,Unknown,Unknown,Unknown,Unknown,Unknown,Unknown,hospital,hospital,Unknown,Unknown,Unknown,18.5788748,73.9725602
Skin and Hair Clinic,Unknown,Nagar Road,Wagholi,Unknown,Unknown,Unknown,clinic,clinic,Unknown,Unknown,24/7,18.5778137,73.99513
Primary Health Center Wagholi,Unknown,Nagar Road,Wagholi,Unknown,Unknown,Unknown,clinic,clinic,Unknown,Unknown,Unknown,18.5799477,73.9827968
Gupta Clinic,Unknown,Nagar Road,Wagholi,Unknown,Unknown,Unknown,clinic,clinic,Unknown,Unknown,24/7,18.5788551,73.9725811
hospital,Unknown,Unknown,Unknown,Unknown,Unknown,Unknown,hospital,hospital,Unknown,Unknown,Unknown,18.5823427,73.9805643
Unknown,Unknown,Unknown,Unknown,Unknown,Unknown,Unknown,hospital,hospital,Unknown,Unknown,Unknown,18.5813689,73.9831702
Unknown,Unknown,Unknown,Unknown,Unknown,Unknown,Unknown,hospital,hospital,Unknown,Unknown,Unknown,18.5833077,73.9831235
Unknown,Unknown,Unknown,Unknown,Unknown,Unknown,Unknown,hospital,hospital,Unknown,Unknown,Unknown,18.5829181,73.9770058
Unknown,Unknown,Unknown,Unknown,Unknown,Unknown,Unknown,hospital,hospital,Unknown,Unknown,Unknown,18.5813104,73.9913616
Unknown,Unknown,Unknown,Unknown,Unknown,Unknown,Unknown,hospital,hospital,Unknown,Unknown,Unknown,18.5792033,73.9819282
Unknown,Unknown,Unknown,Unknown,Unknown,Unknown,Unknown,hospital,hospital,Unknown,Unknown,Unknown,18.5782826,73.9758572
Unknown,Unknown,Unknown,Unknown,Unknown,Unknown,Unknown,hospital,hospital,Unknown,Unknown,Unknown,18.5738773,73.9652574
Unknown,Unknown,Unknown,Unknown,Unknown,Unknown,Unknown,hospital,hospital,Unknown,Unknown,Unknown,18.5755248,73.9600646
Public health Care Wagoli,Unknown,Unknown,Unknown,Unknown,Unknown,Unknown,hospital,hospital,Unknown,Unknown,Unknown,18.5799268,73.982826
care hospital,Unknown,Unknown,Unknown,Unknown,Unknown,Unknown,hospital,hospital,Unknown,Unknown,Unknown,18.581348,73.9851155
Undre Hospital,Unknown,Unknown,Unknown,Unknown,Unknown,Unknown,hospital,hospital,Unknown,Unknown,Unknown,18.5814961,73.9855996
Gupta Clinic,Unknown,Unknown,Unknown,Unknown,Unknown,Unknown,hospital,hospital,Unknown,Unknown,Unknown,18.5788647,73.9725846
Shinde Hospitals,Unknown,Unknown,Unknown,Unknown,Unknown,Unknown,hospital,hospital,Unknown,Unknown,Unknown,18.5801148,73.9815294
Pulse Speciality Hospital,Unknown,Unknown,Unknown,Unknown,Unknown,Unknown,hospital,hospital,Unknown,Unknown,Unknown,18.5873935,73.9655778
Morya Hospitals,Unknown,Unknown,Unknown,Unknown,Unknown,Unknown,hospital,hospital,Unknown,Unknown,Unknown,18.5748109,73.9618613
Siddheswar Hospitals,Unknown,Unknown,Unknown,Unknown,Unknown,Unknown,hospital,hospital,Unknown,Unknown,Unknown,18.5733714,73.9557181
Medinova Hospital,Unknown,Unknown,Unknown,Unknown,Unknown,Unknown,hospital,hospital,Unknown,Unknown,Unknown,18.5762741,73.9634679
Dhanwatari Hospital,Unknown,Unknown,Unknown,Unknown,Unknown,Unknown,hospital,hospital,Unknown,Unknown,Unknown,18.5791205,73.9794326
Sai Hospitals,Unknown,Unknown,Unknown,Unknown,Unknown,Unknown,hospital,hospital,Unknown,Unknown,Unknown,18.5818139,73.9885029
Siddheswar Hospital,Unknown,Unknown,Unknown,Unknown,Unknown,Unknown,hospital,hospital,Unknown,Unknown,Unknown,18.5733934,73.9557641
Lotus Hospital,Unknown,Unknown,Unknown,Unknown,Unknown,Unknown,hospital,hospital,Unknown,Unknown,Unknown,18.578795,73.9792027
Care Hospitals,Unknown,Unknown,Unknown,Unknown,Unknown,Unknown,hospital,hospital,Unknown,Unknown,Unknown,18.5748089,73.961192
Unknown,Unknown,Unknown,Unknown,Unknown,Unknown,Unknown,hospital,hospital,Unknown,Unknown,Unknown,18.5732671,73.975321
Unknown,Unknown,Unknown,Unknown,Unknown,Unknown,Unknown,hospital,hospital,Unknown,Unknown,Unknown,18.5784537,73.9611375
Unknown,Unknown,Unknown,Unknown,Unknown,Unknown,Unknown,hospital,hospital,Unknown,Unknown,Unknown,18.5789012,73.9571464
Unknown,Unknown,Unknown,Unknown,Unknown,Unknown,Unknown,hospital,hospital,Unknown,Unknown,Unknown,18.5764605,73.9703857
Unknown,Unknown,Unknown,Unknown,Unknown,Unknown,Unknown,hospital,hospital,Unknown,Unknown,Unknown,18.5720966,73.9841075
Unknown,Unknown,Unknown,Unknown,Unknown,Unknown,Unknown,hospital,hospital,Unknown,Unknown,Unknown,18.567375,73.9569307
Unknown,Unknown,Unknown,Unknown,Unknown,Unknown,Unknown,hospital,hospital,Unknown,Unknown,Unknown,18.5715041,73.9578748
Unknown,Unknown,Unknown,Unknown,Unknown,Unknown,Unknown,hospital,hospital,Unknown,Unknown,Unknown,18.5717686,73.9559436
Unknown,Unknown,Unknown,Unknown,Unknown,Unknown,Unknown,hospital,hospital,Unknown,Unknown,Unknown,18.5651782,73.9581752
Unknown,Unknown,Unknown,Unknown,Unknown,Unknown,Unknown,hospital,hospital,Unknown,Unknown,Unknown,18.5644662,73.9627028
Unknown,Unknown,Unknown,Unknown,Unknown,Unknown,Unknown,hospital,hospital,Unknown,Unknown,Unknown,18.5655036,73.9468456
Life Line Hospital,Unknown,Unknown,Unknown,Unknown,Unknown,Unknown,hospital,hospital,Unknown,Unknown,Unknown,18.5837117,73.9896156
Care Hospital,Unknown,Unknown,Unknown,Unknown,Unknown,Unknown,hospital,hospital,Unknown,Unknown,Unknown,18.5813193,73.9851071
Medinova Hospitals,Unknown,Unknown,Unknown,Unknown,Unknown,Unknown,hospital,hospital,Unknown,Unknown,Unknown,18.5762624,73.9634374
Lotus Hospitals,Unknown,Unknown,Unknown,Unknown,Unknown,Unknown,hospital,hospital,Unknown,Unknown,Unknown,18.5787686,73.9792657
Shusshrusha Hospital,Unknown,Unknown,Unknown,Unknown,Unknown,Unknown,hospital,hospital,Unknown,Unknown,Unknown,18.5846747,73.9915895
Shinde Hospitals,Unknown,Unknown,Unknown,Unknown,Unknown,Unknown,hospital,hospital,Unknown,Unknown,Unknown,18.580056,73.9815296
Rainbow Hospitals,Unknown,Unknown,Unknown,Unknown,Unknown,Unknown,hospital,hospital,Unknown,Unknown,Unknown,18.5803943,73.9899857
Sai Hospitals,Unknown,Unknown,Unknown,Unknown,Unknown,Unknown,hospital,hospital,Unknown,Unknown,Unknown,18.5778028,73.9951077
Unity Hospitals,Unknown,Unknown,Unknown,Unknown,Unknown,Unknown,hospital,hospital,Unknown,Unknown,Unknown,18.5807427,73.988689
Morya Hospitals,Unknown,Unknown,Unknown,Unknown,Unknown,Unknown,hospital,hospital,Unknown,Unknown,Unknown,18.5748601,73.9618107
Pulse hospitals,Unknown,Unknown,Unknown,Unknown,Unknown,Unknown,hospital,hospital,Unknown,Unknown,Unknown,18.5875881,73.9663579
Metro Hospitals,Unknown,Unknown,Unknown,Unknown,Unknown,Unknown,hospital,hospital,Unknown,Unknown,Unknown,18.580852,73.9821671
Shinde hospitals,Unknown,Unknown,Unknown,Unknown,Unknown,Unknown,hospital,hospital,Unknown,Unknown,Unknown,18.5801484,73.9814572
Life line hospital,Unknown,Unknown,Unknown,Unknown,Unknown,Unknown,hospital,hospital,Unknown,Unknown,Unknown,18.5844508,73.9891607
imax Eye care hospital,Unknown,Unknown,Unknown,Unknown,Unknown,Unknown,hospital,hospital,Unknown,Unknown,Unknown,18.5831658,73.9864644
Unknown,Unknown,Unknown,Unknown,Unknown,Unknown,Unknown,hospital,hospital,Unknown,Unknown,Unknown,18.5813557,73.9851683
Unknown,Unknown,Unknown,Unknown,Unknown,Unknown,Unknown,hospital,hospital,Unknown,Unknown,Unknown,18.5813711,73.9851159
Unknown,Unknown,Unknown,Unknown,Unknown,Unknown,Unknown,hospital,hospital,Unknown,Unknown,Unknown,18.5814429,73.9856121
Unknown,Unknown,Unknown,Unknown,Unknown,Unknown,Unknown,hospital,hospital,Unknown,Unknown,Unknown,18.5814616,73.9856224
Unknown,Unknown,Unknown,Unknown,Unknown,Unknown,Unknown,hospital,hospital,Unknown,Unknown,Unknown,18.5815015,73.9855996
Unknown,Unknown,Unknown,Unknown,Unknown,Unknown,Unknown,hospital,hospital,Unknown,Unknown,Unknown,18.5815238,73.9855901
Unknown,Unknown,Unknown,Unknown,Unknown,Unknown,Unknown,hospital,hospital,Unknown,Unknown,Unknown,18.5801722,73.9830935
Unknown,Unknown,Unknown,Unknown,Unknown,Unknown,Unknown,hospital,hospital,Unknown,Unknown,Unknown,18.5799659,73.9828262
Unknown,Unknown,Unknown,Unknown,Unknown,Unknown,Unknown,hospital,hospital,Unknown,Unknown,Unknown,18.5799266,73.9827946
Unknown,Unknown,Unknown,Unknown,Unknown,Unknown,Unknown,hospital,hospital,Unknown,Unknown,Unknown,18.5798816,73.9828739
Unknown,Unknown,Unknown,Unknown,Unknown,Unknown,Unknown,hospital,hospital,Unknown,Unknown,Unknown,18.579814,73.9829543
Mediclu,Unknown,Unknown,Unknown,Unknown,Unknown,Unknown,clinic,clinic,Unknown,Unknown,Unknown,18.5566122,73.794598
Aarav Medical,Unknown,Unknown,Unknown,Unknown,Unknown,Unknown,pharmacy,pharmacy,Unknown,Unknown,Unknown,18.5206231,73.7788673
Aundh Pharma,Unknown,Unknown,Unknown,Unknown,Unknown,Unknown,pharmacy,pharmacy,Unknown,Unknown,Unknown,18.5545822,73.8047761
Maya Clinic,Unknown,Unknown,Unknown,Unknown,Unknown,Unknown,clinic,clinic,+917666423518,Unknown,Mo-Sa 16:00-20:00,18.5531176,73.8093433
Spineology Clinic,Unknown,Unknown,Unknown,Unknown,Unknown,Unknown,clinic,clinic,+919922134134,https://spinalogy.com,Unknown,18.5531592,73.8088902
Kadam Diagnostic,Unknown,Unknown,Unknown,Unknown,Unknown,Unknown,clinic,clinic,Unknown,Unknown,Unknown,18.5538556,73.8051603
Mahima's Dental clinic,Unknown,Unknown,Unknown,Unknown,Unknown,Unknown,dentist,dentist,Unknown,Unknown,Unknown,18.5547675,73.8064653
The HEART Clinic,Unknown,Unknown,Unknown,Unknown,Unknown,Unknown,clinic,clinic,Unknown,Unknown,Unknown,18.5540686,73.8051236
Dr Harsha's Homeopathy Clinic,Unknown,Unknown,Unknown,Unknown,Unknown,Unknown,Unknown,alternative,Unknown,Unknown,Unknown,18.554697,73.8063515
Dr. Avinash Kulkarni,Unknown,Unknown,Unknown,Unknown,Unknown,Unknown,dentist,dentist,Unknown,Unknown,Unknown,18.5534886,73.809364
Progenesis Test Tube Baby Centre,Unknown,Unknown,Unknown,Unknown,Unknown,Unknown,clinic,clinic,Unknown,Unknown,Unknown,18.5537851,73.8096344
Noble Plus,Unknown,Unknown,Unknown,Unknown,Unknown,Unknown,pharmacy,pharmacy,Unknown,Unknown,Unknown,18.5538421,73.8093194
iPhysio,Unknown,Unknown,Unknown,Unknown,Unknown,Unknown,clinic,clinic,Unknown,Unknown,Unknown,18.5547037,73.806517
Oracare Detal Clinic,Unknown,Unknown,Unknown,Unknown,Unknown,Unknown,dentist,dentist,(020) 25860233,Unknown,"Mo-Sa 10:00-13:00,18:00-20:30",18.5484006,73.7935198
Ayushman Pathology,Unknown,Baner-Pashan Link Road,Pune,411021,Unknown,Unknown,Unknown,laboratory,(020) 32531370 / +91 9890494737,Unknown,Unknown,18.5482022,73.7934506
Ashwin Dental Care,Unknown,Unknown,Unknown,Unknown,Unknown,Unknown,dentist,dentist,Unknown,Unknown,Unknown,18.5208549,73.7745051
Little star,Unknown,Unknown,Unknown,Unknown,Unknown,Unknown,clinic,clinic,Unknown,Unknown,Unknown,18.5960182,73.7734486
Healing Touch Multispeciality Clinic,Unknown,"3rd Floor, Healing Touch Multispeciality Clinic, Town Square Bldg, Off, New Airport Rd, Mhada Colony, Viman Nagar",Pune,411014,Unknown,Unknown,clinic,clinic,Unknown,Unknown,Mo-Sa 10:00-22:00,18.5685732,73.9070999
Unknown,Unknown,Pashan-Bavdhan Road,Unknown,Unknown,Unknown,Unknown,clinic,Unknown,Unknown,Unknown,Unknown,18.5144691,73.7821719
Ishwar Heart Clinic,Unknown,"Jangali Maharaj Rd, near Hotel Sudama, JM Road",Pune,411005,Unknown,Unknown,clinic,clinic,Unknown,Unknown,Unknown,18.5262983,73.8518531
Dr Mhaske Hospital and Research Centre Pvt Ltd,Unknown,"Solapur - Pune Hwy, Next to Old Post Office, Gadital, Hadapsar",Pune,411028,Unknown,Unknown,hospital,hospital,Unknown,Unknown,Unknown,18.500696,73.9415815
Helpline Medicare,Unknown,Unknown,Unknown,Unknown,Unknown,Unknown,pharmacy,pharmacy,Unknown,Unknown,Unknown,18.5533078,73.936556
Planet Chemist,Unknown,Unknown,Unknown,Unknown,Unknown,Unknown,pharmacy,pharmacy,Unknown,Unknown,Unknown,18.5697167,73.9108986
Vaibhav Nursing Home,Unknown,Dhanori Road,Pune,411015,Unknown,Unknown,hospital,hospital,Unknown,Unknown,Unknown,18.5875992,73.8871753
Alpha hospital,Unknown,Unknown,Unknown,Unknown,Unknown,Unknown,hospital,hospital,Unknown,Unknown,Unknown,18.5984803,73.7640386
Dixit Dental Clinic,Unknown,"Off Karve Road, Near Law College Road",Pune,411004,Unknown,Unknown,clinic,clinic,Unknown,Unknown,Available on call,18.5092075,73.8312717
Unknown,Unknown,Unknown,Unknown,Unknown,Unknown,Unknown,hospital,hospital,Unknown,Unknown,Unknown,18.5071972,73.7947857
Wellwish Chemist,Unknown,Blue Ridge Approach Road,Pune,411057,Unknown,Unknown,pharmacy,pharmacy,9834204454,Unknown,Unknown,18.5800297,73.7358207
Wellness Forever,Unknown,"Blue Ridge Unit D BLK, B1 to B8",Pune,411057,Unknown,Unknown,pharmacy,pharmacy,08657780772,https://wellnessforever.com/,24/7,18.5797943,73.7358977
MedPlus,Unknown,Blue Ridge Approach Road,Pune,411033,Unknown,Unknown,pharmacy,pharmacy,4067006700,https://www.medplusmart.com/,Unknown,18.5801376,73.7357871
Care Hospital,Unknown,Nagar Road,Pune,412207,Unknown,Unknown,hospital,hospital,Unknown,Unknown,Unknown,18.5827149,73.9882918
Simple hearing and speech care,Unknown,Mont vert Tropez road,Unknown,Unknown,Unknown,Unknown,Unknown,audiologist,+91 76667 73596,Unknown,Unknown,18.5945246,73.7688863
Skin spirit clinic,Unknown,Mont vert Tropez road,Unknown,Unknown,Unknown,Unknown,clinic,clinic,+91 94228 89866,Unknown,Unknown,18.594669,73.7687726
Dentorbit,Unknown,Unknown,Unknown,Unknown,Unknown,Unknown,dentist,dentist,Unknown,Unknown,Unknown,18.5945572,73.7688835
 ,Unknown,Unknown,Unknown,Unknown,Unknown,Unknown,clinic,clinic,Unknown,Unknown,Unknown,18.5926936,73.768779
Nakshatra eye hospital,Unknown,Unknown,Unknown,Unknown,Unknown,Unknown,hospital,hospital,Unknown,Unknown,Unknown,18.5999218,73.7634297
Unknown,Unknown,Unknown,Unknown,Unknown,Unknown,Unknown,dentist,dentist,Unknown,Unknown,Unknown,18.5973464,73.7691863
THE GYNAE CLINIC,Unknown,"F-Plaza, Next to Brahma Sun City, New Kalyani Nagar, Wadgaonsheri",pune,411014,Unknown,Unknown,clinic,clinic,Unknown,Unknown,Unknown,18.549033,73.9172589
Shree hospital,Unknown,Hinjawadi Phase 2 Road,Pune,411057,Unknown,Unknown,hospital,hospital,09970926348,Unknown,Unknown,18.5920933,73.7379885
Shree Swami Samartha Medical,Unknown,Dange Chowk Road,Hinjawadi,411057,Unknown,Unknown,pharmacy,pharmacy,09822116003,Unknown,closes 11pm,18.5917604,73.7388369
Shatayu Hospital Hinjewadi,Unknown,"Times Square bldg Dange Chowk Road,bhatevra nagar","hinjewadi,pune",411057,Unknown,Unknown,hospital,hospital,08390900907,https://www.shatayuhospitals.com/,Unknown,18.5958868,73.7408138
Emcure Pharmaceuticals Limited,Unknown,Unknown,Unknown,Unknown,Unknown,Unknown,hospital,hospital,Unknown,Unknown,Unknown,18.5951164,73.7126552
LifeTree Hospital Hinjawadi,Unknown,Unknown,Unknown,Unknown,Unknown,Unknown,hospital,hospital,Unknown,Unknown,Unknown,18.5915925,73.7435469
Batavia Pharma Private Limited,Unknown,Unknown,Unknown,Unknown,Unknown,Unknown,pharmacy,pharmacy,Unknown,Unknown,Unknown,18.5950143,73.7032976
Apollo diagnostics,Unknown,Unknown,Unknown,Unknown,Unknown,Unknown,Unknown,laboratory,Unknown,Unknown,Unknown,18.5958398,73.7708641
Dr. Satra's Dental Clinic,Unknown,Damodar Jagtap Path,Pune,411061,Unknown,Unknown,hospital,hospital,Unknown,Unknown,Unknown,18.5998927,73.8158263
Ashtavinayak Dental Clinic,Unknown,"Preetam Prakash Plaza, Jawalkar Nagar, Pimple Gurav",PUNE,411061,Unknown,Unknown,hospital,hospital,Unknown,Unknown,Unknown,18.5985006,73.8161559
Datacha Dawakhana,Unknown,"Sudarshan Nagar, Pimple Gurav",PUNE,411061,Unknown,Unknown,hospital,hospital,Unknown,Unknown,Unknown,18.5982284,73.816064
SANJIVANI HOSPITAL,Unknown,"Varad Residency, Damodar Jagtap Path, Prabhat Nagar, Pimple Gurav",PUNE,Unknown,Unknown,Unknown,hospital,hospital,Unknown,Unknown,Unknown,18.5954785,73.8164532
 ,Unknown,"Damodar Jagtap Path, above paras medical, Prabhat Nagar, Pimple Gurav, Pimpri-Chinchwad",PUNE,Unknown,Unknown,Unknown,hospital,hospital,Unknown,Unknown,Unknown,18.595659,73.8163512
Shri Hospital,Unknown,"Vaibhav Nivas Sthan, Parshawa Nagari, Pimple Gurav, Pimpri-Chinchwad",PUNE,411027,Unknown,Unknown,hospital,hospital,Unknown,Unknown,Unknown,18.5969714,73.8152038
Unknown,Unknown,"Nr. Guru Dwara, Jai Jawan Nagar, Yerwada",PUNE,411006,Unknown,Unknown,hospital,hospital,Unknown,Unknown,Unknown,18.5498595,73.8720836
"Ruby Hall Clinic, Hinjawadi, Pune",Unknown,"Rajeev Gandhi Infotech Park, MIDC Phase No 1, Plot No, P-33, Hinjawadi, Pune, Maharashtra 411057",Unknown,Unknown,Unknown,Unknown,hospital,hospital,Unknown,Unknown,Unknown,18.5924771,73.733877
Chirayu hospital,Unknown,Datta Mandir Road,Unknown,Unknown,Unknown,Unknown,hospital,hospital,+91 83800 55444; +91 84469 55444,Unknown,24/7,18.5981183,73.7639672
Spandant,Unknown,Unknown,Unknown,Unknown,Unknown,Unknown,dentist,dentist,+91 98604 55199,Unknown,"Mo-Sa 10:00-14:00,16:00-20:00; Su off",18.5910054,73.7734779
ASG eye hospital,Unknown,Unknown,Unknown,Unknown,Unknown,Unknown,hospital,hospital,Unknown,Unknown,Unknown,18.5967134,73.7904165
White Shine Multispeciality Dental Clinic,Unknown,Airport New Road,Pune,411014,Unknown,Unknown,hospital,hospital,+919067440494,Unknown,Unknown,18.5755375,73.9069211
Unknown,Unknown,Unknown,Unknown,Unknown,Unknown,Unknown,clinic,clinic,Unknown,Unknown,Unknown,18.5990523,73.7730972
Prime medical and general store,Unknown,"Sakhare Vasti Road, Hinjewadi village",Hinjawadi,Unknown,Unknown,Unknown,pharmacy,pharmacy,Unknown,Unknown,closes 11:30pm,18.5904392,73.7406887
Dr.Harshal Nemade,Unknown,ITI Road,Pune,411007,Unknown,Unknown,clinic,clinic,Unknown,Unknown,Mo-Sa 10:00-08:00,18.5602674,73.8093885
Vedacare Ayurveda & Panchakarma Clinic,Unknown,ITI Road,Pune,411007,Unknown,Unknown,clinic,clinic,Unknown,Unknown,Unknown,18.5602336,73.8093752
Unknown,Unknown,Pashan-Sus Road,Unknown,Unknown,Unknown,Unknown,pharmacy,Unknown,+91 7666266582,Unknown,Unknown,18.5450855,73.7795969
Unknown,Unknown,Pashan-Sus Road,Unknown,Unknown,Unknown,Unknown,pharmacy,Unknown,Unknown,Unknown,Unknown,18.5447525,73.7806025
Royal Chemist,Unknown,Unknown,Pune,411057,Unknown,Unknown,pharmacy,pharmacy,Unknown,Unknown,Unknown,18.5794532,73.7360026
Credent dental clinic,Unknown,Unknown,Unknown,Unknown,Unknown,Unknown,dentist,dentist,Unknown,Unknown,"Mo-Fr 10:00-12:30,17:30-21:00",18.5816123,73.7837698
Patil eye care,Unknown,Unknown,Unknown,Unknown,Unknown,Unknown,Unknown,optometrist,Unknown,Unknown,Unknown,18.5995618,73.7751074
Uprise Clinic,Unknown,"Opposite Season Mall, Nirvana Office number 203 / 204","Hadapsar, Pune",411013,Unknown,Unknown,clinic,clinic,Unknown,Unknown,Unknown,18.5198269,73.9327096
Dhande Pathlab collection center,Unknown,Unknown,Unknown,Unknown,Unknown,Unknown,Unknown,laboratory,+91 91689 49971,Unknown,"Mo-Sa 07:30-14:00,15:30-19:00; Su off",18.5954535,73.7682806
Dr Rajeev Raut Eye Clinic,Unknown,Moledina Road,Pune,411001,Unknown,Unknown,Unknown,optometrist,+912048607034,https://rauteyecare.com/,Unknown,18.5188724,73.8771584
Unknown,Unknown,Unknown,Unknown,Unknown,Unknown,Unknown,pharmacy,pharmacy,Unknown,Unknown,Unknown,18.5313703,73.8302429
Siddhi Clinic,Unknown,Rambhau Kalate path,Unknown,Unknown,Unknown,Unknown,clinic,clinic,+91 95456 37474,Unknown,"Mo-Sa 10:30-13:00,18:30-21:00; Su off",18.5956929,73.771597
Ganesh medical,Unknown,Rambhau Kalate path,Unknown,Unknown,Unknown,Unknown,pharmacy,pharmacy,+91 74107 16699,Unknown,Unknown,18.5957297,73.7716621
Radiovision Diagnostics,Unknown,Ramchandra Gayakwad Path,Pune,411007,Unknown,Unknown,doctors,doctor,Unknown,Unknown,Mo-Su 09:00-23:00,18.5606017,73.8037604
Apollo Pharmacy,Unknown,Ramchandra Gayakwad Path,Pune,411007,Unknown,Unknown,pharmacy,pharmacy,Unknown,Unknown,Unknown,18.5602092,73.8047411
Anand Medico,Unknown,Park Avenue Lane,Pune,411007,Unknown,Unknown,pharmacy,pharmacy,Unknown,Unknown,Mo-Su 09:00-22:00,18.5609115,73.8045865
Kothari Endoscopy Center,Unknown,Park Avenue Lane,Pune,411007,Unknown,Unknown,doctors,doctor,Unknown,Unknown,Unknown,18.561357,73.8045546
Abhijeet Sable Eye Hospital,Unknown,Sanghvi Kesari Road,Pune,411007,Unknown,Unknown,doctors,doctor,Unknown,https://www.punenetralaya.com,Mo-Su 10:00-21:00,18.560801,73.8109101
test hospital,Unknown,Unknown,Unknown,Unknown,Unknown,Unknown,hospital,hospital,Unknown,Unknown,Unknown,18.5255793,73.8539506
Metro Chemist and Fresh Mart,Unknown,Unknown,Unknown,Unknown,Unknown,Unknown,pharmacy,pharmacy,Unknown,Unknown,Mo-Su 10:00-21:00,18.5580782,73.7924124
MedPlus,Unknown,Unknown,Unknown,Unknown,Unknown,Unknown,pharmacy,pharmacy,Unknown,Unknown,Unknown,18.5579015,73.7932734
Vedant Medical,Unknown,Unknown,Unknown,Unknown,Unknown,Unknown,pharmacy,pharmacy,Unknown,Unknown,Unknown,18.589122,73.7416318
Prashant Medical and General Stores,Unknown,Unknown,Unknown,Unknown,Unknown,Unknown,pharmacy,pharmacy,Unknown,Unknown,Unknown,18.5894766,73.7412784
Pharmacy,Unknown,Vertical Oriana Private Road,Pune,411036,Unknown,Unknown,hospital,hospital,Unknown,Unknown,Unknown,18.5348935,73.9448236
Optilab Eye Care,Unknown,Unknown,Unknown,Unknown,Unknown,Unknown,Unknown,optometrist,Unknown,Unknown,Unknown,18.5578488,73.7933788
Wakad dispensary,Unknown,Unknown,Unknown,Unknown,Unknown,Unknown,pharmacy,pharmacy,Unknown,Unknown,Unknown,18.593367,73.759494
Ashleys Dental Clinic,Unknown,Unknown,Unknown,Unknown,Unknown,Unknown,dentist,dentist,Unknown,Unknown,Unknown,18.5140085,73.8278727
Anuj Chemist,Unknown,Unknown,Unknown,Unknown,Unknown,Unknown,pharmacy,pharmacy,+91 985 017 3325,Unknown,Unknown,18.5104445,73.7951532
Arogyadisha Clinic,Unknown,Unknown,Unknown,Unknown,Unknown,Unknown,Unknown,alternative,+91 985 082 1946;+91 942 252 1701,Unknown,"Mo-Su 10:00-13:00,18:00-21:30",18.5103847,73.795139
Prince Medico,Unknown,Unknown,Unknown,Unknown,Unknown,Unknown,pharmacy,pharmacy,Unknown,Unknown,Unknown,18.5638816,73.7749848
CDIC,Unknown,Unknown,Unknown,Unknown,Unknown,Unknown,dentist,dentist,+91 99705 04270,https://www.cdic.co.in,"Mo-Fr 09:30-14:00,16:00-21:00",18.599968,73.7634506
Drushti Medical,Unknown,Unknown,Unknown,Unknown,Unknown,Unknown,pharmacy,pharmacy,Unknown,Unknown,Unknown,18.5999333,73.7635897
D-dent Care Laser and Multi-speciality Dental Clinics,Unknown,"near Kalmadi High school, above katakirrr Misal Dr ketkar road, Erandwane",Pune,411004,Unknown,Unknown,clinic,clinic,Unknown,Unknown,Unknown,18.5111761,73.8337195
The Harmony Clinic,Unknown,"Kamdhenu Estates, Solapaur Road,Hadapsar",Pune,411028,Unknown,Unknown,clinic,clinic,Unknown,Unknown,Unknown,18.5015689,73.934946
Dental Hub,Unknown,Gopal Hari Deshmukh Marg,Pune,411045,Unknown,Unknown,dentist,dentist,+91 20 6602 0189,Unknown,Unknown,18.5612656,73.7859937
Aditya's Dental Privilege,Unknown,Gopal Hari Deshmukh Marg,Pune,411045,Unknown,Unknown,dentist,dentist,Unknown,Unknown,Unknown,18.5612258,73.7860129
Pathkind Labs Authorised Collection Centre,Unknown,Unknown,Unknown,Unknown,Unknown,Unknown,Unknown,laboratory,+91 91461 69198,Unknown,Unknown,18.5771657,73.7374959
Avani Dental & Health Clinic,Unknown,Unknown,Unknown,Unknown,Unknown,Unknown,dentist,dentist,Unknown,Unknown,Unknown,18.5803334,73.7357306
Farmazia Polyclinic,Unknown,Unknown,Unknown,Unknown,Unknown,Unknown,clinic,clinic,Unknown,Unknown,Unknown,18.5810824,73.735582
Unknown,Unknown,Tatyasaheb Karandikar Path,Unknown,411030,Unknown,Unknown,dentist,dentist,Unknown,Unknown,Unknown,18.5091557,73.8491188
MedPlus,Unknown,Unknown,Unknown,Unknown,Unknown,Unknown,pharmacy,pharmacy,Unknown,Unknown,Unknown,18.591125,73.7419496
Orthopaedic Speciality Care,Unknown,"Specklin Superspeciality Center,Shivajinagar 1195/8, Sanjeevan Surgery, Ghole Rd, Ground Floor, Near Bafna Cars",Pune,411005,Unknown,Unknown,clinic,clinic,Unknown,Unknown,Unknown,18.5247418,73.842369
FeverCare Centre for Infectious Diseases,Unknown,"FeverCare-Centre for Infectious Diseases, 303, Sonigara Landmark",Wakad,411057,Unknown,Unknown,clinic,clinic,Unknown,Unknown,Unknown,18.5962254,73.7724053
Dr. Siddharth Bhandari,Unknown,"Noble Hospital, Hadapsar,",Pune,411013,Unknown,Unknown,clinic,clinic,Unknown,Unknown,Unknown,18.5048706,73.9272792
Racemous Polyclinics,"5150, 5th floor, Marvel Fuego,Amanora Park Town,Hadapsar, Pune-411028",Magarpatta Road,Unknown,411028,Unknown,Unknown,hospital,hospital,Unknown,Unknown,Unknown,18.5208921,73.9329095
Brain & Spine Clinic,Unknown,"Ruby Hall Clinic, Sassson Road",Pune,411001,Unknown,Unknown,clinic,clinic,Unknown,Unknown,Unknown,18.5336185,73.8771317
Anamay Homeopathic Clinic,Unknown,Unknown,Unknown,Unknown,Unknown,Unknown,Unknown,alternative,Unknown,Unknown,Unknown,18.5369531,73.7956487
Matoshri Clinic,Unknown,"Karan Residency, 60 feet road, Pimple Gurav",Pune,411061,Unknown,Unknown,clinic,clinic,Unknown,Unknown,"Mo-Su 10:00-13:00, Mo-Su 18:00-22:00",18.5871107,73.8231788
MedPlus,Unknown,"Sharan Residency, 60 feet Road",Pune,411061,Unknown,Unknown,pharmacy,pharmacy,Unknown,Unknown,Unknown,18.5874256,73.8232478
lonkar,Unknown,city,pune,Unknown,Unknown,Unknown,hospital,hospital,Unknown,Unknown,Unknown,18.5294468,73.9364213
Shaurya Clinic,Unknown,Unknown,Unknown,Unknown,Unknown,Unknown,doctors,doctor,+91 99703 17439,Unknown,Unknown,18.5964119,73.7737786
Total Spine,Unknown,Mont vert Tropez road,Unknown,Unknown,Unknown,Unknown,doctors,doctor,+91 97111 85045; +91 85548 55410; +91 89993 32758,https://totalspinesolutions.com,"Mo-Sa 10:30-12:00,18:30-20:30; Su off",18.59467,73.7686784
DiagnoPein,Unknown,Ramchandra Gayakwad Path,Pune,411007,Unknown,Unknown,doctors,doctor,Unknown,https://www.diagnopein.com,Mo-Su 09:00-20:00,18.5606265,73.8058265
Sparsh Clinic,Unknown,Ramchandra Gayakwad Path,Pune,411007,Unknown,Unknown,doctors,doctor,+91 20 2588 3132,https://sparshskindoctor.com,Unknown,18.5602009,73.8054795
Dr. Sulakshane Multispeciality Clinic,Unknown,Ramchandra Gayakwad Path,Pune,411007,Unknown,Unknown,clinic,clinic,+91 20 2088 4157,Unknown,Unknown,18.5601975,73.8054006
Bhanu Medical & Surgical,Unknown,Ramchandra Gayakwad Path,Pune,411007,Unknown,Unknown,pharmacy,pharmacy,Unknown,Unknown,Unknown,18.5603414,73.8071925
Metro Medico,Unknown,New DP Road,Pune,411007,Unknown,Unknown,pharmacy,pharmacy,Unknown,Unknown,Unknown,18.5602692,73.8029853
Happy Medicare,Unknown,New DP Road,Pune,411007,Unknown,Unknown,Unknown,physiotherapist,+91 20 2729 7631;+91 20 2729 7632;+91 1800 2700 609,https://www.happymedicare.com/,Mo-Fr 09:00-18:00; Sa 10:00-15:00,18.5604261,73.8029108
Amit Medico and General Stores,Unknown,New DP Road,Pune,411007,Unknown,Unknown,pharmacy,pharmacy,Unknown,Unknown,Unknown,18.5608263,73.8028984
Jaydeep Medico,Unknown,New DP Road,Pune,Unknown,Unknown,Unknown,pharmacy,pharmacy,Unknown,Unknown,Unknown,18.5642968,73.8024241
Unknown,Unknown,New DP Road,Pune,411007,Unknown,Unknown,pharmacy,pharmacy,Unknown,Unknown,24/7,18.5648964,73.802286
Nidan Diagnostic,Unknown,Nagras Road,Pune,411007,Unknown,Unknown,Unknown,laboratory,+91 976 398 1000;+91 965 729 1000,http://www.nidanhealthcare.co.in,Mo-Sa 08:00-20:00,18.5656405,73.806386
Wellness Forever,Unknown,Nagras Road,Pune,411007,Unknown,Unknown,pharmacy,pharmacy,Unknown,https://www.wellnessforever.com,24/7,18.5655601,73.8063521
VLCC,Unknown,Sanghvi Kesari Road,Pune,411007,Unknown,Unknown,clinic,clinic,Unknown,https://vlcc.in,Mo-Su 10:00-19:00,18.5609037,73.811357
elite hospital,Unknown,Pancard Club Road oppo baner,PUNE,411045,Unknown,Unknown,hospital,hospital,Unknown,Unknown,Unknown,18.5576766,73.7712894
Prism Dental and Medical Clinic,Unknown,Mundhwa Road,Hadapsar,411028,Unknown,Unknown,hospital,hospital,Unknown,Unknown,Unknown,18.5233466,73.9333741
Daksh Pathology,Unknown,Unknown,Unknown,Unknown,Unknown,Unknown,doctors,doctor,Unknown,Unknown,Unknown,18.5095737,73.7950035
Sushrut Hospital,Unknown,"Paud Rd, Mahaganesh Colony, Kothrud",Pune,411038,Unknown,Unknown,clinic,clinic,Unknown,Unknown,Unknown,18.5094542,73.8212265
Dr. Gulhane's Urology & Dental Clinic,Unknown,"City Center, Opp. VAIBHAV THEATRE, Triveni Nagar, Hadapsar",Pune,411028,Unknown,Unknown,clinic,clinic,Unknown,Unknown,Unknown,18.5019472,73.9302327
Sant Hospital,Unknown,Unknown,Unknown,Unknown,Unknown,Unknown,hospital,hospital,Unknown,Unknown,Unknown,18.5426961,73.9244404
Swarup Ayurved,Unknown,Unknown,Unknown,Unknown,Unknown,Unknown,clinic,clinic,+91 79773 96585,Unknown,Unknown,18.5938533,73.7939468
Swasthya Clinic,Unknown,Unknown,Unknown,Unknown,Unknown,Unknown,doctors,doctor,Unknown,Unknown,Unknown,18.5938777,73.7938456
Healthcare,Unknown,Unknown,Unknown,Unknown,Unknown,Unknown,pharmacy,pharmacy,Unknown,Unknown,Unknown,18.5938143,73.7938771
Construction Site,Unknown,Unknown,Unknown,Unknown,Unknown,Unknown,hospital,hospital,Unknown,Unknown,Unknown,18.5829125,73.8068621
Dezi,Unknown,Unknown,Unknown,Unknown,Unknown,Unknown,dentist,dentist,Unknown,Unknown,Unknown,18.5741028,73.7736288
Aryaa Ulrasound Clinic,Unknown,Unknown,Unknown,Unknown,Unknown,Unknown,Unknown,clinic,Unknown,Unknown,Unknown,18.5278424,73.8291808
Little Heart Care,Unknown,Sudhabhau Kelkar Path,Pune,411004,Unknown,Unknown,clinic,clinic,Unknown,Unknown,Unknown,18.5200387,73.841894
Hemotech,Unknown,Unknown,Unknown,Unknown,Unknown,Unknown,Unknown,laboratory,Unknown,Unknown,Unknown,18.5323623,73.8765221
The Health Care Medico,Unknown,Unknown,Unknown,Unknown,Unknown,Unknown,pharmacy,Unknown,Unknown,Unknown,Unknown,18.5079747,73.7929547
Capital Hospital,Unknown,Unknown,Unknown,Unknown,Unknown,Unknown,hospital,Unknown,Unknown,Unknown,Unknown,18.5084717,73.793338
MedPlus,Unknown,Nagar Road,Wagholi,412207,Unknown,Unknown,pharmacy,pharmacy,Unknown,Unknown,Unknown,18.5792113,73.972715
Dr. Monika Bhagat ENT Clinic,Unknown,ShaAvi Polyclinic,Hadapsar,411028,Unknown,Unknown,clinic,clinic,Unknown,Unknown,Unknown,18.5172398,73.9473913
Welness 24,Unknown,Uttamnagar road,Unknown,Unknown,Unknown,Unknown,pharmacy,Unknown,Unknown,Unknown,Unknown,18.5220341,73.7647262
Dr. Patwardhan Eye Clinic,Unknown,Unknown,Unknown,Unknown,Unknown,Unknown,clinic,Unknown,Unknown,Unknown,Unknown,18.5101883,73.8176485
Dr. Rajendra Mehata Hospital,Unknown,Old PuneMumbai Highway,Pune,411003,Unknown,Unknown,hospital,hospital,Unknown,Unknown,Unknown,18.5376938,73.8515302
PMC Health Center,Unknown,Kharadi Bypass,Kharadi,411014,Unknown,Unknown,hospital,hospital,Unknown,Unknown,Unknown,18.5524886,73.9371731
Unknown,Unknown,Unknown,Unknown,Unknown,Unknown,Unknown,pharmacy,pharmacy,Unknown,Unknown,Unknown,18.5539925,73.9430546
Dr. Chandrashekhar Dixit,Unknown,"Jupiter Hospital - Near Prathamesh Park, Pimple Nilakh Road, Baner",Pune,411045,Unknown,Unknown,clinic,clinic,Unknown,Unknown,Unknown,18.5650506,73.786566
Unknown,Unknown,Unknown,Unknown,Unknown,Unknown,Unknown,clinic,clinic,Unknown,Unknown,Unknown,18.5766309,73.7652146
R K Medical Store,Unknown,Unknown,Unknown,Unknown,Unknown,Unknown,pharmacy,pharmacy,Unknown,Unknown,Unknown,18.5591862,73.7792551
Unknown,Unknown,Unknown,Unknown,Unknown,Unknown,Unknown,hospital,hospital,Unknown,Unknown,Unknown,18.5737851,73.7048284
Shree Ram Medical Stores,Unknown,Unknown,Unknown,Unknown,Unknown,Unknown,pharmacy,pharmacy,Unknown,Unknown,Unknown,18.5639284,73.830595
Guru Krupa Medico,Unknown,Unknown,Unknown,Unknown,Unknown,Unknown,pharmacy,pharmacy,Unknown,Unknown,Unknown,18.562786,73.8306508
Prakash Medico,Unknown,Unknown,Unknown,Unknown,Unknown,Unknown,pharmacy,pharmacy,Unknown,Unknown,Unknown,18.5918291,73.7388491
Dhanwantari Medical,Unknown,Unknown,Unknown,Unknown,Unknown,Unknown,pharmacy,pharmacy,Unknown,Unknown,Unknown,18.5592829,73.9312331
Ashapura Medical,Unknown,Unknown,Unknown,Unknown,Unknown,Unknown,pharmacy,pharmacy,Unknown,Unknown,Unknown,18.5593322,73.9311907
Shourya Medical,Unknown,Unknown,Unknown,Unknown,Unknown,Unknown,pharmacy,pharmacy,Unknown,Unknown,Unknown,18.5585441,73.9315478
Dr. Hrushikesh Mehata,Unknown,"Spine Care Clinic, 301, 3rd floor, Polaris, Behind Noble Hospital, Magarpatta, Hadapsar",Pune,411028,Unknown,Unknown,clinic,clinic,Unknown,Unknown,Unknown,18.505647,73.9255019
Dr. Karkamkar's Orthopedic and Physiotherapy Clinic,Unknown,"City Center OP, Vaibhav Complex, Triveni Nagar, Hadapsar",Pune,411028,Unknown,Unknown,clinic,clinic,Unknown,Unknown,Unknown,18.502052,73.9298115
Ishanvi Mother & Child Clinic,Unknown,"1st floor, Kundan Espacio, Yashoda chowk, BALEWADI",Pune,411045,Unknown,Unknown,clinic,clinic,Unknown,Unknown,Unknown,18.5790605,73.7705676
Orthos Orthopedic and Spine Centre,Unknown,"Hinjawadi Phase 2 Rd, Hinjawadi Phase II, Hinjawadi Rajiv Gandhi Infotech Park,Hinjawadi",Pune,411057,Unknown,Unknown,clinic,clinic,Unknown,Unknown,Unknown,18.5961784,73.7175115
Brainwonders Pune,Unknown,"Aditya Shagun Nisarg, Next to Sehgal Automobiles Maruti Showroom Mumbai Bangalore By Pass Highway",pune,411021,Unknown,Unknown,Unknown,counselling,+919892771999,https://www.brainwonders.in/career-counselling-in-pune,Mo-Sa 09:30-19:30,18.5129129,73.7679362
Callus Medhub,Unknown,"Second Floor, City Centre, opposite Vaibhav Complex, Laxmi Vihar, Hadapsar",Pune,411028,Unknown,Unknown,clinic,clinic,Unknown,Unknown,Unknown,18.5020288,73.9298622
Dr. Parth Dalal,Unknown,"Near Nyati Empire, Kharadi Bypass Road, Kharadi",Pune,411014,Unknown,Unknown,clinic,clinic,Unknown,Unknown,Unknown,18.5408294,73.935709
Asian Eye Hospital,Unknown,Unknown,Unknown,Unknown,Unknown,Unknown,doctors,doctor,+91 88889 42222; +91 91758 96408; +91 20 2616 2424,Unknown,Unknown,18.5315727,73.8758307
Dr. Tejal Dravids Clinic,Unknown,"Mont Vert Velocity, Office 503, Pashan",Pune,411 021,Unknown,Unknown,clinic,clinic,Unknown,Unknown,Unknown,18.543267,73.7906137
