Name,Full Address,Street,City,Postcode,State,Country,Amenity,Healthcare,Phone,Website,Opening Hours,Latitude,Longitude
Inpatient Department,Unknown,Unknown,Unknown,Unknown,Unknown,IN,hospital,hospital,Unknown,Unknown,Unknown,21.126903,79.1141613
Outpatient Department,Unknown,Unknown,Unknown,Unknown,Unknown,IN,hospital,hospital,Unknown,Unknown,Unknown,21.127343,79.1136038
Vijayant Medical Stores,Unknown,Unknown,Unknown,Unknown,Unknown,Unknown,pharmacy,Unknown,Unknown,Unknown,Unknown,21.1327848,79.1073521
Matoshri Nursing Home,Unknown,Unknown,Unknown,Unknown,Unknown,IN,hospital,hospital,Unknown,Unknown,Unknown,21.129156,79.1138731
Unknown,Unknown,Unknown,Unknown,Unknown,Unknown,Unknown,pharmacy,Unknown,Unknown,Unknown,Unknown,21.1342772,79.1193368
Unknown,Unknown,Unknown,Unknown,Unknown,Unknown,Unknown,pharmacy,Unknown,Unknown,Unknown,Unknown,21.133907,79.1198678
Unknown,Unknown,Unknown,Unknown,Unknown,Unknown,IN,pharmacy,pharmacy,Unknown,Unknown,Unknown,21.12946,79.1132053
Unknown,Unknown,Unknown,Unknown,Unknown,Unknown,IN,pharmacy,pharmacy,Unknown,Unknown,Unknown,21.1285505,79.1135727
Matru Sewa Sangh (Maternity),Unknown,Unknown,Unknown,Unknown,Unknown,Unknown,hospital,hospital,Unknown,Unknown,Unknown,21.1438599,79.1076243
Nagpur Super Speciality Hospital,Unknown,"Behind Medical College, Hanuman Nagar, Hanuman Nagar",Nagpur,Unknown,Unknown,IN,hospital,hospital,Unknown,Unknown,Unknown,21.1241779,79.1026344
Rashtrasant Tukdoji Maharaj Cancer Hospital,Unknown,Unknown,Unknown,Unknown,Unknown,IN,hospital,hospital,Unknown,Unknown,Unknown,21.1239077,79.1043456
Asha General Hospital,Unknown,Unknown,Unknown,Unknown,Unknown,Unknown,hospital,hospital,Unknown,Unknown,Unknown,21.1115524,79.1040801
Apulki Vairagade Hospital,"Manewada Cement Road, Shirdi Nagar, Opposite Navdurga Mandir",Unknown,Unknown,440024,Maharashtra,Unknown,hospital,hospital,Unknown,Unknown,Unknown,21.1117,79.1040881
Indira Gandhi Medical College,Unknown,"Ca Road, C A Road, Central Avenue, Central Avenue",Unknown,Unknown,Unknown,Unknown,hospital,hospital,+91 712 272 6126,Unknown,Unknown,21.1491099,79.1159505
Shri Radhakrishna Hospital and Research Institute,Central Avenue East Wardhamannagar,"Wardhaman Nagar East,",Nagpur,440008,Maharashtra,Unknown,hospital,hospital,Unknown,Unknown,Unknown,21.1487104,79.1413039
Daga Hospital,Unknown,Gandhibagh,Nagpur,440018,Unknown,Unknown,hospital,hospital,Unknown,Unknown,Unknown,21.1530884,79.1035724
Dr. Somani Accident Hospital,Unknown,"Vaishno Devi Square, Hiwari Nagar Wardhaman Nagar",Nagpur,440008,Unknown,Unknown,hospital,hospital,Unknown,Unknown,Unknown,21.1475579,79.1377417
East End Hospital,Unknown,Central Avenue Padole Nagar,Nagpur,440008,Unknown,Unknown,hospital,hospital,0712 273 2332,Unknown,Unknown,21.147648,79.1383532
Shri Ram Jeevan Chaudhari Memorial Hospital & Research Center,Unknown,"New Shukrawari Road Ramwadi, Mangalwari, Mahal",Nagpur,440002,Unknown,Unknown,hospital,hospital,0712 695 5045,Unknown,Unknown,21.1417766,79.1037462
VINAYAK NETRALAYA,Unknown,"93/94, Gandhibagh",Nagpur,Unknown,Unknown,Unknown,hospital,hospital,Unknown,Unknown,Unknown,21.1508876,79.1026519
Puniyani Hospital for Child and Women Care,Unknown,Mangalwari,Nagpur,Unknown,Unknown,Unknown,hospital,hospital,Unknown,Unknown,Unknown,21.1496244,79.1084506
Sahu Hospital,Unknown,Gandhibagh,Nagpur,440018,Unknown,Unknown,hospital,hospital,Unknown,Unknown,Unknown,21.1520709,79.1037674
Chandak Critical Care Hospital & ICCU,Unknown,"Darodkar Square Central Avenue, Hansapuri,",Nagpur,440002,Unknown,Unknown,hospital,hospital,Unknown,Unknown,Unknown,21.1495333,79.1128642
Ace Womens' Hospital,Unknown,"Umiya Tower, Near Chandrashekhar Ashad Square, Central Avenue Road",Nagpur,440018,Unknown,Unknown,hospital,hospital,+91 712 2775417,Unknown,Unknown,21.1486438,79.1168452
Dr. Dalvi Memorial Hospital and Research Centre,"Telephone Exchange Chowk, Central Avenue,Garaoba Maidan",Bagadganj,Nagpur,440008,Maharashtra,Unknown,hospital,hospital,+91 712 2766414,https://dalvihospital.org/,Unknown,21.1473515,79.1214913
Arjun Hospital,Unknown,"Deshpande Layout 963, Padole Nagar,",Unknown,440008,Unknown,Unknown,hospital,hospital,Unknown,Unknown,Unknown,21.1472112,79.1390246
Shyam Medicals,Unknown,"Wardhman Nagar Square, Wardhaman Nagar, Wardhaman Nagar Central Avenue, Wardhaman Nagar",Nagpur,440008,Unknown,Unknown,hospital,hospital,+91 712 2768084,Unknown,Unknown,21.1482671,79.1348921
Sawarkar Hospital,Unknown,"Garoba Maidan, Shashtri Nagar",Nagpur,440008,Unknown,Unknown,hospital,hospital,Unknown,Unknown,Unknown,21.1455439,79.1329861
East End Hospital,"1208/737, Deshpande Lay Out, Central Avenue",Padole Nagar,Nagpur,440008,Maharashtra,Unknown,hospital,hospital,+91 712 2736294,Unknown,Unknown,21.1477429,79.1444081
Cure It Hospital Pvt.Ltd,Unknown,Taj Bagh,Nagpur,440024,Maharashtra,Unknown,hospital,Unknown,+91 712 646 5102,http://www.cureithospital.com/,Unknown,21.112629,79.1296817
Kherde Hospital,Unknown,Unknown,Unknown,Unknown,Unknown,Unknown,hospital,hospital,Unknown,Unknown,Unknown,21.1178889,79.1134088
Tushar Dental Clinic,Unknown,Unknown,Unknown,Unknown,Unknown,Unknown,dentist,dentist,Unknown,Unknown,Unknown,21.117871,79.1133874
Jain Medicals,Unknown,Unknown,Unknown,Unknown,Unknown,Unknown,pharmacy,pharmacy,Unknown,Unknown,Unknown,21.1152819,79.1127292
MedPlus Pharmacy,Unknown,Unknown,Unknown,Unknown,Unknown,Unknown,pharmacy,pharmacy,Unknown,Unknown,Unknown,21.1175754,79.1110412
Kamble Hospital,Unknown,Unknown,Unknown,Unknown,Unknown,Unknown,hospital,hospital,Unknown,Unknown,Unknown,21.1176102,79.1061774
Sahu Hospital,Unknown,Unknown,Unknown,Unknown,Unknown,Unknown,hospital,hospital,Unknown,Unknown,Unknown,21.1220676,79.1051559
Rajat Medical Stores,Unknown,Unknown,Unknown,Unknown,Unknown,Unknown,pharmacy,pharmacy,Unknown,Unknown,Unknown,21.1235872,79.1117779
Asha Homeopathic Hospital,Unknown,Unknown,Unknown,Unknown,Unknown,Unknown,hospital,hospital,Unknown,Unknown,Unknown,21.1078896,79.1034883
Child Care Clinic,Unknown,Unknown,Unknown,Unknown,Unknown,Unknown,clinic,clinic,Unknown,Unknown,Unknown,21.107933,79.103505
Chouhan Nursing Home,Unknown,Unknown,Unknown,Unknown,Unknown,Unknown,clinic,clinic,Unknown,Unknown,Unknown,21.1080423,79.1035292
Dr. Manoj Waghmare's Clinic (Dermatologist and Cosmetologist),Unknown,Unknown,Unknown,Unknown,Unknown,Unknown,clinic,clinic,Unknown,Unknown,Unknown,21.1073243,79.1033119
Gulmohar Medicals,Unknown,Unknown,Unknown,Unknown,Unknown,Unknown,pharmacy,pharmacy,Unknown,Unknown,Unknown,21.1074249,79.1033382
Maooli Clinic (Stree Rog ani Prasuti),Unknown,Unknown,Unknown,Unknown,Unknown,Unknown,clinic,clinic,Unknown,Unknown,Unknown,21.1073685,79.1033237
Sai Dental Clinic,Unknown,Unknown,Unknown,Unknown,Unknown,Unknown,clinic,clinic,Unknown,Unknown,Unknown,21.1076347,79.1034315
Sarita Homeopathic Hospital,Unknown,Unknown,Unknown,Unknown,Unknown,Unknown,hospital,hospital,Unknown,Unknown,Unknown,21.1081135,79.1035441
Seva Clinic,Unknown,Unknown,Unknown,Unknown,Unknown,Unknown,clinic,clinic,Unknown,Unknown,Unknown,21.1057956,79.1025264
Akshay Medicals,Unknown,Unknown,Unknown,Unknown,Unknown,Unknown,pharmacy,pharmacy,Unknown,Unknown,Unknown,21.1093611,79.1034298
Apollo Pharmacy,Unknown,Unknown,Unknown,Unknown,Unknown,Unknown,pharmacy,pharmacy,Unknown,Unknown,Unknown,21.1140325,79.1040596
Ashok Medical Stores,Unknown,Unknown,Unknown,Unknown,Unknown,Unknown,pharmacy,pharmacy,Unknown,Unknown,Unknown,21.110802,79.103874
Belsare Children's Hospital,Unknown,Unknown,Unknown,Unknown,Unknown,Unknown,hospital,hospital,Unknown,Unknown,Unknown,21.1155098,79.1041162
Buniyad Medical Stores,Unknown,Unknown,Unknown,Unknown,Unknown,Unknown,pharmacy,pharmacy,Unknown,Unknown,Unknown,21.1151233,79.1044118
Chikhle Multi Speciality and Cancer Hospital,Unknown,Unknown,Unknown,Unknown,Unknown,Unknown,hospital,hospital,Unknown,Unknown,Unknown,21.1150264,79.1039294
Deerghayu Ayurved Panchakarma Chikitsalaya,Unknown,Unknown,Unknown,Unknown,Unknown,Unknown,hospital,hospital,Unknown,Unknown,Unknown,21.1119271,79.1037492
Dr. Sachin Gulhane's Child Care Clinic,Unknown,Unknown,Unknown,Unknown,Unknown,Unknown,clinic,clinic,Unknown,Unknown,Unknown,21.1117995,79.1037834
Dr. Sarita Jayaswal Prasuti and Stree Rog Clinic,Unknown,Unknown,Unknown,Unknown,Unknown,Unknown,clinic,clinic,Unknown,Unknown,Unknown,21.1113258,79.1036808
Dr. Vaishali Thakre's Shraddha Clinic,Unknown,Unknown,Unknown,Unknown,Unknown,Unknown,clinic,clinic,Unknown,Unknown,Unknown,21.1151307,79.1039741
Manish Ayurvedic and General Stores,Unknown,Unknown,Unknown,Unknown,Unknown,Unknown,pharmacy,pharmacy,Unknown,Unknown,Unknown,21.1136951,79.1040031
MedPlus,Unknown,Unknown,Unknown,Unknown,Unknown,Unknown,pharmacy,pharmacy,Unknown,Unknown,Unknown,21.1160497,79.1044371
Padole Medical Stores,Unknown,Unknown,Unknown,Unknown,Unknown,Unknown,pharmacy,pharmacy,Unknown,Unknown,Unknown,21.1149945,79.1044239
Prasuti ani Stree Rog Clinic,Unknown,Unknown,Unknown,Unknown,Unknown,Unknown,hospital,hospital,Unknown,Unknown,Unknown,21.1123494,79.1041366
Rathi Clinic,Unknown,Unknown,Unknown,Unknown,Unknown,Unknown,clinic,clinic,Unknown,Unknown,Unknown,21.1151025,79.1044583
Sangam Orthopedic and General Hospital,Unknown,Unknown,Unknown,Unknown,Unknown,Unknown,hospital,hospital,Unknown,Unknown,Unknown,21.115007,79.1045225
Sant Gajanan Medical Stores,Unknown,Unknown,Unknown,Unknown,Unknown,Unknown,pharmacy,pharmacy,Unknown,Unknown,Unknown,21.1082451,79.1033354
Shakuntala Medicals,Unknown,Unknown,Unknown,Unknown,Unknown,Unknown,pharmacy,pharmacy,Unknown,Unknown,Unknown,21.1123801,79.10413
Shambharkar Hospital,Unknown,Unknown,Unknown,Unknown,Unknown,Unknown,hospital,hospital,Unknown,Unknown,Unknown,21.1094225,79.1037401
Shree Gurukrupa Dental Hospital,Unknown,Unknown,Unknown,Unknown,Unknown,Unknown,dentist,dentist,Unknown,Unknown,Unknown,21.1155687,79.1044581
Shree Sai Homeopathic Hospital,Unknown,Unknown,Unknown,Unknown,Unknown,Unknown,hospital,hospital,Unknown,Unknown,Unknown,21.1087631,79.1036843
Singare Eye Hospital,"Manewada Road, Opp. Dnyaneshwar Nagar, Khankhoje Nagar, Ambika Nagar Gate, Nagpur",Unknown,Unknown,440024,Maharastra,Unknown,hospital,hospital,Unknown,Unknown,Unknown,21.115658,79.1044239
Sonune Child Care Centre,Unknown,Unknown,Unknown,Unknown,Unknown,Unknown,clinic,clinic,Unknown,Unknown,Unknown,21.1104167,79.1035169
Surya Diagnostic Centre,Unknown,Unknown,Unknown,Unknown,Unknown,Unknown,clinic,clinic,Unknown,Unknown,Unknown,21.1125283,79.1038347
Vikram Medicals,Unknown,Unknown,Unknown,Unknown,Unknown,Unknown,pharmacy,pharmacy,Unknown,Unknown,Unknown,21.1112755,79.1036762
Vivekananda Health Care and Yoga Centre,Unknown,Unknown,Unknown,Unknown,Unknown,Unknown,hospital,hospital,Unknown,Unknown,Unknown,21.1137614,79.1040123
Wankhade's Dental Clinic,Unknown,Unknown,Unknown,Unknown,Unknown,Unknown,dentist,dentist,Unknown,Unknown,Unknown,21.1125651,79.1038268
Gurukrupa Ayurvedic Chikitsalaya,Unknown,Unknown,Unknown,Unknown,Unknown,Unknown,clinic,clinic,Unknown,Unknown,Unknown,21.1178865,79.1053038
Ajay Medical Stores,Unknown,Unknown,Unknown,Unknown,Unknown,Unknown,pharmacy,pharmacy,Unknown,Unknown,Unknown,21.121496,79.105101
Jeevan Jyoti Medicals,Unknown,Unknown,Unknown,Unknown,Unknown,Unknown,pharmacy,pharmacy,Unknown,Unknown,Unknown,21.1174664,79.1112683
Mukherjee Multispeciality Hospital,"179, Ayurvedic Lay-Out, Bhande Plot Chowk, Urmer Road, Sakkardara",Unknown,Unknown,440022,Maharashtra,Unknown,hospital,hospital,Unknown,mukherjeehospital.com,Unknown,21.1244349,79.1175873
Kurvey Hospital,Sakkardara Road,Unknown,Unknown,440009,Maharashtra,Unknown,hospital,hospital,Unknown,Unknown,Unknown,21.1300097,79.1133196
Unknown,Unknown,Unknown,Unknown,Unknown,Unknown,Unknown,hospital,hospital,Unknown,Unknown,Unknown,21.1496662,79.1215
Unknown,Unknown,Ganesh nagar,Unknown,440024,Unknown,Unknown,hospital,Unknown,07122701912,Unknown,24/7,21.1322555,79.1155909
Dr. Mrunal Ale,Unknown,Unknown,Unknown,Unknown,Unknown,Unknown,dentist,dentist,Unknown,Unknown,Unknown,21.1163512,79.1109854
Jayant Medical and General Stores,Unknown,Unknown,Unknown,Unknown,Unknown,Unknown,pharmacy,Unknown,Unknown,Unknown,Unknown,21.1954532,79.1439802
Sai Clinic,Unknown,Unknown,Unknown,Unknown,Unknown,Unknown,clinic,clinic,Unknown,Unknown,Unknown,21.1118339,79.1100196
Shree Satguru Medical and General Stores,Unknown,Unknown,Unknown,Unknown,Unknown,Unknown,pharmacy,Unknown,Unknown,Unknown,Unknown,21.1959419,79.1439441
Priyansh Medical Stores,Unknown,Unknown,Unknown,Unknown,Unknown,Unknown,pharmacy,Unknown,Unknown,Unknown,Unknown,21.1960369,79.1440004
Shakti Clinic,Unknown,Unknown,Unknown,Unknown,Unknown,Unknown,clinic,Unknown,Unknown,Unknown,Unknown,21.1949476,79.1450518
MedPlus,Unknown,Unknown,Unknown,Unknown,Unknown,Unknown,pharmacy,pharmacy,Unknown,Unknown,Unknown,21.14584,79.1124896
Shree Sai Clinic,Unknown,Unknown,Unknown,Unknown,Unknown,Unknown,clinic,Unknown,Unknown,Unknown,Unknown,21.1980151,79.1347508
Tanmay Clinic,Unknown,Unknown,Unknown,Unknown,Unknown,Unknown,clinic,Unknown,Unknown,Unknown,Unknown,21.19781,79.1347615
Vaishali Medical Store,Unknown,Unknown,Unknown,Unknown,Unknown,Unknown,pharmacy,Unknown,Unknown,Unknown,Unknown,21.1979888,79.1345751
Shree Sai Clinic,Unknown,Unknown,Unknown,Unknown,Unknown,Unknown,clinic,Unknown,Unknown,Unknown,Unknown,21.1959207,79.1439622
Bhilgaon's Multispeciality Clinic,Unknown,Unknown,Unknown,Unknown,Unknown,Unknown,hospital,Unknown,Unknown,Unknown,Unknown,21.1960576,79.143993
Samarpan Hospital and Research Institute,Unknown,Unknown,Unknown,Unknown,Unknown,Unknown,hospital,Unknown,Unknown,Unknown,Unknown,21.1697967,79.1162235
Niramaya Hospital,Unknown,Unknown,Unknown,Unknown,Unknown,Unknown,hospital,Unknown,Unknown,Unknown,Unknown,21.1340305,79.1008675
Pettewar Clinic,Unknown,Unknown,Unknown,Unknown,Unknown,Unknown,clinic,clinic,09970813734,Unknown,"Mo-Sa 09:00-13:30,18:00-21:00",21.1026168,79.113162
Mauli Medical Stores,Unknown,Unknown,Unknown,Unknown,Unknown,Unknown,pharmacy,pharmacy,Unknown,Unknown,Unknown,21.1027564,79.1131262
ESIS Hospital,Unknown,Unknown,Unknown,Unknown,Unknown,Unknown,hospital,hospital,Unknown,Unknown,Unknown,21.1271894,79.1061206
Urban Primary Health Centre,Unknown,Unknown,Unknown,Unknown,Unknown,Unknown,clinic,clinic,Unknown,Unknown,Unknown,21.1128565,79.117249
Super Speciality Hospital and Medical Post Graduate Institute Blood Bank,"Maenad Road, Near RST Cancer Hospital, Nagpur",Unknown,Nagpur,440003,Maharashtra,Unknown,Unknown,blood_donation,Unknown,Unknown,24/7,21.1240365,79.1024101
Khalatkar Hospital,"R-29,Reshimbag,Umrer Road",Unknown,Unknown,440009,Maharashtra,Unknown,hospital,hospital,Unknown,Unknown,Unknown,21.1304764,79.110918
Sawarbandhe Multispeciality Hospital,"457, Anand Nagar, Sakkardala, Police Station Road",Unknown,Unknown,440002,Maharashtra,Unknown,hospital,hospital,Unknown,Unknown,Unknown,21.1300825,79.1156621
Tikhile Maternity and Nursing Home,"First Floor, 9E Surya Nagar",Unknown,Unknown,440008,Maharashtra,Unknown,hospital,Unknown,Unknown,Unknown,Unknown,21.1519006,79.1493216
Ganeriwal Hospital,"New Subhedar Layout, Hudkeshwar,Opp.Nagoba Mandir",Unknown,Unknown,440002,Maharashtra,Unknown,hospital,hospital,Unknown,Unknown,Unknown,21.1126846,79.114299
ACE Women's Hospital,"Umiya Towers, Near Chandrashekhar Azad Square, Central Avanue",Unknown,Unknown,440008,Maharashtra,Unknown,hospital,hospital,Unknown,Unknown,Unknown,21.1487614,79.1156012
Radiance Hospital,"113-A, Quetta Colony, Telephone Exchange Square, Central Avenue",Unknown,Unknown,440008,Maharashtra,Unknown,hospital,hospital,Unknown,Unknown,Unknown,21.1497276,79.1152176
Prestos Madan Multispeciality Hospital,"Dr. Ambedkar Road, Indora, -17",Unknown,Unknown,440017,Maharashtra,Unknown,hospital,Unknown,Unknown,Unknown,Unknown,21.1699581,79.1010797
Upcharya Institute Of Orthopaedic Surgery and Trauma Care Center,"62, Central Avenue, Near Gitanjali Theatre Square",Unknown,Unknown,440018,Maharashtra,Unknown,hospital,hospital,Unknown,Unknown,Unknown,21.1517482,79.1000685
Aharnish Hospital,Rani Durgawati Chowk,Unknown,Unknown,440017,Maharashtra,Unknown,hospital,Unknown,Unknown,Unknown,Unknown,21.1732827,79.1174519
Sawarkar Multi Speciality Hospital,"Khadigramodyog Bhawan, Tilak Putla Gandhi Sagar Mahal , Tilak Pulla, Mahal",Unknown,Unknown,440002,Maharashtra,Unknown,hospital,hospital,Unknown,Unknown,Unknown,21.1463587,79.1018361
Dr Sawarkars Multi Speciality Clinical Care Hospital,"Khadi Gramodyog Bhawan, Tilak Putla, Gandhisagar, Mahal",Unknown,Unknown,440032,Maharashtra,Unknown,hospital,hospital,Unknown,Unknown,Unknown,21.1436607,79.1065662
Patil Hospital,"Near Kashibai Temple , New Shukrawari",Unknown,Unknown,440012,Maharashtra,Unknown,hospital,hospital,Unknown,Unknown,Unknown,21.1388574,79.1035044
Muktai Nursing Home,"Plot No. 6, Ayodhyanagar",Unknown,Unknown,440024,Maharashtra,Unknown,clinic,clinic,Unknown,Unknown,Unknown,21.1152881,79.11126
Asha Bhavan Nursing Home,Siraspeth,Unknown,Unknown,440009,Maharashtra,Unknown,clinic,Unknown,Unknown,Unknown,Unknown,21.137165,79.1077772
Deole Nusing Home,"Sargam, 447, Mohta Science College Road, Chandan Nagar",Unknown,Unknown,440009,Maharashtra,Unknown,clinic,clinic,Unknown,Unknown,Unknown,21.1305265,79.1022813
Dr Gaikwad Critical Care Center Private Limited,"31, Reshimbag , Sakkardara Square , Umer , Road",Unknown,Unknown,440001,Maharashtra,Unknown,hospital,hospital,Unknown,Unknown,Unknown,21.1301912,79.1113257
Samadhan Hospital(Ayurved Panchakarma Hospital and Research Centre),"50, Ganesh Nagar",Unknown,Nagpur,440009,Maharashtra,Unknown,hospital,hospital,Unknown,Unknown,Unknown,21.1338409,79.1175111
Abhinav Multispeciality Hospital,"Nava Nakasha, Kamal Chowk, Lashkari Bagh",Unknown,Unknown,440017,Maharashtra,Unknown,hospital,Unknown,Unknown,https://www.bhatnagarhospital.com/,Unknown,21.1681359,79.1010616
CGHS Dispensary No.9,"Shakkardhara, Tiranga Chowk",Unknown,Unknown,Unknown,Maharashtra,Unknown,clinic,centre,Unknown,http://nb.bsf.gov.in/CGHS%20DIspenseries.pdf,Unknown,21.1307297,79.1164682
"Zaveri Nursing Home, Nagpur","774, Vaishali Nagar",Unknown,Unknown,440017,Maharashtra,Unknown,clinic,Unknown,Unknown,Unknown,Unknown,21.1699068,79.1101322
Mogre Hospital,"First Floor, Tajshree Govind , Umrer Road, Sakkardara Square",Unknown,Unknown,440009,Maharashtra,Unknown,hospital,hospital,Unknown,Unknown,Unknown,21.1257386,79.1159594
Kubde Children Hospital and Premature Baby Unit,"L-12, Shraddha Appt. Hb Town, Old Padi Naka Sq.",Unknown,Unknown,440010,Maharashtra,Unknown,hospital,Unknown,Unknown,Unknown,Unknown,21.1503124,79.1502111
Thakkar Nursing Home,"936, Deshpande Lay-Out, Wardhman Nagar",Unknown,Unknown,440008,Maharashtra,Unknown,clinic,clinic,Unknown,Unknown,Unknown,21.1476789,79.1389847
Jeswani Multispeciality Hospital,"Parek Centre, Opp Daga Hospital , Gandhibagh",Unknown,Unknown,440002,Maharashtra,Unknown,hospital,hospital,Unknown,Unknown,Unknown,21.1538101,79.1042038
Central Avenue Critical Care Hospital and Icu,"Mahalaxmi Complex, 1st Floor, Central Avenue",Unknown,Unknown,440002,Maharashtra,Unknown,hospital,hospital,Unknown,Unknown,Unknown,21.1497345,79.1119628
Hatwar Eye Hospital,"Sai Regency Complex, Ravi Nagar Square Amravati Road",Unknown,Unknown,441001,Maharashtra,Unknown,clinic,Unknown,Unknown,Unknown,Unknown,21.1146688,79.1307664
Littles Care Children Hospital,"Parvati Tower, Indora Chowk",Unknown,Unknown,440017,Maharashtra,Unknown,hospital,Unknown,Unknown,Unknown,Unknown,21.17286,79.1000739
Dhokey Hospital,"Anand Palace, 7-B, Ayurvedic College Lay-Out, Sakkarudhara, Umred Road",Unknown,Unknown,440024,Maharashtra,Unknown,hospital,hospital,Unknown,Unknown,Unknown,21.1250135,79.1167586
"Kothalkar Ent, Maternity and Surgical Nursing Home","No. 40, In Front Of Mohota Science College,Sakkardara Square, Reshimbag",Unknown,Unknown,440009,Maharashtra,Unknown,hospital,hospital,Unknown,Unknown,Unknown,21.1292993,79.1125435
Gillurkar Multispeciality Hospital,"20, Reshimbag, Umred Road , Near Sakkardara Square",Unknown,Unknown,440008,Maharashtra,Unknown,hospital,hospital,Unknown,Unknown,Unknown,21.1315222,79.1096624
Arihant Surgical and Maternity Hospital,"5, Parshwarsath Bhavan Opp: Dagar Hospital Gandhi Bogh",Unknown,Unknown,440002,Maharashtra,Unknown,hospital,hospital,Unknown,Unknown,Unknown,21.1529621,79.1042722
Taj Nursing Home,Near Shanti Nagar Garden,Unknown,Unknown,440002,Maharashtra,Unknown,clinic,clinic,Unknown,Unknown,Unknown,21.1607008,79.1220003
Rahate Surgical Hospital,"501; Kolba Swami Chowk Central Avenue,Near Tele.Exchange, Central Avenue",Unknown,Unknown,440015,Maharashtra,Unknown,hospital,hospital,Unknown,Unknown,Unknown,21.149186,79.1163482
Shree Ramjiwan Choudhary Memorial Hospital and Research Centre,"New Shukrawari, Choudhary Road, Opposite Ram Coolers, Mahal",Unknown,Unknown,440002,Maharashtra,Unknown,hospital,hospital,Unknown,Unknown,Unknown,21.1403119,79.1022438
Kimmatkar Nursing Home,"274 Shendre Complex Chhaprunagar Chowk , Central Avenue",Unknown,Unknown,440008,Maharashtra,Unknown,clinic,clinic,Unknown,Unknown,Unknown,21.1487739,79.1243049
Khidmat Charitable Hospital and Research Centre,"167/2 A, Shantinagar",Unknown,Unknown,440002,Maharashtra,Unknown,hospital,hospital,Unknown,Unknown,Unknown,21.1594502,79.1216214
Saboo Hospital,"Umiya Chambers, Darodkar Chowk , Central Avenue Road",Unknown,Unknown,440032,Maharashtra,Unknown,hospital,hospital,Unknown,Unknown,Unknown,21.1492842,79.1125066
Anantwar Eye Hospital,"No. 500, Powergrid Square,Nari Ring Road,Opposite Jagat Hall",Unknown,Unknown,440026,Maharashtra,Unknown,hospital,Unknown,Unknown,Unknown,Unknown,21.1889909,79.1028795
Lotus Hospitaland Research Centre and Maternity Home,"205, Omnagar Sakkardara Police Station Road, Tiranga Sq",Unknown,Unknown,440009,Maharashtra,Unknown,hospital,hospital,Unknown,Unknown,Unknown,21.1300424,79.1156374
Mukerji Nursing Home and Research Centre,"Ground Floor, Kamla Towers, Beside Jaswant Inox, Indora Chowk",Unknown,Unknown,440017,Maharashtra,Unknown,hospital,Unknown,Unknown,Unknown,Unknown,21.1732546,79.100786
Ambade Eye Hospital,"1st Floor,Kamla Towers, Near Jaswant Talkies, Indora Chowk,Kamptee Road",Unknown,Unknown,440002,Maharashtra,Unknown,hospital,Unknown,Unknown,Unknown,Unknown,21.1731771,79.1008303
Shrikhande Nursing Home,"No. 528, Hanuman Nagar, Opposite Esis Hospital",Unknown,Unknown,440009,Maharashtra,Unknown,clinic,clinic,Unknown,Unknown,Unknown,21.1260531,79.1046799
Rajgire Hospital,Unknown,Unknown,Unknown,Unknown,Unknown,Unknown,hospital,Unknown,Unknown,Unknown,Unknown,21.1306606,79.1180256
CGHS Dispensary No. 3,"Pachpaoli, Near Kamal Talkies,Armori-Nagpur Highway",Unknown,Unknown,Unknown,Maharashtra,Unknown,clinic,centre,Unknown,http://nb.bsf.gov.in/CGHS%20DIspenseries.pdf,Unknown,21.1330952,79.1068505
"Vyas Hospital, Gandhibagh","Tin -Nai Chowk, Gandhibagh",Unknown,Unknown,440022,Maharashtra,Unknown,hospital,hospital,Unknown,Unknown,Unknown,21.1543273,79.1058527
Anuradha Back Pain and Endoscopic Spinal Surgery Centre,"274, Lakadgang Layout, ,Chaprunagar Chowk, C A Road",Unknown,Unknown,440008,Maharashtra,Unknown,hospital,hospital,Unknown,Unknown,Unknown,21.1487226,79.1242875
Geeta Prem Nursing Home,"17- Ganga Vihar, Shrikrishna Nagar, Middle Ring Road",Unknown,Unknown,440008,Maharashtra,Unknown,clinic,Unknown,Unknown,Unknown,Unknown,21.1354926,79.1315657
Purohit Nursing Home,"113A Quetta Colony, Near Karachi Bhavan, Lakadgunj",Unknown,Unknown,440008,Maharashtra,Unknown,clinic,clinic,Unknown,Unknown,Unknown,21.1519115,79.1194341
Shree Hospitals and Critical Care Centre,"799, Omnagar Opp Tajshree Tower,Sakkadara Square",Unknown,Unknown,440024,Maharashtra,Unknown,hospital,hospital,Unknown,Unknown,Unknown,21.1258567,79.1167384
Green City Multispeciality Hospital,"8, Near Dhantoli Police Station,Mehadia Chowk",Unknown,Unknown,440002,Maharashtra,Unknown,hospital,hospital,Unknown,Unknown,Unknown,21.1296767,79.1145059
"Keshav Hospital, Nagpur","117, Manewada Sq. Ring Road , Nagpur,Maharashtra,",Unknown,Unknown,440001,Maharashtra,Unknown,hospital,hospital,Unknown,Unknown,Unknown,21.1048151,79.1034655
Mother and Child Care Hospital,"805, Bhande Plot Chowk, Sudampuri, Umred Road",Unknown,Unknown,440009,Maharashtra,Unknown,hospital,hospital,Unknown,Unknown,Unknown,21.1252581,79.1174231
Dashputra Hospital,"208, Anand Nagar, Opposite Sakkardara Police Station",Unknown,Unknown,440009,Maharashtra,Unknown,hospital,hospital,Unknown,Unknown,Unknown,21.1291592,79.1144277
Dorlikar Orthopaedic bone Hospital,"Golibar chowk, Timki Road, Panchpaoli",Unknown,Unknown,440018,Maharashtra,Unknown,hospital,hospital,Unknown,Unknown,Unknown,21.1566836,79.1032447
Faheem Qureshi Hospital,"Timki, Hansapuri,Mominpura Road",Unknown,Unknown,440018,Maharashtra,Unknown,hospital,hospital,Unknown,Unknown,Unknown,21.1565637,79.1013995
Drishti Eye Clinic,Unknown,Unknown,Unknown,Unknown,Unknown,Unknown,clinic,clinic,Unknown,Unknown,Unknown,21.1071505,79.1201409
"UPHC, Nandanvan","Nag Road, Near Telephone Exchange, Nandanvan",Unknown,Unknown,440009,Maharashtra,Unknown,Unknown,centre,Unknown,Unknown,Unknown,21.1379625,79.1290971
Super speciality Hospital,"Super speciality Hospital, Hanuman Nagar",Unknown,Unknown,440009,Maharashtra,Unknown,hospital,Unknown,Unknown,Unknown,Unknown,21.119365,79.129212
"UPHC, Shantinagar","Rajiv Gandhi Nagar, Shantinagar Colony, Nagpur",Unknown,Unknown,440002,Maharashtra,Unknown,Unknown,centre,Unknown,Unknown,Unknown,21.159094,79.126273
PHC Gumthala,"Near Cental Bank of India, Gumthala",Unknown,Unknown,441104,Maharashtra,Unknown,Unknown,centre,Unknown,Unknown,Unknown,21.148163,79.29024
NMC - Pachpaoli Maternity Home,"Panchpaoli Flyover, Near SCS Girls High School, Nagpur",Unknown,Unknown,440018,Maharashtra,Unknown,Unknown,centre,Unknown,Unknown,Unknown,21.166069,79.103119
"Dr. Babasaheb Ambedkar Hospital and Research Centre, Nagpur","338, Kamptee Road, New Indora, Nagpur",Unknown,Unknown,440002,Maharashtra,Unknown,hospital,Unknown,Unknown,Unknown,Unknown,21.1755377,79.1024618
Shende Nagar UPHC,shende nagar,Unknown,Unknown,440004,Maharashtra,Unknown,Unknown,centre,Unknown,Unknown,Unknown,21.1795873,79.1064922
Parlewar Hospital,"Buddha Nagar, Balabhaupeth, Nagpur",Unknown,Unknown,440002,Maharastra,Unknown,hospital,Unknown,Unknown,Unknown,Unknown,21.172099,79.1010707
ESI Dispensary,"Panchpaoli Road, Kamal Chowk, Dobi Nagar, Itwari, Nagpur",Unknown,Unknown,440002,Maharastra,Unknown,Unknown,centre,Unknown,Unknown,Unknown,21.1684087,79.1009418
Siddharth Clinic,"Ashok Chowk, Buddha Nagar, Nagpur",Unknown,Unknown,440017,Maharastra,Unknown,clinic,Unknown,Unknown,Unknown,Unknown,21.1719834,79.10423
Multani Hospital,"Darodkar Square, Itwari, Highschool, Darodkar Square, Nagpur",Unknown,Unknown,440002,Maharastra,Unknown,hospital,hospital,Unknown,Unknown,Unknown,21.158751,79.101871
Best Orthopaedic Surgeon,"Kamptee Road, Next to Go gas Pump, Teka Naka, Nagpur",Unknown,Unknown,440017,Maharastra,Unknown,hospital,Unknown,Unknown,Unknown,Unknown,21.1807407,79.1129537
Nitnavare Hospital,"Dr Ambedkar Road, Bharat Jyoti Society, Bezonbagh, Nagpur",Unknown,Unknown,440002,Maharastra,Unknown,hospital,Unknown,Unknown,Unknown,Unknown,21.1718675,79.1002384
Dr. M Hospital,"Teka Naka Kamptee Road, Teka Naka, Nagpur",Unknown,Unknown,440017,Maharastra,Unknown,hospital,Unknown,Unknown,Unknown,Unknown,21.175561,79.1085787
Orthonova Hospital,"2nd Floor, Lal Imli Chowk, Gandhibag, Above Oriental Bank of Commerce, Nagpur",Unknown,Unknown,440002,Maharastra,Unknown,hospital,hospital,Unknown,Unknown,Unknown,21.1524244,79.1036542
Tirpude Hospital,"Chalks Colony, Kamptee Road, Nagpur",Unknown,Unknown,440026,Maharastra,Unknown,hospital,Unknown,Unknown,Unknown,Unknown,21.1770142,79.103885
Manorama Hospital,"Central Avenue, Queta Colony, Wardhaman Nagar Colony, Nagpur",Unknown,Unknown,440008,Maharastra,Unknown,hospital,hospital,Unknown,Unknown,Unknown,21.1490972,79.1176121
Wanjari Hospital,"Umrer Road, Bhande Plot Chowk, Raghuji Nagar, Nagpur",Unknown,Unknown,440009,Maharastra,Unknown,hospital,hospital,Unknown,Unknown,Unknown,21.1240082,79.1180338
Suryodaya Multispeciality Hospital,"Ayurvedic Layout, Azamshah Layout, Nagpur",Unknown,Unknown,440009,Maharastra,Unknown,hospital,hospital,Unknown,Unknown,Unknown,21.1240692,79.1170231
Anmol Maternity & Nursing Home,"Umrer Road, Sakkardara Chowk, Azamshah Layout, Nagpur",Unknown,Unknown,440009,Maharastra,Unknown,hospital,hospital,Unknown,Unknown,Unknown,21.127863,79.1142545
Mangla M Madavi Clinic,"Padole Nagar, Nagpur",Unknown,Unknown,440008,Maharastra,Unknown,clinic,Unknown,Unknown,Unknown,Unknown,21.1419453,79.13615
Somani Hospital,"Bagadganj Cement Road, Surya Nagar, Nagpur",Unknown,Unknown,440008,Maharastra,Unknown,hospital,hospital,Unknown,Unknown,Unknown,21.145237,79.12203
Larokar Clinic,"Ekta Nagar, Bhandewadi, Pardi, Nagpur",Unknown,Unknown,440035,Maharastra,Unknown,clinic,Unknown,Unknown,Unknown,Unknown,21.1407193,79.1634842
Shree Vighnaharta Hospital,"Manewada Road, Jawahar Nagar, Ayodhya Nagar, Nagpur",Unknown,Unknown,440024,Maharastra,Unknown,hospital,hospital,Unknown,Unknown,Unknown,21.1203707,79.1049421
Biranjan Hospital,"In Royal Apartment, Central Avenue, Near Vardhman Nagar Chowk, Uday Nagar, Wardhaman Nagar Colony, Nagpur,",Unknown,Unknown,440008,Maharastra,Unknown,hospital,hospital,Unknown,Unknown,Unknown,21.147794,79.13432
Abhinav Clinic,"Vidya Nagar Road, Kharbi, Nagpur",Unknown,Unknown,440024,Maharastra,Unknown,clinic,Unknown,Unknown,Unknown,Unknown,21.1325224,79.1374512
Panacea Multi Speciality Hospital,"Ridge Road, Hanuman Nagar, Nagpur",Unknown,Unknown,440003,Maharastra,Unknown,hospital,hospital,Unknown,Unknown,Unknown,21.1259157,79.1046481
Shri Bhawani Multispeciality Hospital and Research Institute,"Shri Bhawani Mata Mandir Road, Bhandara Road, Pardi, Nagpur",Unknown,Unknown,440008,Maharastra,Unknown,hospital,Unknown,Unknown,Unknown,Unknown,21.15098,79.160277
Pushpachakra Hospital,"Hudkeshwar Road, New Neharu Nagar, Sanmarga Nagar, Nagpur",Unknown,Unknown,440034,Maharastra,Unknown,hospital,hospital,Unknown,Unknown,Unknown,21.1064785,79.119803
Indira Hospital,"Ashirwad Nagar, Nagpur",Unknown,Unknown,440034,Maharastra,Unknown,hospital,hospital,Unknown,Unknown,Unknown,21.1075867,79.1171192
Shri Ameya Hospital,"Gangabai Ghat Road, Near Telephone Exchange Square, Queta Colony, Bagadganj, Nagpur",Unknown,Unknown,440009,Maharastra,Unknown,hospital,hospital,Unknown,Unknown,Unknown,21.1484275,79.1202037
Narmada Ratan Taori Hospital,"Behind S D Hospital, 48-l, Ajamshah Layout, Ganesh Nagar, Nandanvan, Nagpur",Unknown,Unknown,440009,Maharastra,Unknown,hospital,hospital,Unknown,Unknown,Unknown,21.137334,79.116817
HCG NCHRI Cancer Centre,"Ring Road, Near Automotive Square Kalam Bande Nawaz Nagar, Binaki, Nagpur",Unknown,Unknown,440017,Maharastra,Unknown,hospital,Unknown,Unknown,Unknown,Unknown,21.1781655,79.1233803
Sure care Multispeciality Hospital,"Opposite Superspeciality Hospital, Vishvakarmanagar, Nagpur",Unknown,Unknown,440027,Maharastra,Unknown,hospital,hospital,Unknown,Unknown,Unknown,21.122916,79.1025949
Auro Critical Care Hospital,"Vaishnavi Devi Square, Deshpande Layout Road, Wardhman Nagar, Central Avenue, Babulban, Nagpur,",Unknown,Unknown,440008,Maharastra,Unknown,hospital,hospital,Unknown,Unknown,Unknown,21.1474812,79.1336117
Adishakti Hospital,"Nandanvan Road, Tiranga Chowk, Azamshah Layout, Nagpur",Unknown,Unknown,440009,Maharastra,Unknown,hospital,Unknown,Unknown,Unknown,Unknown,21.131135,79.1172712
Omkar Nursing Home,"Lavkush Nagar, Manewada, Nagpur",Unknown,Unknown,440034,Maharastra,Unknown,hospital,hospital,Unknown,Unknown,Unknown,21.1052967,79.1096776
Dr. Ingole's Dental Hospital,"Laxmi Vyankatesh Co-op Housing Society, Telephone Exchange Square, Central Avenue Road, Nagpur",Unknown,Unknown,440008,Maharastra,Unknown,dentist,dentist,Unknown,Unknown,Unknown,21.148483,79.1196239
Mukhi Skin Clinic,"Heera Plaza, Central Avenue, Near Telephone Exchange, Mangalwari, Nagpur",Unknown,Unknown,440002,Maharastra,Unknown,clinic,clinic,Unknown,Unknown,Unknown,21.1486665,79.116961
Radiance Hospital,"Central Avenue, Near Pritam Bhawan, Chapry Nagar, Ambedkar Square, Nagpur",Unknown,Unknown,440008,Maharastra,Unknown,hospital,hospital,Unknown,Unknown,Unknown,21.148474,79.131429
Gananam Hospital,"Nandanvanam Kirti Nagar, Azamshah Layout, Nagpur",Unknown,Unknown,440009,Maharastra,Unknown,hospital,Unknown,Unknown,Unknown,Unknown,21.132872,79.11968
Dr. Bhupendra Jamaiwar,"Nandanwan Layout, Canal Road, Nandanvan, Nagpur",Unknown,Unknown,440009,Maharastra,Unknown,doctors,doctor,Unknown,Unknown,Unknown,21.1370372,79.1200518
Safe Hands Hospitals,"Gangabai Ghat Road, Telephone Exchange Square, Central Avenue, Mangalwari, Lakadganj, Nagpur",Unknown,Unknown,440008,Maharastra,Unknown,hospital,hospital,Unknown,Unknown,Unknown,21.1480333,79.1204414
Shri Krupa Hospital,"Ram Bhau, Bus Stop, 111, Hudkeshwar Road, New Neharu Nagar, Mhalgi Nagar, Nagpur,",Unknown,Unknown,440034,Maharastra,Unknown,hospital,hospital,Unknown,Unknown,Unknown,21.1066567,79.1197293
Kimmatkar Orthopaedic Hospital,"Chapru Nagar, Bagadganj, Nagpur",Unknown,Unknown,440008,Maharastra,Unknown,hospital,hospital,Unknown,Unknown,Unknown,21.147904,79.123308
Rajat Clinic,"Somwaripeth, Nagpur",Unknown,Unknown,440024,Maharastra,Unknown,clinic,clinic,Unknown,Unknown,Unknown,21.127215,79.1073891
Ingole Child Care Clinic,"Nandanvan Road, Shiv Nagar, Old Nandanvan, Nagpur",Unknown,Unknown,440009,Maharastra,Unknown,clinic,Unknown,Unknown,Unknown,Unknown,21.1312795,79.1191723
Shreemayi Hospital,"Umred Road, Reshim Bagh, Nagpur",Unknown,Unknown,440024,Maharastra,Unknown,hospital,hospital,Unknown,Unknown,Unknown,21.131205,79.110519
Barad Hospital,"Umred Road, Sakkardara Road, Azamshah Layout, Nagpur",Unknown,Unknown,440009,Maharastra,Unknown,hospital,hospital,Unknown,Unknown,Unknown,21.128076,79.1140436
UPHC,"Subhash Maidan Road, Pardi, Nagpur",Unknown,Unknown,440035,Maharastra,Unknown,Unknown,centre,Unknown,Unknown,Unknown,21.150886,79.158303
Dr. Katekar Clinic,"Binaki, Nagpur",Unknown,Unknown,440017,Maharastra,Unknown,clinic,Unknown,Unknown,Unknown,Unknown,21.1703818,79.127687
Chakole Government Hospital,"Bagadganj, Nagpur",Unknown,Unknown,440008,Maharastra,Unknown,hospital,hospital,Unknown,Unknown,Unknown,21.1437162,79.122457
Shahu Hospital,"Old Shukrawari Road, Sakkardara Road, Azamshah Layout, Nagpur",Unknown,Unknown,440009,Maharastra,Unknown,hospital,hospital,Unknown,Unknown,Unknown,21.129294,79.113319
Jafri Hospital and Research Centre,"Dighori Road, Sakkardara, Harpur Nagar, Taj Bagh, Nagpur",Unknown,Unknown,440024,Maharastra,Unknown,hospital,Unknown,Unknown,Unknown,Unknown,21.1200212,79.1230947
Anurag Multi Specialty Hospital,"Kharbi Road, Saibaba Nagar, Dighori, Nagpur",Unknown,Unknown,440009,Maharastra,Unknown,hospital,Unknown,Unknown,Unknown,Unknown,21.124545,79.138924
Dr. Ankita Giradkar Clinic,"Pawanputra Nagar, Dighori, Nagpur",Unknown,Unknown,441204,Maharastra,Unknown,clinic,Unknown,Unknown,Unknown,Unknown,21.1034447,79.14405
Gandhi Nursing Home and Cocoon Test Tube Baby Centre,"Central Avenue, Darodkar Square, Nagpur",Unknown,Unknown,440032,Maharastra,Unknown,hospital,hospital,Unknown,Unknown,Unknown,21.1491465,79.1129312
Santaji Hospital,"KDK College Road, Rajendra Nagar, Nandanvan, Nagpur",Unknown,Unknown,440009,Maharastra,Unknown,hospital,hospital,Unknown,Unknown,Unknown,21.1390503,79.1207165
Samarpan Nursing Home,"MH MSH 9, Taj Bagh, Nagpur",Unknown,Unknown,440024,Maharastra,Unknown,hospital,hospital,Unknown,Unknown,Unknown,21.117059,79.1268798
Sartaj Hospital,"Binaki, Phukatnagar, Nagpur",Unknown,Unknown,440017,Maharastra,Unknown,hospital,Unknown,Unknown,Unknown,Unknown,21.1705617,79.1292917
S D Hospital,"Rokade Bhawan, Near SD Hospital Road, Ganesh Nagar, Azamshah Layout, Nagpur",Unknown,Unknown,440009,Maharastra,Unknown,hospital,hospital,Unknown,Unknown,Unknown,21.138248,79.1164206
Om Multispeciality Hospital,"Plot Number 96A, Queta Colony, Lakadganj, Nagpur",Unknown,Unknown,440008,Maharastra,Unknown,hospital,hospital,Unknown,Unknown,Unknown,21.152789,79.1191913
Chhabrani Dental Clinic,"Mahalaxmi Complex, Central Avenue, Darodkar Chowk, Nagpur",Unknown,Unknown,440002,Maharastra,Unknown,dentist,dentist,Unknown,Unknown,Unknown,21.149672,79.112482
Bhelonde Child Hospital & Multispeciality Hospital,"1st Floor, Jameela Arcade, Gadchiroli - Nagpur Highway, Sakkardara, Nagpur",Unknown,Unknown,440009,Maharastra,Unknown,hospital,hospital,Unknown,Unknown,Unknown,21.12538,79.117298
Abhiyog Hospital,"Plot No.481, Sakkdara, Police Station Road, Tiranga Square, Nagpur",Unknown,Unknown,440009,Maharastra,Unknown,hospital,Unknown,Unknown,Unknown,Unknown,21.1306712,79.1178421
Chauhan Clinic,"Harpur Nagar, Umred Road, Bada Tajbag Road, Opp Buland Gate, Taj Bagh, Nagpur",Unknown,Unknown,440009,Maharastra,Unknown,clinic,clinic,Unknown,Unknown,Unknown,21.1182897,79.1260342
Dr. Pathrabe's Ayurveda and Panchakarma Clinic,Unknown,Unknown,Unknown,Unknown,Unknown,Unknown,clinic,clinic,Unknown,Unknown,Unknown,21.1069704,79.1127989
Tirupati Medical Store,Unknown,Unknown,Unknown,Unknown,Unknown,Unknown,pharmacy,pharmacy,Unknown,Unknown,Unknown,21.1041314,79.1126604
Medplus,Unknown,Unknown,Unknown,Unknown,Unknown,Unknown,pharmacy,pharmacy,+919325716327,https://www.medplusindia.com/,Unknown,21.1055184,79.1112369
"Primary Health Centre, Bhaldarpura","Bhaldarpura, Gandhibagh, Nagpur",Unknown,Unknown,440018,Maharashtra,Unknown,Unknown,centre,Unknown,Unknown,Unknown,21.1488283,79.1015196
"Primary Health Centre, Garib Nawaj Nagar","Sidharth Nagar, Nagpur",Unknown,Unknown,440026,Maharashtra,Unknown,Unknown,centre,Unknown,Unknown,Unknown,21.1814225,79.1252337
Mogre Children Hospital,"Tajshree Govind,1st&2 nd Floor,Nagpur",Unknown,Unknown,440024,Maharashtra,Unknown,hospital,Unknown,Unknown,Unknown,Unknown,21.1280221,79.1140026
Hope Hospital,"Teka Naka, Nagpur",Unknown,Unknown,440012,Maharashtra,Unknown,hospital,Unknown,Unknown,Unknown,Unknown,21.189091,79.105162
NewEra Hospital,"Queta Colony, Lakadganj, Nagpur",Unknown,Unknown,440008,Maharashtra,Unknown,hospital,Unknown,Unknown,Unknown,Unknown,21.1515056,79.1218843
Unknown,Unknown,Unknown,Unknown,Unknown,Unknown,Unknown,pharmacy,pharmacy,Unknown,Unknown,Mo-Sa 08:00-18:00,21.1120925,79.1090144
Unknown,Unknown,Unknown,Unknown,Unknown,Unknown,Unknown,pharmacy,pharmacy,Unknown,Unknown,Unknown,21.1117418,79.109453
Bandabuche clinic,Unknown,Unknown,Unknown,Unknown,Unknown,Unknown,clinic,clinic,Unknown,Unknown,Unknown,21.1118952,79.1084591
Unknown,Unknown,Unknown,Unknown,Unknown,Unknown,Unknown,clinic,clinic,Unknown,Unknown,Unknown,21.1121742,79.109032
Esha Hospital,Unknown,Unknown,Unknown,Unknown,Unknown,Unknown,clinic,clinic,Unknown,Unknown,Unknown,21.1181782,79.1082302
Tambe Hospital,Unknown,Unknown,Unknown,Unknown,Unknown,Unknown,hospital,Unknown,Unknown,Unknown,Unknown,21.1048001,79.1131296
Dr. Sunil V. Bajaj,Unknown,Unknown,Unknown,Unknown,Unknown,Unknown,hospital,Unknown,Unknown,Unknown,Unknown,21.1235966,79.1111558
Dr Matres Dental Clinic,Unknown,Unknown,Unknown,Unknown,Unknown,Unknown,dentist,dentist,Unknown,Unknown,"Mo-Sa 12:00-13:30,18:30-22:00; Su 10:30-13:30",21.1924305,79.1028023
