Name,Full Address,Street,City,Postcode,State,Country,Amenity,Healthcare,Phone,Website,Opening Hours,Latitude,Longitude
Khanna Nursing Home and Maternity Center Saharanpur,Swatantra Nagri,Unknown,Unknown,247001,Uttar Pradesh,Unknown,clinic,Unknown,Unknown,Unknown,Unknown,29.9798182,77.5509426
Khanna Eye Hospital,"Link Road,Mangal Nagar",Unknown,Unknown,247001,Uttar Pradesh,Unknown,hospital,Unknown,Unknown,Unknown,Unknown,29.9643285,77.5554447
K N Joshi Hospital,"63, Prakash Puram,Bajoria Road",Unknown,Unknown,247001,Uttar Pradesh,Unknown,hospital,Unknown,Unknown,Unknown,Unknown,29.9570865,77.5574268
Sunheri Devi Trauma and Maternity Centre,Bajoria Roaqd,Unknown,Unknown,247001,Uttar Pradesh,Unknown,hospital,Unknown,Unknown,Unknown,Unknown,29.9665778,77.5512797
Vardan Children Hospital,"Bhagwati Colony,Link Road, Mangal Nagar",Unknown,Unknown,247001,Uttar Pradesh,Unknown,hospital,Unknown,Unknown,Unknown,Unknown,29.9653331,77.5530407
Eye Q Super Speciality Eye Hospitals,"Hakikat Nagar Mod, Sadar Thane Road,Maligate Police Chowki",Unknown,Unknown,247001,Uttar Pradesh,Unknown,hospital,Unknown,Unknown,Unknown,Unknown,29.9767215,77.5491903
"Gupta Nursing Home, Saharanpur",Nawab Ganj Chowk,Unknown,Unknown,247001,Uttar Pradesh,Unknown,clinic,Unknown,Unknown,Unknown,Unknown,29.9519924,77.5506516
"Singhal Nursing Home, Saharanpur",Church Road,Unknown,Unknown,247001,Uttar Pradesh,Unknown,clinic,Unknown,Unknown,Unknown,Unknown,29.9518896,77.5504055
Shanti Eye Clinic,"Opp Sabzi Mandi ,Delhi Road",Unknown,Unknown,247001,Uttar Pradesh,Unknown,clinic,Unknown,Unknown,Unknown,Unknown,29.9463274,77.5466188
"Dayawati Hospital, Saharanpur",Ranjeet Nagar,Unknown,Unknown,247001,Uttar Pradesh,Unknown,hospital,Unknown,Unknown,Unknown,Unknown,29.9649269,77.556012
Aruna Jain Memorial Heart and Medicare Centre,"# 2 Doctor Lane,Manjulika Garden, Bajoria Road",Unknown,Unknown,247001,Uttar Pradesh,Unknown,hospital,Unknown,Unknown,Unknown,Unknown,29.9573955,77.5568978
Leela Heart And Medicare Centre,Bajoria Road,Unknown,Unknown,247001,Uttar Pradesh,Unknown,hospital,Unknown,Unknown,Unknown,Unknown,29.9563012,77.5576601
Sugandha Nursing Home,Opposite Civil Hospital,Unknown,Unknown,247001,Uttar Pradesh,Unknown,clinic,Unknown,Unknown,Unknown,Unknown,29.9569203,77.5591877
"Goyal Nursing Home, Saharanpur",Mission Compound,Unknown,Unknown,247001,Uttar Pradesh,Unknown,clinic,Unknown,Unknown,Unknown,Unknown,29.9570202,77.5451403
"Urmila Hospital, Saharanpur","G T Road, Patel Nagar",Unknown,Unknown,247001,Uttar Pradesh,Unknown,hospital,Unknown,Unknown,Unknown,Unknown,29.9675468,77.5344638
Asha Goyal Nursing Home,"Bhagwati Colony,Link Road, Mangal Nagar",Unknown,Unknown,247001,Uttar Pradesh,Unknown,clinic,Unknown,Unknown,Unknown,Unknown,29.9652485,77.5542217
"Jeewan Jyoti Hospital, Saharanpur","Mahipura Saharanpur, Uttar Pradesh",Unknown,Unknown,247001,Uttar Pradesh,Unknown,hospital,Unknown,Unknown,Unknown,Unknown,29.9679337,77.5747834
Tarawati Super Speciality Hospital,Bajoria Road,Unknown,Unknown,247001,Uttar Pradesh,Unknown,hospital,Unknown,Unknown,Unknown,Unknown,29.9569168,77.5572377
Banerjee Hospital,"Doctors Lane, Manjulike Garden, Bajoria Road",Unknown,Unknown,247001,Uttar Pradesh,Unknown,hospital,Unknown,Unknown,Unknown,Unknown,29.9575512,77.5570473
"Anand Nursing Home, Saharanpur",Patel Nagar,Unknown,Unknown,247001,Uttar Pradesh,Unknown,clinic,Unknown,Unknown,Unknown,Unknown,29.9668991,77.5354207
Kamla Devi Hospital,"Goel Kothi Near Jain Bagh , Chilkana Road",Unknown,Unknown,247001,Uttar Pradesh,Unknown,hospital,Unknown,Unknown,Unknown,Unknown,29.9846541,77.5423662
"Smriti Nursing Home, Saharanpur","Link Road , Mangal Nagar",Unknown,Unknown,247001,Uttar Pradesh,Unknown,clinic,Unknown,Unknown,Unknown,Unknown,29.9657053,77.5537831
Satyam Clinic,"Opposite Civil Hospital , Prakash Puram",Unknown,Unknown,247001,Uttar Pradesh,Unknown,clinic,Unknown,Unknown,Unknown,Unknown,29.9564966,77.5587944
Anand Orthopadic and Trauma Centre,Prerana Bhajoria Road,Unknown,Unknown,247001,Uttar Pradesh,Unknown,hospital,Unknown,Unknown,Unknown,Unknown,29.9573514,77.5559697
Toolika Nursing Home,"Mission Compound, Near Church",Unknown,Unknown,247001,Uttar Pradesh,Unknown,clinic,Unknown,Unknown,Unknown,Unknown,29.9560152,77.5458665
Prankur Hospital and Cancer Research Centre,"Mahipura, Dehradun Road",Unknown,Unknown,247001,Uttar Pradesh,Unknown,hospital,Unknown,Unknown,Unknown,Unknown,29.9676578,77.5752883
Maratha Hospital,"15, Friends Colony, Delhi Road",Unknown,Unknown,247001,Uttar Pradesh,Unknown,hospital,Unknown,Unknown,Unknown,Unknown,29.9399114,77.5420532
Saksham Hospital,"Delhi Road, Near Officer`S Colony",Unknown,Unknown,247001,Uttar Pradesh,Unknown,hospital,Unknown,Unknown,Unknown,Unknown,29.943061,77.5429255
Santosh Hospital and Research Institute,Link Road,Unknown,Unknown,247001,Uttar Pradesh,Unknown,hospital,Unknown,Unknown,Unknown,Unknown,29.9668172,77.551078
Prarthana Maternity and Eye Hospital,Mangal Nagar,Unknown,Unknown,247001,Uttar Pradesh,Unknown,hospital,Unknown,Unknown,Unknown,Unknown,29.9648548,77.5549646
Chandra Skin and Laser Centre,"Bajoria Road, Near Petrol Pump Saharanpur",Unknown,Unknown,247001,Uttar Pradesh,Unknown,hospital,Unknown,Unknown,Unknown,Unknown,29.9576067,77.5551225
T.B. Hospital Saharanpur,Unknown,Unknown,Unknown,247001,Uttar Pradesh,Unknown,hospital,Unknown,Unknown,Unknown,Unknown,29.954902,77.5625445
UHC Nehru Market,"Shri ram Chowk, Kishanpura/ ward no 11, Old Hospital Nehru Market",Unknown,Unknown,247001,Uttar Pradesh,Unknown,Unknown,centre,Unknown,Unknown,Unknown,29.9672877,77.5452322
UPHC Kamela Colony,"Kamela Road, Kamela Colony/ ward no 31, Kamela Colony",Unknown,Unknown,247001,Uttar Pradesh,Unknown,Unknown,centre,Unknown,Unknown,Unknown,29.9739493,77.530818
Government Hospital Ashok Vihar Ojpura,"Ojpura / ward no 44, ITC Road Ojpura",Unknown,Unknown,247001,Uttar Pradesh,Unknown,hospital,Unknown,Unknown,Unknown,Unknown,29.9460742,77.5367363
Ramayan Hospital,"Navin Nagar, Gawaleera",Unknown,Unknown,247001,Uttar Pradesh,Unknown,hospital,Unknown,Unknown,Unknown,Unknown,29.9406645,77.5363243
Aneja Hospital,"Mata Shakumbhari Devi Road, Jwala Nagar, Saharanpur",Unknown,Unknown,247001,Uttar Pradesh,Unknown,hospital,Unknown,Unknown,Unknown,Unknown,29.9674986,77.5500943
Megacity Hospital,"Delhi Road, Adj Gng Mall And Paramount Tulip Township, VPO, Mavi Kalan",Unknown,Unknown,247001,Uttar Pradesh,Unknown,hospital,Unknown,Unknown,Unknown,Unknown,29.9244025,77.5241599
Jaccha Baccha Hospital,"Matia Mahal Road, Nawabganj, Saharanpur",Unknown,Unknown,247001,Uttar Pradesh,Unknown,hospital,Unknown,Unknown,Unknown,Unknown,29.9719242,77.5509596
City Hospital,"Avas Vikas Colony, Police Line, Saharanpur",Unknown,Unknown,247001,Uttar Pradesh,Unknown,hospital,Unknown,Unknown,Unknown,Unknown,29.9449656,77.5459755
Life Care Hospital,"Mahipalpur, Saharanpur",Unknown,Unknown,247001,Uttar Pradesh,Unknown,hospital,Unknown,Unknown,Unknown,Unknown,29.9698458,77.576702
Al Meraj Hospital,"Deeep Shikha Gas Agency Street, Bajoria Road, Saharanpur",Unknown,Unknown,247001,Uttar Pradesh,Unknown,hospital,Unknown,Unknown,Unknown,Unknown,29.9661277,77.5520457
Medigram Hospital,"Delhi Road, Opposite Pinewood School, Chunheti",Unknown,Unknown,247001,Uttar Pradesh,Unknown,hospital,Unknown,Unknown,Unknown,Unknown,29.9037119,77.5156073
Mangalam Mother & Child Care Centre,"Circular Road, Prakashpuram",Unknown,Unknown,247001,Uttar Pradesh,Unknown,hospital,Unknown,Unknown,Unknown,Unknown,29.9563233,77.5587321
Care Hospital,"Avas Vikas Colony Lane, Avas Vikas Colony, Police Line, Saharanpur",Unknown,Unknown,247001,Uttar Pradesh,Unknown,hospital,Unknown,Unknown,Unknown,Unknown,29.9426926,77.5434152
Swastik Nursing Home,"Civil Lines Church Road, Near Civil Hospital Chawk, Saharanpur",Unknown,Unknown,247001,Uttar Pradesh,Unknown,hospital,Unknown,Unknown,Unknown,Unknown,29.9578691,77.5593747
Swastik Hospital & Ivf Centre,"Civil Lines, Near Hospital Chowk",Unknown,Unknown,247001,Uttar Pradesh,Unknown,hospital,Unknown,Unknown,Unknown,Unknown,29.9543777,77.5566951
Ekta Hospital,"Bajoria Road, Damodarpuri, Saharanpur",Unknown,Unknown,247001,Uttar Pradesh,Unknown,hospital,Unknown,Unknown,Unknown,Unknown,29.9564637,77.5568816
Batra Hospital,"Pushpanjali Vihar Janta Road, Madhav Nagar, Keshav Nagar, Saharanpur",Unknown,Unknown,247001,Uttar Pradesh,Unknown,hospital,Unknown,Unknown,Unknown,Unknown,29.9736678,77.559046
Kunti Devi Memorial Hospital,"Laxmi Dham New, Madhav Nagar, Saharanpur",Unknown,Unknown,247001,Uttar Pradesh,Unknown,hospital,Unknown,Unknown,Unknown,Unknown,29.9800923,77.5647047
Vasundhra Hospital,"Saharanpur - Delhi Road, Avas Vikas Colony, Vasant Vihar, Saharanpur",Unknown,Unknown,247001,Uttar Pradesh,Unknown,hospital,Unknown,Unknown,Unknown,Unknown,29.9437477,77.5435222
Integrity Hospital,"Hasanpur Chungi, Near Pine Hall School, Saharanpur",Unknown,Unknown,247001,Uttar Pradesh,Unknown,hospital,Unknown,Unknown,Unknown,Unknown,29.9383454,77.5402225
Dr. Kehkashan Nursing Home,"Mehandi Sarai, Saharanpur",Unknown,Unknown,247001,Uttar Pradesh,Unknown,hospital,Unknown,Unknown,Unknown,Unknown,29.9757325,77.5345596
Pegasus Hospital,"Avas Vikas Colony, Police Line, Saharanpur",Unknown,Unknown,247001,Uttar Pradesh,Unknown,hospital,Unknown,Unknown,Unknown,Unknown,29.9443259,77.5447611
Gaba Hospital,"Bajoria Hospital Area, Saharanpur",Unknown,Unknown,247001,Uttar Pradesh,Unknown,hospital,Unknown,Unknown,Unknown,Unknown,29.9565474,77.558018
Anand Hospital,"Patel Nagar, Saharanpur",Unknown,Unknown,247001,Uttar Pradesh,Unknown,hospital,Unknown,Unknown,Unknown,Unknown,29.9666571,77.5344888
Saint Hospital and Heart Care Centre,"Varun Vihar Colony, Near Gate No 2",Unknown,Unknown,247001,Uttar Pradesh,Unknown,hospital,Unknown,Unknown,Unknown,Unknown,29.9361597,77.5404356
Merrygold Hospital,"Haqikatnagar, Saharanpur",Unknown,Unknown,247001,Uttar Pradesh,Unknown,hospital,Unknown,Unknown,Unknown,Unknown,29.9496741,77.5519577
Sahiram Hospital,"Vasant Vihar, Saharanpur",Unknown,Unknown,247001,Uttar Pradesh,Unknown,hospital,Unknown,Unknown,Unknown,Unknown,29.9417531,77.5379033
Government Eye Hospital,"Haqikatnagar, Saharanpur",Unknown,Unknown,247001,Uttar Pradesh,Unknown,hospital,Unknown,Unknown,Unknown,Unknown,29.9494121,77.5506202
Gargi Hospital,"Bajoria Road, Janak Nagar, Saharanpur",Unknown,Unknown,247001,Uttar Pradesh,Unknown,hospital,Unknown,Unknown,Unknown,Unknown,29.9565316,77.5576445
Guru Harkishan Charitable Hospital,"Ram Jivan Nagar, Saharanpur",Unknown,Unknown,247001,Uttar Pradesh,Unknown,hospital,Unknown,Unknown,Unknown,Unknown,29.9798258,77.5488708
S. B. D Hospital Saharanpur,"Gurudwara Road, Adrash Nagar, Subhash Nagar, Saharanpur",Unknown,Unknown,247001,Uttar Pradesh,Unknown,hospital,Unknown,Unknown,Unknown,Unknown,29.965741,77.540306
Jain Charitable Hospital,"Halwai Hatta, Subhash Nagar, Saharanpur",Unknown,Unknown,247001,Uttar Pradesh,Unknown,hospital,Unknown,Unknown,Unknown,Unknown,29.9743826,77.5445825
Bansal Hospital,"Bajoria Road, Dehradun Road, Chow, Saharanpur",Unknown,Unknown,247001,Uttar Pradesh,Unknown,hospital,Unknown,Unknown,Unknown,Unknown,29.9574786,77.5559115
Astha Hospital,"Saharanpur - Delhi Road, Saharanpur",Unknown,Unknown,247001,Uttar Pradesh,Unknown,hospital,Unknown,Unknown,Unknown,Unknown,29.9277161,77.5288669
Vardhman Hospital,"Avas Vikas Colony, Saharanpur",Unknown,Unknown,247001,Uttar Pradesh,Unknown,hospital,Unknown,Unknown,Unknown,Unknown,29.9427843,77.5450641
Arpan Hospital,"Khan Alampura, Saharanpur",Unknown,Unknown,247001,Uttar Pradesh,Unknown,hospital,Unknown,Unknown,Unknown,Unknown,29.9570782,77.5560089
Hasan Hospital,"Janak Nagar, Saharanpur",Unknown,Unknown,247001,Uttar Pradesh,Unknown,hospital,Unknown,Unknown,Unknown,Unknown,29.9568184,77.5578614
Shyam Hospital,"Khan Alampura, Saharanpur",Unknown,Unknown,247122,Uttar Pradesh,Unknown,hospital,Unknown,Unknown,Unknown,Unknown,29.956445,77.5577413
Premwati Hospital,"Lane Number 6, Bhagwati Colony, Mangal Nagar, Jwala Nagar, Saharanpur",Unknown,Unknown,247001,Uttar Pradesh,Unknown,hospital,Unknown,Unknown,Unknown,Unknown,29.965176,77.554142
"Urban Health Centre, Mahipura",Mahipura,Unknown,Unknown,247001,Uttar Pradesh,Unknown,Unknown,centre,Unknown,Unknown,Unknown,29.9700621,77.5747505
"Urban Health Centre, Nawabganj",Nawabganj,Unknown,Unknown,247001,Uttar Pradesh,Unknown,Unknown,centre,Unknown,Unknown,Unknown,29.9729096,77.5494023
"Urban Health Centre, New Awas Vikas",New Awas Vikas,Unknown,Unknown,247001,Uttar Pradesh,Unknown,Unknown,centre,Unknown,Unknown,Unknown,29.918268,77.5260477
"Urban Health Centre, Shankarpur",Shankarpur,Unknown,Unknown,247001,Uttar Pradesh,Unknown,Unknown,centre,Unknown,Unknown,Unknown,29.9879798,77.5598864
"Urban Health Centre, Labour Colony",Labour Colony,Unknown,Unknown,247001,Uttar Pradesh,Unknown,Unknown,centre,Unknown,Unknown,Unknown,29.9630673,77.5256467
"Urban Health Centre, Laxmanpuri",Laxmanpuri,Unknown,Unknown,247001,Uttar Pradesh,Unknown,Unknown,centre,Unknown,Unknown,Unknown,29.9582809,77.5328357
"Urban Health Centre, Garhi Malook",Garhi Malook,Unknown,Unknown,247001,Uttar Pradesh,Unknown,Unknown,centre,Unknown,Unknown,Unknown,29.977417,77.5568998
"Urban Health Centre, Azad Colony",Azad Colony,Unknown,Unknown,247001,Uttar Pradesh,Unknown,Unknown,centre,Unknown,Unknown,Unknown,29.9776401,77.5377274
"Urban Health Centre, Himmat Nagar",Himmat Nagar,Unknown,Unknown,247001,Uttar Pradesh,Unknown,Unknown,centre,Unknown,Unknown,Unknown,29.9403521,77.560848
"Urban Health Centre, Khata Kheri",Khata Kheri,Unknown,Unknown,247001,Uttar Pradesh,Unknown,Unknown,centre,Unknown,Unknown,Unknown,29.9869674,77.5420846
"SubCentre, Halalpur",Halalpur,Unknown,Unknown,247001,Uttar Pradesh,Unknown,Unknown,centre,Unknown,Unknown,Unknown,29.9977109,77.5307469
"SubCentre, Roop Di Guzar",Roop Di Guzar,Unknown,Unknown,247001,Uttar Pradesh,Unknown,Unknown,centre,Unknown,Unknown,Unknown,29.9676386,77.512245
"SubCentre, Bhaupur",Bhaupur,Unknown,Unknown,247002,Uttar Pradesh,Unknown,Unknown,centre,Unknown,Unknown,Unknown,29.9894759,77.5017911
Dr.Mohan Pandey,Unknown,Unknown,Unknown,Unknown,Unknown,Unknown,hospital,hospital,Unknown,Unknown,Unknown,29.9518366,77.547264
Dr. Himanshu Kumar,Unknown,Unknown,Unknown,Unknown,Unknown,Unknown,hospital,hospital,Unknown,Unknown,Unknown,29.9476343,77.5445237
Dr.shubham bansal,Unknown,Unknown,Unknown,Unknown,Unknown,Unknown,hospital,hospital,Unknown,Unknown,Unknown,29.9476106,77.5448467
Pratap Clinic,Unknown,Unknown,Unknown,Unknown,Unknown,Unknown,hospital,hospital,Unknown,Unknown,Unknown,29.945082,77.5479942
STAY HAPPY PHARMACY,Unknown,Unknown,Unknown,Unknown,Unknown,Unknown,pharmacy,pharmacy,Unknown,Unknown,Unknown,29.9507579,77.5510899
