Name,Full Address,Street,City,Postcode,State,Country,Amenity,Healthcare,Phone,Website,Opening Hours,Latitude,Longitude
Aastha Heap Knee and Shoulder clinic,Unknown,Unknown,Unknown,Unknown,Unknown,Unknown,Unknown,yes,Unknown,Unknown,Unknown,21.1786781,72.8111114
Smt. R. B. Shah Mahavir Super Speciality Hospital / Shri Bachubhai Dahyabhai Mehta Mahavir Heart Institute,"At. Shree Mahavir Health Campus, Opposite Jeevan Bharti School",Unknown,Unknown,395001,Gujarat,Unknown,hospital,Unknown,Unknown,Unknown,Unknown,21.1841759,72.8139384
MGG Hospital,Unknown,Unknown,Unknown,Unknown,Unknown,Unknown,hospital,Unknown,Unknown,Unknown,Unknown,20.9495767,72.9179054
Maroli CHC,"Near Geb, Maroli, Chinam Road",Unknown,Unknown,396436,Gujarat,Unknown,Unknown,centre,Unknown,Unknown,Unknown,21.0204651,72.8875729
Tender Touch Childrens Hospital and Neonatal Unit,"2nd Floor , Ornate House ,Athwa Gate , Ring Road",Unknown,Unknown,395007,Gujarat,Unknown,hospital,Unknown,Unknown,Unknown,Unknown,21.1851558,72.8122222
Verma Children Hospital,"Saibaba Nagar, Pandesara",Unknown,Unknown,395002,Gujarat,Unknown,hospital,Unknown,Unknown,Unknown,Unknown,21.1524368,72.8325668
Khushabu Hospital,"Jivan-Jyot Cinema, udhna road",Unknown,Unknown,394210,Gujarat,Unknown,hospital,Unknown,Unknown,Unknown,Unknown,21.174891,72.8365264
"Urmil Heart and Lung Centre, Surat","4/735-Mali Falia, Allaya Wadi",Unknown,Unknown,395003,Gujarat,Unknown,hospital,Unknown,Unknown,Unknown,Unknown,21.1989466,72.8324602
"Khushi Hospital, Surat","Sri Sai Complex, Near Neelam Hotel, Kadodara Char Rasta, Kadodara",Unknown,Unknown,394315,Gujarat,Unknown,hospital,Unknown,Unknown,Unknown,Unknown,21.1659511,72.9623455
Burhani Hospital,"4/4740, Taiyebi Mohalla, Opposite Mahindharpura Police Station",Unknown,Unknown,395003,Gujarat,Unknown,hospital,Unknown,Unknown,Unknown,Unknown,21.1980588,72.834449
Asutosh Hospital,"Beside Kshetrapal Mandir, Rajeshree Hall Road, Majura Gate",Unknown,Unknown,395002,Gujarat,Unknown,hospital,Unknown,Unknown,Unknown,Unknown,21.1851177,72.820981
Jyoti Medical Hospital,"Hirachand Nagar, Opposite Sai Darshan Appartment, Station Road, Bardoli",Unknown,Unknown,394601,Gujarat,Unknown,hospital,Unknown,Unknown,Unknown,Unknown,21.1317249,73.1081235
The R. F. Daboo Parsi General Hospital,"Daboo Circle, Station Road",Unknown,Unknown,396445,Gujarat,Unknown,hospital,Unknown,Unknown,Unknown,Unknown,20.9529184,72.9219058
"Eye-Q Super Speciality Eye Hospitals, Udhana","2nd Floor, SNS House, Udhana Teen Rasta, Opposite Silicon Shoppers, Udhana Main Road, Udhana",Unknown,Unknown,394210,Gujarat,Unknown,hospital,Unknown,Unknown,https://eyeqindia.com/,Unknown,21.1724073,72.8397625
Apple Hospital,"Udhana Darwaja, Ring Road, Near Old Rajkumar Theatre",Unknown,Unknown,395002,Gujarat,Unknown,hospital,Unknown,Unknown,Unknown,Unknown,21.1829991,72.8315758
Shreyash Hospital,"Swaminarayan Complex, OppositeMajuragate Ring Road",Unknown,Unknown,395001,Gujarat,Unknown,hospital,Unknown,Unknown,Unknown,Unknown,21.1810242,72.8187789
Yesha Super Speciality Hospital,"Near Railway Station, Near Arunodoy Hotel",Unknown,Unknown,396445,Gujarat,Unknown,hospital,Unknown,Unknown,Unknown,Unknown,20.9489707,72.9149213
Happy and Healthy Hospital,"B/141.1st Floor, Shankheshwar Complex, Opposite Raymonds Show Room, Kailasnagar",Unknown,Unknown,395003,Gujarat,Unknown,hospital,Unknown,Unknown,Unknown,Unknown,21.1851508,72.8207731
Rotary Eye Institute,"Smt. Lilavatiben Mohanlal Shah Eye Hospital, Dudhia Talao",Unknown,Unknown,396445,Gujarat,Unknown,hospital,Unknown,Unknown,Unknown,Unknown,20.9484954,72.9285436
Ashish Eye Hospital,Rustampura,Unknown,Unknown,395002,Gujarat,Unknown,hospital,Unknown,Unknown,Unknown,Unknown,21.1861924,72.8333232
Sharda Hospital And Research Centre,"Beside Kailasnagar Jain Derasar,Majuragate -Shankhuar Road",Unknown,Unknown,395002,Gujarat,Unknown,hospital,Unknown,Unknown,Unknown,Unknown,21.183799,72.8193831
Girish Group Of Hospital,"Shankeshwar Complex, Majuragate",Unknown,Unknown,395002,Gujarat,Unknown,hospital,Unknown,Unknown,Unknown,Unknown,21.1853503,72.8199981
Arpan Public Charitable Trust,"2nd Floor, Kinara Apartment, Makkai Pool, Nanpura",Unknown,Unknown,395001,Gujarat,Unknown,hospital,Unknown,Unknown,Unknown,Unknown,21.1925984,72.8155784
Dr. Kapse Children Hospital,"Akshar Complex, 1st Floor, Near Kwality Hotel, Makkaipool",Unknown,Unknown,395001,Gujarat,Unknown,hospital,Unknown,Unknown,Unknown,Unknown,21.1931398,72.8165607
Raijiwala Eye Hospital,"First Flr, Firoz Chambers Behind Lalgate Police Chwki Knad Bazar",Unknown,Unknown,395003,Gujarat,Unknown,hospital,Unknown,Unknown,Unknown,Unknown,21.1991229,72.8257647
Kalp Medical Hospital,"14-Jay Jalaram Nagar-1, Dumbhal Road, Near Parvat Patiya",Unknown,Unknown,395001,Gujarat,Unknown,hospital,Unknown,Unknown,Unknown,Unknown,21.1889822,72.8616989
Anand Hospital - Surat,"1/568-B, Por Mohallo. Opp State Bank Of India Timaliyawad, Nanpura",Unknown,Unknown,395001,Gujarat,Unknown,hospital,Unknown,Unknown,Unknown,Unknown,21.187808,72.8131147
D N Mehta Sarvajanik Hospital,J. N. Tata Road Lunsikui Lunsikui,Unknown,Unknown,396445,Gujarat,Unknown,hospital,Unknown,Unknown,Unknown,Unknown,20.9430815,72.9369718
Bhadra Memorial Eye Institute,"5, Kalpna Society, Adajan Road",Unknown,Unknown,395009,Gujarat,Unknown,hospital,hospital,Unknown,Unknown,Unknown,21.1966785,72.8049485
Pals Hospital,"30, Vardhaman Complex, Opposite Uma Bhavan, Bavan",Unknown,Unknown,395003,Gujarat,Unknown,hospital,Unknown,Unknown,Unknown,Unknown,21.1678183,72.8141548
Ramaben Hospital,Rustomwadi Road,Unknown,Unknown,396445,Gujarat,Unknown,hospital,Unknown,Unknown,Unknown,Unknown,20.9539729,72.9230243
"Shruti Ear, Nose and Throat Hospital","Hiral, Opposite Sub. Jail, Ring Road",Unknown,Unknown,395002,Gujarat,Unknown,hospital,Unknown,Unknown,Unknown,Unknown,21.1816703,72.8253034
Naaz Maternity and Gynaec Hospital,"37-1 Ankur Society,B/H Cbi , Panchbatti",Unknown,Unknown,392009,Gujarat,Unknown,hospital,Unknown,Unknown,Unknown,Unknown,21.1949379,72.8007317
Me And Mummy Hospital and Ivf and Endoscopy Centre,"3Road Floor, Jalnidhi, Oppl Bahumali Building, Nanpura",Unknown,Unknown,395001,Gujarat,Unknown,hospital,Unknown,Unknown,Unknown,Unknown,21.189091,72.8109308
Shree Sardar Smarak Hospital (Trust Hospital),"Sardar Bag, Bardoli",Unknown,Unknown,394601,Gujarat,Unknown,hospital,Unknown,Unknown,Unknown,Unknown,21.1304964,73.108094
Pathik Children Hospital,"Virali Complex, Opp Jivan Jyot Cinema, Udhna Main Road",Unknown,Unknown,394210,Gujarat,Unknown,hospital,Unknown,Unknown,Unknown,Unknown,21.173968,72.8376006
Mody General Hospital,"Kadodra Char Rasta, Bardoli Road",Unknown,Unknown,394327,Gujarat,Unknown,hospital,Unknown,Unknown,Unknown,Unknown,21.1702344,72.9661294
Bhavin Eye Hospital,"22-23, Swagat Complex, Next To Mehta Park, Opp Sneh Milan Garden, Majura Gate",Unknown,Unknown,395001,Gujarat,Unknown,hospital,Unknown,Unknown,Unknown,Unknown,21.1842123,72.8197458
Pradip General Hospital,"2nd Floor,Pawanhans Complex.Hanuman Sheri,Sagarampura,OppositeSubjail,Ringroad",Unknown,Unknown,395002,Gujarat,Unknown,hospital,Unknown,Unknown,Unknown,Unknown,21.1818695,72.8263219
Grace General Hospital,"2nd Floor, Geeta Nagar, Parvat Patia",Unknown,Unknown,395010,Gujarat,Unknown,hospital,Unknown,Unknown,Unknown,Unknown,21.18381,72.863694
Aaram Hospital,"Beside Diamond Jubilee Bank, Salabatpura Main Road",Unknown,Unknown,395003,Gujarat,Unknown,hospital,Unknown,Unknown,Unknown,Unknown,21.1934568,72.8364501
Civil Hospital Navasari,"M.G.G.Hospital, Station Road, Navsari, Opp.Jahangir talkiz",Unknown,Unknown,396445,Gujarat,Unknown,hospital,Unknown,Unknown,Unknown,Unknown,20.9490934,72.917558
Nilesh Children Hospital,"3Road Floor, Pramukh Doctor House, Near Auto Point, Puna Kumbhariya Road",Unknown,Unknown,395010,Gujarat,Unknown,hospital,Unknown,Unknown,Unknown,Unknown,21.1915804,72.8622773
Parijat Medical Hospital,"Ratan Park Apartment, Adajan Patia, Rander Road",Unknown,Unknown,395009,Gujarat,Unknown,hospital,Unknown,Unknown,Unknown,Unknown,21.1996439,72.8050376
Sheth P.T Surat General Hospital,Balaji Road,Unknown,Unknown,395003,Gujarat,Unknown,hospital,Unknown,Unknown,Unknown,Unknown,21.1971161,72.8258318
Shri K P Sanghvi Hospital,Shri Bhartimaiya Smruti Bhavan Sagrampura Lalwadi B/H Centre Point Off Ring Road,Unknown,Unknown,395002,Gujarat,Unknown,hospital,Unknown,Unknown,Unknown,Unknown,21.1827613,72.8239696
"CHC, Mahuva","At-Mahuva,Ta-Mahuva",Unknown,Unknown,394250,Gujarat,Unknown,Unknown,centre,Unknown,Unknown,Unknown,21.0176067,73.1407942
Retina Clinic,"501/A, Kashi Plaza, Majura Gatem",Unknown,Unknown,395001,Gujarat,Unknown,clinic,Unknown,Unknown,Unknown,Unknown,21.1824748,72.8189204
Aayush Medi Care Hospital and Cardiac Center,"47, Sweety Society, Nr, Uma Bhavan, Bhatar Road",Unknown,Unknown,395001,Gujarat,Unknown,hospital,Unknown,Unknown,Unknown,Unknown,21.1677432,72.816721
Park Nursing Home and Diagnostic Clinic (P) Ltd,"Krishna Complex, Bhattar Road",Unknown,Unknown,395001,Gujarat,Unknown,clinic,Unknown,Unknown,Unknown,Unknown,21.1737523,72.8175686
"Amruta Hospital, Surat","Raj Complex , Bhatar Road",Unknown,Unknown,395003,Gujarat,Unknown,hospital,Unknown,Unknown,Unknown,Unknown,21.1662806,72.8133776
Pravar Superspeciality Centre,"B/S Ramji Mandir , Opposite Navdi Ovara Nanpura",Unknown,Unknown,395001,Gujarat,Unknown,hospital,Unknown,Unknown,Unknown,Unknown,21.1895538,72.812239
Shree Guru Nanak Dharmarth Hospital,"Yogi Krupa Society, Near Elbee Cinema, Shree Gurunanak Devji Marg (Bhatar Road)",Unknown,Unknown,395003,Gujarat,Unknown,hospital,Unknown,Unknown,Unknown,Unknown,21.1740833,72.8184466
Rajat Hospital,"Pani Ni Tanki, Station Road, Begumpura",Unknown,Unknown,395003,Gujarat,Unknown,hospital,Unknown,Unknown,Unknown,Unknown,21.1987253,72.8366699
Om Shivam Maternity and Nursing Hospital Pvt Ltd,"Sai Park & Complex, Nr. Sachin Post-office, Station Rd., Sachin",Unknown,Unknown,394230,Gujarat,Unknown,hospital,Unknown,Unknown,www.omshivamhospitals.com,Unknown,21.0833238,72.8800687
Shri Bhartimalya Memorial Foundation (Bharat Cancer Hospital and Nirali Memorial Radiation Centre),"Kadodara Road, Saroli, Saroli",Unknown,Unknown,395010,Gujarat,Unknown,hospital,Unknown,Unknown,Unknown,Unknown,21.1896468,72.8833135
Eye Laser Center,Bhavik Complex Opp Turening Point Ghod Dod Road,Unknown,Unknown,395001,Gujarat,Unknown,clinic,Unknown,Unknown,Unknown,Unknown,21.1847577,72.8129836
"Mehta Hospital, Surat","Opp:Sub Jai, Icici Ring Road",Unknown,Unknown,395001,Gujarat,Unknown,hospital,Unknown,Unknown,Unknown,Unknown,21.1612611,72.8108919
Smt Lilaben Chimanlal Parikh Cancer Centre,"M G G Civil Hospital, Station Road",Unknown,Unknown,396445,Gujarat,Unknown,hospital,Unknown,Unknown,Unknown,Unknown,20.9496908,72.9192303
Genesis Hospital and Maternity Home,"6-10-11, 3Road Floor, Jash Point, Kshertrapal Mandir, Kailash Nagar, Sagrampura",Unknown,Unknown,395003,Gujarat,Unknown,hospital,Unknown,Unknown,Unknown,Unknown,21.1854321,72.8215456
Parmar Ortho. Hospital,Ashapuri Road,Unknown,Unknown,396445,Gujarat,Unknown,hospital,Unknown,Unknown,Unknown,Unknown,20.9500516,72.9243547
Harsiddhi Cosmetic-Plastic Surgery Hospital,"306-Indraprastha, Hanuman Sheri, Sub-Jail Cross Road, Ring Road",Unknown,Unknown,395002,Gujarat,Unknown,hospital,Unknown,Unknown,Unknown,Unknown,21.1823172,72.8266096
Dr. Rana Nursing Home,In Front Of Railway Station,Unknown,Unknown,396445,Gujarat,Unknown,clinic,Unknown,Unknown,Unknown,Unknown,20.950431,72.9133335
"Sita Hospital, Surat","J. M. Doctor House, Behind J K Tower, Besides Sub-Jail, Ring Road",Unknown,Unknown,395002,Gujarat,Unknown,hospital,Unknown,Unknown,Unknown,Unknown,21.180589,72.8267974
"Trupti Heart and Medical Hospital, Surat","Udhana Darwaja, Ring Road",Unknown,Unknown,395001,Gujarat,Unknown,hospital,Unknown,Unknown,Unknown,Unknown,21.1683536,72.8397753
Sunflower Fertility Endoscopy Centre,"309-10. Kashi Plaza,Near Children Hospital,Majuragate",Unknown,Unknown,395001,Gujarat,Unknown,hospital,Unknown,Unknown,Unknown,Unknown,21.1822272,72.8189385
Chiranjiv Hospital,"Coctor House, Opposite Hariom Bungalow, Katargam Main Road",Unknown,Unknown,395003,Gujarat,Unknown,hospital,Unknown,Unknown,Unknown,Unknown,21.1832301,72.8293294
Aum Orthopaedic and Maternity Hospital,"Shiv Darshan Complex, Opp T V S Auto Point, Parvat Patia",Unknown,Unknown,395003,Gujarat,Unknown,hospital,hospital,Unknown,Unknown,Unknown,21.1910529,72.8607541
"Ashirwad Hospital, Surat","1st Floor, Rajkamal Chambar, Kotsafil Raod",Unknown,Unknown,395003,Gujarat,Unknown,hospital,Unknown,Unknown,Unknown,Unknown,21.1967172,72.8292704
Anand Hosptal,Station Road,Unknown,Unknown,396445,Gujarat,Unknown,hospital,Unknown,Unknown,Unknown,Unknown,20.9511675,72.9204521
Dhruvini Nursing Home and Iccu,"Opposite Mahendra Bros., Ashanagar Main Road",Unknown,Unknown,396445,Gujarat,Unknown,hospital,Unknown,Unknown,Unknown,Unknown,20.9504774,72.9227909
"Aradhana Hospital, Navsari",Station Road,Unknown,Unknown,396445,Gujarat,Unknown,hospital,Unknown,Unknown,Unknown,Unknown,20.948769,72.916076
Amrutlal Desai Hospital,"Vesma, Taluka-Jalalpore",Unknown,Unknown,396475,Gujarat,Unknown,hospital,Unknown,Unknown,Unknown,Unknown,21.0279754,72.9694694
Aashirwad Eye Hospital and Laser Center,"Near Parsi Hospital, Lunsikui",Unknown,Unknown,396445,Gujarat,Unknown,hospital,Unknown,Unknown,Unknown,Unknown,20.9423713,72.9373875
Bodalia Hospital,"Panch Hatdi, Junathana",Unknown,Unknown,396445,Gujarat,Unknown,hospital,Unknown,Unknown,Unknown,Unknown,20.9519452,72.9356267
Orange Hospital,"Thakor Wadi Street, Beside H.P Petrol Pump, Station Road",Unknown,Unknown,396445,Gujarat,Unknown,hospital,Unknown,Unknown,http://www.orangehospital.org/,Unknown,20.9491611,72.9161713
"Shree Siddhi Vinayak Hospital, Surat","1st Floor, Saifee Complex, Opposite Brc Gate, Udhana",Unknown,Unknown,395003,Gujarat,Unknown,hospital,Unknown,Unknown,Unknown,Unknown,21.1576779,72.8431307
Bridgecross Hospital,"222, Gopal Complex, Parvat Patiya, Puna Kumbhariya Road",Unknown,Unknown,394310,Gujarat,Unknown,hospital,Unknown,Unknown,Unknown,Unknown,21.1838566,72.8637562
Krupa Orthopaedic Hospital,"Shivam, Near New Life Hospital,Godh dod Road",Unknown,Unknown,395001,Gujarat,Unknown,hospital,hospital,Unknown,Unknown,Unknown,21.1746165,72.8121203
"Wadekar Hospital, Surat","Opposite Subjail, Ring Road",Unknown,Unknown,395002,Gujarat,Unknown,hospital,Unknown,Unknown,Unknown,Unknown,21.1820984,72.8272077
Udhna Hospital Private Limited,"18, Patel Colony, B/H Dena Bank, Main Road,Udhna",Unknown,Unknown,394210,Gujarat,Unknown,hospital,hospital,Unknown,Unknown,Unknown,21.1682279,72.8415422
Roopal Hospital,"2nd Floor, Yashkamal Complex, OppositeJeevan Jyot Cinema, Udhna Main Road, Udhna",Unknown,Unknown,394210,Gujarat,Unknown,hospital,Unknown,Unknown,Unknown,Unknown,21.1738311,72.837608
The Rainbow Hospital,"3rd Floor, Shiv Shakti Shopping Centre, B/S. Raj Empire Multiples, Bharat Road",Unknown,Unknown,395003,Gujarat,Unknown,hospital,Unknown,Unknown,Unknown,Unknown,21.1716914,72.8163904
"Sanjeevani General Hospital, Maternity Home and Icu Centre","Radhika Complex, OppositeL.D.High School, Station Road, Sachin",Unknown,Unknown,394230,Gujarat,Unknown,hospital,Unknown,Unknown,Unknown,Unknown,21.0813943,72.8788698
Nirmal Hospital Pvt.Ltd.,"Near Sub-Jail,Center Point,Ring Road",Unknown,Unknown,395002,Gujarat,Unknown,hospital,Unknown,Unknown,Unknown,Unknown,21.1815519,72.8245376
Shreyal Hospital,"Behind N.J.Complex,OppositeC.N.G.Station,Nr Puna Jakatnaka Magob",Unknown,Unknown,395010,Gujarat,Unknown,hospital,Unknown,Unknown,Unknown,Unknown,21.1894611,72.8675938
Maheta Hospital,"101-102, Swapnadeep Apts, Opp- Sarvodaya School, Bhatter Char Rasta, Althan",Unknown,Unknown,395017,Gujarat,Unknown,hospital,Unknown,Unknown,Unknown,Unknown,21.1610348,72.8118964
Rallis Orthopaedic Hospital,"Opposite Handloom House, Main Road, Nanpura",Unknown,Unknown,395003,Gujarat,Unknown,hospital,Unknown,Unknown,Unknown,Unknown,21.1897181,72.8154054
Nupoor General Hospital,"Makai Pool, Nanpura",Unknown,Unknown,395001,Gujarat,Unknown,hospital,Unknown,Unknown,Unknown,Unknown,21.1920413,72.8162905
Paaranu Hospital,"Sardar Complex, Kadodara,Ta-Palsana",Unknown,Unknown,394327,Gujarat,Unknown,hospital,Unknown,Unknown,Unknown,Unknown,21.1717452,72.9605095
Cure N Care Hospital,"Om Complex, Aai Mata Road, OppositeSirvi Samaj Wadi, Parvat Patia",Unknown,Unknown,395010,Gujarat,Unknown,hospital,Unknown,Unknown,Unknown,Unknown,21.1988153,72.8605489
Niyati Orthopaedic Hospital,"Aditya Complex, Opposite Garda College, Near Fuwara Telephone Exchange",Unknown,Unknown,396445,Gujarat,Unknown,hospital,Unknown,Unknown,Unknown,Unknown,20.9539153,72.9242688
Netrang Eye Hospital and Laser Centre,"246 Shankheshwar Complex, Opp Raymond Showroom , Majura Gate",Unknown,Unknown,395003,Gujarat,Unknown,hospital,Unknown,Unknown,Unknown,Unknown,21.1850798,72.8204153
Naisargee Medical Hospital,"Sanskruti Shashtri Road, Bardoli",Unknown,Unknown,394601,Gujarat,Unknown,hospital,Unknown,Unknown,Unknown,Unknown,21.1289978,73.1106663
"Hari Om Eye Hospital, Navsari",Opposite Dhara Apt. Asha Nagar,Unknown,Unknown,396445,Gujarat,Unknown,hospital,Unknown,Unknown,Unknown,Unknown,20.9500422,72.9226146
Veragiwala Hospital Critical Care And Diabetes Management Centre,"Shree Hariom Plaza Complex,Nanpura,Timaliawad",Unknown,Unknown,395001,Gujarat,Unknown,hospital,Unknown,Unknown,Unknown,Unknown,21.1875073,72.8141749
Kadhiwala Orthopaedic Hospital,Athugar Street State Bank Of India Nanpura Surat,Unknown,Unknown,396001,Gujarat,Unknown,hospital,Unknown,Unknown,Unknown,Unknown,21.1889247,72.8136505
Arora Surgical,Surat,Unknown,Unknown,395003,Gujarat,Unknown,hospital,Unknown,Unknown,Unknown,Unknown,21.1813358,72.8188092
Madhuban Orthopaedic Hospital,"Premji Complex, ,Opposite Icici Bank,Sandhhkuva",Unknown,Unknown,396445,Gujarat,Unknown,hospital,Unknown,Unknown,Unknown,Unknown,20.9518,72.92068
Purnima Clinic,11 Atop Nagar Socitety Opp Citizen Tower Near Bhatar Char Rasta Bhatar Road,Unknown,Unknown,395001,Gujarat,Unknown,clinic,Unknown,Unknown,Unknown,Unknown,21.1655484,72.8137752
Aditya Surgical and Laparoscopy Hospital,"3Road Floor, Pramukh Dr House, Near Tvs Auto Point Parvat Patia",Unknown,Unknown,395010,Gujarat,Unknown,hospital,Unknown,Unknown,Unknown,Unknown,21.1916268,72.8623018
Navsarjan Hospital,"Hira Modi Ni Sheri, Opposite Subjail",Unknown,Unknown,395002,Gujarat,Unknown,hospital,Unknown,Unknown,Unknown,Unknown,21.1829479,72.8275115
Gandhi Ortho-Care and Physiotherapy,"C - 191, President Plaza, Near Rto",Unknown,Unknown,395001,Gujarat,Unknown,hospital,Unknown,Unknown,Unknown,Unknown,21.183779,72.8142554
Vidya Eye Hospital,"F-16, Jolly Sqare, Ram Chowk, Ghod Dod Road",Unknown,Unknown,395001,Gujarat,Unknown,hospital,hospital,Unknown,Unknown,Unknown,21.1754812,72.8113277
Dhruv Hospital,"3Road Floor,Thakorji Complex.Near S.T.Stand,Kadodara Char Rasta",Unknown,Unknown,395003,Gujarat,Unknown,hospital,Unknown,Unknown,Unknown,Unknown,21.1604307,72.8581162
Raj Orthopaedic Hospital,"20, Shital Shoping Centre Square, Ground Floor, Near Reliance Fresh, Olf L.B. Cinema, Bhatar Road",Unknown,Unknown,395001,Gujarat,Unknown,hospital,Unknown,Unknown,Unknown,Unknown,21.1755757,72.8173413
Yashfeen Hospital,Dhabel Simlak,Unknown,Unknown,396445,Gujarat,Unknown,hospital,Unknown,Unknown,Unknown,Unknown,20.9614108,72.9295152
"Divyam Hospital, Ring Road",Surat,Unknown,Unknown,395003,Gujarat,Unknown,hospital,Unknown,Unknown,Unknown,Unknown,21.1875854,72.8097117
"New Pooja Hospital, Surat","105,106 Shiv Darshan Aptt Near Elbee Talkies Bhatar Road",Unknown,Unknown,395003,Gujarat,Unknown,hospital,Unknown,Unknown,Unknown,Unknown,21.1753005,72.8174901
Sudeep General Hospital,"Opposite Surabhi Complex, Parvat Patia, Puna- Kumbhariya Road",Unknown,Unknown,395010,Gujarat,Unknown,hospital,Unknown,Unknown,Unknown,Unknown,21.1896337,72.8650269
Chakshu Eye Hospital,"1st Floor, Shiv Complex, Opposite Evershine Marbles, Near Bhatar Char Rasta, Udhna-Magdalla Road",Unknown,Unknown,395003,Gujarat,Unknown,hospital,Unknown,Unknown,Unknown,Unknown,21.1620053,72.809642
Avdhoot Eye Hospital,"Kailash Tower, 3Road Floor, Opposite Madressa School, Sayaji Road",Unknown,Unknown,396445,Gujarat,Unknown,hospital,Unknown,Unknown,Unknown,Unknown,20.9501467,72.9231141
Ketan Children Hospital,"144-147,Shankheshwar Complex, Majuragate Road",Unknown,Unknown,395002,Gujarat,Unknown,hospital,Unknown,Unknown,Unknown,Unknown,21.185007,72.8206927
Prarthana General Hospital,"3Road Floor,Thakorji Complex,Kadodara Chae Rasta Ta-Palsana",Unknown,Unknown,394327,Gujarat,Unknown,hospital,Unknown,Unknown,Unknown,Unknown,21.1725305,72.9618493
Asmi Eye Hospital,"Indraprastha Ist Flr, Hanuman Sheri, Suhjali Cross Road, Ring Road",Unknown,Unknown,395003,Gujarat,Unknown,hospital,Unknown,Unknown,Unknown,Unknown,21.1821934,72.8263347
"Government Medical College and New Civil  Hospital, Surat",Majura Gate,Ghod Dhod Road,surat,395001,Gujarat,Unknown,hospital,hospital,Unknown,http://gmcsurat.org,Unknown,21.1781793,72.8202555
Devanshi Surgical Hospital,"Sanskruti , OppositeNagar Palika Baug, Shastri Road, Bardoli",Unknown,Unknown,395001,Gujarat,Unknown,hospital,Unknown,Unknown,Unknown,Unknown,21.128849,73.1111491
Vatsalya Hospital and Maternity Home,"2nd Floor, N J Complex, Magob, Nr Puna Jakat Naka, Ta. Choryasi",Unknown,Unknown,395010,Gujarat,Unknown,hospital,Unknown,Unknown,Unknown,Unknown,21.1897062,72.8676487
"Harsh Hospital and Maternity Home, Surat","Shakuntal B Apartment,Nr Sanghvi Tower, Gujrat Gas Circle",Unknown,Unknown,395009,Gujarat,Unknown,hospital,Unknown,Unknown,Unknown,Unknown,21.194589,72.8036445
Shivjyoti Hospital,"Patidar Jin, Near Vamdot School,Gandhi Road,Bardoli",Unknown,Unknown,394601,Gujarat,Unknown,hospital,Unknown,Unknown,Unknown,Unknown,21.1297709,73.1043684
Gunasvel PHC,"main road, nishal street",Unknown,Unknown,394240,Gujarat,Unknown,Unknown,centre,Unknown,Unknown,Unknown,20.9319444,73.1834616
PHC Vesma,"N. H. No. 8, vesma, Neher colony",Unknown,Unknown,396415,Gujarat,Unknown,Unknown,centre,Unknown,Unknown,Unknown,21.028871,72.970643
Government Hospital,"near pani ni tanki, sagra, patel faliyu",Unknown,Unknown,396436,Gujarat,Unknown,hospital,Unknown,Unknown,Unknown,Unknown,20.985912,72.899464
Chovisi PHC,"CHOVISI, NAVSARI, MOTI CHOVISI",Unknown,Unknown,396427,Gujarat,Unknown,Unknown,centre,Unknown,Unknown,Unknown,20.9528,72.9549862
Nagdhara PHC,nagdhara,Unknown,Unknown,396466,Gujarat,Unknown,Unknown,centre,Unknown,Unknown,Unknown,20.9135094,73.0944611
Matvad PHC,"Near Sahid smarak, Matwad, Dandi Main Road",Unknown,Unknown,396439,Gujarat,Unknown,Unknown,centre,Unknown,Unknown,Unknown,20.9221196,72.8333722
Saaol Heart Center Navsari,"3rd Floor, Dharm Bhakti Complex, Khushal Vadi, Jamalpore, Gandevi Road, Navsari",Unknown,Unknown,396445,Gujarat,Unknown,hospital,Unknown,Unknown,Unknown,Unknown,20.9243117,72.9471392
"PHC, Adada",Adada,Unknown,Unknown,396463,Gujarat,Unknown,Unknown,centre,Unknown,Unknown,Unknown,20.907813,72.971468
Dr. Sakalat Hospital,"Siddhi Complex, Dudhiya Talav Ring Road, Asha Nagar Circle, Asha Nagar, Navsari",Unknown,Unknown,396445,Gujarat,Unknown,hospital,Unknown,Unknown,Unknown,Unknown,20.9501374,72.9247964
Government Ayurved Hospital,"Kaliawadi, Navsari",Unknown,Unknown,396445,Gujarat,Unknown,hospital,Unknown,Unknown,Unknown,Unknown,20.9497484,72.9444436
Cutis Skin & Cosmetic Clinic,"35,36 - 2nd Floor, Veerbhadra Complex, Opposite Yesha Hospital, Near Railway Station, Navsari",Unknown,Unknown,396445,Gujarat,Unknown,clinic,Unknown,Unknown,Unknown,Unknown,20.9497117,72.9151069
Sai Clinic,"Railway Station Road, Karanjvel, Vejalpore, Navsari",Unknown,Unknown,396445,Gujarat,Unknown,clinic,Unknown,Unknown,Unknown,Unknown,20.9481754,72.9125313
Gardee Charitable Hospital,Dabhel,Unknown,Unknown,396415,Gujarat,Unknown,hospital,Unknown,Unknown,Unknown,Unknown,21.037057,72.942974
Dr. Moghabhai Desai Hospital,"3047/48, Chhapra Road, Tulsivan, Chhapra, Navsari",Unknown,Unknown,396445,Gujarat,Unknown,hospital,Unknown,Unknown,Unknown,Unknown,20.943459,72.929595
"PHC, Bhattai","Prathmik Arogya Kendra, Navsari",Unknown,Unknown,396427,Gujarat,Unknown,Unknown,centre,Unknown,Unknown,Unknown,20.95495,72.992578
Shiv General Hospital,"State Highway 180, Satem",Unknown,Unknown,396466,Gujarat,Unknown,hospital,Unknown,Unknown,Unknown,Unknown,20.9205701,73.0870466
Rudra Homoeopathic Clinic,"Beside RJJ High School, Panch Hatdi, Navsari",Unknown,Unknown,396445,Gujarat,Unknown,clinic,Unknown,Unknown,Unknown,Unknown,20.952232,72.935851
Shishudeep Children Hospital,"1st Floor, Sunshine Apartment Dudhiya Talav Ring Road, Opposite Tata Hall, Dudhiya Talav, Asha Nagar, Navsari",Unknown,Unknown,396445,Gujarat,Unknown,hospital,Unknown,Unknown,Unknown,Unknown,20.9504256,72.9252402
Bela Desai Children's Hospital,"Sahil Apartment, 10, Shantadevi Road, Opposite Station, Vejalpore, Navsari",Unknown,Unknown,396445,Gujarat,Unknown,hospital,Unknown,Unknown,Unknown,Unknown,20.9498207,72.9144017
Ayurvedic Dispensary,"Maroli Village Road, Nadod",Unknown,Unknown,396436,Gujarat,Unknown,Unknown,centre,Unknown,Unknown,Unknown,21.036919,72.86624
"Ayurvedic Dispensary, Dharagiri","Virwadi, Dharagiri",Unknown,Unknown,396445,Gujarat,Unknown,Unknown,centre,Unknown,Unknown,Unknown,20.960757,72.96179
Aarogyam Ayurvedic Panchkarma Center,"Shahu Road, Ugat",Unknown,Unknown,396469,Gujarat,Unknown,clinic,Unknown,Unknown,Unknown,Unknown,20.958665,73.058776
"PHC, Navsari","Eru Main Road, Vejalpore, Navsari",Unknown,Unknown,396450,Gujarat,Unknown,Unknown,centre,Unknown,Unknown,Unknown,20.927344,72.90736
Boarding Referral Hospital,"Khadsupa Boarding, National Highway 48, Navsari",Unknown,Unknown,396466,Gujarat,Unknown,hospital,Unknown,Unknown,Unknown,Unknown,20.913141,73.024901
Comprehensive Care Center,"Digi Street, Sayaji Library Road, Panch Hatdi, Navsari",Unknown,Unknown,396445,Gujarat,Unknown,hospital,Unknown,Unknown,Unknown,Unknown,20.9517054,72.9331816
Surbhi Hospital,"Railway Station Road, Taskand Nagar, Vejalpore, Navsari",Unknown,Unknown,396445,Gujarat,Unknown,hospital,Unknown,Unknown,Unknown,Unknown,20.9497933,72.9153457
Molvi Ibrahim Mulla Memorial Hospital,"Kalpatru Siramic, Kabilpor, Bardoli Road, Navsari",Unknown,Unknown,396427,Gujarat,Unknown,hospital,Unknown,Unknown,Unknown,Unknown,20.946968,72.96518
"UPHC, Dashratekri","Lunsikui Road, Navchetan Society, Lunsikui, Navsari",Unknown,Unknown,396445,Gujarat,Unknown,Unknown,centre,Unknown,Unknown,Unknown,20.945974,72.939233
Maroliya Hospital,"Sandhkuva, Near Paradise Tower, Navsari",Unknown,Unknown,396445,Gujarat,Unknown,hospital,Unknown,Unknown,Unknown,Unknown,20.951128,72.918698
Sardar Patel Hospital,"Jalalpore Road, Taskand Nagar, Vejalpore, Jalalpore",Unknown,Unknown,396445,Gujarat,Unknown,hospital,Unknown,Unknown,Unknown,Unknown,20.9500269,72.9074291
Chintan Orthopedic Hospital,"1st Floor, Grid Road, Near A B High School, Kaliawadi, Navsari",Unknown,Unknown,396445,Gujarat,Unknown,hospital,Unknown,Unknown,Unknown,Unknown,20.9499047,72.9471315
Vimarsh Psychiatry Clinic,"106-107, First Floor, Sachi Acrade Besides Canara Bank, Opposite Prajapati Ashram, Navsari",Unknown,Unknown,396445,Gujarat,Unknown,clinic,Unknown,Unknown,Unknown,Unknown,20.949674,72.932369
Sukun Clinic,"Kadiyawad, Navsari",Unknown,Unknown,396445,Gujarat,Unknown,clinic,Unknown,Unknown,Unknown,Unknown,20.9479548,72.93303
Tavdi Ayurved Dispensary,"Tavdi - Navsari Road, Tavdi Gaam",Unknown,Unknown,396436,Gujarat,Unknown,Unknown,centre,Unknown,Unknown,Unknown,20.9668151,72.9054214
Kejal Life In Multispeciality Hospital,"Pushpvihar Society, Kabilpore, Navsari",Unknown,Unknown,396424,Gujarat,Unknown,hospital,Unknown,Unknown,Unknown,Unknown,20.95357,72.959833
Cover Hospital,Kachhol,Unknown,Unknown,396433,Gujarat,Unknown,hospital,Unknown,Unknown,Unknown,Unknown,20.919599,73.007016
Laagni Hospital,"Near Tower, Mangaliya Wad, Navsari",Unknown,Unknown,396445,Gujarat,Unknown,hospital,Unknown,Unknown,Unknown,Unknown,20.95337,72.9285464
"CHC, Ambada","Mahuva - Navsari Road, Ambada",Unknown,Unknown,396469,Gujarat,Unknown,Unknown,centre,Unknown,Unknown,Unknown,20.9522566,73.0412549
Usha Eye Care,"Amba Kanti Bhavan, Opposite Prajapati Ashram",Unknown,Unknown,396445,Gujarat,Unknown,hospital,Unknown,Unknown,Unknown,Unknown,20.9501365,72.9327714
"Veterinary Dispensary, Navsari","Dasera Tekri, Near Kaliyawadi, Lunsikui, Navsari",Unknown,Unknown,396445,Gujarat,Unknown,Unknown,centre,Unknown,Unknown,Unknown,20.94697,72.939986
"PHC, Bardoli","Pinsad, Surat, State Highway 88, Navsari Bardoli Road, Bardoli",Unknown,Unknown,394350,Gujarat,Unknown,Unknown,centre,Unknown,Unknown,Unknown,21.015394,73.03697
"PHC, Munsad",Munsad,Unknown,Unknown,396463,Gujarat,Unknown,Unknown,centre,Unknown,Unknown,Unknown,20.940692,73.008779
Government Ayurvedic Dispensary,Pera,Unknown,Unknown,396418,Gujarat,Unknown,Unknown,centre,Unknown,Unknown,Unknown,20.998396,73.014215
Sankalp Clinic,"Chhapra Road, Shakti Nagar Society, Alka Society, Chhapra, Navsari",Unknown,Unknown,396445,Gujarat,Unknown,clinic,Unknown,Unknown,Unknown,Unknown,20.9397608,72.9287928
Shadhdha Hospital,"15, Udhana Main Road, Near Bus Depot, Amber Colony, Harinagar, Udhna, Surat",Unknown,Unknown,394210,Gujarat,Unknown,hospital,Unknown,Unknown,Unknown,Unknown,21.1650225,72.8414261
INS Hospital,"Near Valentino Business Hub, BRTS Canal Road, Opposite Khatodara BRTS Bus Stand, Surat",Unknown,Unknown,395001,Gujarat,Unknown,hospital,Unknown,Unknown,Unknown,Unknown,21.177408,72.83073
Pearl Children's Hospital,"Isana, The Business Hub, Besides Dmart, Bamroli, VIP Road, Althan, Surat",Unknown,Unknown,395007,Gujarat,Unknown,hospital,Unknown,Unknown,Unknown,Unknown,21.1485207,72.8143029
Smith Hospital,"Dr KV Hagrenad Road, 520, Gujarat Housing Board, Pandesara, Udhna, Surat",Unknown,Unknown,394210,Gujarat,Unknown,hospital,Unknown,Unknown,Unknown,Unknown,21.146537,72.834092
Goyal Clinic,"187, Harinagar-2, Harinagar, Udhna, Surat",Unknown,Unknown,394210,Gujarat,Unknown,clinic,Unknown,Unknown,Unknown,Unknown,21.163412,72.8404991
Shree Sai Hospital & Maternity Home,"Gujarat Housing Board Road, Bhedwad, Karmayogi Society, Vishnu Nagar, Udhna, Surat",Unknown,Unknown,394210,Gujarat,Unknown,hospital,Unknown,Unknown,Unknown,Unknown,21.151248,72.833475
Chhaydo Jivanjyot Diagnostic & Health Centre,"Shiv Nagar, Satyanagar Society, Udhna, Udhyog Nagar, Bhatena, Surat",Unknown,Unknown,394210,Gujarat,Unknown,hospital,Unknown,Unknown,Unknown,Unknown,21.175143,72.837984
Dr. Jain Panchakarma Ayurvedic Hospital,"Sundernagar Apartment, E- block, Bhestan, Surat",Unknown,Unknown,395023,Gujarat,Unknown,hospital,Unknown,Unknown,Unknown,Unknown,21.1285052,72.8554103
Dev General Hospital,"B-494, Middle Ring Road, Gujarat Housing Board, Laxmi Nagar, Pandesara, Udhna, Surat",Unknown,Unknown,394221,Gujarat,Unknown,hospital,Unknown,Unknown,Unknown,Unknown,21.1503302,72.8317758
Shree Krupa Hospital,"B-44, First Floor, Dr KV Hagrenad Road, Police Chowki Road, Gujarat Housing Board, Laxmi Nagar, Pandesara, Udhna, Surat",Unknown,Unknown,394221,Gujarat,Unknown,hospital,Unknown,Unknown,Unknown,Unknown,21.150392,72.831944
Shree Hospital,"132, Opposite Mugat Daing, Surat - Palsana Road, Amber Colony, Harinagar-1, Udhna, Surat",Unknown,Unknown,394210,Gujarat,Unknown,hospital,Unknown,Unknown,Unknown,Unknown,21.163227,72.840963
Apurva Clinic,"Udhana Gam, Udhana Village, Udhna, Surat",Unknown,Unknown,394210,Gujarat,Unknown,clinic,Unknown,Unknown,Unknown,Unknown,21.1683948,72.8397964
Vijay Clinic,"Shopping Center, 4, Ring Road, Umarwada, Surat",Unknown,Unknown,395002,Gujarat,Unknown,clinic,Unknown,Unknown,Unknown,Unknown,21.1835035,72.8332565
Ashirwad Hospital,"Udhana Gam, Meera Nagar, Udhana Village, Udhna, Surat",Unknown,Unknown,394210,Gujarat,Unknown,hospital,Unknown,Unknown,Unknown,Unknown,21.168189,72.8374993
Samvedna Urology Hospital,"Above SSVB Stores, Near Nirankari Satsang Bhavan, Karmayogi, Soc-1, Flyover Main Road, Near Piyush Point, Towards Chikuwadi, Pandesara, Udhna, Surat",Unknown,Unknown,394221,Gujarat,Unknown,hospital,Unknown,Unknown,Unknown,Unknown,21.151101,72.834372
"UPHC, Vadod","Ganesh Nagar, Pandesara GIDC, Udhna, Surat",Unknown,Unknown,394220,Gujarat,Unknown,Unknown,centre,Unknown,Unknown,Unknown,21.1277455,72.834797
Siddhi Vinayak Clinic,"Dr KV Hagrenad Road, Bhidbanjan Society, Sai Baba Society, Pandesara, Udhna, Surat",Unknown,Unknown,394210,Gujarat,Unknown,clinic,Unknown,Unknown,Unknown,Unknown,21.1537465,72.8322135
Shreya Hospital,"28, Middle Ring Road, Bhedwad, Vishnu Nagar, Udhna, Surat",Unknown,Unknown,394221,Gujarat,Unknown,hospital,Unknown,Unknown,Unknown,Unknown,21.151125,72.833822
Satyam Eye Hospital,"Udhana Main Road, Behind Dena Bank, Hari Ichchha Industrial Society, Udhna Udhyog Nagar, Udhna, Surat",Unknown,Unknown,394210,Gujarat,Unknown,hospital,Unknown,Unknown,Unknown,Unknown,21.16829,72.841063
Ayush Clinic,"192 Shakti Nagar, Near Chiku Wadi, Pandesara, Udhna, Surat",Unknown,Unknown,394220,Gujarat,Unknown,clinic,Unknown,Unknown,Unknown,Unknown,21.1546922,72.838013
Shree Hari Surgical & Laproscopy Centre,"120 Feet Road, Gujarat Housing Board, Sai Baba Society, Pandesara, Udhna, Surat",Unknown,Unknown,394210,Gujarat,Unknown,hospital,Unknown,Unknown,Unknown,Unknown,21.1534995,72.8323742
Gulshan Dhat ka Hospital,"116, Bamroli Road, New Haridham Society, Kashi Nagar, Udhna, Surat",Unknown,Unknown,394220,Gujarat,Unknown,hospital,Unknown,Unknown,Unknown,Unknown,21.160426,72.83142
Heritage Hospital,"Sunshine Regency, Opposite CNG Pump, Near Sosyo Circle, Bamroli Road, Surat",Unknown,Unknown,394210,Gujarat,Unknown,hospital,Unknown,Unknown,Unknown,Unknown,21.171066,72.827208
Sanjivani Clinic,"Parth medical, Vadod, Pandesara GIDC, Udhna, Surat",Unknown,Unknown,394221,Gujarat,Unknown,clinic,Unknown,Unknown,Unknown,Unknown,21.1314512,72.8376026
"UPHC, Bhestan","Bhestan, Surat",Unknown,Unknown,394305,Gujarat,Unknown,Unknown,centre,Unknown,Unknown,Unknown,21.129615,72.868958
Shreyas Hospital,"Kailash Char Rasta, VIP Road, Pandesara, Surat",Unknown,Unknown,394220,Gujarat,Unknown,hospital,Unknown,Unknown,Unknown,Unknown,21.1491032,72.8217442
Sushil Children's Hospital,"549, Middle Ring Road, Gujarat Housing Board, Laxmi Nagar, Pandesara, Udhna, Surat",Unknown,Unknown,394221,Gujarat,Unknown,hospital,Unknown,Unknown,Unknown,Unknown,21.150071,72.829734
Suvidha Clinic,"29, Bamroli Road, Ashapuri-2, Pandesara, Udhna, Surat",Unknown,Unknown,394210,Gujarat,Unknown,clinic,Unknown,Unknown,Unknown,Unknown,21.160193,72.827639
Matushree Multispeciality Hospital,"182, Shakti Nagar, Pandesara, Udhna, Surat",Unknown,Unknown,394220,Gujarat,Unknown,hospital,Unknown,Unknown,Unknown,Unknown,21.1547007,72.8268366
Vardhman Hospital,"Ground and 4th Floor, Mahalaxmi Market, Near Udhanabus, Udhana Main Road, Besides Gurudwara, Udhna, Surat",Unknown,Unknown,394210,Gujarat,Unknown,hospital,Unknown,Unknown,Unknown,Unknown,21.167275,72.840963
Mansi Hospital & Prasuti Gruh,"Bhid Bhanjan Circle, Plot no.3, 120 Feet Bamroli Road, Saibaba Nagar, Society, Pandesara, Udhna, Surat",Unknown,Unknown,394220,Gujarat,Unknown,hospital,Unknown,Unknown,Unknown,Unknown,21.154543,72.8327283
Mahi Surgical Hospital,"Ashapuri Road, Bamroli Road, Pandesara, Udhna, Surat",Unknown,Unknown,394210,Gujarat,Unknown,hospital,Unknown,Unknown,Unknown,Unknown,21.15961,72.831702
Dr. Chirag Modi Medical Hospital,"Laxmi Nagar, Udhna, Surat",Unknown,Unknown,395017,Gujarat,Unknown,hospital,Unknown,Unknown,Unknown,Unknown,21.1728676,72.8318711
Nahar Hospital,"2/215, Opposite Parsi Library, Rustampura Main Road, Rustampura, Surat",Unknown,Unknown,395002,Gujarat,Unknown,hospital,Unknown,Unknown,Unknown,Unknown,21.1854085,72.8320242
Parshva ENT & Dental Clinic,"Above Jayesh Medical Store, Near Udhana Teen Rasta, Udhana Main Road, Surat",Unknown,Unknown,394210,Gujarat,Unknown,clinic,Unknown,Unknown,Unknown,Unknown,21.1688085,72.8398876
Gyatri Clinic,"Pandesara Bhedwad, Aveerbhav Society 1, GIDC Pandesara Road, Pandesaragam, Udhna, Surat",Unknown,Unknown,394220,Gujarat,Unknown,clinic,Unknown,Unknown,Unknown,Unknown,21.1498512,72.8375961
"UHC, Pandesara","340, Gujarat Housing Board, Laxmi Nagar, Pandesara, Udhna, Surat",Unknown,Unknown,394220,Gujarat,Unknown,Unknown,centre,Unknown,Unknown,Unknown,21.14863,72.831477
Dream Children's Hospital,"12, Middle Ring Road, Piyush Point, Karmayogi Society 1, Pandesara, Udhna",Unknown,Unknown,394221,Gujarat,Unknown,hospital,Unknown,Unknown,Unknown,Unknown,21.1510658,72.8329101
Vijayanagar Health Centre,"186, Om Sai Sagar, Kashi Nagar, Udhna, Surat",Unknown,Unknown,394220,Gujarat,Unknown,clinic,Unknown,Unknown,Unknown,Unknown,21.156737,72.837658
Harsh Hospital,"Shiddhivinayak Complex, Wadi Mohollo Road, Surmawad, Singapuri Wadi, Rustampura, Surat",Unknown,Unknown,395002,Gujarat,Unknown,hospital,Unknown,Unknown,Unknown,Unknown,21.18547,72.832634
Lotus Eye & Chest Care Hospital,"407/408, Isana The Business Hub Near D-Mart, Bamroli Althan Expressway, Surat",Unknown,Unknown,395017,Gujarat,Unknown,hospital,Unknown,Unknown,Unknown,Unknown,21.148656,72.814271
"Krishna Clinic, Udhna","Nazami Mohalla, Gopal Nagar Society, Pandesara, Udhna, Surat",Unknown,Unknown,394220,Gujarat,Unknown,clinic,Unknown,Unknown,Unknown,Unknown,21.14959,72.8210775
Bansari Children Hospital,"1st Floor, 36, 37, Sankalp Shopping Center, Bhestan Tenanment Road, Althan, Surat",Unknown,Unknown,395017,Gujarat,Unknown,hospital,Unknown,Unknown,Unknown,Unknown,21.127621,72.857299
Dharm Jivan General Hospital & Trauma Centre,"67-68, Rameshwar Nagar, Althan Road, Police Colony, Pandesara, Udhna, Surat",Unknown,Unknown,394221,Gujarat,Unknown,hospital,Unknown,Unknown,Unknown,Unknown,21.1490105,72.8254916
Shyam Surgical Hospital & Prasuti Gruh,"New Bamroli Road, Rameshwar Nagar, Nem Nagar, Pandesara, Udhna, Surat",Unknown,Unknown,394221,Gujarat,Unknown,hospital,Unknown,Unknown,Unknown,Unknown,21.149514,72.825659
New Civil Hospital,"Khatodra Wadi, Surat",Unknown,Unknown,395001,Gujarat,Unknown,hospital,Unknown,Unknown,Unknown,Unknown,21.1754,72.826562
Jash Eye Hospital,"No.5, 120 Feet Bamroli Road, Opposite Welcome Pan House, Geeta Nagar, Ashirwad Township No.2, Udhna, Surat",Unknown,Unknown,394210,Gujarat,Unknown,hospital,Unknown,Unknown,Unknown,Unknown,21.158608,72.831377
Unique Hospital,"Civil Hospital-Char Rasta, Sosyo Circle, Canal Road, Opposte Kiran Motor",Unknown,Unknown,395002,Gujarat,Unknown,hospital,Unknown,Unknown,Unknown,Unknown,21.1742707,72.8261468
"UHC, Kariwala","2/510, Surmawad, Rustampura, Surat",Unknown,Unknown,395002,Gujarat,Unknown,Unknown,centre,Unknown,Unknown,Unknown,21.1851582,72.830241
Shree Akshar Children's Hospital,"22/167, Opposite Sar Complex, Behind Gujarat Housing Board Office, Near Shashtri Nagar, Udhna Darwaja, Surat",Unknown,Unknown,395002,Gujarat,Unknown,hospital,Unknown,Unknown,Unknown,Unknown,21.180562,72.833455
Safalya Clinic,"396, Middle Ring Road, Bhedwad, Kalyan Kutir, Udhna, Surat",Unknown,Unknown,394220,Gujarat,Unknown,clinic,Unknown,Unknown,Unknown,Unknown,21.151602,72.838854
Shifa Hospital,"34/35, Aman Society No 1, Jivanjyot Cinema, Udhna, Surat",Unknown,Unknown,395003,Gujarat,Unknown,hospital,Unknown,Unknown,Unknown,Unknown,21.1766,72.8410542
Shree Akhsar Children Hospital,"Plot.No.151, Akta Shopping Centre, Near Desai Cng Gas Station, Khatodra Wadi, Surat",Unknown,Unknown,394210,Gujarat,Unknown,hospital,Unknown,Unknown,Unknown,Unknown,21.177803,72.8271498
Shreeji Hospital,"125, 152, Bamroli Road, New Haridham Society, Kashi Nagar, Udhna, Surat",Unknown,Unknown,394220,Gujarat,Unknown,hospital,Unknown,Unknown,Unknown,Unknown,21.1600535,72.8315783
Patna Hospital,"Bamroli 120 Feet Road, Govalak, Ashapuri- 2, Pandesara, Udhna, Surat",Unknown,Unknown,394210,Gujarat,Unknown,hospital,Unknown,Unknown,Unknown,Unknown,21.1599027,72.8272744
Shree Shanti Clinic,"18, Shaktinagar, Subh Residency, Harinagar-3, Udhana, Surat",Unknown,Unknown,394210,Gujarat,Unknown,clinic,Unknown,Unknown,Unknown,Unknown,21.155517,72.8396206
Harsh Hospital,"Isana The Business Hub Near D-Mart, Bamroli Althan Expressway, Surat",Unknown,Unknown,395017,Gujarat,Unknown,hospital,Unknown,Unknown,Unknown,Unknown,21.148643,72.81449
Vaani Prasuti Gruh & Dental Clinic,"120 Feet Road, Shiv Shakti Shopping, Bhidbhanjan Ind. Opposite HP Petrol Pump, Near Ashirwad Township, Pandesara, Udhna, Surat",Unknown,Unknown,394210,Gujarat,Unknown,clinic,Unknown,Unknown,Unknown,Unknown,21.156542,72.831797
Riddhi Surgicals Hospital,"212, 2nd Floor, City Centre Complex, Udhana - Magdalla Road, Sosyo Circle, Ambanagar, Surat",Unknown,Unknown,395007,Gujarat,Unknown,hospital,Unknown,Unknown,Unknown,Unknown,21.1721277,72.8272494
Krishna Hospital,"Gujarat Housing Board Road, Ambika Nagar, Aveerbhav Society-2, Pandesara, Udhna, Surat",Unknown,Unknown,394210,Gujarat,Unknown,hospital,Unknown,Unknown,Unknown,Unknown,21.150863,72.838483
Dr. Aapte Hospital,"Brian Bhawan, Khatodra Wadi, Surat",Unknown,Unknown,395001,Gujarat,Unknown,hospital,Unknown,Unknown,Unknown,Unknown,21.177952,72.832433
Sharada Children Hospital & NICU,"Pandesara, Udhna, Surat",Unknown,Unknown,394220,Gujarat,Unknown,hospital,Unknown,Unknown,Unknown,Unknown,21.159084,72.831806
Pragna Surgical Hospital and Prasuti Gruh,"24, Apexa Nagar, Gopal Nagar Society, Pandesara, Udhna, Surat",Unknown,Unknown,394221,Gujarat,Unknown,hospital,Unknown,Unknown,Unknown,Unknown,21.150032,72.824842
Swami Vivekanand Netra Mandir,"4th Floor, 300-303, Shlok Business Center, Beside Apple Hospital, Udhna Darwaja, Surat",Unknown,Unknown,395002,Gujarat,Unknown,hospital,Unknown,Unknown,Unknown,Unknown,21.18323,72.83169
"UCHC, Bamroli","Kailash Nagar Road, Nazami Mohalla, Gopal Nagar Society, Pandesara, Udhna, Surat",Unknown,Unknown,394220,Gujarat,Unknown,Unknown,centre,Unknown,Unknown,Unknown,21.150344,72.821638
Vatsalya Children Hospital,"Mahalaxmi Street Number 2, Maan Darwaja, Singapuri Wadi, Rustampura, Surat",Unknown,Unknown,395002,Gujarat,Unknown,hospital,Unknown,Unknown,Unknown,Unknown,21.1845279,72.8343668
Vasundhara Maternity Home & Women's Hospital,"Above SSVB Stores, Near Nirankari Satsang Bhavan, 39-41, Karmayogi, Soc-1, Flyover Main Road, Near Piyush Point, Towards Chikuwadi, Pandesara, Udhna, Surat",Unknown,Unknown,394221,Gujarat,Unknown,hospital,Unknown,Unknown,Unknown,Unknown,21.151134,72.83434
Shri Ji Hospital,"Nem Nagar, Pandesara, Udhna, Surat",Unknown,Unknown,394220,Gujarat,Unknown,hospital,Unknown,Unknown,Unknown,Unknown,21.1442345,72.8249666
Prachi Children Hospital,"201 - 203, City Center, Udhana - Magdalla Road, Opposite Sosyo Circle, Juna Gowalak Jakatnaka, Ambanagar, Surat",Unknown,Unknown,395007,Gujarat,Unknown,hospital,Unknown,Unknown,Unknown,Unknown,21.172225,72.82765
Shivkrupa Clinic,"Milan Point, 187, New Bamroli Road, Tulsidham Society, Jay Ambey Society, Bamroli, Surat",Unknown,Unknown,394221,Gujarat,Unknown,clinic,Unknown,Unknown,Unknown,Unknown,21.1395002,72.8258781
Shivam Chest Clinic,"205-208, Zenon Building, Opposite Unique Hospital, Civil Char Rasta, Sosyo Circle Lane, Near Opera House, Surat",Unknown,Unknown,395001,Gujarat,Unknown,clinic,Unknown,Unknown,Unknown,Unknown,21.175895,72.826746
Atmadeep Eye Hospital,"134, Ajanta Shopping Centre, Ring Road, Near Kinarry Cinema, Surat",Unknown,Unknown,395002,Gujarat,Unknown,hospital,Unknown,Unknown,Unknown,Unknown,21.185379,72.83594
Shrey Hospital,"Anjani Apartment, Near Surat People's Bank, Udhna Magdalla Road, Surat",Unknown,Unknown,395017,Gujarat,Unknown,hospital,Unknown,Unknown,Unknown,Unknown,21.172693,72.8264595
"UPHC, Unn","Opposite Swapna Shrushti Residency, Vakhariya Road, Bhestan, Surat",Unknown,Unknown,395023,Gujarat,Unknown,Unknown,centre,Unknown,Unknown,Unknown,21.120273,72.84883
Surat Oncology Centre,"2nd Floor, Zenon Building, Opposite Unique Hospital, Near Kiran Motors, Off Ring Road, Next to Opera House, Surat",Unknown,Unknown,395001,Gujarat,Unknown,clinic,Unknown,Unknown,Unknown,Unknown,21.1758407,72.8265129
Swastik Hospital,"55, Gujarat Housing Board, Nem Nagar, Pandesara, Udhna, Surat",Unknown,Unknown,394220,Gujarat,Unknown,hospital,Unknown,Unknown,Unknown,Unknown,21.1461202,72.8278338
Yogi Krupa Hospital,"193, New Bamroli Road, Sukhi Nagar, Nem Nagar, Pandesara, Udhna, Surat",Unknown,Unknown,394220,Gujarat,Unknown,hospital,Unknown,Unknown,Unknown,Unknown,21.145034,72.8257382
Kamla Hospital,"Milan Point, Trupti Nagar Society, g. e. b, Char Rasta, Pandesara, Udhna, Surat",Unknown,Unknown,394220,Gujarat,Unknown,hospital,Unknown,Unknown,Unknown,Unknown,21.139729,72.826874
Mamta Children Hospital,"2nd Floor Doctor's house, Udhana Gam, Udhana Village, Udhna, Surat",Unknown,Unknown,394210,Gujarat,Unknown,hospital,Unknown,Unknown,Unknown,Unknown,21.16837,72.839801
Stem Cell Hospital,"B-49, Canal Road, Ambanagar, Surat",Unknown,Unknown,395002,Gujarat,Unknown,hospital,Unknown,Unknown,Unknown,Unknown,21.175153,72.825688
Amar Clinic and Nursing Home,"Near Sai Baba Temple, 8, GIDC Pandesara Road, GIDC, Udhna, Surat",Unknown,Unknown,394221,Gujarat,Unknown,clinic,Unknown,Unknown,Unknown,Unknown,21.138834,72.835247
Raj Clinic,"2, Vidhata Shopping Center, Navsari Road, Pandesara, Udhna, Surat",Unknown,Unknown,394221,Gujarat,Unknown,clinic,Unknown,Unknown,Unknown,Unknown,21.132627,72.852619
Shivam Retina Hospital,"66, Goga Place, Aman Society, Bhatena, Surat",Unknown,Unknown,395002,Gujarat,Unknown,hospital,Unknown,Unknown,Unknown,Unknown,21.1776438,72.8404686
Maulik Hospital,"2/283, Maleshwar Mohollo Road, Surmawad, Rustampura, Surat",Unknown,Unknown,395002,Gujarat,Unknown,hospital,Unknown,Unknown,Unknown,Unknown,21.184953,72.8315842
Bhestan Care Multispeciality Hospital,"Bhestan, Surat",Unknown,Unknown,395023,Gujarat,Unknown,hospital,Unknown,Unknown,Unknown,Unknown,21.1251565,72.8553624
Shri Hari Hospital,"238, 120 Feet Bamroli Road, New Haridham Society, Pandesara, Udhna, Surat",Unknown,Unknown,394210,Gujarat,Unknown,hospital,Unknown,Unknown,Unknown,Unknown,21.160746,72.8309
Siddharth General Hospital,"Udhana - Sachin Highway, Near Char Rasta,Community Hall, Bhestan, Surat",Unknown,Unknown,395023,Gujarat,Unknown,hospital,Unknown,Unknown,Unknown,Unknown,21.126987,72.855846
Aastha Children Hospital,"Vidhata Shopping Centre, Surat - Navsari Road, Bhestan, Surat",Unknown,Unknown,395023,Gujarat,Unknown,hospital,Unknown,Unknown,Unknown,Unknown,21.132695,72.8525338
Pujan Hospital,"Surmawad, Nanpura, Surat",Unknown,Unknown,395008,Gujarat,Unknown,hospital,Unknown,Unknown,Unknown,Unknown,21.184925,72.8305205
Seva Hospital,"Near Daksheshwar Mandir, Opposite Canara Bank, B1, Mahadev Complex, Gujarat Housing Board Road, Udhna, Surat",Unknown,Unknown,394220,Gujarat,Unknown,hospital,Unknown,Unknown,Unknown,Unknown,21.151853,72.844866
"Aarogyam Hospital, Udhna","Nem Nagar, Pandesara, Udhna, Surat",Unknown,Unknown,394220,Gujarat,Unknown,hospital,Unknown,Unknown,Unknown,Unknown,21.1483639,72.8171
Vivek Hospital,"Khatodara, Near Krishna Petrol Pump, Shastri Nagar Society, Aman Nagar, Surat",Unknown,Unknown,395002,Gujarat,Unknown,hospital,Unknown,Unknown,Unknown,Unknown,21.1803765,72.8330795
Shivam Hospital,"50, Udhana Main Road, Udhana Gam, Hari Ichchha Industrial Society, Udhna Udhyog Nagar, Udhna, Surat",Unknown,Unknown,394210,Gujarat,Unknown,hospital,Unknown,Unknown,Unknown,Unknown,21.1680027,72.8409761
Kuntal ENT & Dental Hospital,"2nd Floor Doctor's house, Udhana Gam, Udhana Village, Udhna, Surat",Unknown,Unknown,394210,Gujarat,Unknown,clinic,Unknown,Unknown,Unknown,Unknown,21.168325,72.839787
Krishnavati Hospital,"Plot No.55, 56, Bamroli Road, Gujarat Housing Board, Nem Nagar, Pandesara, Udhna, Surat",Unknown,Unknown,394221,Gujarat,Unknown,hospital,Unknown,Unknown,Unknown,Unknown,21.152866,72.832534
Kavita General Hospital & Prasuti Gruh,"Gate No.2, 120 Feet Bamroli Road, Beside Vidhata Vijnani, Piyush Point, Pandesara Char Rasta, Karmayogi, Society 1, Vishnu Nagar, Udhna, Surat",Unknown,Unknown,394210,Gujarat,Unknown,hospital,Unknown,Unknown,Unknown,Unknown,21.1518382,72.8334327
Shashwat Clinic,"Bhestan, Surat",Unknown,Unknown,395023,Gujarat,Unknown,clinic,Unknown,Unknown,Unknown,Unknown,21.122958,72.847678
Sarvodaya ENT Hospital,"60/61, 1st Floor, Sardar Complex, Hazira - Adajan Road, Gujarat Gas Circle, Near Sardar Bridge, Green Enclave, Adajan, Surat",Unknown,Unknown,395009,Gujarat,Unknown,hospital,Unknown,Unknown,Unknown,Unknown,21.1941805,72.8029498
Desai's Hospital,"Mayuri Apartment, Hazira - Adajan Road, Saint Park Society, Guru Ram Pavan Bhumi, Adajan Gam, Adajan, Surat",Unknown,Unknown,395009,Gujarat,Unknown,hospital,Unknown,Unknown,Unknown,Unknown,21.1926075,72.8003479
Manisha Maternity & Malhar Surgical Hospital,"16, Rander Road, Sugam Society, Adajan Patiya, Surat",Unknown,Unknown,395009,Gujarat,Unknown,hospital,Unknown,Unknown,Unknown,Unknown,21.199772,72.804704
Masoom Children's Hospital,"102, Mayuri Apartment, Near Water Tank, Bhulka Bhavan Crossing, Adajan, Surat",Unknown,Unknown,395009,Gujarat,Unknown,hospital,Unknown,Unknown,Unknown,Unknown,21.1925535,72.8003112
Shalby Hospital,"Anand Vatika Society, Param Housing Society, Adajan, Surat",Unknown,Unknown,395009,Gujarat,Unknown,hospital,Unknown,Unknown,Unknown,Unknown,21.193089,72.8068956
Saachi Children Hospital,"Off Prajapati Brahma Marg, Near Akashganga Apartment, Sanskar Nagar, Majura Gate, Surat",Unknown,Unknown,395002,Gujarat,Unknown,hospital,Unknown,Unknown,Unknown,Unknown,21.17491,72.8191756
Bansri Children Hospital,"Dhanral Apartment, Bhatar Road, Gandhi Kutir, Surat",Unknown,Unknown,395017,Gujarat,Unknown,hospital,Unknown,Unknown,Unknown,Unknown,21.1633137,72.8158518
Shreeji Multispeciality Hospital,"Narayan Krupa Apartment, Bhatar Road, Opposite Shreemad Rajchandra Ashram, Surat",Unknown,Unknown,395001,Gujarat,Unknown,hospital,Unknown,Unknown,Unknown,Unknown,21.1745672,72.8178094
Sanjivani Physio Care,"Vasudev Arcade, Bharat Road, Dinbandhu Society, Bhatar, Athwa, Surat",Unknown,Unknown,395002,Gujarat,Unknown,clinic,Unknown,Unknown,Unknown,Unknown,21.1703367,72.8153523
Shiv Netra General & Eye Hospital,"G-2, Saikrupa Complex, Althan, Opposite Shri Ram Marble, Surat",Unknown,Unknown,395017,Gujarat,Unknown,hospital,Unknown,Unknown,Unknown,Unknown,21.1559415,72.8087871
Dhruv Orthopaedic & Surgical Hospital,"20, 21, 22, Shital Shopping Centre, Ground Floor, Bhatar Road, Surat",Unknown,Unknown,395017,Gujarat,Unknown,hospital,Unknown,Unknown,Unknown,Unknown,21.1756245,72.8174438
Shivam Hospital,"R. B. Complex, Varachha Road, Opposite Baroda Prestress, Swaminagar Society, Athwa, Surat",Unknown,Unknown,359007,Gujarat,Unknown,hospital,Unknown,Unknown,Unknown,Unknown,21.1639084,72.8171569
Maa Clinic,"Ravi Nagar, Althan, Surat",Unknown,Unknown,395007,Gujarat,Unknown,clinic,Unknown,Unknown,Unknown,Unknown,21.1464813,72.8017706
Shraddha Maternity & Multispeciality Hospital,"3rd Floor, Anupam Square Complex, VIP Road, Althan Char Rasta",Unknown,Unknown,395007,Gujarat,Unknown,hospital,hospital,Unknown,Unknown,Unknown,21.146386,72.804746
Pujara Eye Hospital,"Ghod Dod Road, Opposite Black Jack Theatre, Amarakunj Society, Athwa, Surat",Unknown,Unknown,395001,Gujarat,Unknown,hospital,Unknown,Unknown,Unknown,Unknown,21.1748817,72.8060661
Shree Shubh Hospital,"U 49, Sankalp Complex, Althan Tenament, Bhatar, Surat",Unknown,Unknown,395007,Gujarat,Unknown,hospital,Unknown,Unknown,Unknown,Unknown,21.1496045,72.8058884
Sethi Hospital and Maternity Home,"401-408, Rajhans Olympia, Bhatar Road, Surat",Unknown,Unknown,395017,Gujarat,Unknown,hospital,Unknown,Unknown,Unknown,Unknown,21.171881,72.816813
Om Dental Clinic,"206, Anupam Square, VIP Road, Althan Char Rasta, Althan, Surat",Unknown,Unknown,395007,Gujarat,Unknown,dentist,dentist,Unknown,Unknown,Unknown,21.1463493,72.8048347
Shivjoti Multispeciality Hopsital,"Ghoddod Road, Near St. Xavier's School, Ram Chowk, Athwa, Surat",Unknown,Unknown,395001,Gujarat,Unknown,hospital,hospital,Unknown,Unknown,Unknown,21.1765574,72.809798
Gokani Rutam Maternity Hospital,"99, Shubhashnagar Society, Ghod Dod Road, Near Ram Chowk, Surat",Unknown,Unknown,395001,Gujarat,Unknown,hospital,Unknown,Unknown,Unknown,Unknown,21.1741042,72.8119524
Lalwala Skin Clinic,"Bhavik Apartment, Ghod Dod Road, BSNL Colony, Athwa, Surat",Unknown,Unknown,395001,Gujarat,Unknown,clinic,Unknown,Unknown,Unknown,Unknown,21.176433,72.8171386
Dev Hospital,"Shop No.A-4, Swami Vivekanand Marg, Canal Road, Jivkor Nagar, Jeevkar Nagar, Athwa, Surat",Unknown,Unknown,395007,Gujarat,Unknown,hospital,Unknown,Unknown,Unknown,Unknown,21.1688281,72.809253
Sanjivani Hospital & ICCU Centre,"Silver Point Complex, F3-F7, S1-S8, Bhatar Road, Opposite Vidya Bharti School, Bhatar, Surat",Unknown,Unknown,395001,Gujarat,Unknown,hospital,Unknown,Unknown,Unknown,Unknown,21.164348,72.812564
Shree Nandan Hospital & Test tube Baby Centre,"419, Athwa Lines, Shree Nandan Hospital, Arogya Nagar, Surat",Unknown,Unknown,395001,Gujarat,Unknown,hospital,Unknown,Unknown,Unknown,Unknown,21.17918,72.804953
Umiya Hospital,"1st Floor, Ashapuri Complex, Udhana - Magdalla Road, Bhatar, Surat",Unknown,Unknown,395017,Gujarat,Unknown,hospital,Unknown,Unknown,Unknown,Unknown,21.1643872,72.8171907
Shree Shubh Hospital & Infertility Clinic,"Sankalp Complex, 3rd Floor, Bhatar Road, New City Light, Althan, Surat",Unknown,Unknown,395007,Gujarat,Unknown,hospital,Unknown,Unknown,Unknown,Unknown,21.1597077,72.809904
Adarsh Dental Care & Implant Centre,"86-A, Athwa Lines, Surat",Unknown,Unknown,395007,Gujarat,Unknown,dentist,dentist,Unknown,Unknown,Unknown,21.177805,72.808651
Ruta Hospital,"Jamna Nagar, Subhash Nagar, Athwa, Surat",Unknown,Unknown,395008,Gujarat,Unknown,hospital,Unknown,Unknown,Unknown,Unknown,21.1718065,72.8122449
Suraj Hospital,"Althan Road, Uma Bhawan Society, Althan, Surat",Unknown,Unknown,395007,Gujarat,Unknown,hospital,Unknown,Unknown,Unknown,Unknown,21.162039,72.8122386
Prathna Multispeciality Hospital,"3rd Floor, Blue Arc Complex, Near Althan Garden, VIP Road, Surat",Unknown,Unknown,395007,Gujarat,Unknown,hospital,Unknown,Unknown,Unknown,Unknown,21.147472,72.8057484
"Bansari Children Hospital, Althan","Althan Tenament Plot No.189, Althan Road, Bhatar Char Rasta, Vishal Nagar Society, New City Light, Althan, Surat",Unknown,Unknown,395017,Gujarat,Unknown,hospital,Unknown,Unknown,Unknown,Unknown,21.159764,72.8099531
"Lalwala Skin Clinic, Bhimrad","F- 117, Second Floor, Atlanta Shopping Mall, Near Althan Circle, Althan - Bhimrad, Canal Road, Surat",Unknown,Unknown,395007,Gujarat,Unknown,clinic,Unknown,Unknown,Unknown,Unknown,21.143041,72.804763
Netram Eye Hospital & Corneal Centre,"1st Floor, Shiv Shakti Complex, Bhatar Road, Near Raj Olympia, Bhatar, Athwa, Surat",Unknown,Unknown,395001,Gujarat,Unknown,hospital,Unknown,Unknown,Unknown,Unknown,21.1717655,72.8164392
Ashish Hospital,"Althan, Surat",Unknown,Unknown,395007,Gujarat,Unknown,hospital,hospital,Unknown,Unknown,Unknown,21.146285,72.804799
"Bombay Multi Speciality Hospital, Bhimrad","4th Floor, Atlanta Mall, Bhimrad-Althan Road, Apcha Nagar, Bhimrad, Surat",Unknown,Unknown,395017,Gujarat,Unknown,hospital,Unknown,Unknown,Unknown,Unknown,21.1435164,72.8049625
Harsh General Hospital,"Sy. No. 16, P. No.18, Shop No. 1, Vanden Co-Operative Housing Society, Near Bus Stand Althan, Bharat Char Rasta, Atop Nagar Society, Surat",Unknown,Unknown,395007,Gujarat,Unknown,hospital,Unknown,Unknown,Unknown,Unknown,21.1594505,72.8099031
Saaol Heart Centre,"G2, Shiv Kutir Apartment, Ghod Dod Road, Next to New Life Hospital, Surat",Unknown,Unknown,395001,Gujarat,Unknown,clinic,clinic,Unknown,Unknown,Unknown,21.1748062,72.8116274
Jinwala Hospital,"5, Jankipark, On Althan Naher, Near Vanita Residency, Althan, Surat",Unknown,Unknown,395017,Gujarat,Unknown,hospital,Unknown,Unknown,Unknown,Unknown,21.1517542,72.8057471
Chinmaya Hospital,"Ghod Dod Road, Adarsh Society, Athwa, Surat",Unknown,Unknown,395001,Gujarat,Unknown,hospital,hospital,Unknown,Unknown,Unknown,21.17581,72.8085452
Cedar Gynac & Gastro Clinic,"2nd Floor, VIP Galleria, Althan, Bhimrad Canal Road, Surat",Unknown,Unknown,395007,Gujarat,Unknown,clinic,Unknown,Unknown,Unknown,Unknown,21.1397497,72.8020192
Joshi Eye Hospital and Psychiatric Clinic,"20, 21, Atlanta Shopping Mall, Bhimrad Crossing, Bhimrad-Althan Road, Althan, Surat",Unknown,Unknown,395007,Gujarat,Unknown,hospital,Unknown,Unknown,Unknown,Unknown,21.1431427,72.8048401
Evergreen Hospital,"Shop No 32, Sakar Complex, Sanskar Nagar, Athwa, Surat",Unknown,Unknown,395017,Gujarat,Unknown,hospital,Unknown,Unknown,Unknown,Unknown,21.1716397,72.8163998
Ashadeep Clinic,"7, Mangaldas Shopping Center, Near Navjivan Circle, Udhana-Magdala Road, Surat",Unknown,Unknown,395017,Gujarat,Unknown,clinic,Unknown,Unknown,Unknown,Unknown,21.1678592,72.821445
Sri Sathya Sai Seva Sankul,"Sri Shri Satya Sai Marg, Master Mohalla, Shivam Society, Althan, Surat",Unknown,Unknown,395007,Gujarat,Unknown,hospital,Unknown,Unknown,Unknown,Unknown,21.147492,72.8007544
Naveli Hospital,"Silver Point, M/41-51, Bhatar Road, Opposite Vidya Bharti School, Bhatar, Athwa, Surat",Unknown,Unknown,395007,Gujarat,Unknown,hospital,Unknown,Unknown,Unknown,Unknown,21.164681,72.812701
Adarsh Hospital,"Amar Sapna Aparment, Adarsh Society, Nanpura, Surat",Unknown,Unknown,395001,Gujarat,Unknown,hospital,hospital,Unknown,Unknown,Unknown,21.1799615,72.8092075
Narang Orthopaedic Hospital,"324-326, Atlanta shopping Center, Althan Bhimrad, Althan Canal Road, Surat",Unknown,Unknown,395017,Gujarat,Unknown,hospital,Unknown,Unknown,Unknown,Unknown,21.143244,72.8047993
Keshavm Eye Care Hospital,"323 - 329, 3rd Floor, Massimo, Opposite Tirupati Shyam Villa, 120 Feet, Althan, Bhimrad-Althan Road, Bhimrad, Surat",Unknown,Unknown,395017,Gujarat,Unknown,hospital,Unknown,Unknown,Unknown,Unknown,21.1355254,72.8013535
Terapanth Hospital,"57, Udhana - Magdalla Road, Ambika Industrial Society 1, Swaminagar Society, Bhatar, Gandhi Kutir, Surat",Unknown,Unknown,395017,Gujarat,Unknown,hospital,Unknown,Unknown,Unknown,Unknown,21.165856,72.819241
Gel General Hospital,"Near Bus Station, Plot No 75, Suthar Faliya, Near Maharshi Aastik Baba Mandir, Godadara, Surat",Unknown,Unknown,394211,Gujarat,Unknown,hospital,Unknown,Unknown,Unknown,Unknown,21.1664625,72.8762333
Krishna General Hospital,"27/28, Ram Nagar Society, C.R. Patil Road, Dindoli, Udhna, Surat",Unknown,Unknown,394210,Gujarat,Unknown,hospital,Unknown,Unknown,Unknown,Unknown,21.1532743,72.8667622
Shreeji Hospital,"301/2/3/4, 3rd Floor, Shreeji Arcade Near CNG Pump, Aspas Char Rasta, Godadara, Surat",Unknown,Unknown,394210,Gujarat,Unknown,hospital,Unknown,Unknown,Unknown,Unknown,21.1670143,72.8720624
Sri Dwarka Children Hospital,"Plot No. 9- 10, Dindoli Road, Bharvad Nagar, Opposite Vijay Show Mill, Navagam, Surat",Unknown,Unknown,394210,Gujarat,Unknown,hospital,Unknown,Unknown,Unknown,Unknown,21.161679,72.856145
Om General Hospital,"A-35, Shakti Vijay Society, Hari Darshan Society, Godadara, Surat",Unknown,Unknown,395012,Gujarat,Unknown,hospital,Unknown,Unknown,Unknown,Unknown,21.1666678,72.8707215
Gangaba Clinic,"Vinayak Complex, 7, Parvat Gam, Parvat Gam Road, Veer Darshan Society, Parvat Patiya, Surat",Unknown,Unknown,395010,Gujarat,Unknown,clinic,Unknown,Unknown,Unknown,Unknown,21.1796795,72.8666183
Samdani Maternity and General Hospital,"Sangam Chowk, Raj Nagar Society, Mithi Khadi, Limbayat, Surat",Unknown,Unknown,394210,Gujarat,Unknown,hospital,Unknown,Unknown,Unknown,Unknown,21.178944,72.8558459
Devanshi Hospital,"Patel Park Housing Society, Haripura",Unknown,Unknown,394327,Gujarat,Unknown,hospital,Unknown,Unknown,Unknown,Unknown,21.1731985,72.9608226
Chowdhary Clinic,"Krishna Park Housing Society, Haripura",Unknown,Unknown,394327,Gujarat,Unknown,clinic,Unknown,Unknown,Unknown,Unknown,21.1736188,72.958796
Vatsalya General Hospital & Maternity Home,"208, Patel Nagar, Godadara Gam, Godadara, Surat",Unknown,Unknown,394210,Gujarat,Unknown,hospital,Unknown,Unknown,Unknown,Unknown,21.163606,72.87234
Patil Clinic,"Mahadev Nagar, Dindoli, Tarasadi",Unknown,Unknown,394120,Gujarat,Unknown,clinic,Unknown,Unknown,Unknown,Unknown,21.157333,72.87034
"Pearl Skin, Laser & Hair Transplant Centre","Gopal Complex, BRTS Junction, Purana Puna Jakatnaka, Opposite Bhakteshwar Hanuman Mandir, Om Nagar, Nagar Society, Parvat Patiya, Surat",Unknown,Unknown,395010,Gujarat,Unknown,clinic,Unknown,Unknown,Unknown,Unknown,21.19019,72.863926
"Kayakalpa Skin Care, Laser & Hair Transplant Centre","Aalay Complex, Above Axis Bank, Puna Kumbariya Road, Magob, Surat",Unknown,Unknown,395010,Gujarat,Unknown,clinic,Unknown,Unknown,Unknown,Unknown,21.19074,72.870341
Max Hospital,"401-406, Madhav Shopping Center, Devadh Canal Road, Near Priyanka Metro City, Godadara, Surat",Unknown,Unknown,395011,Gujarat,Unknown,hospital,Unknown,Unknown,Unknown,Unknown,21.175494,72.8771636
Kiran General Hospital,"CR Patil Road, Balaji Nagar, Navagam Dindoli, Dindoli, Surat",Unknown,Unknown,394210,Gujarat,Unknown,hospital,Unknown,Unknown,Unknown,Unknown,21.1528547,72.8661558
Vasudev Dental Clinic & Multispeciality Dental Hospital,"107 Madhav Shopping Center, Godadara, Surat",Unknown,Unknown,395010,Gujarat,Unknown,hospital,Unknown,Unknown,Unknown,Unknown,21.175457,72.877369
Siddhivinayak Medical Hospital,"Aalay Complex, Above Axis Bank, Puna Kumbariya Road, Magob, Surat",Unknown,Unknown,395010,Gujarat,Unknown,hospital,Unknown,Unknown,Unknown,Unknown,21.1907779,72.8704839
Rohit Hospital,"16, Deepak Nagar, Navagam, Surat",Unknown,Unknown,394210,Gujarat,Unknown,hospital,Unknown,Unknown,Unknown,Unknown,21.159077,72.860437
Baba Memorial Hospital,"Dindoli Bridge, Navagam Dindoli, Dindoli, Surat",Unknown,Unknown,394210,Gujarat,Unknown,hospital,Unknown,Unknown,Unknown,Unknown,21.155206,72.867075
Navjivan Clinic,"Godadara Main Road, Shivkrupa Society, Mora Bhagal, Limbayat, Surat",Unknown,Unknown,394211,Gujarat,Unknown,clinic,Unknown,Unknown,Unknown,Unknown,21.167568,72.8680143
Western Railway Health Centre,"Railway Colony, Bhavani Nagar, Surat",Unknown,Unknown,394210,Gujarat,Unknown,clinic,Unknown,Unknown,Unknown,Unknown,21.174503,72.8529113
Care Hospital & Consultancy,"93-ABC, Adarsh Society, Godadara Gam, Godadara, Surat",Unknown,Unknown,394210,Gujarat,Unknown,hospital,Unknown,Unknown,Unknown,Unknown,21.1669152,72.8735973
Sai Krupa Hospital,"12, Umiya Nagar 1, Jamuna Park, Laxmi Nagar, Navagam, Surat",Unknown,Unknown,394210,Gujarat,Unknown,hospital,Unknown,Unknown,Unknown,Unknown,21.160752,72.8583483
Shree Swamy Samarth Clinic,"Godadara Naher Road, Shivkrupa Society, Godadara, Limbayat, Surat",Unknown,Unknown,394210,Gujarat,Unknown,clinic,Unknown,Unknown,Unknown,Unknown,21.172395,72.8624156
Jivnajyoti Prasutigruh & General Hospital,"Khandelwal Complex, Adarshkunj Society",Unknown,Unknown,394210,Gujarat,Unknown,hospital,Unknown,Unknown,Unknown,Unknown,21.166804,72.87323
Maa Krupa Clinic,"Silicon Flats, G, 11, Parvat Road, Parvat Gam, Godadara, Surat",Unknown,Unknown,395010,Gujarat,Unknown,clinic,Unknown,Unknown,Unknown,Unknown,21.1776057,72.8685176
Vinayak Orthopaedic Hospital,"Shop 20,Third Floor, Raj Empire, Maharana Pratap Chowk, Godadara, Surat",Unknown,Unknown,395010,Gujarat,Unknown,hospital,Unknown,Unknown,Unknown,Unknown,21.175462,72.872023
Satyam Hospital,"Godadara Naher, Godadara, Surat",Unknown,Unknown,395012,Gujarat,Unknown,hospital,Unknown,Unknown,Unknown,Unknown,21.1728303,72.8693118
Khushi Maternity and Gynec Hospital,"Mora Bhagal, Limbayat, Surat",Unknown,Unknown,395012,Gujarat,Unknown,hospital,Unknown,Unknown,Unknown,Unknown,21.17006,72.869291
"Krishna Clinic, Limbayat","Laxminarayan Society 2, Mangaldeep Society, Dindoli, Surat",Unknown,Unknown,395012,Gujarat,Unknown,clinic,Unknown,Unknown,Unknown,Unknown,21.1555262,72.8695006
Darshana Children Hospital,"Swagat Complex 37, Surat - Kadodara Road, Kadodara",Unknown,Unknown,394327,Gujarat,Unknown,hospital,Unknown,Unknown,Unknown,Unknown,21.172865,72.961061
"Shubham Clinic, Parvat Patina","Shop No 2, Jeenkrupa Complex, Near Jain Nagar, Beside Siddharth School, Parvat Patina, Surat",Unknown,Unknown,395010,Gujarat,Unknown,clinic,Unknown,Unknown,Unknown,Unknown,21.186493,72.859178
"UHC, Gadodara","Godadara Main Road, Opposite Priyanka City Pulse, Nilam Nagar, Mangal Nagar, Limbayat, Surat",Unknown,Unknown,394210,Gujarat,Unknown,Unknown,centre,Unknown,Unknown,Unknown,21.167081,72.869047
Rudransh Children Hospital,"4th Floor, Midas Square, Near SMC Party Plot, Opposite BRTS, Parvat Gam, Godadara, Surat",Unknown,Unknown,395012,Gujarat,Unknown,hospital,Unknown,Unknown,Unknown,Unknown,21.180639,72.8719156
Om Sai Clinic & Nursing Home,"Shop No.39, Dumbhal Road, Udhana, Shivaji Nagar, Limbayat, Surat",Unknown,Unknown,395010,Gujarat,Unknown,clinic,Unknown,Unknown,Unknown,Unknown,21.1739025,72.8613501
Mother Hospital,"No: A-120, Rangavdhut Society, Inside Puna Jagaat Naka, Godadara Road, Parvat Patiya, Surat",Unknown,Unknown,395010,Gujarat,Unknown,hospital,Unknown,Unknown,Unknown,Unknown,21.1878727,72.86532
Yashvi Hospital and Prasutigruh,"10,11- Vishrantipark Soceity, Shantinagar, Udhana Nilgiri Road, Godadra Surat",Unknown,Unknown,394210,Gujarat,Unknown,hospital,Unknown,Unknown,Unknown,Unknown,21.1676095,72.8665292
Srishti Children & General Hospital,"2nd-4th Floor, Shreeji Arcade, Dindoli Road, Aaspas Nagar, Godadara, Surat",Unknown,Unknown,394211,Gujarat,Unknown,hospital,Unknown,Unknown,Unknown,Unknown,21.1668353,72.8720953
Hardik Hospital,"164, Jay Jalaram Nagar, Godadra Naher, Godadara Road, Surat",Unknown,Unknown,395012,Gujarat,Unknown,hospital,Unknown,Unknown,Unknown,Unknown,21.174195,72.868568
Tripathi Charitable Hospital,"98, Geeta Nagar Main Road, Dindoli, Patel Nagar, Navagam, Surat",Unknown,Unknown,394210,Gujarat,Unknown,hospital,Unknown,Unknown,Unknown,Unknown,21.157426,72.863422
Sanjivani Clinic,"1-2, Maa Khodiyar Apartment, Beside Raghunandan Row House, Godadara Road, Surat",Unknown,Unknown,395010,Gujarat,Unknown,clinic,Unknown,Unknown,Unknown,Unknown,21.1869068,72.8645827
Kadodara Care Hospital,"GEB Power House, Surat - Kadodara Road, Kadodara Chowkdi, Kadodara",Unknown,Unknown,394327,Gujarat,Unknown,hospital,Unknown,Unknown,Unknown,Unknown,21.173694,72.958149
"Navjivan Hospital, Limbayat","138, Priyanka City, Umianagar Society, Pursottam Nagar, Limbayat, Surat",Unknown,Unknown,395012,Gujarat,Unknown,hospital,Unknown,Unknown,Unknown,Unknown,21.1755673,72.8708362
Krishna Children Hospital,"405-7, 4th Floor, Anupam Arcade, Opposite Amazia Amusement Park BRTS, Canal Road, Parvat Patiya, Surat",Unknown,Unknown,395010,Gujarat,Unknown,hospital,Unknown,Unknown,Unknown,Unknown,21.1935392,72.8686708
Shiv Yog Health Centre,"101, Parvat Gam Road, Hira Nagar Society, Shakti Nagar, Surat",Unknown,Unknown,395010,Gujarat,Unknown,clinic,Unknown,Unknown,Unknown,Unknown,21.1855543,72.864555
Harshal Surgical Hospital,"3rd Floor, Citadel Complex, Parvat Patiya, Surat",Unknown,Unknown,395010,Gujarat,Unknown,hospital,Unknown,Unknown,Unknown,Unknown,21.190795,72.8688006
Pratham Clinic,"Godadara Road, Om Nagar, Rang Avdhoot Society, Parvat Patiya, Surat",Unknown,Unknown,395010,Gujarat,Unknown,clinic,Unknown,Unknown,Unknown,Unknown,21.1885163,72.8651191
Rugved Women's Hospital,"Parvat Gam-Devadh Road, Shakti Nagar, Surat",Unknown,Unknown,395011,Gujarat,Unknown,hospital,Unknown,Unknown,Unknown,Unknown,21.1805172,72.8719157
"PHC, Kadodara","Bardoli Highway Road, Mani Nagar, Gujarat State Highway 6, Kadodara",Unknown,Unknown,394327,Gujarat,Unknown,Unknown,centre,Unknown,Unknown,Unknown,21.170118,72.965079
Mauli Hospital,"Mahadevnagar-2, Limbayat, Surat",Unknown,Unknown,395012,Gujarat,Unknown,hospital,Unknown,Unknown,Unknown,Unknown,21.157244,72.870334
Vision Eye Superspeciality Hospital,"63, Karunesh Nagar Society, Parvat Patiya, Surat",Unknown,Unknown,395010,Gujarat,Unknown,hospital,Unknown,Unknown,Unknown,Unknown,21.190349,72.860403
Vasu General Hospital,"401-407, Shreeji Arcade, Plot No.216, Beside Khodiyar Nagar, Near Godadara-Dindoli Bridge, Godadara, Surat",Unknown,Unknown,394211,Gujarat,Unknown,hospital,Unknown,Unknown,Unknown,Unknown,21.1669453,72.8720868
Heil Homeopathic Clinic,"145, Sai Ashirwad Complex, Opposite Mody General Hospital, Kadodara",Unknown,Unknown,394327,Gujarat,Unknown,clinic,Unknown,Unknown,Unknown,Unknown,21.171183,72.96607
Garg Eye Hospital & Laser Centre,"National Highway 6, Kadodara",Unknown,Unknown,394327,Gujarat,Unknown,hospital,Unknown,Unknown,Unknown,Unknown,21.171526,72.9608248
Rohit Hospital,"153, Madusudhan Society, Godadara, Surat",Unknown,Unknown,395011,Gujarat,Unknown,hospital,Unknown,Unknown,Unknown,Unknown,21.169938,72.876847
JSC Memorial Health Clinic,"4, Swastik Complex, Chalthan",Unknown,Unknown,394305,Gujarat,Unknown,clinic,Unknown,Unknown,Unknown,Unknown,21.156257,72.956999
Sunita Clinic,"CR Patil Road, Laxmi Narayan Nagar 1, Navagam Dindoli, Dindoli, Surat",Unknown,Unknown,394210,Gujarat,Unknown,clinic,Unknown,Unknown,Unknown,Unknown,21.15277,72.866374
Aayush Prasutigruh & General Hospital,"Parvat Gam Road, Opposite Choryasi Dairy, Geeta Nagar, Parvat Patiya, Surat",Unknown,Unknown,395010,Gujarat,Unknown,hospital,Unknown,Unknown,Unknown,Unknown,21.183825,72.863811
Sanjivani Hospital,"National Highway 48, Chalthan",Unknown,Unknown,394305,Gujarat,Unknown,hospital,Unknown,Unknown,Unknown,Unknown,21.161895,72.962482
"Kashiba Children Hospital, Godadara","4th Floor, Raj Empire Complex, Maharana Pratap Chowk, Devadh Gam Road, Godadara, Surat",Unknown,Unknown,395011,Gujarat,Unknown,hospital,Unknown,Unknown,Unknown,Unknown,21.1754975,72.872165
"UHC, Navanagar","Railway Colony, Bhavani Nagar, Surat",Unknown,Unknown,394210,Gujarat,Unknown,Unknown,centre,Unknown,Unknown,Unknown,21.1666045,72.8572171
Jeevandeep Clinic,"Shop No 21, Dhumbal Road, Model Town, Parvat Patiya, Surat",Unknown,Unknown,394210,Gujarat,Unknown,clinic,Unknown,Unknown,Unknown,Unknown,21.18626,72.863863
Atmiya Clinic & Nursing Home,"B-27, Mansarovar Society, 150 Feet Road, Godadara Gam, Devadh Gam, Surat",Unknown,Unknown,394210,Gujarat,Unknown,clinic,Unknown,Unknown,Unknown,Unknown,21.166056,72.8832357
Shri Sai Children Hospital,"Masjid Road, Navanagar, Railway Colony, Limbayat, Surat",Unknown,Unknown,394210,Gujarat,Unknown,hospital,Unknown,Unknown,Unknown,Unknown,21.1674075,72.8573263
Rudraksh Clinic,"4, Navgam Main Road, Beside Vijay Sow Mill, Shrinathji Nagar, Navgam, Dindoli, Udhna, Surat",Unknown,Unknown,394210,Gujarat,Unknown,clinic,Unknown,Unknown,Unknown,Unknown,21.161546,72.8563044
Manjulaben Hospital,Kadodara,Unknown,Unknown,394327,Gujarat,Unknown,hospital,Unknown,Unknown,Unknown,Unknown,21.1712075,72.965881
Sejal Hospital & Akshar Maternity Home,"Jalaram Nagar, Bardoli Road, Kadodara Char Rasta, Palsana",Unknown,Unknown,394327,Gujarat,Unknown,hospital,Unknown,Unknown,Unknown,Unknown,21.169855,72.966812
Jyoti Children Hospital & NICU,"4th Floor, Capital Square, Opposite Astik Party Plot, Godadara Road, Surat",Unknown,Unknown,395010,Gujarat,Unknown,hospital,Unknown,Unknown,Unknown,Unknown,21.183131,72.871805
Shree Krishna Clinic,"9, Krishna Krupa Society, Limbayat Road, Parvat Gam, Surat",Unknown,Unknown,394210,Gujarat,Unknown,clinic,Unknown,Unknown,Unknown,Unknown,21.17893,72.866309
Radhe Prasutigruh & Surgical Hospital,"5th Floor, Raj Empire Complex, Maharana Pratap Chalk, Godadara, Surat",Unknown,Unknown,395010,Gujarat,Unknown,hospital,Unknown,Unknown,Unknown,Unknown,21.1753983,72.8720406
Shree Sai Hospital and Prasuthi Gruh,"14, First Floor, Navagam Dindoli Road, Near Krishna Dairy, Opposite Deepak Corporation, Umiya Nagar-1, Navagam, Surat",Unknown,Unknown,394210,Gujarat,Unknown,hospital,Unknown,Unknown,Unknown,Unknown,21.1588273,72.8617603
Hiral Clinic,"Rustam Bagh Road, Near Rustam Park Society, Udhana, Maruti Nagar, Udhna, Surat",Unknown,Unknown,394210,Gujarat,Unknown,clinic,Unknown,Unknown,Unknown,Unknown,21.1751768,72.8570304
Jyoti Women's Hospital,"2nd Floor, Aalay Complex, Above Axis Bank, Puna Kumbariya Road, Magob, Surat",Unknown,Unknown,395010,Gujarat,Unknown,hospital,Unknown,Unknown,Unknown,Unknown,21.190712,72.870372
Gurukrupa Clinic,"Opposite Gangasagar Apartment, Godadar Road, Surat",Unknown,Unknown,394210,Gujarat,Unknown,clinic,Unknown,Unknown,Unknown,Unknown,21.17616,72.868209
Swara Clinic,"Shop no 24, Blossom Park Apartments, Behind Noori Media, Kadodara",Unknown,Unknown,394327,Gujarat,Unknown,clinic,Unknown,Unknown,Unknown,Unknown,21.1648522,72.9749879
Apex Orthopaedic Hospital,"First Floor, Surbhi Complex, Godadara Road, Om Nagar, Gopal Nagar Society, Parvat Patiya, Surat",Unknown,Unknown,395010,Gujarat,Unknown,hospital,Unknown,Unknown,Unknown,Unknown,21.1897163,72.8648232
Anupam Hospital,"Canal Road, Parvat Patiya, Surat",Unknown,Unknown,395101,Gujarat,Unknown,hospital,Unknown,Unknown,Unknown,Unknown,21.193565,72.868732
Chirayu Hospital,"1st Floor, Surbhi Complex, Godadara Road, Near Puna Jakatnaka, Om Nagar, Rang Avdhoot Society, Parvat Patiya, Surat",Unknown,Unknown,395010,Gujarat,Unknown,hospital,Unknown,Unknown,Unknown,Unknown,21.1898933,72.8647498
Aakash Charitable General Hospital,"4/5, Dindoli Road, Near Railway Crossing, Dwarkesh Nagar, Near Purana Jakatnaka, Udhna, Patel Nagar, Navagam, Surat",Unknown,Unknown,394210,Gujarat,Unknown,hospital,Unknown,Unknown,Unknown,Unknown,21.157095,72.863924
Arpan Clinic,"Shop No. 6, Reshma Row House, Near Puna Canal, Parvat Patiya, Surat",Unknown,Unknown,395010,Gujarat,Unknown,clinic,Unknown,Unknown,Unknown,Unknown,21.1939843,72.8699775
Ved Hospital,"404, Midas Square, 10, Parvat Gam, Shakti Nagar, Surat",Unknown,Unknown,395012,Gujarat,Unknown,hospital,Unknown,Unknown,Unknown,Unknown,21.1803058,72.8719458
K.B.C. Children Hospital,Kadodara,Unknown,Unknown,394327,Gujarat,Unknown,hospital,Unknown,Unknown,Unknown,Unknown,21.171256,72.96607
Kruti Clinic,"Khadki Faliya, Chalthan",Unknown,Unknown,394305,Gujarat,Unknown,clinic,Unknown,Unknown,Unknown,Unknown,21.154809,72.959685
Om Hospital,"Shop No.21, Dumbhal Road, Model Town, Om Nagar, Jalaram Society, Parvat Patiya, Surat",Unknown,Unknown,394210,Gujarat,Unknown,hospital,Unknown,Unknown,Unknown,Unknown,21.1879408,72.8616275
Madhav Physiotherapy and Fitness Centre,"E11, 1st Floor, Vinayaka Height, Godadara Naher Road, Godadara, Surat",Unknown,Unknown,395010,Gujarat,Unknown,clinic,Unknown,Unknown,Unknown,Unknown,21.174687,72.8789126
Rudransh Children Hospital,"Parvat Patiya Gam, Rang Avdhoot Society, Parvat Patiya, Surat",Unknown,Unknown,395010,Gujarat,Unknown,hospital,Unknown,Unknown,Unknown,Unknown,21.188529,72.865379
Surat Surgical Hospital,"1st Floor, Om Sai Complex, Above Navijivan Honda Showroom, Opposite Ramayan Park Society, Navagam, Dindoli, Surat",Unknown,Unknown,394210,Gujarat,Unknown,hospital,Unknown,Unknown,Unknown,Unknown,21.161147,72.857049
Bhavna Nursing Home & General Hospital,"Plot Number 284 To 288, Rustam Bagh Road, Subhash Nagar-3, Limbayat, Surat",Unknown,Unknown,394210,Gujarat,Unknown,hospital,Unknown,Unknown,Unknown,Unknown,21.17106,72.859956
Tulsi Multispeciality Hospital,"40, Shyam Raw House Paravatgam, Surat",Unknown,Unknown,395012,Gujarat,Unknown,hospital,Unknown,Unknown,Unknown,Unknown,21.179708,72.8670478
Pankaj General Hospital,"8, Shivkrupa Society, Near Sanjay Nagar Circle, Limbayat, Udhana, Surat",Unknown,Unknown,394210,Gujarat,Unknown,hospital,Unknown,Unknown,Unknown,Unknown,21.1726088,72.8623337
Aastha Hospital and Dental Care,"Plot No 354, Mahadev Nagar 2, Opposite Matrubhumi School, Mahadev Nagar 4, Krishna Nagar - 2, Dindoli, Surat",Unknown,Unknown,395012,Gujarat,Unknown,hospital,Unknown,Unknown,Unknown,Unknown,21.158287,72.870548
Siya Ayurvedic Panchkarm Hospital,"A-103, First Floor, Priyanka Intercity, Puna Patiya Road, Opposite Bhaktidham Temple, Surat",Unknown,Unknown,395010,Gujarat,Unknown,hospital,Unknown,Unknown,Unknown,Unknown,21.190867,72.872098
Om Sai Clinic & Skin Care,"39B, No, Rustam Bagh Road, Rustam Park, Maruti Nagar, Udhna, Surat",Unknown,Unknown,394210,Gujarat,Unknown,clinic,Unknown,Unknown,Unknown,Unknown,21.1746923,72.8573317
Satyam Homeopathic Hospital,"Devad Road, Opposite Aas Paas Temple, Opposite Godadara Bus Stand, Godadara Gam, Godadara, Surat",Unknown,Unknown,395010,Gujarat,Unknown,hospital,Unknown,Unknown,Unknown,Unknown,21.166501,72.87685
Unnati Clinic,"Shop No. 23, Dumbhal Road, Model Town, Panchwati Society, Yamuna Nagar, Surat",Unknown,Unknown,394210,Gujarat,Unknown,clinic,Unknown,Unknown,Unknown,Unknown,21.1899703,72.8589209
"City Health Centre, Dindoli","Kailash Nagar, Krishna Nagar - 2, Limbayat, Surat",Unknown,Unknown,395012,Gujarat,Unknown,clinic,Unknown,Unknown,Unknown,Unknown,21.15686,72.865635
Max Hospital,"Godadara Road, Shankar Nagar Society, Chandralok Society, Parvat Gam, Limbayat, Surat",Unknown,Unknown,394212,Gujarat,Unknown,hospital,Unknown,Unknown,Unknown,Unknown,21.177894,72.867952
Sanjivani Clinic & Child Care,"Trikam Nagar, Nilgiri, Limbayat, Surat",Unknown,Unknown,394210,Gujarat,Unknown,clinic,Unknown,Unknown,Unknown,Unknown,21.1647315,72.8630481
Unity Orthocare,Kadodara,Unknown,Unknown,394327,Gujarat,Unknown,clinic,Unknown,Unknown,Unknown,Unknown,21.1696565,72.9668359
Limbayat Health Centre & Nursing Home,"Rustam Park Society, Rustam Bagh Road, Ambanagar Society, Maruti Nagar, Udhna, Surat",Unknown,Unknown,394210,Gujarat,Unknown,clinic,Unknown,Unknown,Unknown,Unknown,21.176029,72.856792
Pulse Hospital,"Godadara Naher Road, Maharana Pratap Chowk, Godadara, Surat",Unknown,Unknown,394211,Gujarat,Unknown,hospital,Unknown,Unknown,Unknown,Unknown,21.171978,72.871665
Sarti General Hospital & Prasuti Gruh,"Godadara Road, Bahuchar Nagar, Parvat Gam, Umiya Nagar, Godadara, Surat",Unknown,Unknown,394210,Gujarat,Unknown,hospital,Unknown,Unknown,Unknown,Unknown,21.175631,72.868797
Darshan Hospital,"20, Rustam Bagh Road, Udhana, Subhas Nagar, Shivaji Nagar, Limbayat, Surat",Unknown,Unknown,394210,Gujarat,Unknown,hospital,Unknown,Unknown,Unknown,Unknown,21.1707455,72.8588964
Aastha Homeopathy Skin Care Clinic,"Model Town Road, Model Town, Parvat Patiya, Surat",Unknown,Unknown,394210,Gujarat,Unknown,clinic,Unknown,Unknown,Unknown,Unknown,21.188289,72.860532
"Krishna Clinic, Dindoli","21, Rami Park Society, Godadara-Dindoli Road, Mahadev Nagar, Khodiyar Nagar, Godadara Gam, Dindoli, Surat",Unknown,Unknown,394210,Gujarat,Unknown,clinic,Unknown,Unknown,Unknown,Unknown,21.1583575,72.8735464
Miracle Kids ICU,"3rd & 4th Floor, Shivani Motor's Building, Next to Reshma Row House, Puna Patiya Road, Magob, Surat",Unknown,Unknown,395010,Gujarat,Unknown,hospital,Unknown,Unknown,Unknown,Unknown,21.1932565,72.8699764
Khushi Women's Hospital,"Parvat Patiya, Surat",Unknown,Unknown,395101,Gujarat,Unknown,hospital,Unknown,Unknown,Unknown,Unknown,21.1906535,72.8688149
"UHC, Parvat","Shankar Nagar Society, Parvat Gam, Shakti Nagar, Surat",Unknown,Unknown,395012,Gujarat,Unknown,Unknown,centre,Unknown,Unknown,Unknown,21.179589,72.866238
Khushi Hospital & Prasuti Gruh,"Shop No 4,5,6, 1st Floor, Saktinagar,Opposite GEB Office,Godadara, Surat",Unknown,Unknown,395010,Gujarat,Unknown,hospital,Unknown,Unknown,Unknown,Unknown,21.1815708,72.8663565
Aakash Care & Cure,"3/4/5, Dwarkeshnagar, Near Railway Crossing, Dindoli Road Udhana, Navagam, Surat",Unknown,Unknown,394210,Gujarat,Unknown,clinic,Unknown,Unknown,Unknown,Unknown,21.16493,72.8711242
Unity Trauma Centre & ICU,"33, Aai Mata Road, Bhagyoday Industrial Estate, Parvat Patiya, Surat",Unknown,Unknown,395010,Gujarat,Unknown,hospital,Unknown,Unknown,Unknown,Unknown,21.193221,72.860089
Punit Orthopaedic Hospital,"Near Shlok Maternity Home, JJ Complex, National Highway 8, Kadodara",Unknown,Unknown,394327,Gujarat,Unknown,hospital,Unknown,Unknown,Unknown,Unknown,21.1677017,72.9613046
Param Clinic,"Madhav Shopping Center, Godadara, Surat",Unknown,Unknown,395010,Gujarat,Unknown,clinic,Unknown,Unknown,Unknown,Unknown,21.175445,72.877265
Ayush Surgical Hospital,"18-21, Patel Nagar Society,Opposite Rambaug, Lal Bahadur Shastri Road, Bardoli",Unknown,Unknown,394601,Gujarat,Unknown,hospital,Unknown,Unknown,Unknown,Unknown,21.132824,73.110015
Dr. Santoshbhai Clinic,"Gujarat State Highway 165, Karchelia, Bartad",Unknown,Unknown,394240,Gujarat,Unknown,clinic,Unknown,Unknown,Unknown,Unknown,20.9680758,73.1642942
Balyam Children Hospital & Dental Care,"Silver Plaza, Mahatma Gandhi Road, Aksha Nagar, Bardoli",Unknown,Unknown,394601,Gujarat,Unknown,hospital,Unknown,Unknown,Unknown,Unknown,21.119216,73.106587
Sparsh Maternity & Multispeciality Hospital,"Plot No 3, Shashtri Road, Hirachand Nagar, Bardoli",Unknown,Unknown,394601,Gujarat,Unknown,hospital,Unknown,Unknown,Unknown,Unknown,21.133795,73.109376
Shree Ayurved Panchkarma Hospital,"2nd Floor, Shree Nandini Shopping Center, Kadod Madhi Road, Bardoli",Unknown,Unknown,394601,Gujarat,Unknown,hospital,Unknown,Unknown,Unknown,Unknown,21.134478,73.122802
Janta Hospital,"11, Lal Bahadur Shastri Road, Ankur Society, Bhuvneshwari Nagar Society, Bardoli",Unknown,Unknown,394601,Gujarat,Unknown,hospital,Unknown,Unknown,Unknown,Unknown,21.1267467,73.1117436
Lifeline Hospital,"Opposite Limda Chowk, Surti Jakaat Naaka, Police Line, Bardoli",Unknown,Unknown,394601,Gujarat,Unknown,hospital,Unknown,Unknown,Unknown,Unknown,21.1164192,73.1104512
Gupta Hospital,"Station Road, Opposite State Bank of India, Bardoli",Unknown,Unknown,394601,Gujarat,Unknown,hospital,Unknown,Unknown,Unknown,Unknown,21.120817,73.111343
"Subcentre, Bartad",Bartad,Unknown,Unknown,394240,Gujarat,Unknown,Unknown,centre,Unknown,Unknown,Unknown,20.962245,73.156079
Baheeka Fracture and Orthopaedic Hospital,"Maruti Complex, Sahyog Nagar, Near Ramji Ravjidada Temple, Road, Bardoli",Unknown,Unknown,394601,Gujarat,Unknown,hospital,Unknown,Unknown,Unknown,Unknown,21.1292479,73.0968873
Harsh Hospital,"Surat-Kolkata Road, Swaraj Ashram, Bardoli",Unknown,Unknown,394601,Gujarat,Unknown,hospital,Unknown,Unknown,Unknown,Unknown,21.116576,73.109988
Madhuperk Hospital,"43, Lal Bahadur Shastri Road, Suraj Park Society, Bhuvneshwari Nagar Society, Bardoli",Unknown,Unknown,394601,Gujarat,Unknown,hospital,Unknown,Unknown,Unknown,Unknown,21.127659,73.111986
Shishudeep Hospital,"Amit Park, Behind Sardar Smarak Hospital, Bardoli",Unknown,Unknown,394601,Gujarat,Unknown,hospital,Unknown,Unknown,Unknown,Unknown,21.131341,73.10924
Mamta Hospital & Maternity Home,"Opposite Sanskruti Main Gate, Lal Bahadur Shastri Road, Rushikesh Nagar, Bardoli",Unknown,Unknown,394601,Gujarat,Unknown,hospital,Unknown,Unknown,Unknown,Unknown,21.130171,73.1116979
Shraddha Hospital,"State Highway 165, Mahatma Gandhi Road, Ramnagar, Bardoli",Unknown,Unknown,394601,Gujarat,Unknown,hospital,Unknown,Unknown,Unknown,Unknown,21.12631,73.104879
Payal Maternity Home,"MG Road, Jagruti Society, Bardoli",Unknown,Unknown,394601,Gujarat,Unknown,clinic,Unknown,Unknown,Unknown,Unknown,21.124041,73.111905
Jamna Ba Sarvajanik Hospital,"Surti Zampa, State Highway 165, Abdullah Vakhariya, Hidayat Nagar, Swaraj Ashram, Bardoli",Unknown,Unknown,394601,Gujarat,Unknown,hospital,Unknown,Unknown,Unknown,Unknown,21.117394,73.108902
"PHC, Kantali","State Highway 88, Surat Road, Kantali",Unknown,Unknown,394335,Gujarat,Unknown,Unknown,centre,Unknown,Unknown,Unknown,21.191025,73.1779516
Bardoli Hospital,"Near Satvik Bakery, Dhuliya Chokdi, Mahuva-Bardoli Road, Bardoli",Unknown,Unknown,394601,Gujarat,Unknown,hospital,Unknown,Unknown,Unknown,Unknown,21.105588,73.113149
Shree Sai Clinic,"Opposite Dr. Babasaheb Circle, Talavadi, Bardoli",Unknown,Unknown,394601,Gujarat,Unknown,clinic,Unknown,Unknown,Unknown,Unknown,21.114209,73.112081
Swarnim Group of Hospitals,"Patel Nagar, Bardoli",Unknown,Unknown,394601,Gujarat,Unknown,hospital,Unknown,Unknown,Unknown,Unknown,21.1259837,73.1175251
Satyagrah Hospital,"Talavadi, Bardoli",Unknown,Unknown,394601,Gujarat,Unknown,hospital,Unknown,Unknown,Unknown,Unknown,21.11554,73.112931
Divyapal Hospital,"Shantisadan, Nityanand Society, Bardoli",Unknown,Unknown,394601,Gujarat,Unknown,hospital,Unknown,Unknown,Unknown,Unknown,21.124361,73.1090751
Maa Netra Hospital,"Virat Darshan Building, Shanti Nagar Society Road, Near State bank of India, Bardoli",Unknown,Unknown,394601,Gujarat,Unknown,hospital,Unknown,Unknown,Unknown,Unknown,21.121203,73.111126
"PHC, Gangadhara",Kareli,Unknown,Unknown,394310,Gujarat,Unknown,Unknown,centre,Unknown,Unknown,Unknown,21.148623,73.04614
Sudeep ENT Hospital,"Block No-298, Ground Floor, Hilal Hotel, Gujarat State Highway, Surat - Bardoli Road, Opposite DGVCL, Bardoli",Unknown,Unknown,394601,Gujarat,Unknown,hospital,Unknown,Unknown,Unknown,Unknown,21.116319,73.103275
Khushboo Hospital,"Faizal Navapur, Bardoli",Unknown,Unknown,394601,Gujarat,Unknown,hospital,Unknown,Unknown,Unknown,Unknown,21.121919,73.11223
Shree Satya Sai Hospital,"Lal Bahadur Shastri Road, Suraj Park Society, Gandhinagar Society, Bardoli",Unknown,Unknown,394601,Gujarat,Unknown,hospital,Unknown,Unknown,Unknown,Unknown,21.128447,73.1126
"PHC, Kanav",Kanav,Unknown,Unknown,394310,Gujarat,Unknown,Unknown,centre,Unknown,Unknown,Unknown,21.0816734,73.0167811
Green Apple Multispeciality Hospital,"Mahatma Gandhi Road, Sardar Baug, Sarvoday Sagar Society, Bardoli",Unknown,Unknown,394601,Gujarat,Unknown,hospital,Unknown,Unknown,Unknown,Unknown,21.127832,73.105077
Shyamosa Clinic,"Bombay market, Opposite Next Mall, Limda Chowk, Bardoli",Unknown,Unknown,394601,Gujarat,Unknown,clinic,Unknown,Unknown,Unknown,Unknown,21.116002,73.1121965
Dr. Shukla's Hospital,"Ramnagar, Bardoli",Unknown,Unknown,394601,Gujarat,Unknown,hospital,Unknown,Unknown,Unknown,Unknown,21.130723,73.102758
Kaivalam Physiotherapy Clinic,"206, Riddhi Arcade, Opposite Shraddha Hospital Gandhi Road, Bardoli",Unknown,Unknown,394601,Gujarat,Unknown,clinic,Unknown,Unknown,Unknown,Unknown,21.120597,73.118066
Aayush Hospital,"Mahuva - Anawal Road, Karchelia, Bartad",Unknown,Unknown,394240,Gujarat,Unknown,hospital,Unknown,Unknown,Unknown,Unknown,20.965723,73.165176
Ami Surgical Hospital,"Near Patidar Bhavan, Bargara, Bharkadevi Ice-Cream Parlour, Astan Road, Bardoli",Unknown,Unknown,394601,Gujarat,Unknown,hospital,Unknown,Unknown,Unknown,Unknown,21.13422,73.108738
Aarush Hospital,"Dahiba Complex, Lal Bahadur Shastri Road, Near Swaminarayan Temple, Bardoli",Unknown,Unknown,394601,Gujarat,Unknown,hospital,Unknown,Unknown,Unknown,Unknown,21.124155,73.1127147
Sneh Children Hospital,"Shree Kheteshwar Complex, Opposite Ravjidada Temple Road, Bardoli",Unknown,Unknown,394601,Gujarat,Unknown,hospital,Unknown,Unknown,Unknown,Unknown,21.129097,73.096756
Snehanjali Hospital,"1755, Lal Bahadur Shastri Road, Hirachand Nagar, Bardoli",Unknown,Unknown,394601,Gujarat,Unknown,hospital,Unknown,Unknown,Unknown,Unknown,21.133542,73.109961
Jivandeep Hospital,"Station Road, Beside Telephone Exchange, Pragna Nagar Society, Bardoli",Unknown,Unknown,394601,Gujarat,Unknown,hospital,Unknown,Unknown,Unknown,Unknown,21.123961,73.110559
"UHC, Bardoli","Station Road, Talavadi, Bardoli",Unknown,Unknown,394601,Gujarat,Unknown,Unknown,centre,Unknown,Unknown,Unknown,21.115116,73.111828
"PHC, Vankaner",Vankaner,Unknown,Unknown,394620,Gujarat,Unknown,Unknown,centre,Unknown,Unknown,Unknown,21.071915,73.168471
Vision Care Eye Hospital,"45, Palika Bazaar, First Floor, Near Jalaram Mandir, Station Road, Opposite BSNL Office, Bardoli",Unknown,Unknown,394601,Gujarat,Unknown,hospital,Unknown,Unknown,Unknown,Unknown,21.123051,73.109997
Dr. Ashok Rathod Clinic,"Mahuva - Anawal Road, Karchelia, Bartad",Unknown,Unknown,394240,Gujarat,Unknown,clinic,Unknown,Unknown,Unknown,Unknown,20.967249,73.163833
Umrakh Hospital,"Baben, Bardoli",Unknown,Unknown,394601,Gujarat,Unknown,hospital,Unknown,Unknown,Unknown,Unknown,21.148527,73.088325
"PHC, Isroli","State Highway165, Mahuva Bardoli Road, Isroli",Unknown,Unknown,394620,Gujarat,Unknown,Unknown,centre,Unknown,Unknown,Unknown,21.099805,73.126809
"PHC, Umrakh",Umrakh,Unknown,Unknown,394601,Gujarat,Unknown,Unknown,centre,Unknown,Unknown,Unknown,21.142102,73.085291
Param Hospital,"Vishvakarma Society, Bhaiya Nagar, Punagam, Surat",Unknown,Unknown,395010,Gujarat,Unknown,hospital,Unknown,Unknown,Unknown,Unknown,21.1968183,72.8724357
Anupam Multispeciality Hospital,"Gurunagar, Vishnu Park Society, Punagam, Varachha, Surat",Unknown,Unknown,395010,Gujarat,Unknown,hospital,Unknown,Unknown,Unknown,Unknown,21.1988328,72.8688828
Aamena Sarvajanik Hospital,"Rahat Co-Operative Housing Society, Gabheni Road, Unn Patiya",Unknown,Unknown,394230,Gujarat,Unknown,hospital,Unknown,Unknown,Unknown,Unknown,21.107425,72.85495
Leena Clinic,"Pali Gam, Sachin",Unknown,Unknown,394230,Gujarat,Unknown,clinic,Unknown,Unknown,Unknown,Unknown,21.0759777,72.8629243
Sunshine Children Hospital,"Raj Nagar, Sachin",Unknown,Unknown,394230,Gujarat,Unknown,hospital,Unknown,Unknown,Unknown,Unknown,21.079865,72.884059
Hadhvedh Hospital,"National Plaza, Complex, Unn Patiya, Udhna, Un",Unknown,Unknown,394210,Gujarat,Unknown,hospital,Unknown,Unknown,Unknown,Unknown,21.1122913,72.8606776
Surat Multispeciality Hospital,"203-204, Shree Darshan Complex, Station Road, Opposite LD High School, Raj Nagar, Sachin",Unknown,Unknown,394230,Gujarat,Unknown,hospital,Unknown,Unknown,Unknown,Unknown,21.0811135,72.8787289
"PHC, Sachin","Raj Abhishek City Homes, Sachin",Unknown,Unknown,394235,Gujarat,Unknown,Unknown,centre,Unknown,Unknown,Unknown,21.09312,72.880637
Trupti Hospital,"Vrundavan Row House, Doordarshan Tower, Sachin Vanz Road, Sachin",Unknown,Unknown,394230,Gujarat,Unknown,hospital,Unknown,Unknown,Unknown,Unknown,21.086556,72.8871228
Riddhi Siddhi Hospital,"Unn Bhanodra Road, Tirupati Nagar, Unn, Udhna, Surat",Unknown,Unknown,394210,Gujarat,Unknown,hospital,Unknown,Unknown,Unknown,Unknown,21.114207,72.8628026
Satadhar Hospital,"Sachin - Kansad Road, Pali Gam, Sachin",Unknown,Unknown,394230,Gujarat,Unknown,hospital,Unknown,Unknown,Unknown,Unknown,21.07841,72.873219
Shivam Hospital,"Pardi Kande, Sachin",Unknown,Unknown,394230,Gujarat,Unknown,hospital,Unknown,Unknown,Unknown,Unknown,21.0903059,72.8739286
Krishna Multispeciality Hospital,"Opposite Sanjeevani General Hospital, Near LD High School, Sachin",Unknown,Unknown,394230,Gujarat,Unknown,hospital,Unknown,Unknown,Unknown,Unknown,21.0811892,72.8787595
Shri Ganesh Clinic,"Kansad Road, Pali Gam, Sachin, Kansad",Unknown,Unknown,394230,Gujarat,Unknown,clinic,Unknown,Unknown,Unknown,Unknown,21.0761068,72.8686823
Kharvasa Government Hospital,Gujarat State Highway 170,Unknown,Unknown,394305,Gujarat,Unknown,hospital,Unknown,Unknown,Unknown,Unknown,21.1228766,72.9030117
Samarpan Multispeciality Hospital,"Center Point Building, Surat Navsari Road, Gujrat Housing Board",Unknown,Unknown,394230,Gujarat,Unknown,hospital,Unknown,Unknown,Unknown,Unknown,21.079152,72.884108
Shree Sai Hospital,"Surat - Navsari Road, Sachin Apparel Park SEZ, Sachin",Unknown,Unknown,394230,Gujarat,Unknown,hospital,Unknown,Unknown,Unknown,Unknown,21.081647,72.883576
Jay Hospital,"Road Number 2, Palival Char Rasta, GIDC, Sachin",Unknown,Unknown,394230,Gujarat,Unknown,hospital,Unknown,Unknown,Unknown,Unknown,21.0918864,72.8624992
Om Clinic & Nursing Home,"Kansad Road, Pali Gam, Sachin, Kansad",Unknown,Unknown,394230,Gujarat,Unknown,clinic,Unknown,Unknown,Unknown,Unknown,21.077212,72.8689
Saraswati Hospital,"Motideep Complex, Station Road, Sachin",Unknown,Unknown,394230,Gujarat,Unknown,hospital,Unknown,Unknown,Unknown,Unknown,21.079337,72.875293
Maitri Prasutigruh Hospital,"Shop No.101, 102, 103, Shiv Complex, Station Road, Raj Nagar, Sachin",Unknown,Unknown,394230,Gujarat,Unknown,hospital,Unknown,Unknown,Unknown,Unknown,21.0788029,72.8749647
Shreeji Clinic & Nursing Home,"14, Sai Krupa Society, Paligam Road, Sachin, Opposite Diamond Park",Unknown,Unknown,394230,Gujarat,Unknown,clinic,Unknown,Unknown,Unknown,Unknown,21.0758232,72.8688422
Amaan Multispeciality Hospital,"3rd Floor, Royal Square Building, Opposite Madina Masjid, Main Road, Unn, Surat",Unknown,Unknown,394210,Gujarat,Unknown,hospital,Unknown,Unknown,Unknown,Unknown,21.1152705,72.8604589
Parizal Hospital,"Tirupati Nagar, Unn, Udhna, Surat",Unknown,Unknown,394210,Gujarat,Unknown,hospital,Unknown,Unknown,Unknown,Unknown,21.1111489,72.8620984
"PHC, Mohni",Mohni,Unknown,Unknown,394305,Gujarat,Unknown,Unknown,centre,Unknown,Unknown,Unknown,21.138008,72.930966
Shubham Clinic,"Kanakpur Main Road, Snehmilan Society, Shitalnagar, Ganesh Nagar, Kanakpur, Sachin, Kanakpur-Kansad",Unknown,Unknown,394230,Gujarat,Unknown,clinic,Unknown,Unknown,Unknown,Unknown,21.076483,72.8788701
ESIC Clinic,"Gujarat State Highway 6, Pardi Kande, Sachin",Unknown,Unknown,394235,Gujarat,Unknown,clinic,Unknown,Unknown,Unknown,Unknown,21.0891975,72.881265
Halima Hospital,"Udhna, Surat",Unknown,Unknown,394230,Gujarat,Unknown,hospital,Unknown,Unknown,Unknown,Unknown,21.1095447,72.8538067
Siddharth General Hospital & Maternity Home,"UGF - 6 -7, National Plaza, Near Unn Petrol Pump, Unn Gam",Unknown,Unknown,394210,Gujarat,Unknown,hospital,Unknown,Unknown,Unknown,Unknown,21.1123665,72.8606612
Dr. Rohan Eye Hospital,"Raj Nagar, Sachin",Unknown,Unknown,394230,Gujarat,Unknown,hospital,Unknown,Unknown,Unknown,Unknown,21.079989,72.877415
"PHC, Lajpur","Adarsh Nagar, Kanakpur, Lajpur",Unknown,Unknown,394235,Gujarat,Unknown,Unknown,centre,Unknown,Unknown,Unknown,21.0686542,72.8922808
Lajpur Rahimiyah Hospital,"Choryasi, Kansad - Lajpur Road, Lajpur",Unknown,Unknown,394235,Gujarat,Unknown,hospital,Unknown,Unknown,Unknown,Unknown,21.0601572,72.9041159
"Shreyas Hospital, Nanpura","Shreyas Co-Operative Housing Society, Nanpura New Road, Nanpura, Surat",Unknown,Unknown,395001,Gujarat,Unknown,hospital,Unknown,Unknown,Unknown,Unknown,21.1890465,72.8157998
Mayur Eye Hospital,"Opposite Minara Masjid, Above A.B.C. Medicals, Near Sadadiwala Market, Bhagal Main Road, Station Road, Begampura, Surat",Unknown,Unknown,395003,Gujarat,Unknown,hospital,Unknown,Unknown,Unknown,Unknown,21.197692,72.830588
ASG Eye Hospital,"Ring Road, Opposite Old RTO, Near Vanita Vishram Ground",Unknown,Unknown,395007,Gujarat,Unknown,hospital,Unknown,Unknown,Unknown,Unknown,21.182757,72.813975
Bhavin Eye Hospital,"22-23, First Floor, Swagat Complex, Beside Torrent , Opposite Sneh-Milan Garden, Vallabh Chowk, Near Green House Apartment, Majura Gate, Surat",Unknown,Unknown,395001,Gujarat,Unknown,hospital,Unknown,Unknown,Unknown,Unknown,21.1848285,72.8191822
Allure Laser Centre,"3/846, Navapura Karwa Road, Zampa Bazaar, Navapura, Begampura, Surat",Unknown,Unknown,395003,Gujarat,Unknown,clinic,Unknown,Unknown,Unknown,Unknown,21.195736,72.830687
Trident Hospitals,"Near Vijay Vallabh Chowk (White house), Opposite Swagat Complex, Beside Snehmilan Garden, Sorthiyawadi, Dhanmora, Surat",Unknown,Unknown,395001,Gujarat,Unknown,hospital,Unknown,Unknown,Unknown,Unknown,21.1842767,72.8192932
Shree Sai Ashish Hospital,"Chauta Bazar Road, Khapatia Chakla, Chowk Bazar, Gopipura",Unknown,Unknown,395008,Gujarat,Unknown,hospital,Unknown,Unknown,Unknown,Unknown,21.194578,72.819941
Rahul Hospital & Well Women Clinic,"A -128 Sankheshwar Complex, Near Hanuman Temple, In Front of White House, Near Majuragate, Surat",Unknown,Unknown,395002,Gujarat,Unknown,hospital,Unknown,Unknown,Unknown,Unknown,21.184901,72.820141
Keshvi Eye Hospital,"Dawer Chambers, 102, Jay Prakash Narayan Marg, Ring Road, Sub jail, Khatodra Wadi, Surat",Unknown,Unknown,395002,Gujarat,Unknown,hospital,Unknown,Unknown,Unknown,Unknown,21.180663,72.825832
Baby Beats Heart Centre,"201, Chaptwala House, Near Vasan Eye Care, Majura Gate, Surat",Unknown,Unknown,395002,Gujarat,Unknown,clinic,Unknown,Unknown,Unknown,Unknown,21.1835551,72.8188328
Shaishav General Hospital,"Kharwawad, Nanpura, Surat",Unknown,Unknown,395001,Gujarat,Unknown,hospital,Unknown,Unknown,Unknown,Unknown,21.188251,72.813023
"UHC, D.K.M.","Kotsafil Main Road, Zampa Bazaar, Navapura, Begampura, Surat",Unknown,Unknown,395001,Gujarat,Unknown,Unknown,centre,Unknown,Unknown,Unknown,21.19244,72.830194
Anand Children Hospital,"1/568 B, Por Mohallo, Athugar Street, Near Kailash Restaurant, Nanpura, Surat",Unknown,Unknown,395001,Gujarat,Unknown,hospital,Unknown,Unknown,Unknown,Unknown,21.1870807,72.8239798
"Sneh Hospital, Gopipura","120, Ambaji Road, Gopipura, Surat",Unknown,Unknown,395003,Gujarat,Unknown,hospital,Unknown,Unknown,Unknown,Unknown,21.195822,72.824933
Tristar Hospital,"Opposite T & TV High School, Athwa Gate, Surat",Unknown,Unknown,395001,Gujarat,Unknown,hospital,Unknown,Unknown,Unknown,Unknown,21.186019,72.812392
Hingora Charitable Trust Halima General Hospital,"301 & 306, Kiran Chamber, Ring Road, Opposite Sub Jail, Surat",Unknown,Unknown,395002,Gujarat,Unknown,hospital,Unknown,Unknown,Unknown,Unknown,21.1818355,72.8261911
"Mahavir Hospital, Sagrampura","Mahavir Hospital Road, Sagrampura, Surat",Unknown,Unknown,395002,Gujarat,Unknown,hospital,Unknown,Unknown,Unknown,Unknown,21.1861752,72.8265848
Dr. M T Rangwala Clinic,"Zampa Bazaar, Navapura, Begampura, Surat",Unknown,Unknown,395008,Gujarat,Unknown,clinic,Unknown,Unknown,Unknown,Unknown,21.1965909,72.8323565
Samol Hospital,"Sagrampura, Surat",Unknown,Unknown,395008,Gujarat,Unknown,hospital,Unknown,Unknown,Unknown,Unknown,21.1868087,72.8251841
Tanish Advanced Orthopaedic & Women's Hospital,"67, Kadampally Society, Timaliawad, Nanpura, Surat",Unknown,Unknown,395001,Gujarat,Unknown,hospital,Unknown,Unknown,Unknown,Unknown,21.18577,72.817282
Shree Saibaba Eye Hospital,"First Floor, Shahpore Road, Lal Gate, Shahpore, Sayedpura, Surat",Unknown,Unknown,395003,Gujarat,Unknown,hospital,Unknown,Unknown,Unknown,Unknown,21.199651,72.8247804
Niramay Ayurvedic Hospital,"1/934- Adgara Street Road, Athugar Street, Behind Central Bank of India, Nanpura, Surat",Unknown,Unknown,395001,Gujarat,Unknown,hospital,Unknown,Unknown,Unknown,Unknown,21.189222,72.813803
Rupal Hospital For Women,"Annie Besant Road, Near Gujarat Mitra Press, Sonifaliya, Chowk Bazar, Gopipura, Surat",Unknown,Unknown,395003,Gujarat,Unknown,hospital,Unknown,Unknown,Unknown,Unknown,21.1949172,72.8210888
Aditya Eye Hospital,"303 Vishwakarma Arcade, Opposite New Civil Hospital, Jay Prakash Narayan Marg, Majura Gate, Surat",Unknown,Unknown,395002,Gujarat,Unknown,hospital,Unknown,Unknown,Unknown,Unknown,21.180748,72.820264
Arpan Hospital,"Indraprasth, Hanunman Shery, Sub Jail Char Rasta, Surat",Unknown,Unknown,395002,Gujarat,Unknown,hospital,Unknown,Unknown,Unknown,Unknown,21.181999,72.8266829
Shreeji Orthopaedic Hospital & Dental Clinic,"Nanpura New Road, Timaliawad, Nanpura, Surat",Unknown,Unknown,395001,Gujarat,Unknown,hospital,Unknown,Unknown,Unknown,Unknown,21.1880022,72.8163796
"Krishna Clinic, Nanpura","1/1026, Chowki Street, Nanpura, Surat",Unknown,Unknown,395001,Gujarat,Unknown,clinic,Unknown,Unknown,Unknown,Unknown,21.1898932,72.815368
SMV Hospital,"Bhagatalao Road, Chauta Pul, Nanavat, Surat",Unknown,Unknown,395003,Gujarat,Unknown,hospital,Unknown,Unknown,Unknown,Unknown,21.197708,72.823083
Golden Gift Maternity Home & Hospital,"Haveli 11/452, Nanavat, Surat",Unknown,Unknown,395003,Gujarat,Unknown,hospital,Unknown,Unknown,Unknown,Unknown,21.1982345,72.8218246
Suchay Children Hospital,"Gadiwala Chamber, Bhagal Char Rasta, Bundelawad, Surat",Unknown,Unknown,395003,Gujarat,Unknown,hospital,Unknown,Unknown,Unknown,Unknown,21.1964492,72.8304881
Dr. Odhavji Dhanjibhai Mangukia Hospital,"Doctors House, Unapani Road, Lal Darwaja, Surat",Unknown,Unknown,395003,Gujarat,Unknown,hospital,Unknown,Unknown,Unknown,Unknown,21.1866987,72.8100742
Akshar Hospital,"Paris Plaza Complex, 3rd Floor, Cinema Road, Beside Torrent House, Begampura, Surat",Unknown,Unknown,395003,Gujarat,Unknown,hospital,Unknown,Unknown,Unknown,Unknown,21.1994815,72.837481
Grace Hospital,"3/4252, Kotsafil Main Road, Zampa Bazaar, Navapura, Begampura, Surat",Unknown,Unknown,395003,Gujarat,Unknown,hospital,Unknown,Unknown,Unknown,Unknown,21.1965434,72.8299801
Jamna Baa General Hospital,"4/4524, Danapith Road, Zampa Bazaar, Begampura, Surat",Unknown,Unknown,395003,Gujarat,Unknown,hospital,Unknown,Unknown,Unknown,Unknown,21.1969645,72.8348883
Surat General Hospital,"Billymoria Building, Ambaji Road, Nani Chipwad, Gopipura, Surat",Unknown,Unknown,395003,Gujarat,Unknown,hospital,Unknown,Unknown,Unknown,Unknown,21.197047,72.825872
Aurora ENT Hospital & Dental Clinic,"2nd Floor, Seven Square Doctor House, Near Kshetrapal Mandir, Kailash Nagar, Surat",Unknown,Unknown,395002,Gujarat,Unknown,hospital,Unknown,Unknown,Unknown,Unknown,21.1854512,72.8210952
SIDS Hospital & Research Centre,"Vijay Nagar, Majura Gate, Surat",Unknown,Unknown,395001,Gujarat,Unknown,hospital,Unknown,Unknown,Unknown,Unknown,21.1814982,72.8174949
Swagat Hospital,"G-3 Chunni Wala Bhai Shah Road, Near Char Rasta, Kailash Nagar, Sagrampura, Surat",Unknown,Unknown,395002,Gujarat,Unknown,hospital,Unknown,Unknown,Unknown,Unknown,21.1847936,72.8190066
"PHC, Sagrampura","1, Sagrampura Main Road, Sagrampura, Surat",Unknown,Unknown,395002,Gujarat,Unknown,Unknown,centre,Unknown,Unknown,Unknown,21.1861342,72.8217676
Dr. Khyati's Ayurvedic Clinic,"Mahavir Hospital Road, Sagrampura, Surat",Unknown,Unknown,395002,Gujarat,Unknown,clinic,Unknown,Unknown,Unknown,Unknown,21.185895,72.8261801
Padmavati Hospital,"Pani ki Bheet Road, Pancholiwad, Gopipura, Surat",Unknown,Unknown,395003,Gujarat,Unknown,hospital,Unknown,Unknown,Unknown,Unknown,21.1961617,72.8231762
Care Hospitals,"Surat-Dumas Road, Athwagate, Surat",Unknown,Unknown,395001,Gujarat,Unknown,hospital,Unknown,Unknown,Unknown,Unknown,21.185177,72.810327
"Payal Maternity, Surgical & Sonography Centre","Opposite Union School, Husaini Masjid, Lalgate, Chhakapir Gali, Shahpore, Bhagal, Surat",Unknown,Unknown,395003,Gujarat,Unknown,clinic,Unknown,Unknown,Unknown,Unknown,21.1989235,72.8270832
Relish Hospital,"Chowki Street, Timaliawad, Nanpura, Surat",Unknown,Unknown,395001,Gujarat,Unknown,hospital,Unknown,Unknown,Unknown,Unknown,21.1892345,72.8155341
Shubham Hospital,"A/3589, Malex Eadi, Sagrampura, Navsari Bazar Main Road, Sagrampura, Surat",Unknown,Unknown,395002,Gujarat,Unknown,hospital,Unknown,Unknown,Unknown,Unknown,21.18425,72.825656
Pathhar Wali Hospital,"SMV Hospital, Nanavat Main Road, Near Motiwala Perfume Janta Market, Surat",Unknown,Unknown,395003,Gujarat,Unknown,hospital,Unknown,Unknown,Unknown,Unknown,21.1969482,72.8221619
Iconic Heart Centre,"1st Floor, Chapatwala House, Near Vasan Eye Care Hospital, Majuragate to Shretraphal Road, Sorthiyawadi, Nanpura, Surat",Unknown,Unknown,395003,Gujarat,Unknown,clinic,Unknown,Unknown,Unknown,Unknown,21.1835333,72.8188366
Shree Mahavir Hospital,"Sagrampura, Surat",Unknown,Unknown,395008,Gujarat,Unknown,hospital,Unknown,Unknown,Unknown,Unknown,21.1859955,72.8270703
Prizma Eye Care Hospitals,"Pyramid Point, Ring Road, Beside Krushi Mangal Hall, Vijay Nagar, Majura Gate, Surat",Unknown,Unknown,395001,Gujarat,Unknown,hospital,Unknown,Unknown,Unknown,Unknown,21.1820434,72.815904
Dr. Parag Pandya Hospital,"Dhatigara Street, Surat",Unknown,Unknown,395001,Gujarat,Unknown,hospital,Unknown,Unknown,Unknown,Unknown,21.1872245,72.8105426
Maa Kaamal Hospital,"Ghanchi Sheri, Chopra Sheri, Begampura, Surat",Unknown,Unknown,395003,Gujarat,Unknown,hospital,Unknown,Unknown,Unknown,Unknown,21.1986747,72.8354749
Govind Prabha Arogya Sankool Hospital,"1/3370, Gopipura, Bharat Niwas, Kazi Medan, Choriyasi",Unknown,Unknown,395001,Gujarat,Unknown,hospital,Unknown,Unknown,Unknown,Unknown,21.1930965,72.8231355
Hemal Hospital,"2nd Floor, Shree Jagdamba Nivas, Bundelawad, Bhagal, Surat",Unknown,Unknown,395003,Gujarat,Unknown,hospital,Unknown,Unknown,Unknown,Unknown,21.1974453,72.8298567
Param Children Hospital,"305-306, Seven Square Doctor House, Near Kshetrapal Hanuman Mandir, Sagrampura, Surat",Unknown,Unknown,395002,Gujarat,Unknown,hospital,Unknown,Unknown,Unknown,Unknown,21.1853827,72.8210592
Leela Health Care,"Dayalji Ashram Marg, Opposite Ampali Apartment, Kailash Nagar, Majura Gate, Surat",Unknown,Unknown,395001,Gujarat,Unknown,clinic,Unknown,Unknown,Unknown,Unknown,21.183838,72.819423
Sannari Hospital,"2nd Floor, Dawar Chamber, Besides J. K. Tower, Near Sub Jail, Surat",Unknown,Unknown,395002,Gujarat,Unknown,hospital,Unknown,Unknown,Unknown,Unknown,21.1807064,72.825864
Maskati Dharmarth Hospital,"Tower Road, Near Mahidharpura Police Station, Zampa Bazaar, Bhagal, Surat",Unknown,Unknown,395003,Gujarat,Unknown,hospital,Unknown,Unknown,Unknown,Unknown,21.1979398,72.832174
Gagan Children Hospital,"101, Platinum Plaza, Opposite Zamzam Palace, Nanavat Main Road, Near Lakhpati Hospital, Surat",Unknown,Unknown,395003,Gujarat,Unknown,hospital,Unknown,Unknown,Unknown,Unknown,21.1993761,72.8215476
Ornate Advanced Centre,"Dr Dhruv Bhatt, Ring Road, Athwa Gate, Surat",Unknown,Unknown,395001,Gujarat,Unknown,clinic,Unknown,Unknown,Unknown,Unknown,21.1821387,72.8146311
Kazi Hospital,"12, Rani Talab Main Road, Near Lal Gate, Shahpore, Bhagal, Surat",Unknown,Unknown,395003,Gujarat,Unknown,hospital,Unknown,Unknown,Unknown,Unknown,21.1996818,72.8265491
Shreeji Retina Clinic & Eye Hospital,"401, Jolly Plaza, Near Athwa Arcade, Navdi Bandar Road, Opposite Police Chowki, Nanpura, Surat",Unknown,Unknown,395001,Gujarat,Unknown,hospital,Unknown,Unknown,Unknown,Unknown,21.1864491,72.8108413
Laprocare Hospital,"Shankhesswar Complex, Symga School Road, Opposite Raymond Showroom, Majuragate, Garden Colony, Sagrampura, Surat",Unknown,Unknown,395002,Gujarat,Unknown,hospital,Unknown,Unknown,Unknown,Unknown,21.1860438,72.8215013
Contracare Eye Hospital,"Near White House, Opposite Sharda Hospital, Majura Gate, Surat",Unknown,Unknown,395001,Gujarat,Unknown,hospital,Unknown,Unknown,Unknown,Unknown,21.1838864,72.8189956
Shivam Eye Hospital,"International Trade Center Building, HG 1-A, Ring Road, Near Radhekrishna Hotel, Majura Gate, Surat",Unknown,Unknown,395001,Gujarat,Unknown,hospital,Unknown,Unknown,Unknown,Unknown,21.181237,72.819234
Jangbarwala Clinic,"3/845, Navapura Karwa Road, Zampa Bazaar, Begampura, Surat",Unknown,Unknown,395003,Gujarat,Unknown,clinic,Unknown,Unknown,Unknown,Unknown,21.1960957,72.8325472
Ami Sagar Polyclinic,"4/4123-24, Nima Madan Seva Sadan,Chowki Sheri, Begumpura, Surat",Unknown,Unknown,395003,Gujarat,Unknown,clinic,Unknown,Unknown,Unknown,Unknown,21.196497,72.8364834
Shifa Care Clinic,"2/2800, Kshetrapal Road, Sagrampura, Near Tapali Mandap Godown, Sagrampura, Surat",Unknown,Unknown,395003,Gujarat,Unknown,clinic,Unknown,Unknown,Unknown,Unknown,21.1862837,72.8226809
Kamble Surgical Hospital,"BJ House, 101-204, Gopipura Main Road, Near Hanuman Char Rasta, Surat",Unknown,Unknown,395001,Gujarat,Unknown,hospital,Unknown,Unknown,Unknown,Unknown,21.1910877,72.8259728
Gayatrikrupa Homeopathic Clinic,Palsana,Unknown,Unknown,394315,Gujarat,Unknown,clinic,Unknown,Unknown,Unknown,Unknown,21.085299,72.988032
Garg Eye Hospital,"Sardar Complex, Kadodara Char Rasta, Palsana",Unknown,Unknown,394327,Gujarat,Unknown,hospital,Unknown,Unknown,Unknown,Unknown,21.0852574,72.9787626
Om Shivam Hospital,"National Highway 8, Surat - Palsana, Palsana",Unknown,Unknown,394315,Gujarat,Unknown,hospital,Unknown,Unknown,Unknown,Unknown,21.089476,72.976842
Shivansh Maternity Hospital,Palsana,Unknown,Unknown,394315,Gujarat,Unknown,hospital,Unknown,Unknown,Unknown,Unknown,21.0873434,72.9914649
Sneh Hospital,"Laxmi Shopping Centre, Bardoli Road, Above Dena Bank, Opposite Police Station, Palsana",Unknown,Unknown,394315,Gujarat,Unknown,hospital,Unknown,Unknown,Unknown,Unknown,21.085227,72.987814
Hardik Clinic,Palsana,Unknown,Unknown,394315,Gujarat,Unknown,clinic,Unknown,Unknown,Unknown,Unknown,21.0825765,72.9874088
Aastha Hospital,"Rajmandir Complex, Aai Mata Road, Near Archana School, Vijay Nagar Society, Vidhey Nagar, Varachha, Surat",Unknown,Unknown,395101,Gujarat,Unknown,hospital,Unknown,Unknown,Unknown,Unknown,21.198694,72.860328
Shreeji Clinic,"Sakar Palace, Ground Floor-06, Karadva - Dindoli Road, Near Millennium Park, Dindoli, Surat",Unknown,Unknown,394210,Gujarat,Unknown,clinic,Unknown,Unknown,Unknown,Unknown,21.1434605,72.8734608
Gauri Children Hospital,"Sai Shiv Shakti Society, Dindoli, Surat",Unknown,Unknown,394210,Gujarat,Unknown,hospital,Unknown,Unknown,Unknown,Unknown,21.149602,72.873762
Uma Hospital,"Second floor, Uma Plaza, Opposite Sai Darshan Residency, Kharavasa Road, Dindoli, Surat",Unknown,Unknown,394210,Gujarat,Unknown,hospital,Unknown,Unknown,Unknown,Unknown,21.1426165,72.8811536
Shivam Hospital,"Opposite Domino Pizza, Aai Mata Road, Parvat Patiya, Surat",Unknown,Unknown,395010,Gujarat,Unknown,hospital,Unknown,Unknown,Unknown,Unknown,21.197516,72.8609668
Ranjana Clinic,"Karadva Gam, Surat",Unknown,Unknown,394210,Gujarat,Unknown,clinic,Unknown,Unknown,Unknown,Unknown,21.143387,72.873746
Umiya Multispeciality Hospital & ICU,"Mark Point, Kharavasa Road, Near SBI Bank, Dindoli, Surat",Unknown,Unknown,394210,Gujarat,Unknown,hospital,Unknown,Unknown,Unknown,Unknown,21.149894,72.873414
Pulse Hospital & ICU,"Madhav Complex, 4th floor, Karadva - Dindoli Road, Madhav Nagar, Sai Shiv Shakti Society, Dindoli, Surat",Unknown,Unknown,394210,Gujarat,Unknown,hospital,Unknown,Unknown,Unknown,Unknown,21.149776,72.8721057
Khushi Children Hospital,"AB-555, Archana School To Parvat Patiya Road, Sitaram Society, Vidhey Nagar, Varachha, Surat",Unknown,Unknown,395010,Gujarat,Unknown,hospital,Unknown,Unknown,Unknown,Unknown,21.1970925,72.8616487
Akshar Clinic & Child and Skin Care,"Karadva - Dindoli Road, Sai Shiv Shakti Society, Dindoli, Surat",Unknown,Unknown,394210,Gujarat,Unknown,clinic,Unknown,Unknown,Unknown,Unknown,21.1492593,72.8723456
AUM Hospital & Maternity Home,"301-310 Shree R.J.D Business Plaza, Dindoli - Karadva Road, Beside Millenium Park, Surat",Unknown,Unknown,394210,Gujarat,Unknown,hospital,Unknown,Unknown,Unknown,Unknown,21.1463288,72.8735017
Sanjivani Multispeciality Hospital,"Karadva - Dindoli Road, Sai Shiv Shakti Society, Dindoli, Surat",Unknown,Unknown,394210,Gujarat,Unknown,hospital,Unknown,Unknown,Unknown,Unknown,21.1495978,72.8727339
Ranjana Clinic & Child Care,"Karadva - Dindoli Road, Millenium Park, Karadva Gam, Surat",Unknown,Unknown,394305,Gujarat,Unknown,clinic,Unknown,Unknown,Unknown,Unknown,21.1439288,72.8731535
Mannat Children Hospital,"310-313, Om Plaza, Vijay Nagar Society, Aai Mata Road, Surat",Unknown,Unknown,395010,Gujarat,Unknown,hospital,Unknown,Unknown,Unknown,Unknown,21.1989049,72.8596911
Darak Dental Care,Unknown,"Bhumi Complex, Vip Road, Althan Char Rasta",Surat,395007,Unknown,Unknown,hospital,hospital,Unknown,http://darakdentalcare.com/,Unknown,21.1464386,72.8051995
"SubCentre,Ugat",Ugat,Unknown,Unknown,396469,Gujrat,Unknown,Unknown,centre,Unknown,Unknown,Unknown,20.9578386,73.0620667
"SubCentre,Dhaman",Dhaman,Unknown,Unknown,396415,Gujrat,Unknown,Unknown,centre,Unknown,Unknown,Unknown,21.0146864,72.937755
"SubCentre, Shahu",Shahu,Unknown,Unknown,396469,Gujrat,Unknown,Unknown,centre,Unknown,Unknown,Unknown,20.9630423,73.0554718
"SubCentre, Amri",Amri,Unknown,Unknown,396445,Gujrat,Unknown,Unknown,centre,Unknown,Unknown,Unknown,20.9529829,72.939302
"SubCentre,Sisodra",Sisodra,Unknown,Unknown,396463,Gujrat,Unknown,Unknown,centre,Unknown,Unknown,Unknown,20.9352497,72.9772361
"SubCentre, Padgha",Padgha,Unknown,Unknown,396415,Gujrat,Unknown,Unknown,centre,Unknown,Unknown,Unknown,20.9918017,72.9502259
"SubCentre,Moldhara",Moldhara,Unknown,Unknown,396427,Gujrat,Unknown,Unknown,centre,Unknown,Unknown,Unknown,20.9770043,72.9887015
"SubCentre, Pera",Pera,Unknown,Unknown,396418,Gujrat,Unknown,Unknown,centre,Unknown,Unknown,Unknown,20.997056,73.0131412
"SubCentre, Italva",Italva,Unknown,Unknown,396445,Gujrat,Unknown,Unknown,centre,Unknown,Unknown,Unknown,20.921354,72.9529303
"Primary Health Centre, Karchelia",Karchelia,Unknown,Unknown,394240,Gujarat,Unknown,Unknown,centre,Unknown,Unknown,Unknown,20.9667207,73.1644707
Swasthyam Physiotherapy Center,Unknown,"Shop No 4, Sky View Heights, Chhapra Road",Navsari,396445,Unknown,IN,clinic,physiotherapist,+91 9586233839,https://swasthyamfitness.com/,Mo-Sa 08:00-19:00,20.9338795,72.9303321
