Name,Full Address,Street,City,Postcode,State,Country,Amenity,Healthcare,Phone,Website,Opening Hours,Latitude,Longitude
Metro Hospital And Research Institute,"Near Amit Nagar Circle, Beside Kendriya Vidyalaya, Harni-Savi Road",Unknown,Unknown,390022,Gujarat,Unknown,hospital,Unknown,Unknown,Unknown,Unknown,22.33499,73.2089837
Mental Hospital,Unknown,Unknown,Unknown,Unknown,Unknown,Unknown,hospital,Unknown,Unknown,Unknown,Unknown,22.3176736,73.1989415
Sairam Chemist & Druggist,Unknown,"Opposite Sardar Bhavan Lane, Raopura",Vadodara,390001,Unknown,Unknown,pharmacy,Unknown,(0265) 2415439,Unknown,Unknown,22.3036205,73.2046619
Bhumi Nursing Home & Echo Doppler Clinic,Unknown,"Opp. Sardar Bhavan Lane, Jubilee Baug, Raopura",Vadodara,390001,Unknown,Unknown,hospital,Unknown,(0265) 2426318,Unknown,Unknown,22.3036505,73.2047701
shri padma,Unknown,Unknown,Unknown,Unknown,Unknown,Unknown,pharmacy,Unknown,Unknown,Unknown,Unknown,22.3498793,73.2000949
Schvijk hospital,Unknown,Unknown,Unknown,Unknown,Unknown,Unknown,hospital,Unknown,Unknown,Unknown,Unknown,22.3512565,73.2012042
Astha Physiotherapy Clinic,Unknown,"Amrapali Complex,B/ h Yash complex, Gotri - Bhayali Road",Vadodara,390021,Unknown,Unknown,hospital,physiotherapist,+91 99988 46171,Unknown,Unknown,22.3128782,73.1384215
Dwarkesh Hospital,"10,11, Shivali Society 1, Vip Road, Near L & T Circle, Karelibaag",Unknown,Unknown,390018,Gujarat,Unknown,hospital,Unknown,Unknown,Unknown,Unknown,22.3248646,73.1978278
Harshal Generaland Surgical Hospital,1/37 Vrajvenu Complex Near Swami Narayan Gurukul,Unknown,Unknown,390019,Gujarat,Unknown,hospital,Unknown,Unknown,Unknown,Unknown,22.3004297,73.2231125
Bhailal Amin General Hospital,Gorwa Bhailal Amin Marg,Unknown,Unknown,390003,Gujarat,Unknown,hospital,hospital,Unknown,Unknown,Unknown,22.3253843,73.1631088
Brij Psychiatric Hospital,"Bhanu Sadan, Opp Nimbalkar Chambers, Jambupet",Unknown,Unknown,390001,Gujarat,Unknown,hospital,Unknown,Unknown,Unknown,Unknown,22.3098142,73.1873332
BM Parikh Foundation Trust,"Samal Bechar's Pole,Near Ambematamandeir,M.G. Road, Mandavi",Unknown,Unknown,390001,Gujarat,Unknown,hospital,Unknown,Unknown,Unknown,Unknown,22.3006735,73.2092294
Navrang Hospital,"Near Amit Nagar Circle, Beside Hdfc Bank, Vip Road, Karelibaug",Unknown,Unknown,390018,Gujarat,Unknown,hospital,Unknown,Unknown,Unknown,Unknown,22.3268271,73.2061046
Dr. Bhavesh Patel's Hospital,"5-B, Indraprasth Complex, 1st Floor, Nizampura, Opposite Swaminarayan Nagar",Unknown,Unknown,390002,Gujarat,Unknown,hospital,Unknown,Unknown,Unknown,Unknown,22.3396366,73.1778905
Desai Urological and Maternity Hospital,"2nd & 3Road Floor, Abhinav Complex, Kamal Kunj Society , Delux , Nizampura",Unknown,Unknown,390009,Gujarat,Unknown,hospital,Unknown,Unknown,Unknown,Unknown,22.3341735,73.1811172
Uro - Care Hospital - Vadodara,"Sainath Marg, Near Vrajwadi Apartment",Unknown,Unknown,390007,Gujarat,Unknown,hospital,Unknown,Unknown,Unknown,Unknown,22.3037135,73.1538525
Chiplonkar Eye Hospital,"Opposite Lakdipul, Dandia Bazar",Unknown,Unknown,390001,Gujarat,Unknown,hospital,Unknown,Unknown,Unknown,Unknown,22.3003143,73.1974619
Sant Hospital,"Sainath Tower, G.P.O Road Raopura",Unknown,Unknown,390001,Gujarat,Unknown,hospital,Unknown,Unknown,Unknown,Unknown,22.3016761,73.1984147
Acharya Nursing Home and Icu,"No. 88/89, Shree Jay Ambe Co-Op. Society,Opposite Gorwa Workshop,Subhampura",Unknown,Unknown,390023,Gujarat,Unknown,clinic,Unknown,Unknown,Unknown,Unknown,22.3261721,73.155714
Rudraksha Medical and Eye Care Centre,"5, Shantinath Complex, Opposite Mahavir Hall Cross Road, Ajwa Road",Unknown,Unknown,390019,Gujarat,Unknown,hospital,Unknown,Unknown,Unknown,Unknown,22.3430081,73.1757715
Nisarg Orthopaedic and Maternity Hospital,"B-1, Panchsheel, Near Zavernagar Society< Harni Varasiya Ring Road",Unknown,Unknown,390006,Gujarat,Unknown,hospital,Unknown,Unknown,Unknown,Unknown,22.3182731,73.2204612
"Ankur Children Hospital, Vihar Road","108,Shree Vihar Complex,Opposite Mahavir Hall, Vihar Road",Unknown,Unknown,390019,Gujarat,Unknown,hospital,Unknown,Unknown,Unknown,Unknown,22.3215968,73.2411504
Vraj Hospital,"2nd Floor, Shree Complex, Shrenik Park Cross Road, Akota",Unknown,Unknown,390020,Gujarat,Unknown,hospital,Unknown,Unknown,Unknown,Unknown,22.3472341,73.1745639
Kala Laser and Cosmetic Surgery Centre,"Gorund Floor, Ami Apartment-I, Lane Opposite Yes Bank,Race Course Circle",Unknown,Unknown,390007,Gujarat,Unknown,hospital,Unknown,Unknown,Unknown,Unknown,22.3132981,73.1766218
Om Multi Speciality Hospital,"A-1, Jayshree Narayan Society, Samta Char Rasta, Subhanpura",Unknown,Unknown,390021,Gujarat,Unknown,hospital,Unknown,Unknown,Unknown,Unknown,22.3231785,73.1504716
Neurosurgical Hospital,"1st Floor, Sanstha Vasahat, Raopura",Unknown,Unknown,390001,Gujarat,Unknown,hospital,Unknown,Unknown,Unknown,Unknown,22.302478,73.1998304
Neurology Hospital,"Prakruti Tower,Opposite Inox , Race Course",Unknown,Unknown,390007,Gujarat,Unknown,hospital,Unknown,Unknown,Unknown,Unknown,22.313471,73.1587912
Kamubala Poly Clinic,"53-B,Defence Coloony,Opp Girdhar Krupan Complex",Unknown,Unknown,390002,Gujarat,Unknown,clinic,Unknown,Unknown,Unknown,Unknown,22.3439198,73.1759928
Rishabh Nursing Home,"Opposite Golden-Silver Apartments,Subhanpura Main Road",Unknown,Unknown,390023,Gujarat,Unknown,clinic,Unknown,Unknown,Unknown,Unknown,22.3211998,73.1588729
Shri Narhari Arogya Kendra Hospital,Narayan Bhavan Fatehganj,Unknown,Unknown,390002,Gujarat,Unknown,hospital,Unknown,Unknown,Unknown,Unknown,22.3182458,73.188335
Aum Sai Retina Care Centre,"Gorund Floor, Kashi Vishveshwar Tower-5, Behind Swagat Restaurant, Jetalpur Road",Unknown,Unknown,390007,Gujarat,Unknown,hospital,Unknown,Unknown,Unknown,Unknown,22.314571,73.1711031
Aditya Oral And Maxillofacial Clinic,"2nd Floor, Innova House, Opposite Brahman Sabha Hall,Dandia Bazar",Unknown,Unknown,390001,Gujarat,Unknown,clinic,Unknown,Unknown,Unknown,Unknown,22.3002988,73.199544
Prutha Maternity Nursing Home,"3, Muktanand Society, Karelibaug",Unknown,Unknown,390001,Gujarat,Unknown,clinic,Unknown,Unknown,Unknown,Unknown,22.3204963,73.1972091
Uma Laparoscopy Hospital,"B-7, Gajanan Society, Opposite Motnath Vidyalay, Uma Char Rasta",Unknown,Unknown,390012,Gujarat,Unknown,hospital,Unknown,Unknown,Unknown,Unknown,22.3015719,73.2304068
Swar Clinic,"1st Floor, Shiyapura, Opposite Raopura Tower",Unknown,Unknown,390001,Gujarat,Unknown,clinic,Unknown,Unknown,Unknown,Unknown,22.3036229,73.2002735
Utkarsh Clinic,"7-A, Krishna Sarvoday Society, Opposite Gorwa Work Shop, Subhanpura",Unknown,Unknown,390023,Gujarat,Unknown,clinic,Unknown,Unknown,Unknown,Unknown,22.326476,73.1555665
Yogeshwar Hospital,"2, Suniketan Park, Behind Samta Flats, Subhanpura",Unknown,Unknown,390010,Gujarat,Unknown,hospital,Unknown,Unknown,Unknown,Unknown,22.3213065,73.1441362
Gayatri Maternity Hospital(Only For Apollo Tyre),"101, Nandnandan Complex, Opposite Prabhat Bus Stop, Waghodia Road",Unknown,Unknown,390019,Gujarat,Unknown,hospital,Unknown,Unknown,Unknown,Unknown,22.3009602,73.2348619
Gorwa Hospital,"1st Floor, Amin Chambers, Refinery Road, Gorwa",Unknown,Unknown,390016,Gujarat,Unknown,hospital,Unknown,Unknown,Unknown,Unknown,22.3338708,73.1558843
"Navjivan Hospital, Vadodara","D - 64, Moti Nagar, Varasiya - Kishanwadi Ring Road",Unknown,Unknown,390006,Gujarat,Unknown,hospital,Unknown,Unknown,Unknown,Unknown,22.3123949,73.2241385
City Heart Centre,"Pratap Road, Dandia Bazar",Unknown,Unknown,390001,Gujarat,Unknown,hospital,Unknown,Unknown,Unknown,Unknown,22.3015396,73.1992335
Sankalp Eye Hospital and Retina Centre,"First Floor,Samir-2 Apartment Chikuwadi Corner,Jetalpur Main Road",Unknown,Unknown,390007,Gujarat,Unknown,hospital,Unknown,Unknown,Unknown,Unknown,22.3081256,73.16585
Desai Eye Institute and Research Centre,"1 Manhar Park, High Tension Road, Near Jain Derasar, Subhanpura",Unknown,Unknown,390007,Gujarat,Unknown,hospital,Unknown,Unknown,Unknown,Unknown,22.322088,73.1594714
Anjali Memorial Hospital,"1-A,Biren Apartments, Above Punjab National Bank Frhgunj",Unknown,Unknown,390002,Gujarat,Unknown,hospital,Unknown,Unknown,Unknown,Unknown,22.3228796,73.187985
Shreenath Clinic,"Ram-Way Plaza,1st Floor,Kharivav Road",Unknown,Unknown,390001,Gujarat,Unknown,clinic,Unknown,Unknown,Unknown,Unknown,22.3022255,73.1971614
"Sankalp Hospital, Vadodara","1st & 2nd Floor, Shree Ramway Plaza, Kharivav Road, Dandia Bazar",Unknown,Unknown,390001,Gujarat,Unknown,hospital,Unknown,Unknown,Unknown,Unknown,22.3011709,73.1985165
Dr Kalpit Baxi Orthopaedic Hospital,"Sainath Tower Kharivav, Gpo Road, Dandia Bazar",Unknown,Unknown,390001,Gujarat,Unknown,hospital,Unknown,Unknown,Unknown,Unknown,22.3016359,73.198415
Rahul Children Hospital,Subhanpua Road,Unknown,Unknown,390007,Gujarat,Unknown,hospital,Unknown,Unknown,Unknown,Unknown,22.3231078,73.1580971
Sarveshwar Hospital,"Vrund Apartment, Jadhav Amishraddha Society, Navji",Unknown,Unknown,390019,Gujarat,Unknown,hospital,Unknown,Unknown,Unknown,Unknown,22.3074035,73.2324895
Viroc Vadodara Institute For Reconstructive Orthopaedic Care,"Aryakanya Vidyalay Road,Karelibaug",Unknown,Unknown,390018,Gujarat,Unknown,hospital,Unknown,Unknown,Unknown,Unknown,22.31288,73.2022248
Anya Ent Hospital,"Sf/2, Kapiraj Complex, Opposite Panchratna Building, Subhanpura Road",Unknown,Unknown,390001,Gujarat,Unknown,hospital,Unknown,Unknown,Unknown,Unknown,22.3190324,73.1603475
Balvantray Mehta Nisargopchar Arogya Bhavan,"Near Dr.Keshav Garden,Karelibaug",Unknown,Unknown,390021,Gujarat,Unknown,hospital,Unknown,Unknown,Unknown,Unknown,22.3227822,73.2102178
Nene Clinic,"33, Sarita Sangam Society, Rajesh Tower Road",Unknown,Unknown,390021,Gujarat,Unknown,clinic,Unknown,Unknown,Unknown,Unknown,22.3177998,73.1483225
Dr. Kumars Clinic,"1st Floor, Sahyog Complex, Nr Delux Char Rasta, Nizampura",Unknown,Unknown,390002,Gujarat,Unknown,clinic,Unknown,Unknown,Unknown,Unknown,22.3341915,73.1807578
Ami Surgical Hospital,"51, Sampatrao Colony,Rc Dutt Road,Alkapuri",Unknown,Unknown,390007,Gujarat,Unknown,hospital,Unknown,Unknown,Unknown,Unknown,22.3084506,73.1768015
Dr Nutan Shahs Eye Hospital and Advanced Phaco Centre,"1, Devdeep Complex, Delux Cross,Nizampura, OppositeTashkend Society",Unknown,Unknown,390002,Gujarat,Unknown,hospital,Unknown,Unknown,Unknown,Unknown,22.3355132,73.1797117
Arpan Surgical Hospital,"No. 127, Arpan Complex,Near Hanumanji Temple,Delux Cross Road,Nizampura",Unknown,Unknown,390002,Gujarat,Unknown,hospital,Unknown,Unknown,Unknown,Unknown,22.3262018,73.1459132
Kalpana Hospital,"41, Tapovan Society, Opposite Ghelani Petrol Pump, Nizampura",Unknown,Unknown,390002,Gujarat,Unknown,hospital,Unknown,Unknown,Unknown,Unknown,22.3311566,73.1807873
Baroda Heart Institute And Research Centre,"44,Haribhakti Colony,Old Padra Road, Behind Telephone Exchange, Race Course Circle",Unknown,Unknown,390007,Gujarat,Unknown,hospital,Unknown,Unknown,Unknown,Unknown,22.3066429,73.1651379
Batra Hospital,"112-116, Chaturbhai Dark, Sangam Warasia Ring Road",Unknown,Unknown,390006,Gujarat,Unknown,hospital,Unknown,Unknown,Unknown,Unknown,22.3144767,73.2219645
"Siddharth Hospital, Vadodara",B/H Kalyan Hotel,Unknown,Unknown,390002,Gujarat,Unknown,hospital,Unknown,Unknown,Unknown,Unknown,22.3195243,73.1891739
"Maa Hospital, Vadodara","A/8-9, Shree Hari Township, Sayaji Park, Ajwa Road",Unknown,Unknown,390019,Gujarat,Unknown,hospital,Unknown,Unknown,Unknown,Unknown,22.3166894,73.2467991
Krishnashray Hospital and Icu,"Santha Vasahat, Raopura",Unknown,Unknown,390001,Gujarat,Unknown,hospital,Unknown,Unknown,Unknown,Unknown,22.302415,73.1997766
Ankur Children Hospital,"Hare Ram Complex, Chhani Jakat Naka",Unknown,Unknown,390002,Gujarat,Unknown,hospital,Unknown,Unknown,Unknown,Unknown,22.3437672,73.1762624
Anusha Hospital,"No. 14/15, Race Course Park Society,Near Natubhaj Centre,Gotri Road",Unknown,Unknown,390007,Gujarat,Unknown,hospital,Unknown,Unknown,Unknown,Unknown,22.3105772,73.1570014
Amit Orthopaedic Hosptial,"E/13, Natasha Park-1, Near Chhani Jakat Naka",Unknown,Unknown,390024,Gujarat,Unknown,hospital,Unknown,Unknown,Unknown,Unknown,22.3441666,73.1759633
Govind Clinic and Retinal Laser Centre,"Opposite School No.1, Pratap Road, Raopura",Unknown,Unknown,390001,Gujarat,Unknown,clinic,Unknown,Unknown,Unknown,Unknown,22.3041527,73.199027
Hari Surgical Hospital,Dabhoi,Unknown,Unknown,391110,Gujarat,Unknown,hospital,Unknown,Unknown,Unknown,Unknown,22.3197352,73.2036417
Satyam Hospital - Valpoi Sattari,"Ramakaka Road , Chhani",Unknown,Unknown,391740,Gujarat,Unknown,hospital,Unknown,Unknown,Unknown,Unknown,22.3563134,73.1674111
Dr. Rupa Jain Eye Clinic,"A/B, Productivity House, 1st Floor, Above Hdfc Bank, Productivity Road, Alkapuri",Unknown,Unknown,390001,Gujarat,Unknown,clinic,Unknown,Unknown,Unknown,Unknown,22.3094054,73.1737284
Balaji Hospital,Near Vidhya Vikas School Ellora Park Subhanaura,Unknown,Unknown,390023,Gujarat,Unknown,hospital,Unknown,Unknown,Unknown,Unknown,22.3180659,73.1628017
Anuj Children Hospital,"Opp Rajdhani Soc,Warshia Ring Road",Unknown,Unknown,390006,Gujarat,Unknown,hospital,Unknown,Unknown,Unknown,Unknown,22.3133651,73.2227571
Anand Hospital,Ff-161/162 Ganotri Complex Opp Yash Complex Gotri Road Gotri,Unknown,Unknown,390021,Gujarat,Unknown,hospital,Unknown,Unknown,Unknown,Unknown,22.3176782,73.1376419
Shree Shubham Surgical and Eye Hospital,"1st, Floor, Ct Complex, Opposite Golden Silver Apartment, Subhanpura",Unknown,Unknown,390023,Gujarat,Unknown,hospital,Unknown,Unknown,Unknown,Unknown,22.3211675,73.158934
Saurabh Clinic,"4, City Park Socirty, Chankyapuri Road,Sama",Unknown,Unknown,390024,Gujarat,Unknown,clinic,Unknown,Unknown,Unknown,Unknown,22.3396718,73.1925716
Misha Maternity Home,"The Emperor, 1st Floor, Fatehgunj",Unknown,Unknown,390002,Gujarat,Unknown,hospital,Unknown,Unknown,Unknown,Unknown,22.3213241,73.1886659
Chintamani Orthopaedic Hospital,"Mahajan Gali, Raopura",Unknown,Unknown,390001,Gujarat,Unknown,hospital,Unknown,Unknown,Unknown,Unknown,22.3029553,73.2022174
"Abhishek Hospital, Vadodara","Shivalik Complex, Subhanpura Main Road",Unknown,Unknown,390023,Gujarat,Unknown,hospital,Unknown,Unknown,Unknown,Unknown,22.3247553,73.1571369
Shirali Hospital,"First Floor,Dev Commercial Centre,Next To New Alka Restaurent,Near Nathubhai Centre",Unknown,Unknown,390007,Gujarat,Unknown,hospital,Unknown,Unknown,Unknown,Unknown,22.3108216,73.1563939
Krishna Ent and Skin Hospital,"Ishwar Sadan, Lkadi Pool",Unknown,Unknown,390001,Gujarat,Unknown,hospital,Unknown,Unknown,Unknown,Unknown,22.3001785,73.1974411
"Navjeevan Nursing Home, Vadodara","1, Devkinandan Flats, 29, Anand Nagar Society, Productivity Road, Near Mahadev Mandir",Unknown,Unknown,390007,Gujarat,Unknown,hospital,Unknown,Unknown,Unknown,Unknown,22.3059952,73.1733763
Raghuvir Eye Care Hospital,"Sf 10/11, Kalind Complex,Opposite Amit Nagar Bus Stand,V I P Road",Unknown,Unknown,390018,Gujarat,Unknown,hospital,Unknown,Unknown,Unknown,Unknown,22.3269422,73.2066899
"Vandana Hospital, Vadodara","6/A, Sri Ram Society, B/H Dev Commercial Complex, Near Natu Bai Circile",Unknown,Unknown,390007,Gujarat,Unknown,hospital,Unknown,Unknown,Unknown,Unknown,22.3115748,73.1559969
Chandan Hospital And I C U - Vadodara,"Old Navarang Talkies, Compound, Opposite Hotel Utsav, Raopura",Unknown,Unknown,390001,Gujarat,Unknown,hospital,Unknown,Unknown,Unknown,Unknown,22.3020223,73.1998833
"Aaram Nursing Home, Baroda","Behind Maharani School, Raopura",Unknown,Unknown,390001,Gujarat,Unknown,clinic,Unknown,Unknown,Unknown,Unknown,22.3024286,73.2021095
Vins Hospital Pvt Ltd / Vadodara Institute Of Neurologyl Sciences,"99, Urmi Society, Opposite Haveli, Productivity Road, Akota",Unknown,Unknown,390020,Gujarat,Unknown,hospital,Unknown,Unknown,Unknown,Unknown,22.3050746,73.1738799
"Kalawati Hospital, Vadodara","D-187, 188, 189, Daji Nagar, Co-Op Housing Society, Harni Warasiya Ring Road",Unknown,Unknown,390006,Gujarat,Unknown,hospital,Unknown,Unknown,Unknown,Unknown,22.3117875,73.2239205
Shilpa Children Hospital,"73,Harinagar Society",Unknown,Unknown,390023,Gujarat,Unknown,hospital,Unknown,Unknown,Unknown,Unknown,22.3116393,73.1534006
Ganga Jamna Hospital,Opposite Golden Silver Apartment,Unknown,Unknown,390023,Gujarat,Unknown,hospital,Unknown,Unknown,Unknown,Unknown,22.3203797,73.159457
"Aadhar Hospital, Vadodara","Near Kashi Vishweshwar Temple, Jetalpur Char Rasta, Alkapuri",Unknown,Unknown,390007,Gujarat,Unknown,hospital,Unknown,Unknown,Unknown,Unknown,22.3072955,73.1729545
Paavan Hospital,"First Floor,Shubhlaxmi Complex,Beside B.M.C.Chambers,Subhanpura-Gorwa Road,Subhanpura",Unknown,Unknown,390023,Gujarat,Unknown,hospital,Unknown,Unknown,Unknown,Unknown,22.3254265,73.1568566
Shreeji Hospital and Trauma Care Centre,"Opp Rama Kaka Dairy, Nr Geb,National Highway No 8,Chhani",Unknown,Unknown,391740,Gujarat,Unknown,hospital,Unknown,Unknown,Unknown,Unknown,22.354995,73.1687455
Sunderam Hospital,"9, Anand Society, B/H. Express Hotel, R.C.Dutt Road",Unknown,Unknown,390007,Gujarat,Unknown,hospital,Unknown,Unknown,Unknown,Unknown,22.3093557,73.1689889
"Parth Surgical Hospital, Vadodara","Udaynagar Soc. Opp Manki Complex, Near Mahavir Hall,Ajwa-Waghodia Road",Unknown,Unknown,390019,Gujarat,Unknown,hospital,Unknown,Unknown,Unknown,Unknown,22.3033288,73.2290389
Sanjiv Hospital,B-27/256 Opp Rly Station Near Central St Depot,Unknown,Unknown,390002,Gujarat,Unknown,hospital,Unknown,Unknown,Unknown,Unknown,22.3124556,73.1811655
Rituma Clinic,Gf 3 Mangalkiran Apts,Unknown,Unknown,390007,Gujarat,Unknown,clinic,Unknown,Unknown,Unknown,Unknown,22.3093762,73.1666668
Dipti Eye Hospital,"11, Ajay Colony Nr Kala Kendra Farshan, Nizampura",Unknown,Unknown,390002,Gujarat,Unknown,hospital,Unknown,Unknown,Unknown,Unknown,22.3333864,73.1799041
Ananyaa Children Hospital,"59, Sampatrao Colony, R C Dutt Road, Alkapuri",Unknown,Unknown,390007,Gujarat,Unknown,hospital,Unknown,Unknown,Unknown,Unknown,22.3087161,73.1760035
Anjaneya Orthopaedic Hospital,"B-6, Sanjeevan Park Society, Opp Samta Ground, Samta",Unknown,Unknown,390021,Gujarat,Unknown,hospital,Unknown,Unknown,Unknown,Unknown,22.3214857,73.1463953
Neeta Maternity and Gynaec Hospital,"C - 3, Dayal Nagar, Near Kalavati Hospital, Warasia Ring Road",Unknown,Unknown,390006,Gujarat,Unknown,hospital,Unknown,Unknown,Unknown,Unknown,22.311045,73.2243933
Adarsh General Hospital,Race Course Circle,Unknown,Unknown,390007,Gujarat,Unknown,hospital,Unknown,Unknown,Unknown,Unknown,22.3087881,73.1611575
Siddhi Surgical Hospital,"Anand Plaza, Bhaukale Lane",Unknown,Unknown,390001,Gujarat,Unknown,hospital,Unknown,Unknown,Unknown,Unknown,22.3022444,73.202666
"Manav Hospital, Vadodara","Gangotri Tenaments,B/H Saurabh Park",Unknown,Unknown,390023,Gujarat,Unknown,hospital,Unknown,Unknown,Unknown,Unknown,22.3162223,73.1555772
"Eye-Q Super Speciality Eye Hospitals, BPC Road","2nd-3rd Floor, Jaylaxmi Complex, 4-Anand Nagar society, Jetalpur, BPC Road",Unknown,Unknown,390007,Gujarat,Unknown,hospital,Unknown,Unknown,https://eyeqindia.com/,Unknown,22.323645,73.1898022
Shruti Ent Clinic,"Kautilya Complex, Sangam Crossing",Unknown,Unknown,390018,Gujarat,Unknown,clinic,Unknown,Unknown,Unknown,Unknown,22.3189195,73.2118191
I Care Hospital and Phaco Center,"Above Paramount CT Scan Center, Opp. Bharat Petrol Pump, Inox Road, Race Course",Unknown,Unknown,390007,Gujarat,Unknown,hospital,Unknown,Unknown,www.icarehospital.co.in,Unknown,22.3102559,73.1582554
"Shanti Hospital, Vadodara","F/14, Panchsheel Tenaments, Nr Zavernagar, Harni Varasia Ring Road",Unknown,Unknown,390022,Gujarat,Unknown,hospital,Unknown,Unknown,Unknown,Unknown,22.3019056,73.2341921
Vrund Clinic,Vip Road Nr Jay Ambe Vidhyalay Karelibaug,Unknown,Unknown,390002,Gujarat,Unknown,clinic,Unknown,Unknown,Unknown,Unknown,22.3301493,73.2060577
Aashaa The Right Direction Hospital,"Sanstha Vasahat, Raopura",Unknown,Unknown,390001,Gujarat,Unknown,hospital,Unknown,Unknown,Unknown,Unknown,22.3021823,73.199729
Uday Clinic,Opposite Surya Nagar Bus Stop Waghodia Road,Unknown,Unknown,390019,Gujarat,Unknown,clinic,Unknown,Unknown,Unknown,Unknown,22.3011599,73.2271251
Dr Thakorbhai V Patel Eye Institute and Sheth M L Vaduwala Hospital,"Salaltwada, Haribhakti Complex, Vinoba Bhave Road",Unknown,Unknown,390001,Gujarat,Unknown,hospital,Unknown,Unknown,Unknown,Unknown,22.3067384,73.1958707
Baba Advanced Orthopaedic Hospital,"No. 57, Maikrupa Society, Mental Hospital Road,Karelibaug",Unknown,Unknown,390018,Gujarat,Unknown,hospital,Unknown,Unknown,Unknown,Unknown,22.3203189,73.1971675
Vision Plus Lasik Laser Center,"18-Vishwas Colony,OppositeAlkapuri Shopping Centre,Alkapuri",Unknown,Unknown,390007,Gujarat,Unknown,hospital,Unknown,Unknown,Unknown,Unknown,22.3097621,73.1708832
Aastha Children Icu,"1,Panchvati,N.H No-08,Nizampura",Unknown,Unknown,390002,Gujarat,Unknown,hospital,Unknown,Unknown,Unknown,Unknown,22.3319853,73.1809884
Beena Gopal Nursing and Maternity Hospital,"Near Railway Crossing Beside Union Bank,Po.Bajua",Unknown,Unknown,391310,Gujarat,Unknown,hospital,Unknown,Unknown,Unknown,Unknown,22.36867,73.1415224
Ganga Clinic,"Kharivav Road, Near G.P.O,Raopura",Unknown,Unknown,390001,Gujarat,Unknown,clinic,Unknown,Unknown,Unknown,Unknown,22.3025471,73.1975008
Shree Maruti Surgical and Trauma Hospital,"Chittekhan,Wadi Waadi,Raopura Main Road",Unknown,Unknown,390001,Gujarat,Unknown,hospital,Unknown,Unknown,Unknown,Unknown,22.3044008,73.1997719
Deep Pain Management Centre Hospital,"18, Deepawali Society, Karelibaug",Unknown,Unknown,390018,Gujarat,Unknown,hospital,Unknown,Unknown,Unknown,Unknown,22.3200373,73.2009025
Aayush Children Hospital,Kalind Complex Near Amit Nagar Vip Main Road,Unknown,Unknown,390006,Gujarat,Unknown,hospital,Unknown,Unknown,Unknown,Unknown,22.326976,73.2067792
Indrapuri Hospital,"Uma Char Rasta, Waghodia Road",Unknown,Unknown,390019,Gujarat,Unknown,hospital,Unknown,Unknown,Unknown,Unknown,22.3005265,73.2303109
Shrey Children Hospital Neonatal Care,202 Jagannathpuri Complex Subhanpura,Unknown,Unknown,390023,Gujarat,Unknown,hospital,Unknown,Unknown,Unknown,Unknown,22.3232294,73.1580354
Bina Clinic Eye Care Centre,"11/B, Sampatrao Colony, R C Dutt Alkapuri",Unknown,Unknown,390007,Gujarat,Unknown,hospital,Unknown,Unknown,Unknown,Unknown,22.3094916,73.1764179
Citizen Hospital,"Opposite Bapod Talav, Near Dabhoi Dashalad Bhavan, Ajwa-Waghodia Ring Road, New Vip H.T.Ring Road",Unknown,Unknown,390019,Gujarat,Unknown,hospital,Unknown,Unknown,Unknown,Unknown,22.3050746,73.2390878
"Maitri Hospital, Vadodara","Labh Complex, ,Near New India Mill,Jatalpur Road",Unknown,Unknown,390007,Gujarat,Unknown,hospital,Unknown,Unknown,Unknown,Unknown,22.3072608,73.1771931
Shreejala Hospital,"Shreejala,Raopura",Unknown,Unknown,390001,Gujarat,Unknown,hospital,Unknown,Unknown,Unknown,Unknown,22.301516,73.2004975
City Plaza Eye Clinic,"301,City Rishikesh Tower Next To Dalia Patel Wadi,Near Geeta Mandir",Unknown,Unknown,390001,Gujarat,Unknown,clinic,Unknown,Unknown,Unknown,Unknown,22.3032283,73.2009548
"Shreeji Hospital, Sangam","Opposite Narshidham Complex, Behind Sangam Bus Stop, Near Sangam Cross Road, Harni Road",Unknown,Unknown,390018,Gujarat,Unknown,hospital,Unknown,Unknown,Unknown,Unknown,22.3202792,73.2125822
"Centre For Sight, Allkapuri 2","303, Siddhartha Complex, R.C.Dutt Road, Alkapuri, Branch 2",Unknown,Unknown,390011,Gujarat,Unknown,hospital,Unknown,Unknown,https://www.centreforsight.net/,Unknown,22.3180535,73.170619
Siddhi Clinic,"107, Patel Plaza, Opposite Harinagar Bus Stand,Gotri",Unknown,Unknown,390023,Gujarat,Unknown,clinic,Unknown,Unknown,Unknown,Unknown,22.3107596,73.1538968
Premier Kidney Care Pvt.Ltd.,"17,Shreenagar Society.Near Urmi Crosingmill Road",Unknown,Unknown,390001,Gujarat,Unknown,hospital,Unknown,Unknown,Unknown,Unknown,22.3008919,73.1745431
Baroda Children Eye Care And Squint Clinic,"1st Floor, Sunrise Apt., Behind Central, Nutan Bharat Society,Alkapuri",Unknown,Unknown,390007,Gujarat,Unknown,clinic,Unknown,Unknown,Unknown,Unknown,22.3107832,73.1662685
"Unity Hospital, Vadodara",Race Course Circle( West),Unknown,Unknown,390001,Gujarat,Unknown,hospital,Unknown,Unknown,Unknown,Unknown,22.312045,73.1524202
"Madhuram Hospital, Vadodara","A-52.Dajinagar Society, Vadodara",Unknown,Unknown,390006,Gujarat,Unknown,hospital,Unknown,Unknown,Unknown,Unknown,22.3128601,73.2231742
Anand Medical Nursing Home,"Near Dabhoi Nagrik Bank, Gajanan Park, Uma Char Rasta, Waghodia Road",Unknown,Unknown,390019,Gujarat,Unknown,hospital,Unknown,Unknown,Unknown,Unknown,22.3015185,73.2298462
Anand Multi Speciality Hospital,"B - Tower Sundervan Complex, Near Gurwa Iti , Bsei Deicul, Petrol Pump , Gorwa Refinery Road, Gorwa Petrol Pump , Gorwa Refinery Road, Gorwa",Unknown,Unknown,390016,Gujarat,Unknown,hospital,Unknown,Unknown,Unknown,Unknown,22.3355498,73.1531914
Shushrut Hospital,"Atmiya Complex, Vip Road",Unknown,Unknown,390018,Gujarat,Unknown,hospital,Unknown,Unknown,Unknown,Unknown,22.3273183,73.2100086
Subhechha Multispeciality Hospitals Pvt. Ltd,"409/412, Shrinagar Society, Near Urmi Char Rasta, Akota",Unknown,Unknown,390020,Gujarat,Unknown,hospital,Unknown,Unknown,Unknown,Unknown,22.3007964,73.1743486
Avdhoot Neurosurgical Hospital,"1/A,Ranjan Society,Near Suvarna Puri Society",Unknown,Unknown,390007,Gujarat,Unknown,hospital,Unknown,Unknown,Unknown,Unknown,22.3070132,73.1703736
Sameep Children Hospital,"Chaturvedi Park,Opp Rajdhani Society,Harni-Varasia Ring Road",Unknown,Unknown,390006,Gujarat,Unknown,hospital,Unknown,Unknown,Unknown,Unknown,22.3140326,73.2222582
Modi Nursing Home and Iccu,"A 101 Kalpavrux,Opposite Board Electricity Station",Unknown,Unknown,390021,Gujarat,Unknown,clinic,Unknown,Unknown,Unknown,Unknown,22.3136907,73.145187
Minal Clinic,"105, Kailash Apartment, Opposite Harinagar Water Tank,Gotri Road",Unknown,Unknown,390021,Gujarat,Unknown,clinic,Unknown,Unknown,Unknown,Unknown,22.3093874,73.1528896
Maharshi Atreya Health Centre - Ayurveda Panchakarma Health Centre,"Maharshi Atreya Health Centre - Ayurvedic Panchakarma Hospital, Undera Koyali Main Road, At And Post Undera",Unknown,Unknown,391330,Gujarat,Unknown,clinic,Unknown,Unknown,Unknown,Unknown,22.3520058,73.1300104
Anupama Eye Hospital and Phaco Center,"2nd Floor, Rutwik Anandvan Complex, Subhanpura New Ipcl Road",Unknown,Unknown,390023,Gujarat,Unknown,hospital,Unknown,Unknown,Unknown,Unknown,22.327621,73.1548463
"Krishna Nursing Home, Vadodara","4-D, Tashkand Society, Near Delux Bus Stand, Nizampura",Unknown,Unknown,390002,Gujarat,Unknown,clinic,Unknown,Unknown,Unknown,Unknown,22.3356965,73.1783944
Raj Kidacare and Neonatal Care,"Ajanta Apartment,1st Floor.R.T.O Road",Unknown,Unknown,390006,Gujarat,Unknown,hospital,Unknown,Unknown,Unknown,Unknown,22.3084996,73.2150988
"Shreenath Hospital, Vadodara","Utang Building, New Ipcl Road, Subhanpura",Unknown,Unknown,390023,Gujarat,Unknown,hospital,Unknown,Unknown,Unknown,Unknown,22.3279746,73.1546766
Shailee E.N.T. Hospital,"2nd Floor, Vama Complex, Ayurvedic Three Road,Pani Gate",Unknown,Unknown,390001,Gujarat,Unknown,hospital,Unknown,Unknown,Unknown,Unknown,22.3003782,73.2204323
Sangam Critical Care and Trauma Centre,"Opp-Sangam Bus Stand, Sangam Char Rasta, Harni Road, Karelibaug",Unknown,Unknown,390021,Gujarat,Unknown,clinic,Unknown,Unknown,Unknown,Unknown,22.3205888,73.2116555
Sarthak Hospital and Skin Care Centre,"5-Apsara Soc.,OppositeSilver Apartment, Near Ganga Jamna Hospital, Subhanpura",Unknown,Unknown,390021,Gujarat,Unknown,hospital,Unknown,Unknown,Unknown,Unknown,22.3206365,73.1598848
Baroda Eye Institute,"15,Navrang Complex,Raopura",Unknown,Unknown,390001,Gujarat,Unknown,hospital,Unknown,Unknown,Unknown,Unknown,22.3017952,73.2009011
Gunjan Hospital And Icu Unit,"B-27/349,A/F2 Indra Prasth Complex, Opp Swaminarayan Nagar, Nizampura",Unknown,Unknown,390002,Gujarat,Unknown,hospital,Unknown,Unknown,Unknown,Unknown,22.3394356,73.1779066
Maa Children Hospital,"1st Floor Lalita Towers, Near . Rajpath Hotel, B / H Railway Station",Unknown,Unknown,390001,Gujarat,Unknown,hospital,Unknown,Unknown,Unknown,Unknown,22.3083166,73.1798995
Kamat Eye Hospital,"1st Floor, Vinraj Plaza, Opposite Government Press, Kothi",Unknown,Unknown,390001,Gujarat,Unknown,hospital,Unknown,Unknown,Unknown,Unknown,22.3041378,73.1934969
Aayush Orthopedic Hospital and Joint Replacement Center,"G.P.O. Lane, Kharivav Road,Opposite Police Ground,Raopura",Unknown,Unknown,390001,Gujarat,Unknown,hospital,Unknown,Unknown,Unknown,Unknown,22.3029988,73.1975108
Arman Children Hospital,"Kishan Copmlex Opp, Yash Comp, Gortri Road",Unknown,Unknown,390021,Gujarat,Unknown,hospital,Unknown,Unknown,Unknown,Unknown,22.3164252,73.1379745
"Shreeji Hospital, Ayurvedic Cross Road","1st Floor, Vama Square, Ayurvedic Cross Road, Outside Panigate",Unknown,Unknown,390017,Gujarat,Unknown,hospital,Unknown,Unknown,Unknown,Unknown,22.3004117,73.2208608
"Mehta Nursing Home, Vadodara","C-10 Srinathji Kripa Society, Near Arunachal Society Subhanpura Subhanpura",Unknown,Unknown,390023,Gujarat,Unknown,clinic,Unknown,Unknown,Unknown,Unknown,22.3259847,73.1546686
Atmaj Eye Care Centre,"G-1,Sudhan Apts,OppositeTejas Vidyalaya.Atmalyoti Ashram Road",Unknown,Unknown,390023,Gujarat,Unknown,hospital,Unknown,Unknown,Unknown,Unknown,22.3163985,73.1582808
Shrinathji Hospital and Icu,"22 Uday Nagar Society, Opp Indrapuri Atithi Gruh",Unknown,Unknown,390019,Gujarat,Unknown,hospital,Unknown,Unknown,Unknown,Unknown,22.3034107,73.229354
Aashray Uro-Andrology Clinic,"103, Mangal Ashish, 31, Sampatrao Colony, Alkapuri",Unknown,Unknown,390007,Gujarat,Unknown,clinic,Unknown,Unknown,Unknown,Unknown,22.3090567,73.1760317
"Navkar Children Hospital, Vadodara","A-2, 54-Maikrupa Society, Opposite Mental Hospital,Karelibaug",Unknown,Unknown,390018,Gujarat,Unknown,hospital,Unknown,Unknown,Unknown,Unknown,22.3205497,73.1972332
"Medical College Hospital, Baroda","Medical College, BarodaAnandpura",Unknown,Unknown,390001,Gujarat,Unknown,hospital,Unknown,Unknown,http://www.medicalcollegebaroda.edu.in/,Unknown,22.3044852,73.1917025
Shree Vijay Vallabh Sarvajanik Hospital,"Shree Vijay Vallabh Marg, Chhipwad",Unknown,Unknown,390006,Gujarat,Unknown,hospital,Unknown,Unknown,Unknown,Unknown,22.3015198,73.2006088
Dr. Kadam Eye Hospital & Institute,"8,Urmi Society.Productivity Road,Akota",Unknown,Unknown,390007,Gujarat,Unknown,hospital,Unknown,Unknown,Unknown,Unknown,22.3014701,73.1731081
Vraj Children Hospital,"101, Pushti Smruti Apt. Opposite Suryanagar Garba Ground, Waghodia Road",Unknown,Unknown,390019,Gujarat,Unknown,hospital,Unknown,Unknown,Unknown,Unknown,22.3013001,73.2259208
Samanvaya Trust Hospital,"Parimal Mujumdar Wada, Pratap Road, Raopura",Unknown,Unknown,390001,Gujarat,Unknown,hospital,Unknown,Unknown,Unknown,Unknown,22.301722,73.1988385
Premdas Jalaram Hospital,"B/H, R.T.O., Premdasnagar,S. K. Colony",Unknown,Unknown,390006,Gujarat,Unknown,hospital,Unknown,Unknown,Unknown,Unknown,22.3122131,73.2229523
Parth Hospital Child Hospital and Maternity Home,"Aaditya Vila Complex, Near Ramakaka Dairy, Chhani",Unknown,Unknown,391740,Gujarat,Unknown,hospital,Unknown,Unknown,Unknown,Unknown,22.3560691,73.1680951
Hi-Tech Eye Surgery Clinic,"229,Siddarth Complex,R.C Dutt Road,Alkapuri",Unknown,Unknown,390007,Gujarat,Unknown,clinic,Unknown,Unknown,Unknown,Unknown,22.3094879,73.1696185
Modi Clinic,"Nizampura Main Road, Next To Jay Complex",Unknown,Unknown,390002,Gujarat,Unknown,clinic,Unknown,Unknown,Unknown,Unknown,22.3338026,73.1807712
Rutvij Hospital,"OppositeHarinagar Bus Stop,Gorti Road",Unknown,Unknown,390021,Gujarat,Unknown,hospital,Unknown,Unknown,Unknown,Unknown,22.3108302,73.1538752
Darsh Orthodontic Clinic,"302, Chitra Complex, Above Prime Bank, Muktanand Tran Rasta, Karelibaug",Unknown,Unknown,390023,Gujarat,Unknown,clinic,Unknown,Unknown,Unknown,Unknown,22.3219876,73.1971041
Sapan Hospital Maternity and Nursinghom,Pratap Road,Unknown,Unknown,390001,Gujarat,Unknown,hospital,Unknown,Unknown,Unknown,Unknown,22.3026182,73.1977234
San - Dip Nursing Home,"1, Delux Society,Opposite Jain Derasar, Nizampura",Unknown,Unknown,390002,Gujarat,Unknown,clinic,Unknown,Unknown,Unknown,Unknown,22.3342182,73.1790479
"GMERS Medical College and Hospital, Gotri","Gotri Main Road, (Old TB Hospital Campus)",Unknown,Unknown,390021,Gujarat,Unknown,hospital,Unknown,Unknown,https://gmersmcgv.ac.in/,Unknown,22.3138502,73.148016
Smita Surgical Clinic,"1st Floor, Hare Krishna Complex, Chhani Jakat Naka",Unknown,Unknown,390024,Gujarat,Unknown,clinic,Unknown,Unknown,Unknown,Unknown,22.3439483,73.1759566
Aesthetique Centre For Plastic and Cosmetic Surgery,"2nd Floor, Corrum, Next To Only Parathas, Jetalpur Road, Alkapuri",Unknown,Unknown,390007,Gujarat,Unknown,hospital,Unknown,Unknown,Unknown,Unknown,22.3078582,73.1695434
Rushikesh Maternity Hospital,"Anjana Park, Opposite Vidhyavihar School, Subhanpura",Unknown,Unknown,390007,Gujarat,Unknown,hospital,Unknown,Unknown,Unknown,Unknown,22.3247528,73.1566574
Kesha Hospital,"# 30-B, Vishwas Colony,B/H Alkapuri Shopping Centre,Alkapuri",Unknown,Unknown,390007,Gujarat,Unknown,hospital,Unknown,Unknown,Unknown,Unknown,22.3093204,73.1719199
Krishna Critical Child Care Pvt Ltd,"78-A, Urmi Society, Near Haveli, Productivity Road, Akota",Unknown,Unknown,390020,Gujarat,Unknown,clinic,Unknown,Unknown,Unknown,Unknown,22.3095028,73.1763542
Kashvi Digestive Centre - Vadodara,"35, Samapatrav Colonyfirst Floor Alkapuri",Unknown,Unknown,390007,Gujarat,Unknown,hospital,Unknown,Unknown,Unknown,Unknown,22.3140164,73.1746966
"Dev Hospital And Iccu, Vadodara","S-9 To 15, Dev Commercial Nr Race Cource Circle/Natubhai Centre Gotri Road",Unknown,Unknown,390007,Gujarat,Unknown,hospital,Unknown,Unknown,Unknown,Unknown,22.3108762,73.1564288
Ashutosh Clinic,"1st Floor, Shrinath Chambers, Near Guru Class, Sardar Bhavan Lane",Unknown,Unknown,390001,Gujarat,Unknown,clinic,Unknown,Unknown,Unknown,Unknown,22.305721,73.2041252
Dr Jitendra .C. Gandhi,"Near Maharani High School, Raoupura",Unknown,Unknown,390001,Gujarat,Unknown,hospital,Unknown,Unknown,Unknown,Unknown,22.3035981,73.2012619
Riddhi Hospital,"3/14, Ellora Park, Opposite Indraprasth, Race Course Circle",Unknown,Unknown,390023,Gujarat,Unknown,hospital,Unknown,Unknown,Unknown,Unknown,22.3147726,73.1593524
Noble Nursing Home,"1st Floor,A Tower, Surya Flat, Chhani Road, Opposite Swaminarayan Nagar, Nizampura",Unknown,Unknown,390002,Gujarat,Unknown,clinic,Unknown,Unknown,Unknown,Unknown,22.3379533,73.1781956
Ohm Clinic,"Near Chhani Nagrik Sahakari Bank, Chhani",Unknown,Unknown,391740,Gujarat,Unknown,clinic,Unknown,Unknown,Unknown,Unknown,22.3618122,73.167511
Dhvani Ent Hospital,"Near G P O, Raopura",Unknown,Unknown,390001,Gujarat,Unknown,hospital,Unknown,Unknown,Unknown,Unknown,22.3027357,73.1976872
Aum Advanced Orthopaedic Clinic,OppositeHotel Royel Alkapuri,Unknown,Unknown,390007,Gujarat,Unknown,clinic,Unknown,Unknown,Unknown,Unknown,22.3082658,73.1752284
Akshar Orhopedic Hospital - Vadodara,"X - 2, Earth Complex, Akshar Chowk, Old Padra Road, Near Hero Honda Showroom",Unknown,Unknown,390006,Gujarat,Unknown,hospital,Unknown,Unknown,Unknown,Unknown,22.3071466,73.1811547
Neel Medical Nursing Home,"Amin Chambers, Opp, Alembic Nagar, Gorwa Road",Unknown,Unknown,390016,Gujarat,Unknown,clinic,Unknown,Unknown,Unknown,Unknown,22.3341615,73.156316
Sudha Eye Hospital,Vadodara,Unknown,Unknown,390001,Gujarat,Unknown,hospital,Unknown,Unknown,Unknown,Unknown,22.3166107,73.2122549
Pranayam Lung Institute And Research Centre Hospital,"Lakulesh Park Society, Near Sadhuvaswani School, New Vip Road",Unknown,Unknown,390021,Gujarat,Unknown,hospital,Unknown,Unknown,Unknown,Unknown,22.3223362,73.2225184
Sokhada PHC,sokhada,Unknown,Unknown,382830,Gujarat,Unknown,Unknown,centre,Unknown,Unknown,Unknown,22.4198275,73.1641534
Sai Om Physiotherapy & Spine Health Centre,Subhanpura,Unknown,Unknown,390023,Gujarat,Unknown,hospital,Unknown,Unknown,Unknown,Unknown,22.3245722,73.1572105
Dr. Namisha Patel City Clinic,Pratap Gunj,Unknown,Unknown,390020,Gujarat,Unknown,clinic,Unknown,Unknown,Unknown,Unknown,22.3155542,73.1831107
Vrajrenu Orthopaedic Hospital,Unknown,Unknown,Unknown,390012,Gujarat,Unknown,hospital,Unknown,Unknown,Unknown,Unknown,22.3054,73.138687
Baroda Laparoscopy Hospital,Alkapuri,Unknown,Unknown,390007,Gujarat,Unknown,hospital,Unknown,Unknown,Unknown,Unknown,22.3088019,73.175811
Himalaya Cancer Hospital & Research Institute,Alkapuri,Unknown,Unknown,390020,Gujarat,Unknown,hospital,Unknown,Unknown,Unknown,Unknown,22.3067785,73.176878
Sakhiya Skin Clinic,Vadiwadi,Unknown,Unknown,390007,Gujarat,Unknown,clinic,Unknown,Unknown,Unknown,Unknown,22.3079976,73.1723082
Arpan Clinic,Alkapuri,Unknown,Unknown,390021,Gujarat,Unknown,clinic,Unknown,Unknown,Unknown,Unknown,22.3094691,73.1763927
Manusmruti Hospital,Subhanpura,Unknown,Unknown,390023,Gujarat,Unknown,hospital,Unknown,Unknown,Unknown,Unknown,22.31827,73.159115
Child Hospital,Subhanpura,Unknown,Unknown,390003,Gujarat,Unknown,hospital,Unknown,Unknown,Unknown,Unknown,22.3226436,73.1589457
Jeevan Jyot Children & Dental Hospital,Unknown,Unknown,Unknown,390003,Gujarat,Unknown,hospital,Unknown,Unknown,Unknown,Unknown,22.3239978,73.157596
Aakar Plastic Surgery Hospital,Sampatrao,Unknown,Unknown,390015,Gujarat,Unknown,hospital,Unknown,Unknown,Unknown,Unknown,22.3077668,73.175144
Sahayog Medical Centre,Subhanpura,Unknown,Unknown,390023,Gujarat,Unknown,clinic,Unknown,Unknown,Unknown,Unknown,22.3255445,73.1545908
ESI Hospital,Gotri,Unknown,Unknown,390021,Gujarat,Unknown,hospital,Unknown,Unknown,Unknown,Unknown,22.3090247,73.1498138
Madhuvan Maternity and Eye Hospital,Diwalipura,Unknown,Unknown,390021,Gujarat,Unknown,hospital,Unknown,Unknown,Unknown,Unknown,22.3102086,73.1527805
Mangalam Hospital,Unknown,Unknown,Unknown,390015,Gujarat,Unknown,hospital,Unknown,Unknown,Unknown,Unknown,22.303549,73.149379
Shree Chimanbhai Patel Orthopaedic Hospital,"Anand Nagar, Jetalpur",Unknown,Unknown,390005,Gujarat,Unknown,hospital,Unknown,Unknown,Unknown,Unknown,22.3075831,73.1776929
Vigos Hospital,Alkapuri,Unknown,Unknown,390007,Gujarat,Unknown,hospital,Unknown,Unknown,Unknown,Unknown,22.3082558,73.1699738
Bharucha Hospital,Unknown,Unknown,Unknown,390023,Gujarat,Unknown,hospital,Unknown,Unknown,Unknown,Unknown,22.324579,73.156779
Nene Clinic,Gotri,Unknown,Unknown,390021,Gujarat,Unknown,clinic,Unknown,Unknown,Unknown,Unknown,22.3177026,73.1485198
Shiv Sagar Hospital,"Gadapura, Diwalipura",Unknown,Unknown,390007,Gujarat,Unknown,hospital,Unknown,Unknown,Unknown,Unknown,22.3037938,73.1562346
Shivani Hospital,Unknown,Unknown,Unknown,390007,Gujarat,Unknown,hospital,Unknown,Unknown,Unknown,Unknown,22.314052,73.14648
Sneh Clinic,Alkapuri,Unknown,Unknown,390023,Gujarat,Unknown,clinic,Unknown,Unknown,Unknown,Unknown,22.3152525,73.1687002
Sanidhya Clinic,Akota,Unknown,Unknown,390015,Gujarat,Unknown,clinic,Unknown,Unknown,Unknown,Unknown,22.3018049,73.1666218
Homeopathy Clinic,"Chikuwadi, Haripura",Unknown,Unknown,390007,Gujarat,Unknown,clinic,Unknown,Unknown,Unknown,Unknown,22.3054704,73.1663729
Vadodara Critical Child Care Centre,"Sampatrao Colony, Jetalpur",Unknown,Unknown,390007,Gujarat,Unknown,hospital,Unknown,Unknown,Unknown,Unknown,22.309353,73.176368
Kalyan Chest Hospital,Alkapuri,Unknown,Unknown,390007,Gujarat,Unknown,hospital,Unknown,Unknown,Unknown,Unknown,22.3088775,73.1684778
Om Shiv Hospital,Jay Jalaram Nagar Society,Unknown,Unknown,390015,Gujarat,Unknown,hospital,Unknown,Unknown,Unknown,Unknown,22.304466,73.147448
Aadit Nursing Home,Unknown,Unknown,Unknown,390021,Gujarat,Unknown,clinic,Unknown,Unknown,Unknown,Unknown,22.3059834,73.148394
Uma Children Hospital,Alkapuri,Unknown,Unknown,390005,Gujarat,Unknown,hospital,Unknown,Unknown,Unknown,Unknown,22.3095398,73.1764991
Tricolour Hospitals,"Genda Circle, Vadiwadi",Unknown,Unknown,390007,Gujarat,Unknown,hospital,Unknown,Unknown,Unknown,Unknown,22.317209,73.1669112
Vadodara Diabetes and Endocrine Centre,Jetalpur Road,Unknown,Unknown,390007,Gujarat,Unknown,hospital,Unknown,Unknown,Unknown,Unknown,22.3078989,73.1688704
Tanvi Maternity & Nursing Home,"Ellora Park, Subhanpura",Unknown,Unknown,390023,Gujarat,Unknown,clinic,Unknown,Unknown,Unknown,Unknown,22.3171853,73.1629455
Pooja Clinic,Unknown,Unknown,Unknown,390007,Gujarat,Unknown,clinic,Unknown,Unknown,Unknown,Unknown,22.309851,73.174449
Parth Hospital,Gotri,Unknown,Unknown,390007,Gujarat,Unknown,hospital,Unknown,Unknown,Unknown,Unknown,22.3046284,73.152101
Aman Hospital & Research Centre,Unknown,Unknown,Unknown,390021,Gujarat,Unknown,hospital,Unknown,Unknown,Unknown,Unknown,22.3092994,73.1487836
Param Clinic,Unknown,Unknown,Unknown,390019,Gujarat,Unknown,clinic,Unknown,Unknown,Unknown,Unknown,22.3214675,73.2318011
Lotus Hospital For Newborn and Children,Bapunagar,Unknown,Unknown,390006,Gujarat,Unknown,hospital,Unknown,Unknown,Unknown,Unknown,22.3167882,73.2204661
Bankers Heart & Multispeciality Hospital,"Bapunagar, Warasiya",Unknown,Unknown,390006,Gujarat,Unknown,hospital,Unknown,Unknown,Unknown,Unknown,22.3175601,73.2209434
Kalrav Children Hospital,"Bapod, Madhavpura",Unknown,Unknown,390019,Gujarat,Unknown,hospital,Unknown,Unknown,Unknown,Unknown,22.3041871,73.2436431
Payal Hospital,Kishanwadi,Unknown,Unknown,390006,Gujarat,Unknown,hospital,Unknown,Unknown,Unknown,Unknown,22.316131,73.223971
Leprosy Hospital,"Jalram Nagar, Madhavpura",Unknown,Unknown,Unknown,Gujarat,Unknown,hospital,Unknown,Unknown,Unknown,Unknown,22.3134401,73.2426118
District TB Centre,"Jalram Nagar, Madhavpura",Unknown,Unknown,390019,Gujarat,Unknown,hospital,Unknown,Unknown,Unknown,Unknown,22.311859,73.245104
Pioneer Homoeopathic Medical College & Hospital,Ajwa,Unknown,Unknown,390019,Gujarat,Unknown,hospital,Unknown,Unknown,Unknown,Unknown,22.3273069,73.2632792
Vatsalya Maternity Hospital,"Waghodia Road, Kaladarshan",Unknown,Unknown,390019,Gujarat,Unknown,hospital,Unknown,Unknown,Unknown,Unknown,22.3165077,73.2329645
Mitra Prashuti Gurha,Unknown,Unknown,Unknown,390019,Gujarat,Unknown,hospital,Unknown,Unknown,Unknown,Unknown,22.315657,73.2452264
Sai Hospital,Unknown,Unknown,Unknown,390019,Gujarat,Unknown,hospital,Unknown,Unknown,Unknown,Unknown,22.3225726,73.2313699
Shree Hospital & ICU,Unknown,Unknown,Unknown,390006,Gujarat,Unknown,hospital,Unknown,Unknown,Unknown,Unknown,22.3105054,73.2240058
Dabhoiwala Surgical Hospital,Unknown,Unknown,Unknown,390019,Gujarat,Unknown,hospital,Unknown,Unknown,Unknown,Unknown,22.3005951,73.2237388
Faith Hospital,Waghodia Road,Unknown,Unknown,390019,Gujarat,Unknown,hospital,Unknown,Unknown,Unknown,Unknown,22.300616,73.2243171
Astitva Clinic,"Kamla Nagar, Madhavpura",Unknown,Unknown,390019,Gujarat,Unknown,clinic,Unknown,Unknown,Unknown,Unknown,22.3161173,73.2494009
Vekaria Gynec Hospital,Unknown,Unknown,Unknown,390018,Gujarat,Unknown,hospital,Unknown,Unknown,Unknown,Unknown,22.315125,73.232251
Omkar Orthopaedic Hospital,"Waghela Nagar, Bapunagar",Unknown,Unknown,390006,Gujarat,Unknown,hospital,Unknown,Unknown,Unknown,Unknown,22.3164046,73.2209228
Care Multispeciality Hospital,Gorwa,Unknown,Unknown,390016,Gujarat,Unknown,hospital,Unknown,Unknown,Unknown,Unknown,22.3412617,73.1546677
ESI Hospital,Gorwa,Unknown,Unknown,390003,Gujarat,Unknown,hospital,Unknown,Unknown,Unknown,Unknown,22.3325772,73.1603154
Arpan Surgical Hospital,Nizampura,Unknown,Unknown,390002,Gujarat,Unknown,hospital,Unknown,Unknown,Unknown,Unknown,22.3338288,73.1806174
Maruti Hospital,"Pensionpura, Nizampura",Unknown,Unknown,390024,Gujarat,Unknown,hospital,Unknown,Unknown,Unknown,Unknown,22.333481,73.181492
Dr. Kadam Eye Hospital,"Swaminarayan Nagar, Sama",Unknown,Unknown,390024,Gujarat,Unknown,hospital,Unknown,Unknown,Unknown,Unknown,22.3376404,73.1790361
Bharti ENT Care Hospital,Nizampura,Unknown,Unknown,390002,Gujarat,Unknown,hospital,Unknown,Unknown,Unknown,Unknown,22.3363925,73.1787441
Swadia Hospital,Kothi,Unknown,Unknown,390001,Gujarat,Unknown,hospital,Unknown,Unknown,Unknown,Unknown,22.301852,73.19567
Sai Orthopaedic Hospital,Gotri,Unknown,Unknown,390021,Gujarat,Unknown,hospital,Unknown,Unknown,Unknown,Unknown,22.316205,73.138012
Aashray Hospital,Gotri,Unknown,Unknown,390021,Gujarat,Unknown,hospital,Unknown,Unknown,Unknown,Unknown,22.324933,73.134721
Cornea Eye Hospital,Gotri,Unknown,Unknown,390021,Gujarat,Unknown,hospital,Unknown,Unknown,Unknown,Unknown,22.31602,73.131906
Urban Health Centre,Gotri,Unknown,Unknown,391101,Gujarat,Unknown,Unknown,centre,Unknown,Unknown,Unknown,22.316229,73.136259
Rhythm Maternity & Surgical Hosiptal,Fatehgunj,Unknown,Unknown,390002,Gujarat,Unknown,hospital,Unknown,Unknown,Unknown,Unknown,22.3195627,73.1891693
C.P. Suthar Physio & Spine Clinic,Unknown,Unknown,Unknown,390016,Gujarat,Unknown,clinic,Unknown,Unknown,Unknown,Unknown,22.3369559,73.1504391
Shivam Surgical Hospital,"Nizampura, Mahesana Nagar",Unknown,Unknown,390002,Gujarat,Unknown,hospital,Unknown,Unknown,Unknown,Unknown,22.3361462,73.17887
Barc Hospital,"Ekta Nagar, Sama",Unknown,Unknown,391740,Gujarat,Unknown,hospital,Unknown,Unknown,Unknown,Unknown,22.3441607,73.1788681
Baroda Hospital,"Salatwada, Karelibagh, Vadodara",Unknown,Unknown,390001,Gujarat,Unknown,hospital,Unknown,Unknown,Unknown,Unknown,22.305838,73.192306
Dr. Pankaj Vyas Accident & Fracture Hospital,"Chitrakut, Ashirwad Nagar",Unknown,Unknown,390016,Gujarat,Unknown,hospital,Unknown,Unknown,Unknown,Unknown,22.3341528,73.1554985
Gorwa Panchavati Health Centre,Gorwa,Unknown,Unknown,390003,Gujarat,Unknown,clinic,Unknown,Unknown,Unknown,Unknown,22.3310688,73.1574174
Patel Hospital and ICU,Gotri,Unknown,Unknown,390021,Gujarat,Unknown,hospital,Unknown,Unknown,Unknown,Unknown,22.315514,73.134042
Gandhi Hospital,Sursagar,Unknown,Unknown,390001,Gujarat,Unknown,hospital,Unknown,Unknown,Unknown,Unknown,22.302593,73.202446
Param Ayurved Hospital,Sankarda,Unknown,Unknown,391350,Gujarat,Unknown,hospital,Unknown,Unknown,Unknown,Unknown,22.431174,73.122632
Shubh Hospital,"Ekta Nagar, Sama",Unknown,Unknown,390024,Gujarat,Unknown,hospital,Unknown,Unknown,Unknown,Unknown,22.342766,73.1828
Sahayog Surgical Centre,Panchvati,Unknown,Unknown,390016,Gujarat,Unknown,clinic,Unknown,Unknown,Unknown,Unknown,22.336323,73.151234
The Cure Urological Hospital,Vemali,Unknown,Unknown,391740,Gujarat,Unknown,hospital,Unknown,Unknown,Unknown,Unknown,22.352144,73.205968
Pujam Hospital,Panchvati,Unknown,Unknown,390016,Gujarat,Unknown,hospital,Unknown,Unknown,Unknown,Unknown,22.3382249,73.1486145
Parul Clinic,Raopura,Unknown,Unknown,390001,Gujarat,Unknown,clinic,Unknown,Unknown,Unknown,Unknown,22.3033662,73.1989274
Shivendu Clinic,Unknown,Unknown,Unknown,390024,Gujarat,Unknown,clinic,Unknown,Unknown,Unknown,Unknown,22.338813,73.193795
Kamubala Hospital,"Ekta Nagar, New Sama",Unknown,Unknown,390024,Gujarat,Unknown,hospital,Unknown,Unknown,Unknown,Unknown,22.3449059,73.1928618
Khushbu Children Hospital,"Navyard, Sardar Nagar, Nizampura",Unknown,Unknown,390002,Gujarat,Unknown,hospital,Unknown,Unknown,Unknown,Unknown,22.3326105,73.1731832
RH Hospital,"Pardeshi Nagar, Manjusar",Unknown,Unknown,391775,Gujarat,Unknown,hospital,Unknown,Unknown,Unknown,Unknown,22.440231,73.184038
Sudhalkar Eye Hospital and Retina Centre,"Raopura, Mandvi",Unknown,Unknown,390001,Gujarat,Unknown,hospital,Unknown,Unknown,Unknown,Unknown,22.303092,73.202518
Sayaji Hospital,Anandpura,Unknown,Unknown,390001,Gujarat,Unknown,hospital,Unknown,Unknown,Unknown,Unknown,22.301478,73.193684
Coral Hospital Orthopaedic and Surgical Care,Unknown,Unknown,Unknown,390024,Gujarat,Unknown,hospital,Unknown,Unknown,Unknown,Unknown,22.3495036,73.2007505
Urmil Children Hospital,Nizampura,Unknown,Unknown,390002,Gujarat,Unknown,hospital,Unknown,Unknown,Unknown,Unknown,22.331953,73.180529
Derma Care,Unknown,Unknown,Unknown,390001,Gujarat,Unknown,clinic,Unknown,Unknown,Unknown,Unknown,22.3029232,73.1990982
Umiya Hospital,Gorwa,Unknown,Unknown,390016,Gujarat,Unknown,hospital,Unknown,Unknown,Unknown,Unknown,22.336307,73.154401
Sumandeep Hospital,"Anandpura, Kothi",Unknown,Unknown,390001,Gujarat,Unknown,hospital,Unknown,Unknown,Unknown,Unknown,22.303054,73.193186
Government Hospital,Unknown,Unknown,Unknown,391740,Gujarat,Unknown,hospital,Unknown,Unknown,Unknown,Unknown,22.339582,73.168995
Manav Hospital,"Laxmipura, Subhanpura",Unknown,Unknown,390023,Gujarat,Unknown,hospital,Unknown,Unknown,Unknown,Unknown,22.324914,73.140242
Devamut Hospital,Unknown,Unknown,Unknown,390021,Gujarat,Unknown,hospital,Unknown,Unknown,Unknown,Unknown,22.316228,73.131322
Bhumi Hospital,Unknown,Unknown,Unknown,390001,Gujarat,Unknown,clinic,Unknown,Unknown,Unknown,Unknown,22.3065705,73.2044425
Matrukrupa Children Hospital,Unknown,Unknown,Unknown,391740,Gujarat,Unknown,hospital,Unknown,Unknown,Unknown,Unknown,22.34994,73.173684
Naik Super Speciality Hospital,Raopura,Unknown,Unknown,390001,Gujarat,Unknown,hospital,Unknown,Unknown,Unknown,Unknown,22.30569,73.1928928
Riddhi Children Hospital,Abhilasha,Unknown,Unknown,391740,Gujarat,Unknown,hospital,Unknown,Unknown,Unknown,Unknown,22.342652,73.186688
Sahaj Children & Multispeciality Hospital,"Laxmipura, Gotri",Unknown,Unknown,390021,Gujarat,Unknown,hospital,Unknown,Unknown,Unknown,Unknown,22.316041,73.137541
Gopinathji Hospital,New Sama,Unknown,Unknown,390024,Gujarat,Unknown,hospital,Unknown,Unknown,Unknown,Unknown,22.3447663,73.1857409
Urban Health Centre,Chhani Jakatnaka,Unknown,Unknown,391740,Gujarat,Unknown,Unknown,centre,Unknown,Unknown,Unknown,22.344726,73.168768
Anand Hospital,"Sardar Nagar, Nizampura",Unknown,Unknown,390002,Gujarat,Unknown,hospital,Unknown,Unknown,Unknown,Unknown,22.3323897,73.1804431
Manjusar Hospital,"Manjusar, Savli",Unknown,Unknown,391775,Gujarat,Unknown,hospital,Unknown,Unknown,Unknown,Unknown,22.4499208,73.1896901
Our Lady of Pillar Hospital,"24, Fatehganj Main Rd, Jayesh Colony, Fatehgunj, Vadodara, Gujarat 390002",Unknown,Unknown,Unknown,Unknown,Unknown,hospital,Unknown,Unknown,Unknown,Unknown,22.3249419,73.1893693
Kasturba Hospital,"University Road, Fatehgunj, Vadodara, Gujarat 390002",Unknown,Unknown,Unknown,Unknown,Unknown,hospital,Unknown,Unknown,Unknown,Unknown,22.3239296,73.1891988
ANANT SEXOLOGY CLINIC,Unknown,Above Ratneshwari Med. Store (2nd Floor ) Abhilasha Char Rasta New Sama Road PO EME BA,baroda,390008,Unknown,Unknown,clinic,clinic,Unknown,https://www.anantsexologyclinic.com/,Unknown,22.3426423,73.186392
Namah Orthodontic & Dental Clinic,Unknown,"Behind collabera, Near crystal yagnpurush bunglows, Gotri-Sevasi Road",Vadodara,390021,Unknown,Unknown,hospital,hospital,Unknown,Unknown,Unknown,22.312052,73.1266739
Baroda Eye Institute,Unknown,Sama Savli Road,Vadodara,Unknown,Unknown,Unknown,hospital,hospital,Unknown,Unknown,Unknown,22.3549875,73.1995668
Rhythm Heart Institute,Unknown,"Near Siddhartha bungalows, Besides Urmi School Over bridge, Sama-Savli Road,",Vadodara,390022,Unknown,IN,hospital,hospital,+91 9979841924,https://www.rhythmheart.com/,Unknown,22.337946,73.2049649
Joshi orthodontic & Implant dental care,Unknown,"A1 ratnaprabha society near sang cross road, 22, Harni - Warasiya Ring Rd, Harani, Warasiya",Vadodara,390022,Unknown,Unknown,doctors,doctor,Unknown,Unknown,Unknown,22.3197001,73.2130865
