Name,Full Address,Street,City,Postcode,State,Country,Amenity,Healthcare,Phone,Website,Opening Hours,Latitude,Longitude
Unknown,Unknown,Unknown,Unknown,Unknown,Unknown,Unknown,hospital,Unknown,Unknown,Unknown,Unknown,25.3162104,83.0050584
Unknown,Unknown,Unknown,Unknown,Unknown,Unknown,Unknown,hospital,Unknown,Unknown,Unknown,Unknown,25.3384937,82.9959608
Punjabi Hospital,Unknown,Unknown,Unknown,Unknown,Unknown,Unknown,hospital,hospital,Unknown,Unknown,Unknown,25.3460988,83.0372616
Unknown,Unknown,Unknown,Unknown,Unknown,Unknown,Unknown,pharmacy,pharmacy,Unknown,Unknown,Unknown,25.3044003,82.9791034
The Apolo Clinic,B 38/46 H Raman Niwas Mahmoorganj,Unknown,Unknown,221002,Uttar Pradesh,Unknown,clinic,clinic,Unknown,Unknown,Unknown,25.3041865,82.9784124
Ramakrishna Mission Home Of Service,"d-45, 5,Ramapura Luxa",Unknown,Unknown,221010,Uttar Pradesh,Unknown,hospital,Unknown,Unknown,Unknown,Unknown,25.3068304,82.9978198
Singh Medical And Surgical Centre,S-14/84G Taliyabagh Near Patel Dharmshala,Unknown,Unknown,221002,Uttar Pradesh,Unknown,hospital,Unknown,Unknown,Unknown,Unknown,25.3264652,82.9927117
Jamea Hospital,Pilikothi Pilikothi,Unknown,Unknown,221001,Uttar Pradesh,Unknown,hospital,Unknown,Unknown,Unknown,Unknown,25.3246623,83.0149859
Surya Super Speciality Hospital,"D 63/6- K Prime Tower, Mahmoorganj",Unknown,Unknown,221010,Uttar Pradesh,Unknown,hospital,hospital,Unknown,https://suryahealthcare.in/,Unknown,25.3051973,82.9805182
St Mary Hospital,"Korauta,Lohta,Gopalpur",Unknown,Unknown,221107,Uttar Pradesh,Unknown,hospital,Unknown,Unknown,Unknown,Unknown,25.315928,82.9106507
Ajay Hospital Accident Care and Surgical Hospital,"S-2, 639/19,Mritunjaya Dham Colony,Kachari-Central Jail Road,Sikrol",Unknown,Unknown,221003,Uttar Pradesh,Unknown,hospital,Unknown,Unknown,Unknown,Unknown,25.342448,82.9774846
"Janseva Hospital, Varanasi","Chandpur, Mudaila",Unknown,Unknown,221002,Uttar Pradesh,Unknown,hospital,Unknown,Unknown,www.jansevahospital.com,Unknown,25.3026937,82.952709
Arunoday Hospital,"D,59/71-B,Mehmoorganj",Unknown,Unknown,221001,Uttar Pradesh,Unknown,hospital,hospital,Unknown,Unknown,Unknown,25.3043668,82.9815736
Varuna Hospital,"Near Police Station, Manduadih",Unknown,Unknown,221002,Uttar Pradesh,Unknown,hospital,hospital,Unknown,Unknown,Unknown,25.3023421,82.9645711
"Vivek Hospital, Varanasi",Monduadin Mahraulli,Unknown,Unknown,221108,Uttar Pradesh,Unknown,hospital,Unknown,Unknown,Unknown,Unknown,25.3006034,82.9560819
Nandini Medicare,"C-33/52-Ie, Chandua Chittupur, Sigra",Unknown,Unknown,221002,Uttar Pradesh,Unknown,hospital,Unknown,Unknown,Unknown,Unknown,25.3153485,82.9855648
Shubham Hospitals,Varanasi,Unknown,Unknown,221002,Uttar Pradesh,Unknown,hospital,hospital,Unknown,Unknown,Unknown,25.3117923,82.9856793
Prince Clinic and Nursing Home,"S. 17/330-E 1, Maldahiya",Unknown,Unknown,221002,Uttar Pradesh,Unknown,clinic,Unknown,Unknown,Unknown,Unknown,25.3274904,82.9914415
Dr. S.Nath Memorial Eye Clinic Phaco and Laser Centre,Lahurabir Rd,Unknown,Unknown,221001,Uttar Pradesh,Unknown,clinic,Unknown,Unknown,Unknown,Unknown,25.3230301,83.0010518
R.K Netralaya,"Motijheet,Mahmoorganj",Unknown,Unknown,221002,Uttar Pradesh,Unknown,hospital,hospital,Unknown,Unknown,Unknown,25.3036115,82.9756862
The Fractures Clinic and Trauma Hospital,"B 38/47- 5, Mahmoorganj,opposit to Reliance Petrol Pump",Unknown,Unknown,221010,Uttar Pradesh,Unknown,clinic,clinic,Unknown,Unknown,Unknown,25.3032363,82.9764466
Ashirvad Hospital and Research Center,"B.38/1-C, Birodpur, Mahmoorganj",Unknown,Unknown,221010,Uttar Pradesh,Unknown,hospital,hospital,Unknown,Unknown,Unknown,25.3052664,82.9864379
"Vatsalya Hospital, Varanasi","S-2,656 C/4A,Sikraul(Anand Vatika Ki Gali ,Opp Circuit House ,Campus Police Station)",Unknown,Unknown,221007,Uttar Pradesh,Unknown,hospital,Unknown,Unknown,Unknown,Unknown,25.3484644,82.975772
Dev Matenity Home,"15/16, Mritunjay Dham Colony Raruna Vihar Near Jp Mehta Inter College",Unknown,Unknown,221001,Uttar Pradesh,Unknown,hospital,Unknown,Unknown,Unknown,Unknown,25.3422395,82.9767966
Alliance Hospital,"C20/1-73 Ramakant Nagar Colony, Near Pisach Mochan",Unknown,Unknown,221010,Uttar Pradesh,Unknown,hospital,Unknown,Unknown,Unknown,Unknown,25.3190508,82.9965833
"New Life Hospital, Varanasi","70- Gandhinagar, Sigra",Unknown,Unknown,221010,Uttar Pradesh,Unknown,hospital,hospital,Unknown,Unknown,Unknown,25.3129735,82.9900937
New Sahara Hospital,"K-50/125-B, Opp: Yamuna Cinema, Hartirath, Pilikothi, Varanasi Yamuna Cinema",Unknown,Unknown,221001,Uttar Pradesh,Unknown,hospital,Unknown,Unknown,Unknown,Unknown,25.3317015,83.0236682
S P Surgical Centre,"2-3, Mrityunjay Dham Colony (Near J P Mehta Inter College ,Sikraul",Unknown,Unknown,221002,Uttar Pradesh,Unknown,hospital,Unknown,Unknown,Unknown,Unknown,25.3425037,82.9766236
Shree Ram Laxminarayan Marwari Hindu Hospital - Varanasi,Godowlia,Unknown,Unknown,221002,Uttar Pradesh,Unknown,hospital,Unknown,Unknown,Unknown,Unknown,25.3093752,83.0070332
"Shubham Hospital, Varanasi","Sb/108-F-5A, Maqbool Alam Road, Khajuri",Unknown,Unknown,221002,Uttar Pradesh,Unknown,hospital,Unknown,Unknown,Unknown,Unknown,25.3438983,82.9881918
"Ayushman Hospital, Varanasi","6, Girinagar, Birdopur, Mehmoorganj",Unknown,Unknown,221010,Uttar Pradesh,Unknown,hospital,Unknown,Unknown,Unknown,Unknown,25.3039522,82.9867731
"Chandra Nursing Home, Varanasi","J.12/81-E, Nati Imli Dhoopchandi",Unknown,Unknown,221001,Uttar Pradesh,Unknown,clinic,Unknown,Unknown,Unknown,Unknown,25.3275898,83.0027376
Tandon Multispeciality Hospital and Ishita Modern Eye Care Centre,"Nihala Singh Colony, Heerapur , Kabir Chaura",Unknown,Unknown,221001,Uttar Pradesh,Unknown,clinic,Unknown,Unknown,Unknown,Unknown,25.3191944,83.0067299
Mangalam Clinic and Trauma Centre,"D-161/23 A-1, Sidhgiri Bagh",Unknown,Unknown,221010,Uttar Pradesh,Unknown,clinic,Unknown,Unknown,Unknown,Unknown,25.3110083,83.0024332
Galaxy Hospital,"Plot No. 4,5,6 & 7,Dayal Enclave,Mahmoorganj",Unknown,Unknown,221010,Uttar Pradesh,Unknown,hospital,hospital,Unknown,Unknown,Unknown,25.3050931,82.9750063
"Akanksha Nursing Home, Varanasi","D-64/127-E,Sigra Mahapalika Road",Unknown,Unknown,221001,Uttar Pradesh,Unknown,clinic,clinic,Unknown,Unknown,Unknown,25.3118776,82.9877642
Mahashweta Hospital Pvt. Ltd.,"S-10,A-3A-P,Maqbool Alam Road, Opposite District Jail,Hukulganj,Chaukaghat",Unknown,Unknown,221001,Uttar Pradesh,Unknown,hospital,Unknown,Unknown,Unknown,Unknown,25.3400505,82.9920933
Rohit Laproscopic Surgical Center,"D-64/47 D 1A, Maa Rajeshwari Nagar Colony, Sigra, Varanasi, Uttar Pradesh",Unknown,Unknown,221003,Uttar Pradesh,Unknown,hospital,hospital,Unknown,http://www.rohithospital.com/,Unknown,25.3091348,82.9838206
Shakuntala Hospital and Research Center,Near Dhamrahiya Pool Lohata,Unknown,Unknown,221107,Uttar Pradesh,Unknown,hospital,Unknown,Unknown,Unknown,Unknown,25.3060181,82.9371
Uphar Nursing Home Pvt. Ltd.,"Mahmoorganj, Opp, Akashwani Bhawan",Unknown,Unknown,221010,Uttar Pradesh,Unknown,clinic,clinic,Unknown,Unknown,Unknown,25.3046542,82.9803948
Sah Hospital,"Sah Nursing Home, Bulanala",Unknown,Unknown,221001,Uttar Pradesh,Unknown,hospital,Unknown,Unknown,Unknown,Unknown,25.3239083,83.0044448
Hindu Sewa Sadan Hospital,"Ck 38/2, Bansphatak Chowk",Unknown,Unknown,221001,Uttar Pradesh,Unknown,hospital,Unknown,Unknown,Unknown,Unknown,25.3118509,83.0085801
Himanshu Hospital and Clinic Pvt Ltd,"Police Line Road,Trimuhani",Unknown,Unknown,221002,Uttar Pradesh,Unknown,clinic,Unknown,Unknown,Unknown,Unknown,25.3493104,82.9916064
Vishal Surgical Center,"Varanasi Badohi Road, Gopalpur",Unknown,Unknown,221107,Uttar Pradesh,Unknown,clinic,Unknown,Unknown,Unknown,Unknown,25.3163026,82.9088225
Arogya Chikitsalaya,"Harpalpur, Lohta Rohania Road",Unknown,Unknown,221107,Uttar Pradesh,Unknown,hospital,Unknown,Unknown,Unknown,Unknown,25.3021699,82.9313258
Priya Multispeciality Hospital Pvt.Ltd.,"C-19/29A,A-1, A-2 Gulab Bagh Sigra",Unknown,Unknown,221002,Uttar Pradesh,Unknown,hospital,Unknown,Unknown,Unknown,Unknown,25.3188013,82.9920584
Anurag Maternity and Laparoscopic Center,Jagriti Nagar Colony Manduwadih,Unknown,Unknown,221003,Uttar Pradesh,Unknown,clinic,clinic,Unknown,Unknown,Unknown,25.3024243,82.9690787
Mrityunjay Hospital,"K 57/35, Daranagar, Maidagine Road",Unknown,Unknown,221001,Uttar Pradesh,Unknown,hospital,Unknown,Unknown,Unknown,Unknown,25.3213263,83.0129261
Ayushman Hospital and Trauma Centre,"J25/59, Alaipur, G.T. Road, In Front Of Varanasi City Railway Station",Unknown,Unknown,221001,Uttar Pradesh,Unknown,hospital,Unknown,Unknown,Unknown,Unknown,25.332967,83.0144739
Hospital Harsha,B-12/120-A-8-1 Bhelupur( Beside Behlupur Thana),Unknown,Unknown,221005,Uttar Pradesh,Unknown,hospital,Unknown,Unknown,Unknown,Unknown,25.3007101,83.0023755
Medwin Hospitals And Research Centre,"K-50/124, Hartinath Visheshwarganj",Unknown,Unknown,221001,Uttar Pradesh,Unknown,hospital,Unknown,Unknown,Unknown,Unknown,25.3205662,83.0127322
Baby Care Clinic,"B-38 / 63-6, Brijwas Colony, Mahmoorganj",Unknown,Unknown,221010,Uttar Pradesh,Unknown,clinic,clinic,Unknown,Unknown,Unknown,25.3023578,82.9753549
Dr Ram Bilas Fracture and Surgical Centre,"Maa Vaishno Nagar Colony,Near Chandpur Chauraha",Unknown,Unknown,221001,Uttar Pradesh,Unknown,hospital,hospital,Unknown,Unknown,Unknown,25.3109998,82.9868113
PHC ASFAKNAGAR,ASFAKNAGAR,Unknown,Unknown,221001,Uttar Pradesh,Unknown,Unknown,centre,Unknown,Unknown,Unknown,25.3062509,83.0043557
UPHC BENIYA,BENIYA,Unknown,Unknown,221001,Uttar Pradesh,Unknown,Unknown,centre,Unknown,Unknown,Unknown,25.3175161,83.0043778
Contonment Hospital,Unknown,Unknown,Unknown,Unknown,Unknown,Unknown,hospital,Unknown,Unknown,Unknown,Unknown,25.3318796,82.9791974
Pankhudi Hospital,"Kachi Bagh, Golgadda, Varanasi",Unknown,Unknown,221001,Uttar Pradesh,Unknown,hospital,Unknown,Unknown,Unknown,Unknown,25.3293525,83.0178987
Sadguru Hospital,"Premchand Road, Naibasti, Varanasi",Unknown,Unknown,221002,Uttar Pradesh,Unknown,hospital,Unknown,Unknown,Unknown,Unknown,25.3458516,82.9962729
Ritu Hospital,"Maheshpur, Varanasi",Unknown,Unknown,221106,Uttar Pradesh,Unknown,hospital,Unknown,Unknown,Unknown,Unknown,25.314058,82.956667
Rama Medical Care Centre,"Dr. Bhagwan Das Nagar Colony, Sigra, Varanasi",Unknown,Unknown,221010,Uttar Pradesh,Unknown,hospital,hospital,Unknown,Unknown,Unknown,25.3097288,82.9909972
Usha Memorial Hospital,"Bazar, Kotwa, Varanasi",Unknown,Unknown,221002,Uttar Pradesh,Unknown,hospital,Unknown,Unknown,Unknown,Unknown,25.3397137,82.9256749
Jyotirmay Hospital,"Sigra - Mahmoorganj Road, Sant Raghuvar Nagar, Sigra, Varanasi",Unknown,Unknown,221010,Uttar Pradesh,Unknown,hospital,hospital,Unknown,Unknown,Unknown,25.3104055,82.9841904
Popular Hospital,"Dr. Usha Gupta Lane, Birdopur, Mahmoorganj, Varanasi",Unknown,Unknown,221010,Uttar Pradesh,Unknown,hospital,hospital,Unknown,Unknown,Unknown,25.3053488,82.986451
Prabhat Hospital Bhelupur,"Khanna Villa Colony, Bhelupur, Varanasi",Unknown,Unknown,221010,Uttar Pradesh,Unknown,hospital,Unknown,Unknown,Unknown,Unknown,25.3039498,82.9900586
Guru Nanak Hospital,"Guru Nanak Road, Gurubagh, Bhelupur, Varanasi",Unknown,Unknown,221001,Uttar Pradesh,Unknown,hospital,hospital,Unknown,Unknown,Unknown,25.3071525,82.9931648
Health Care Hospital,"Nirala Nagar, Mahmoorganj, Varanasi",Unknown,Unknown,221010,Uttar Pradesh,Unknown,hospital,hospital,Unknown,Unknown,Unknown,25.306562,82.9750547
Friend's Hospital,"Sarang Talab, Panchkoshi Road, Pandeypur, Paharia, Varanasi",Unknown,Unknown,221002,Uttar Pradesh,Unknown,hospital,Unknown,Unknown,Unknown,Unknown,25.34965,83.004945
Smayan Hospital,"Chandrika Nagar, Sigra, Dasashwamedh, Varanasi",Unknown,Unknown,221010,Uttar Pradesh,Unknown,hospital,hospital,Unknown,Unknown,Unknown,25.311236,82.986316
Medicity Hospital & Critical Care,"Kamachha, Kamachha Road, Bhelupur, Varanasi",Unknown,Unknown,221001,Uttar Pradesh,Unknown,hospital,Unknown,Unknown,Unknown,Unknown,25.300271,82.994653
Shubham Banaras Hospital,"Chandrika Nagar, Sigra, Varanasi",Unknown,Unknown,221010,Uttar Pradesh,Unknown,hospital,hospital,Unknown,Unknown,Unknown,25.3119109,82.9865396
Chirayu Medi Surgical Hospital,"Sigra - Mahmoorganj Road, Near Sarin Inn Hotel, Sant Raghuvar Nagar Colony, Sigra, Varanasi",Unknown,Unknown,221010,Uttar Pradesh,Unknown,hospital,hospital,Unknown,Unknown,Unknown,25.3083121,82.9849165
Maulana Azad Bunkar Hospital,"Bari Bazar Road, Rasoolpura, Alaipura, Jaitpura, Varanasi",Unknown,Unknown,221001,Uttar Pradesh,Unknown,hospital,Unknown,Unknown,Unknown,Unknown,25.331716,83.007717
Shivam Hospital,"Raja Moti Chand Road, Lehertara Industrial Estate, Varanasi",Unknown,Unknown,221004,Uttar Pradesh,Unknown,hospital,Unknown,Unknown,Unknown,Unknown,25.300895,82.9534599
Janta Sewa Hospital,"Malti Bagh, Tilbhandeshwer, Bhelupur, Varanasi",Unknown,Unknown,221001,Uttar Pradesh,Unknown,hospital,Unknown,Unknown,Unknown,Unknown,25.3042531,83.0029649
ASG Eye Hospital,"Ground Floor, Corporate Plaza, Near A.G.R Automobile, Rathyatra - Mahmoorganj Road, Gopal Vihar Colony, Mahmoorganj",Unknown,Unknown,221010,Uttar Pradesh,Unknown,hospital,hospital,Unknown,Unknown,Unknown,25.305723,82.984596
Jhumawati Hospital,"Lahartara Road, Lahartara Boulia, Bazardiha, Maheshpur, Varanasi",Unknown,Unknown,221001,Uttar Pradesh,Unknown,hospital,Unknown,Unknown,Unknown,Unknown,25.3161662,82.9679451
Filaria Hospital - NCDC,"Ambedkar Nagar, Dhelwariya, Jaitpura, Varanasi",Unknown,Unknown,221001,Uttar Pradesh,Unknown,hospital,Unknown,Unknown,Unknown,Unknown,25.3350788,83.001357
Healthmax Hospital,"Ram Katora Road, Ramkatora, Piplani Katra, Jaitpura, Varanasi",Unknown,Unknown,221001,Uttar Pradesh,Unknown,hospital,Unknown,Unknown,Unknown,Unknown,25.3242107,83.0031446
Laxmi Hospital,"Maldahiya, Cantt, Varanasi",Unknown,Unknown,221002,Uttar Pradesh,Unknown,hospital,Unknown,Unknown,Unknown,Unknown,25.3276365,82.9903258
Public Welfare Hospital,"Rathyatra Kamachha Road, Maharana Pratap Colony, Gurubagh, Bhelupur, Varanasi",Unknown,Unknown,221001,Uttar Pradesh,Unknown,hospital,hospital,Unknown,Unknown,Unknown,25.3051959,82.9937819
G.S.Memorial Plastic Surgery Hospital and Trauma Centre,"Mahmoorganj Road, Brijwas Colony, Mahmoorganj, Varanasi",Unknown,Unknown,221010,Uttar Pradesh,Unknown,hospital,hospital,Unknown,Unknown,Unknown,25.3023319,82.974999
Verma Hospital,"Lehertara Industrial Estate, Maruadih Rly. Settlement",Unknown,Unknown,221004,Uttar Pradesh,Unknown,hospital,hospital,Unknown,Unknown,Unknown,25.302198,82.9644864
Midway Hospital,"Behind Sigra Stadium, Chandua Chhittupur, Varanasi",Unknown,Unknown,221002,Uttar Pradesh,Unknown,hospital,Unknown,Unknown,Unknown,Unknown,25.3150869,82.983205
Maitri Hospital,"Golghar, Bazardiha, Shivpur, Sudhipur",Unknown,Unknown,221002,Uttar Pradesh,Unknown,hospital,Unknown,Unknown,Unknown,Unknown,25.3175707,82.9742152
Avi Hospital,"Teliyabagh Road, Andhrapull, Chaukaghat, Varanasi",Unknown,Unknown,221002,Uttar Pradesh,Unknown,hospital,Unknown,Unknown,Unknown,Unknown,25.330641,82.995829
City Ideal Hospital,Jaitpura Chamuhani Kamal Garha Road,Unknown,Unknown,221001,Uttar Pradesh,Unknown,hospital,Unknown,Unknown,Unknown,Unknown,25.3310155,83.0137611
Sudarshana Hospital,"Lahartara Boulia, Bazardiha, Manduwadih, Varanasi",Unknown,Unknown,221002,Uttar Pradesh,Unknown,hospital,Unknown,Unknown,Unknown,Unknown,25.313519,82.9678978
Gem Hospital,"G.T. Road, Bhadau Chungi, Bhadau, Ganga Nagar Colony, Aalampura, Varanasi",Unknown,Unknown,221001,Uttar Pradesh,Unknown,hospital,Unknown,Unknown,Unknown,Unknown,25.327632,83.027387
Maa Gouri Hospital,"Daulatpur Road, Pandeypur, Naibasti, Varanasi",Unknown,Unknown,221002,Uttar Pradesh,Unknown,hospital,Unknown,Unknown,Unknown,Unknown,25.346699,82.996889
"Jain Hospital, Varanasi","Opposite Hanuman Ji Mandir, Pandeypur Chauraha, Sikraul, Varanasi",Unknown,Unknown,221002,Uttar Pradesh,Unknown,hospital,Unknown,Unknown,Unknown,Unknown,25.3498326,82.9920187
Rudrakashi Hospital,"Ardali Bazar Road, Vindhya Vasini Nagar Colony, Orderly Bazar, Varanasi","Near Mahabir Mandir, besides ESIC Hospital, Orderly Bazar,",Unknown,221002,Uttar Pradesh,Unknown,hospital,hospital,Unknown,Unknown,Unknown,25.34992,82.9831869
Ansh Neuro and Maternity Centre,"C B K Central Jail Road, Pani Tanki Ke Samney, Sikroul Shivpur,Varanasi",Unknown,Unknown,221002,Uttar Pradesh,Unknown,hospital,hospital,Unknown,Unknown,Unknown,25.3486582,82.967746
Bhargava Hospital and Trauma Centre,"Police Line Road, Pandeypur, Orderly Bazar, Varanasi",Unknown,Unknown,221002,Uttar Pradesh,Unknown,hospital,Unknown,Unknown,Unknown,Unknown,25.3497167,82.9911283
Ansh Neuro and Maternity Centre,"Chotta Chuppepur, Varanasi",Unknown,Unknown,221102,Uttar Pradesh,Unknown,hospital,hospital,Unknown,Unknown,Unknown,25.3469853,82.9699986
Chandra Hospital,"Lohta Bazar, Mahamudpur",Unknown,Unknown,221107,Uttar Pradesh,Unknown,hospital,Unknown,Unknown,Unknown,Unknown,25.3070243,82.9435133
Shivangan Hospital,"Rohniya Road, Lohta, Varanasi",Unknown,Unknown,221107,Uttar Pradesh,Unknown,hospital,Unknown,Unknown,Unknown,Unknown,25.3079915,82.9349485
Ashutosh Hospital,"Krishi Bhawan Ke Samne, Chandpur Churamanpur, Varanasi",Unknown,Unknown,221108,Uttar Pradesh,Unknown,hospital,Unknown,Unknown,Unknown,Unknown,25.3010102,82.9468621
Ganga Sewa Sadan Hospital,"Chandpur Chauraha, Chandpur Industrial Estate, Near Varanasi",Unknown,Unknown,221106,Uttar Pradesh,Unknown,hospital,Unknown,Unknown,Unknown,Unknown,25.3038069,82.9592991
Military Hospital,"Varanasi Cantt, Varanasi",Unknown,Unknown,221002,Uttar Pradesh,Unknown,hospital,Unknown,Unknown,Unknown,Unknown,25.3334913,82.9701359
Sarvodaya Hospital,"Near Pani Tanki, Opp. Tata Auto Service, Sanjay Ghandhi Nagar Colony, Chaukaghat, Varanasi",Unknown,Unknown,221002,Uttar Pradesh,Unknown,hospital,Unknown,Unknown,Unknown,Unknown,25.3334728,83.0025498
New Medicare Hospital,"Vidyapeeth Road, Annapurna Nagar Colony, Opposite Sun Bean School, Besides Radha Krishna Mandir, Vidya Vihar Colony, Chittupura, Varanasi",Unknown,Unknown,221002,Uttar Pradesh,Unknown,hospital,Unknown,Unknown,Unknown,Unknown,25.3203803,82.9866726
Prime Kidney Stone Centre & Urology Hospital,"Bhelupur, Varanasi",Unknown,Unknown,221010,Uttar Pradesh,Unknown,hospital,Unknown,Unknown,Unknown,Unknown,25.3001405,82.9945731
Ashirvad Hospital & Research Centre,"Birdopur, Mahmoorganj, Varanasi",Unknown,Unknown,221010,Uttar Pradesh,Unknown,hospital,hospital,Unknown,Unknown,Unknown,25.3044817,82.9781929
Uttakarsh Hospital,"Lehertara Industrial Estate, Varanasi",Unknown,Unknown,221106,Uttar Pradesh,Unknown,hospital,Unknown,Unknown,Unknown,Unknown,25.3040185,82.9536821
Sai Raj Hospital,"Nadesar Road, Near Petrol Pump, Sai Mandir, Nadesar, Chaukaghat, Varanasi",Unknown,Unknown,221002,Uttar Pradesh,Unknown,hospital,Unknown,Unknown,Unknown,Unknown,25.3331628,82.9907332
Bhardwaj Hospital,"Bazardiha, Maheshpur, Varanasi",Unknown,Unknown,221106,Uttar Pradesh,Unknown,hospital,Unknown,Unknown,Unknown,Unknown,25.3153178,82.9632672
Sri Ram Hospital & Maternity Centre,"Mahmoorganj Road, Shivaji Nagar Colony, Phase Ii, Shivaji Nagar, Mahmoorganj, Varanasi",Unknown,Unknown,221010,Uttar Pradesh,Unknown,hospital,hospital,Unknown,Unknown,Unknown,25.305302,82.978926
Parma Hospital,"Chitaipur, Varanasi",Unknown,Unknown,221106,Uttar Pradesh,Unknown,hospital,Unknown,Unknown,Unknown,Unknown,25.314154,82.958277
Sarkari Hospital,"Jai Prakash Nagar, Varanasi",Unknown,Unknown,221010,Uttar Pradesh,Unknown,hospital,Unknown,Unknown,Unknown,Unknown,25.311547,82.977666
Yash Hospital,"Beside Lane Of Hanuman Ji Mandir, Pandeypur Tirha, Pandeypur, Gola Purwa, Varanasi",Unknown,Unknown,221002,Uttar Pradesh,Unknown,hospital,Unknown,Unknown,Unknown,Unknown,25.3491391,82.9918442
City Hospital,"Sant Raghuvar Nagar, Sigra, Varanasi",Unknown,Unknown,221010,Uttar Pradesh,Unknown,hospital,hospital,Unknown,Unknown,Unknown,25.3104104,82.9853827
Kasih Hospital,"Mahuvariya, Lohta",Unknown,Unknown,221002,Uttar Pradesh,Unknown,hospital,Unknown,Unknown,Unknown,Unknown,25.3088398,82.938513
Amit Gupta Hospital,"Sant Raghuvar Nagar, Sigra, Varanasi",Unknown,Unknown,221010,Uttar Pradesh,Unknown,hospital,hospital,Unknown,Unknown,Unknown,25.3087773,82.9843883
Banaras Medicity Heart & Super Speciality Hospital,"Sigra - Mahmoorganj Road, Mahmoorganj, Varanasi",Unknown,Unknown,221010,Uttar Pradesh,Unknown,hospital,hospital,Unknown,Unknown,Unknown,25.3080296,82.986806
"Apex Hospital, Varanasi","Railwayganj Colony, Varanasi",Unknown,Unknown,221002,Uttar Pradesh,Unknown,hospital,Unknown,Unknown,Unknown,Unknown,25.3257252,82.9845891
Laxmi Memorial Children Hospital,"Sudhakar Road, Hamrautia, Varanasi",Unknown,Unknown,221102,Uttar Pradesh,Unknown,hospital,Unknown,Unknown,Unknown,Unknown,25.3432895,82.9883359
Hajra Hospital,"Jaitpura, Varanasi",Unknown,Unknown,221001,Uttar Pradesh,Unknown,hospital,Unknown,Unknown,Unknown,Unknown,25.3253079,83.009261
Heritage Hospital,"Lahurabir Road, Purana Pandariba, Near Hanuman Mandir, Nai Sarak, Varanasi",Unknown,Unknown,221001,Uttar Pradesh,Unknown,hospital,Unknown,Unknown,Unknown,Unknown,25.3130492,83.0041467
Navjeevan Hospital,"Pandeypur Flyover, Ashok Vihar Colony, Ashok Nagar, Varanasi",Unknown,Unknown,221001,Uttar Pradesh,Unknown,hospital,Unknown,Unknown,Unknown,Unknown,25.3492833,83.0031583
"Urban Health Centre, Jaitpura",Jaitpura,Unknown,Unknown,221001,Uttar Pradesh,Unknown,Unknown,centre,Unknown,Unknown,Unknown,25.3356385,83.0111007
"Urban Health Centre, Rajghat",Rajghat,Unknown,Unknown,221001,Uttar Pradesh,Unknown,Unknown,centre,Unknown,Unknown,Unknown,25.3284359,83.0364141
"Urban Health Centre, Manduwadih",Manduwadih,Unknown,Unknown,221106,Uttar Pradesh,Unknown,Unknown,centre,Unknown,Unknown,Unknown,25.3073615,82.9629537
"Primary Health Centre, Adampur",Adampur,Unknown,Unknown,221001,Uttar Pradesh,Unknown,Unknown,centre,Unknown,Unknown,Unknown,25.3283959,83.0225739
"Primary Health Centre, Asfaknagar",Asfaknagar,Unknown,Unknown,221001,Uttar Pradesh,Unknown,Unknown,centre,Unknown,Unknown,Unknown,25.3033944,82.9984716
"Primary Health Centre, Konia",Konia,Unknown,Unknown,221007,Uttar Pradesh,Unknown,Unknown,centre,Unknown,Unknown,Unknown,25.3371403,83.0294317
"Primary Health Centre, Town Hall",Town Hall,Unknown,Unknown,221001,Uttar Pradesh,Unknown,Unknown,centre,Unknown,Unknown,Unknown,25.3184853,83.0142181
"SubCentre, Phulwariya",Phulwariya,Unknown,Unknown,221002,Uttar Pradesh,Unknown,Unknown,centre,Unknown,Unknown,Unknown,25.3276727,82.9593956
Rajput medical store,Unknown,Hukulganj,Varanasi,221002,Unknown,Unknown,hospital,hospital,Unknown,Unknown,Unknown,25.3419332,82.9965688
Bajrang Medical store,Unknown,Hukulganj,Varanasi,221002,Unknown,Unknown,hospital,hospital,Unknown,Unknown,Unknown,25.3418788,82.9965688
Dentist hospital,Unknown,Unknown,Unknown,Unknown,Unknown,Unknown,dentist,dentist,Unknown,Unknown,Unknown,25.3428889,82.9964458
Maa Gouri hospital,Unknown,Unknown,Unknown,Unknown,Unknown,Unknown,hospital,hospital,Unknown,Unknown,Unknown,25.3488532,82.9939339
Dental hospital,Unknown,Unknown,Unknown,Unknown,Unknown,Unknown,dentist,dentist,Unknown,Unknown,Unknown,25.3380641,82.9965272
ENT Clinic & Nursing Home,Unknown,Unknown,Unknown,Unknown,Unknown,Unknown,hospital,hospital,Unknown,Unknown,Unknown,25.3096308,82.9869371
