Name,Full Address,Street,City,Postcode,State,Country,Amenity,Healthcare,Phone,Website,Opening Hours,Latitude,Longitude
Lakshmi Hoapital,Unknown,Unknown,Unknown,Unknown,Unknown,Unknown,hospital,hospital,Unknown,Unknown,Unknown,16.5131813,80.6642834
American Hospital,Unknown,M.G Road,Vijayawada,520002,Unknown,Unknown,hospital,Unknown,Unknown,Unknown,Unknown,16.5049086,80.6308521
municipal health centre,Unknown,k t road,Unknown,Unknown,Unknown,Unknown,hospital,Unknown,Unknown,Unknown,Unknown,16.5429438,80.6136326
Kiran diabetic centre,Unknown,Sivalayam Street,Unknown,520011,Unknown,Unknown,clinic,clinic,Unknown,Unknown,Unknown,16.5214935,80.6369506
Medical Hall,Unknown,Unknown,Unknown,Unknown,Unknown,Unknown,pharmacy,Unknown,Unknown,Unknown,Unknown,16.5330026,80.606358
MedPlus,Unknown,Unknown,Unknown,Unknown,Unknown,Unknown,pharmacy,pharmacy,Unknown,Unknown,Unknown,16.5226452,80.6036226
Vijaya Sri Blood Bank,"VijayaSri Palace,D. No. 29-19-27/4, Ground Floor, First Floor and Second Floor, Dornakal Road, Suryaraopet,",Unknown,Vijayawada,520002,Andhra Pradesh,Unknown,Unknown,blood_bank,Unknown,Unknown,24/7,16.5129072,80.6356533
Lions Blood Bank,"D. No. 29-19-85, 1st & 2nd Floor,Old Janatha Hospital Building, Dornakal Road, Suryaraopet",Unknown,Vijayawada,520002,Andhra Pradesh,Unknown,Unknown,blood_bank,Unknown,Unknown,24/7,16.5101286,80.6347735
Lions District 316D Blood Bank,"Smt CH. Manju Vani Vara Prasad, H.No.29-4-54K, Conan Dhanvoda Anantham Complex, Prakasam Road, Suryaraopet,",Unknown,Vijayawada,520002,Andhra Pradesh,Unknown,Unknown,blood_bank,Unknown,Unknown,24/7,16.5102906,80.632503
Bethesda Blood Bank,"29-13-79/A, Ground Floor, Kaleswara Rao Road, Narsimharao Naidu Street, Governor Peta, Suryaraopet",Unknown,Vijayawada,520002,Andhra Pradesh,Unknown,Unknown,blood_bank,Unknown,Unknown,Unknown,16.5129715,80.6326807
Suraksha Voluntary Blood Bank,"29-10-8, Govinda Rajulu Naidu Street, Suryaraopet",Unknown,Vijayawada,520002,Andhra Pradesh,Unknown,Unknown,blood_bank,Unknown,Unknown,24/7,16.5138915,80.6329047
Rotary Red Cross Blood Bank,"H.No: 26-5-5, G.S Raju Street, Gandhinagar",Unknown,Vijayawada,520003,Andhra Pradesh,Unknown,Unknown,blood_bank,Unknown,Unknown,24/7,16.5184013,80.6246361
Ayush NRI LEPL Health Care Private Limited's Blood Bank,"First Floor, D. No. 40-13-3& 3A, Ring Road, Sriramachandra Nagar",Unknown,Vijayawada,520008,Andhra Pradesh,Unknown,Unknown,blood_bank,Unknown,https://www.aayushhospitals.com/,24/7,16.5175218,80.6750965
YSR University General Hospital's Blood Bank,"Ring Road, Gunadala",Unknown,Vijayawada,520008,Andhra Pradesh,Unknown,Unknown,blood_bank,Unknown,Unknown,24/7,16.5165884,80.6700003
St.Ann's Hospital Blood Bank,"Punnammathota, Bandhar Road",Unknown,Unknown,520002,Unknown,Unknown,Unknown,blood_bank,Unknown,Unknown,24/7,16.5046252,80.6311552
Chandamama Hospital,"Behind Ramakrishna Marbles, Srinagar Colony, Ring Road , Guru Nanak Colony, Vijayawada",Unknown,Unknown,520001,Andhra Pradesh,Unknown,hospital,Unknown,Unknown,Unknown,Unknown,16.5058331,80.6630222
Health Care Global Curie City Cancer Centre - Vijayawada,"Besides Gowtham International School, Padavala Revu, Machawaram Down, Gunadala, Vijayawada",Unknown,Unknown,520004,Andhra Pradesh,Unknown,hospital,Unknown,Unknown,https://www.hcgoncology.com,24/7,16.5238862,80.6550537
Shri Shiridi Sai Speech and Hearing Institute,"H.No: 29-6-32, 1St Floor ( Opposite Rajendra Medical Stores), Ramachandrarao Road (Nakkala Road, Suryaraopet, Vijayawada",Unknown,Unknown,520002,Andhra Pradesh,Unknown,hospital,Unknown,Unknown,Unknown,Unknown,16.5131271,80.6357177
Sekhar Ortho Center,"2 Nd Floor Bang Shopping Mall, Nakkal Road",Unknown,Unknown,520002,Andhra Pradesh,Unknown,hospital,Unknown,Unknown,Unknown,Unknown,16.5130383,80.6339152
"Lakshmi Nurisng Home, Vijayawada","H.No: 32-2-10G, Madhu Nagar, Jammichetti, Moghalrajpuram",Unknown,Unknown,520010,Andhra Pradesh,Unknown,hospital,Unknown,Unknown,Unknown,Unknown,16.5081246,80.6424467
Raavella Eye Hospital,"D.No: 29-6-38, Opposite Appolo Diagnostic, Nakkal Road, Vijayawada",Unknown,Unknown,520002,Andhra Pradesh,Unknown,hospital,Unknown,Unknown,Unknown,Unknown,16.5114562,80.6320678
Suraksha Hospital,"D.No: 32-2-8A, Anjamma Street, OppositePost Office,",Unknown,Unknown,520002,Andhra Pradesh,Unknown,hospital,Unknown,Unknown,Unknown,Unknown,16.5093873,80.6416681
Modern Retina Centre,"29-29-4 Kaleswararao Road, opp. SBI Zonal Office, Suryaraopeta, Vijayawada",Unknown,Unknown,520002,Andhra Pradesh,Unknown,hospital,Unknown,Unknown,http://modernretinacentre.com,Unknown,16.5104937,80.635782
Sai Swetha Mother And Child Hospital,"H.No: 29-24-8, Boyapativari Street, Besides Gangaraju Kalyanamandapam, Suryaraopet Vijayawada 520002 Krishna",Unknown,Unknown,520002,Andhra Pradesh,Unknown,hospital,Unknown,Unknown,Unknown,24/7,16.5134601,80.6373082
Meenakshi Eye Hospital,"29-19-81, Dornakal Road, Suryaraopet, near Police Commissioner's Office, Moghalrajpuram, Vijayawada",Unknown,Unknown,520002,Andhra Pradesh,Unknown,hospital,Unknown,Unknown,https://meenakshieyehospital.com/,Unknown,16.5104796,80.6349251
Heart Care Centre,"Dornakal Road, Near Andhra Bank, Suryaraopet, VIJAYAWADA",Unknown,Unknown,520002,Andhra Pradesh,Unknown,hospital,Unknown,Unknown,https://www.heartcarecenter.co.in/,24/7,16.5112665,80.635723
Anurag Institute Of Medical Sciences,"H.No: 29-12-28, Opp Andhra Bank, Dornakal Road.Venkataratnam, Suryaraopet, Vijaywada",Unknown,Unknown,520002,Andhra Pradesh,Unknown,hospital,Unknown,Unknown,Unknown,24/7,16.5117255,80.6346193
St. Ann's Hospital,Unknown,Unknown,Unknown,520002,Unknown,Unknown,hospital,Unknown,Unknown,Unknown,24/7,16.5045969,80.6311807
Sri Sai Hospital,"Nakkala Road, Suryaraopet, Vijayawada",Unknown,Unknown,520002,Andhra Pradesh,Unknown,hospital,Unknown,Unknown,Unknown,Unknown,16.5139551,80.6325245
V.G.R. Diabetes Specialities Hospital,"#40-5-19/18B, A.S Ramarao Road, Opp. Moghalraj Puram Caves, Vijayawada",Unknown,Unknown,520010,Andhra Pradesh,Unknown,hospital,Unknown,Unknown,https://vgrdiabetes.in,Unknown,16.5057625,80.6468676
Sree Venkateswara Nursing Home,"D.No: 32-2-12A, Boyapati Madhava Rao Street, Mogalrajapuram, Vijayawada",Unknown,Unknown,520010,Andhra Pradesh,Unknown,hospital,Unknown,Unknown,Unknown,Unknown,16.5126487,80.641239
City Cancer Centre,"H.No: 33-25-33, Ch Venkata Krishnaiah Street, Suryaraopet, Vijayawada",Unknown,Unknown,520002,Andhra Pradesh,Unknown,hospital,Unknown,Unknown,Unknown,Unknown,16.5094934,80.6378674
Sri Srinivasachildrens Hospital,"1St, Cross, Nakkala Road Chiluku Durgaiah Street, Suryaraopet",Unknown,Unknown,520002,Andhra Pradesh,Unknown,hospital,Unknown,Unknown,Unknown,Unknown,16.5134334,80.6340671
Metro Superspeciality Hospitals,"H.No: 29-14-32, Nakkal Cross Junction Road, Opposite Pramodini Imaging and Diagnostic Centre, Suryaraopet.",Unknown,Unknown,520002,Andhra Pradesh,Unknown,hospital,Unknown,Unknown,Unknown,Unknown,16.5107753,80.6323032
Nori Multi Speciality Hospital,"24-2-16/A, Nageshwara Rao Panthulu Road, Gandhi Nagar, Vijayawada",Unknown,Unknown,520003,Andhra Pradesh,Unknown,hospital,Unknown,Unknown,Unknown,Unknown,16.5187317,80.631001
Rajeswari Hospital,"Chiluku Durgaiah Street, Suryaraopeta",Unknown,Unknown,520002,Andhra Pradesh,Unknown,hospital,Unknown,Unknown,Unknown,Unknown,16.5136838,80.6329282
Mamata Childrens Hospital,"Ganapati Rao Road, Vijayawada",Unknown,Unknown,520001,Andhra Pradesh,Unknown,hospital,Unknown,Unknown,Unknown,Unknown,16.5219898,80.6125179
Vijaya Durga Nursing Home,"H.No: 32-2-10A, Moghalarajpuram, Vijaywada",Unknown,Unknown,520010,Andhra Pradesh,Unknown,hospital,Unknown,Unknown,Unknown,Unknown,16.5081677,80.6420993
S.K. Super Speciality Laser Eye Hospital,"H.No: 29-13-87, Kaleswara Rao Road, Nakkala Road, 5th Lane, Suryaraopet,",Unknown,Unknown,520002,Andhra Pradesh,Unknown,hospital,Unknown,Unknown,Unknown,24/7,16.5114311,80.6325594
Sumanth Nursing Home,"H.No: 33-1-5, Balaji Street Behind Iob, Seetharampuram",Unknown,Unknown,520002,Andhra Pradesh,Unknown,hospital,Unknown,Unknown,Unknown,Unknown,16.5151894,80.6389739
Sreya Nursing Home,"Dornakal Road, Suryaraopeta, Vijayawada",Unknown,Unknown,520002,Andhra Pradesh,Unknown,hospital,Unknown,Unknown,Unknown,Unknown,16.5099466,80.6346367
Preethi Children's Hospital,"H.No: 29-28-72, Dasarivari Street, Suryaraopeta, Vijayawada",Unknown,Unknown,520002,Andhra Pradesh,Unknown,hospital,Unknown,Unknown,Unknown,Unknown,16.5113134,80.6370172
Chikitsa General Hospital,"Nunna Road, Payakapuram, Vijayawada",Unknown,Unknown,520015,Andhra Pradesh,Unknown,hospital,Unknown,Unknown,Unknown,Unknown,16.5478698,80.6542356
Praja VaidyaSaala ( ప్రజా వైద్యశాల ),"Opp. Swapna Theatre, Nunna, Vijayawada Rural",Unknown,Unknown,521212,Andhra Pradesh,Unknown,hospital,hospital,Unknown,Unknown,Unknown,16.5741988,80.682722
Mother & Child and Family Hospital,"H.No: 29-16-21, Dornakula Road, Suryaropet, Vijayawada",Unknown,Unknown,520002,Andhra Pradesh,Unknown,hospital,Unknown,Unknown,https://familyhospital.in,Unknown,16.5122244,80.6352476
Andhra Hospitals,"D.No: 29-14-61, C.V.R. Complex, Prakasam Road, Vijayawada",Unknown,Unknown,520002,Andhra Pradesh,Unknown,hospital,Unknown,Unknown,https://andhrahospitals.org/,24/7,16.5110582,80.6296981
Sri Venkata Sai Urology and Maternity Center,"H.No: 29-4-6, Kodandaramireddi St, Near Elur Road",Unknown,Unknown,520002,Andhra Pradesh,Unknown,hospital,Unknown,Unknown,Unknown,Unknown,16.5121833,80.6309433
Aswini Nursing Home,"D.No: 2-26-56, Jagadam Vari Street",Unknown,Unknown,520002,Andhra Pradesh,Unknown,hospital,Unknown,Unknown,Unknown,Unknown,16.5151303,80.637268
Prabha Nursing Home,"B.R.P Road, Vijayawada",Unknown,Unknown,520001,Andhra Pradesh,Unknown,hospital,Unknown,Unknown,Unknown,Unknown,16.5196549,80.615007
Sridevi Eye Hospital,"Bodemma Hotel Centre, Babu Rajendra Prasa Road, Tarapet, Vijayawada",Unknown,Unknown,520001,Andhra Pradesh,Unknown,hospital,Unknown,Unknown,www.sridevieyehospital.com,Unknown,16.5171438,80.6141822
Vasavya Nursing Home,"H.No: 40-9/1-26/1, Benz Circle, Vijayawada",Unknown,Unknown,520010,Andhra Pradesh,Unknown,hospital,Unknown,Unknown,Unknown,Unknown,16.5035727,80.6433744
Chaitanya Eye Hospital,Near Siddhartha Arts College Tikkil Road Mogalrajapuram Vijayawada 520010 Krishna,Unknown,Unknown,520010,Andhra Pradesh,Unknown,hospital,Unknown,Unknown,Unknown,Unknown,16.5042543,80.6476515
Usha Cardiac Centre Ltd,H.No: 39-2-11 Pithaiah Street Vijayawada 520010 Krishna,Unknown,Unknown,520010,Andhra Pradesh,Unknown,hospital,Unknown,Unknown,Unknown,Unknown,16.5010801,80.6425412
Help Hospital Pvt Limited,"D.No: 27-29-23, Behind Victoria Museum, M.G.Road, Vijayawada, Krishna",Unknown,Unknown,520002,Andhra Pradesh,Unknown,hospital,Unknown,Unknown,Unknown,Unknown,16.5089713,80.6273572
Sindhura Hospital,"D.No: 29-10-36, Narasimharao Naidu Street, Suryaraopet Vijayawada",Unknown,Unknown,520002,Andhra Pradesh,Unknown,hospital,Unknown,Unknown,Unknown,Unknown,16.5125484,80.6333768
Trust Hospital,"H.No: 40-9-58A, Guttikonda Gopala Rao Street, Subregistrar Office Road, Kalanagar, Benz Circle, Vijayawada - 10",Unknown,Unknown,522510,Andhra Pradesh,Unknown,hospital,Unknown,Unknown,Unknown,24/7,16.5008409,80.6540103
Yalamanchi Hospitals and Research Centres Pvt Ltd,"H.No: 29-7-44, Venkataratnam Street, Suryaraopet, Vijayawada",Unknown,Unknown,520001,Andhra Pradesh,Unknown,hospital,Unknown,Unknown,Unknown,Unknown,16.5120123,80.6343015
Purna Heart Institute,"Kovelamudivari Street, Near Swati Weekly Office, Suryaraopet, Vijayawada",Unknown,Unknown,520002,Andhra Pradesh,Unknown,hospital,Unknown,Unknown,Unknown,Unknown,16.5125889,80.6379975
Ishwarya Maternity Hospital,"H.No: 29-23-5/2, Tadepallivari Street, Suryaopet, Vijayawada",Unknown,Unknown,520002,Andhra Pradesh,Unknown,hospital,Unknown,Unknown,Unknown,Unknown,16.5122662,80.6347601
Giridhar Ent Hospital,"Ch. Durgaiah Street, Suryaraopet, Vijayawada,",Unknown,Unknown,520002,Andhra Pradesh,Unknown,hospital,Unknown,Unknown,Unknown,Unknown,16.5134806,80.6338334
Chaitra Hospitals Surgical And Maternity,Near Pushapa Hotelm Suryaraopet Vijayawada,Unknown,Unknown,520002,Andhra Pradesh,Unknown,hospital,hospital,Unknown,Unknown,Unknown,16.5092459,80.6376388
Yakkala Jyothi Hospital,"H.No: 1-3/18-32, Guptha Centre Town, Tunuguntla Venkata Ratnam Street, Kummaripalem, Vidyadharapuram , Vijayawada",Unknown,Unknown,520012,Andhra Pradesh,Unknown,hospital,hospital,Unknown,Unknown,Unknown,16.521255,80.6020848
Latha Superspecialities,"H.No: 29-14-58 Prakasam Road, Suryaraopet, Vijayawada,",Unknown,Unknown,520002,Andhra Pradesh,Unknown,hospital,hospital,Unknown,Unknown,24/7,16.5095564,80.6359269
Life Line Trimurthy Hospital,"D.No: 29-19-80, Dormakal Road, Near Indian Bank, Vijayawada,",Unknown,Unknown,520002,Andhra Pradesh,Unknown,hospital,Unknown,Unknown,Unknown,Unknown,16.5110228,80.6350759
Vijayachandra Nursing Home,"Vemurivari Street, Suryarao Pet, Vijayawada",Unknown,Unknown,520002,Andhra Pradesh,Unknown,hospital,Unknown,Unknown,Unknown,Unknown,16.5136095,80.6365129
Vijaya Super Speciality Hospital - Vijayawada,"H.No: 29-26-92A, Near Swathi Press, Boyapativaristreet, Vijayawada 520002 Krishna",Unknown,Unknown,520002,Andhra Pradesh,Unknown,hospital,Unknown,Unknown,https://vijayahospitals.com/,Unknown,16.5136909,80.6373163
St Anns Health Center,Ajit Singh Nagar,Unknown,Unknown,520015,Andhra Pradesh,Unknown,hospital,Unknown,Unknown,Unknown,Unknown,16.5398079,80.6373974
Chinnari Hospital,"Kasturibaipet, Vijayawada",Unknown,Unknown,520010,Andhra Pradesh,Unknown,hospital,Unknown,Unknown,Unknown,Unknown,16.5109316,80.6386755
Vimhans Hospital,"V.V.Rao Street, Suryaraopet, Vijayawada",Unknown,Unknown,520002,Andhra Pradesh,Unknown,hospital,Unknown,Unknown,https://www.vimhanshospital.org/,24/7,16.5135398,80.6345985
Sridevi Eye Hospital - Suryaraopet,"H.No: 29-6-13/A, Nakkal Road, Venkatswara Rao Street, Suryaraopet, Governor Peta, Vijayawada",Unknown,Unknown,520002,Andhra Pradesh,Unknown,hospital,Unknown,Unknown,Unknown,Unknown,16.5134948,80.6323823
Vasan Eye Care Hospital - Krishna,"H.No: 29-14-44, Prakasam Road, Suryaraopet, Vijayawada",Unknown,Unknown,520002,Andhra Pradesh,Unknown,hospital,Unknown,Unknown,Unknown,Unknown,16.5096425,80.6368583
Vijayawada Institute Of Neuro Sciences (Vins),Venkataratnam Street Suryaraopet Vijayawada 520002 Krishna,Unknown,Unknown,520002,Andhra Pradesh,Unknown,hospital,Unknown,Unknown,Unknown,Unknown,16.5141769,80.6328316
Charitha Sri Hospitals Ltd,H.No: 29-6-8/1 Ramachandra Rao Road Suryaraopet Vijayawada,Unknown,Unknown,520002,Andhra Pradesh,Unknown,hospital,Unknown,Unknown,Unknown,Unknown,16.512956,80.6322482
Sathish Urology and Andrology Center,"D.No: 29-09-60, Gouinda Rajulu Naidu Street, Suryaraopet, Vijayawada-520002.",Unknown,Unknown,520002,Andhra Pradesh,Unknown,hospital,Unknown,Unknown,Unknown,Unknown,16.5131894,80.6331635
Singari ENT Hospital And Research Centre,"H.No: 29-9-54, Govindarajulu Naidu Street, Suryaraopet",Unknown,Unknown,520002,Andhra Pradesh,Unknown,hospital,Unknown,Unknown,Unknown,Unknown,16.5129136,80.6345576
Sankara Eye Hospital,"H.No: 29-4-10,Kodandarami Reddy, Governorpet",Unknown,Unknown,520002,Andhra Pradesh,Unknown,hospital,Unknown,Unknown,Unknown,Unknown,16.512686,80.6310788
Meher Hospitals,"H.No: 26-2-35, Swamy Street, Beside Yuvraj Theratre, Gandhi Nagar, Vijayawada",Unknown,Unknown,520003,Andhra Pradesh,Unknown,hospital,Unknown,Unknown,http://drmeher.com,Unknown,16.5173393,80.6290859
Maxivision Eye Hospital,"H.No: 40-1-48, Sree Krishna Sai Bhavan, M.G. Road, Opp. Hotel D V Manor, Labipet, Vijayawada",Unknown,Unknown,520010,Andhra Pradesh,Unknown,hospital,Unknown,Unknown,https://www.maxivisioneyehospital.com/vijayawada.php,Unknown,16.5002301,80.6485319
Sree Sarada Nursing Home,"H.No: 29-9-60/1, Govindarajulunaidu Street, Suryaraopet, Vijaywada",Unknown,Unknown,520002,Andhra Pradesh,Unknown,hospital,Unknown,Unknown,Unknown,Unknown,16.5130898,80.6334539
Harini Gastro and Liver Centre,"H.No: 29-14-51, Pushpa Hotel Centre, Prakasam Rd, Suryaraopet.Krishna, Vijaywada,",Unknown,Unknown,520002,Andhra Pradesh,Unknown,hospital,Unknown,Unknown,Unknown,24/7,16.5091976,80.637453
Arun Kidney Centre,"H.No: 29-23-09, Tadepallivari Street, Suryaraopet, Near Andhra Bank Atm",Unknown,Unknown,520002,Andhra Pradesh,Unknown,hospital,Unknown,Unknown,Unknown,Unknown,16.5134241,80.6353227
Sai Ram Maternity Hospital,"Opp. SBI Zonal Office, Prakasam Road, Suryaopet, Vijaywada",Unknown,Unknown,520002,Andhra Pradesh,Unknown,hospital,hospital,Unknown,Unknown,24/7,16.5099884,80.6353489
Praveen Hospitals,"#32-9-18, Moghalrajapuram, Madhugarden Center, No.5 Bus Route, Vijayawada",Unknown,Unknown,520010,Andhra Pradesh,Unknown,hospital,Unknown,Unknown,https://praveenhospitals.com,24/7,16.5077909,80.6427732
Dr B Venkataratnam,"M/S. Nagarjuna Hospital, Kanuru Vja- 7",Unknown,Unknown,520007,Andhra Pradesh,Unknown,hospital,Unknown,Unknown,Unknown,Unknown,16.5120399,80.6330603
Ashraf Maternity and Ent Hospital,"H.No: 40-1-140/1 Mohiddin Estate, Near Adhikar Hotel,",Unknown,Unknown,520010,Andhra Pradesh,Unknown,hospital,Unknown,Unknown,Unknown,Unknown,16.5003896,80.6412685
Anu Hospitals,"H.No: 33-18-1, Chalasani Venkata Krishnaiah St, Near Pushpa Hotel, Suryarao Pet",Unknown,Unknown,520002,Andhra Pradesh,Unknown,hospital,Unknown,Unknown,Unknown,Unknown,16.511741,80.6375228
Amma Hospital - Krishna,"H.No: 9-64-2, Syed Gulab Street, Kothapet, Vijayawada",Unknown,Unknown,520001,Andhra Pradesh,Unknown,hospital,Unknown,Unknown,Unknown,Unknown,16.5213469,80.6145899
Sri Arvind Hospital,"Panja Centre, Vijayawada",Unknown,Unknown,520001,Andhra Pradesh,Unknown,hospital,Unknown,Unknown,Unknown,Unknown,16.522075,80.6169875
Deepak Nursing Home,"H.No: 9-64-21, Syed Gulab St",Unknown,Unknown,520001,Andhra Pradesh,Unknown,hospital,Unknown,Unknown,Unknown,Unknown,16.51984,80.6138121
Anurag Hospital For Children,"H.No: 11-25-15, OppositeHindu High , School Kothapet, Vijayawada",Unknown,Unknown,520001,Andhra Pradesh,Unknown,hospital,Unknown,Unknown,Unknown,Unknown,16.5190673,80.6110212
Vijaywada Nursing Home and Polyclinic (P) Ltd,"H.No: 29-23-34, Kaleswara Rao Road, Vijaywada",Unknown,Unknown,520002,Andhra Pradesh,Unknown,hospital,Unknown,Unknown,Unknown,Unknown,16.511298,80.6346206
Prasanthi Hospitals,"Ksheerasagar Hospital Road, Beside N.T.R. Shankara Bhavan, Governorpet, Vijayawada",Unknown,Unknown,520003,Andhra Pradesh,Unknown,hospital,Unknown,Unknown,Unknown,Unknown,16.508718,80.6270729
K.B.Hospital,"H.No: 9-61-24, B.R.P Road, Islampet",Unknown,Unknown,520001,Andhra Pradesh,Unknown,hospital,Unknown,Unknown,Unknown,Unknown,16.512706,80.6326613
Prashant Hospital,"H.No: 39-2-19/12/1A, APSEB City Central Colony, M.G. Road, Labbipet, Vijaywada",Unknown,Unknown,520010,Andhra Pradesh,Unknown,hospital,Unknown,Unknown,Unknown,24/7,16.5005066,80.6439427
Pradamika arogya kendram,Unknown,Gannavaram - Surampalli Road,Unknown,521107,Andhra Pradesh,Unknown,Unknown,centre,Unknown,Unknown,Unknown,16.5518967,80.726741
Veterinary hospital,Unknown,Unknown,Unknown,Unknown,Unknown,Unknown,hospital,Unknown,Unknown,Unknown,Unknown,16.5520985,80.7265298
Kamala Orthopeadic Nursing Home,"H.No: 29-19-51, Kamala Doranakal Road, Near Veedi Rajahh Meda Kothavan Tena Bus Stop Vijaywada, Krishna",Unknown,Unknown,520002,Andhra Pradesh,Unknown,hospital,Unknown,Unknown,Unknown,Unknown,16.5146793,80.6362786
Royal Hospitals,"H.No: 33-25-45, Kasturibai Street, Vijayawada",Unknown,Unknown,520010,Andhra Pradesh,Unknown,hospital,Unknown,Unknown,Unknown,24/7,16.5102224,80.6384468
Citi Orthopedic Centre,"H.No: 32-6-18/A, Prajashakhti Nagar, Sikhamani Centre.",Unknown,Unknown,520010,Andhra Pradesh,Unknown,hospital,Unknown,Unknown,Unknown,Unknown,16.5077177,80.6405409
Bhargav Nursing Home and Eye Hospital.,"H.No: 33-25/34 C, B.S. Street, Near Pushpa Hotel, Suryaraopet",Unknown,Unknown,520002,Andhra Pradesh,Unknown,hospital,Unknown,Unknown,Unknown,Unknown,16.5122919,80.6387687
Praja Vydyasala,"H.No: 29-14-41, Prakasam Road",Unknown,Unknown,520002,Andhra Pradesh,Unknown,hospital,Unknown,Unknown,Unknown,24/7,16.5084339,80.6265002
Sriram Hospitals,"H no.33-25-44, Bellapu Sobhanadri St, Near M.J. Naidu Hospital, Moghalrajpuram, Vijayawada",Unknown,Unknown,520010,Andhra Pradesh,Unknown,hospital,Unknown,Unknown,Unknown,Unknown,16.5103079,80.6384663
S V R Neuro & Trauma Hospital,"Near Pushpa Hotel, Suryapraopet.",Unknown,Unknown,520002,Andhra Pradesh,Unknown,hospital,Unknown,Unknown,Unknown,Unknown,16.504044,80.6425358
R V R Hospitals,"Venkataratnam St.,Suryaraopet, Vijaywada",Unknown,Unknown,520002,Andhra Pradesh,Unknown,hospital,Unknown,Unknown,Unknown,24/7,16.5121383,80.6325996
Sandhya Hi-Tech Vision Care Center,"B.No: 29-13-90, Kaleswararaoroad, Suryaraopet, Krishna.",Unknown,Unknown,520002,Andhra Pradesh,Unknown,hospital,Unknown,Unknown,https://sandhyaeyehospitals.com/,24/7,16.5115359,80.6323411
Vignesh Hospitals,"H.No: 29-14-52/A, Pushpa Hotel Centre, Suryaraopet, Vijaywada-2",Unknown,Unknown,520002,Andhra Pradesh,Unknown,hospital,Unknown,Unknown,Unknown,24/7,16.5092966,80.6372787
Vijay Orthopaedic And Accident Care,"#29-5-7, Cherukupallivari Street, Near Saptagiri College, Governorpet, Vijayawada.",Unknown,Unknown,520002,Andhra Pradesh,Unknown,hospital,Unknown,Unknown,https://vijayortho.in/,24/7,16.5124096,80.6315133
Udaya Eye Hospital,"H.No: 33-25-3, Bellapu Sobhanadri Road, Near Pushpa Hotel, Kasturibaipet Centre, Suryaraopet, Vijaywada",Unknown,Unknown,520002,Andhra Pradesh,Unknown,hospital,Unknown,Unknown,Unknown,Unknown,16.5141004,80.6351933
"Mukhyamantri Aarogya Kendram,Prakash Nagar","Shanti Nagar Water Tank, Prakash Nagar",Unknown,Unknown,520015,Andhra Pradesh,Unknown,Unknown,centre,Unknown,Unknown,Unknown,16.5451663,80.6479854
"Mukhyamantri Aarogya Kendram,Vambay Colony","Vambay Colony Government School, Vijayawada",Unknown,Unknown,520015,Andhra Pradesh,Unknown,Unknown,centre,Unknown,Unknown,Unknown,16.5370664,80.6532783
"UPHC,New R.R. Pet","Near Durga Temple, New R.R. Pet",Unknown,Unknown,520015,Andhra Pradesh,Unknown,Unknown,centre,Unknown,Unknown,Unknown,16.5337952,80.6265324
UHC Durga Puram,"T. Venkateswara Rao Municipal School, Brts Road, Back Side Of Citu Office, T. Venkateswara Rao Municipal School, Brts Road, Back Side Of Citu Office",Unknown,Unknown,520004,Andhra Pradesh,Unknown,Unknown,centre,Unknown,Unknown,Unknown,16.5193553,80.6432259
"Mukhyamantri Aarogya Kendram,Krishnalanka","Potti Sri Ramulu High School Compound, Krishnalanka",Unknown,Unknown,520013,Andhra Pradesh,Unknown,Unknown,centre,Unknown,Unknown,Unknown,16.501732,80.6270853
"Community Health centre, Gannavaram","Gandhi Bomma centre, Gannavaram",Unknown,Unknown,521101,Andhra Pradesh,Unknown,Unknown,centre,Unknown,Unknown,Unknown,16.5394062,80.7985942
"UPHC,Vinchipeta","Near Sai Baba Temple, Vinchipeta",Unknown,Unknown,520001,Andhra Pradesh,Unknown,Unknown,centre,Unknown,Unknown,Unknown,16.527155,80.619445
"Mukhyamantri Aarogya Kendram,Lambadipet","Near K L Rao Park, Lambadipet",Unknown,Unknown,520012,Andhra Pradesh,Unknown,Unknown,centre,Unknown,Unknown,Unknown,16.5346204,80.6163703
ESI Hospital,"Esi Hospital Gunadala, Esi Hospital Gunadala",Unknown,Unknown,520004,Andhra Pradesh,Unknown,hospital,Unknown,Unknown,Unknown,Unknown,16.5196036,80.668182
Lokesh Clinic,"Ajith Singh Nagar, Vijayawada",Unknown,Unknown,520015,Andhra Pradesh,Unknown,clinic,Unknown,Unknown,Unknown,Unknown,16.5405026,80.6420437
Hope Hospital,"Vinchipeta, Vijayawada",Unknown,Unknown,520001,Andhra Pradesh,Unknown,hospital,Unknown,Unknown,Unknown,Unknown,16.5238653,80.6176713
Sunshine Children's Clinic,"Ajith Singh Nagar, Vijayawada",Unknown,Unknown,520015,Andhra Pradesh,Unknown,clinic,Unknown,Unknown,Unknown,Unknown,16.541937,80.6378005
Dr. Ramakrishna'S Hospital,"Santhi Nagar, Prakashnagar, Vijayawada",Unknown,Unknown,520015,Andhra Pradesh,Unknown,hospital,Unknown,Unknown,Unknown,Unknown,16.544499,80.649132
Tirumala Multi Speciality Family Hospital,Payakapuram,Unknown,Unknown,520015,Andhra Pradesh,Unknown,hospital,Unknown,Unknown,Unknown,Unknown,16.545493,80.645166
Khan Hospital,"Prakash Nagar, Payakapuram, Vijayawada",Unknown,Unknown,520015,Andhra Pradesh,Unknown,hospital,Unknown,Unknown,Unknown,Unknown,16.5467214,80.6482638
Siddhartha Clinic,"Chittinagar, Fraserpeta, Vijayawada",Unknown,Unknown,520001,Andhra Pradesh,Unknown,clinic,Unknown,Unknown,Unknown,Unknown,16.533544,80.6140506
Paramathma Multispeciality Dental Hospital,"Vinchipeta, Vijayawada",Unknown,Unknown,520001,Andhra Pradesh,Unknown,hospital,Unknown,Unknown,Unknown,Unknown,16.522545,80.617298
Bhavya Hospital,"Chittinagar, Vijayawada",Unknown,Unknown,520001,Andhra Pradesh,Unknown,hospital,Unknown,Unknown,Unknown,Unknown,16.5335231,80.6140015
Dr. Koneru Madhusudhanarao Memorial Hospital,Vijayawada,Unknown,Unknown,Unknown,Andhra Pradesh,Unknown,hospital,Unknown,Unknown,Unknown,Unknown,16.5448461,80.6427914
Vamsi Clinic,"Chittinagar, Fraserpeta, Vijayawada",Unknown,Unknown,Unknown,Andhra Pradesh,Unknown,clinic,Unknown,Unknown,Unknown,Unknown,16.5314379,80.6129945
V N S Clinic,"Kavithas, Payakapuram, Vijayawada",Unknown,Unknown,Unknown,Andhra Pradesh,Unknown,clinic,Unknown,Unknown,Unknown,Unknown,16.5560451,80.6461678
Sri Viswanadh Memorial Hospitals,"Ajit Singh Nagar, Payakapuram, Vijayawada",Unknown,Unknown,520015,Andhra Pradesh,Unknown,hospital,Unknown,Unknown,Unknown,Unknown,16.5471647,80.6480324
Avala Hospital,"Islampet, Vijayawada",Unknown,Unknown,520001,Andhra Pradesh,Unknown,hospital,Unknown,Unknown,Unknown,Unknown,16.5218041,80.6131651
Mahalakshmi Piles Clinic,"Vinchipeta, Vijayawada",Unknown,Unknown,Unknown,Andhra Pradesh,Unknown,clinic,Unknown,Unknown,Unknown,Unknown,16.5307309,80.611556
Jyothi Health Centre,"Kandrika, Payakapuram, Vijayawada",Unknown,Unknown,Unknown,Andhra Pradesh,Unknown,clinic,Unknown,Unknown,Unknown,Unknown,16.5526332,80.6583103
Lotus Polyclinic,"Ajit Singh Nagar, Vijayawada",Unknown,Unknown,520015,Andhra Pradesh,Unknown,clinic,Unknown,Unknown,Unknown,Unknown,16.5362616,80.6374276
Cholera Hospital,"Lambaadipeta, Fraserpeta, Vijayawada",Unknown,Unknown,520001,Andhra Pradesh,Unknown,hospital,Unknown,Unknown,Unknown,Unknown,16.5340021,80.6137775
Hospital Jyo,"Vinchipeta, Vijayawada",Unknown,Unknown,520001,Andhra Pradesh,Unknown,hospital,Unknown,Unknown,Unknown,Unknown,16.5268099,80.6195922
Dr.Anu Homeopathy Clinic,"Ajit Singh Nagar, Vijayawada",Unknown,Unknown,520015,Andhra Pradesh,Unknown,clinic,Unknown,Unknown,Unknown,Unknown,16.539994,80.6386334
Geetha Nursing Home,"Sundarayya Nagar, Payakapuram, Vijayawada",Unknown,Unknown,Unknown,Andhra Pradesh,Unknown,clinic,Unknown,Unknown,Unknown,Unknown,16.54966,80.6496451
Apollo Hospitals,"Vinchipeta, Vijayawada",Unknown,Unknown,520001,Andhra Pradesh,Unknown,hospital,hospital,Unknown,Unknown,Unknown,16.52711,80.619441
Pavan Sri Sai Clinic,"Vinchipeta, Vijayawada",Unknown,Unknown,520001,Andhra Pradesh,Unknown,clinic,Unknown,Unknown,Unknown,Unknown,16.5241036,80.6185969
Mamata Children's Hospital,"Islampet, Vijayawada",Unknown,Unknown,520001,Andhra Pradesh,Unknown,hospital,Unknown,Unknown,Unknown,Unknown,16.521933,80.612691
Thyro Care Hospital,"Nehru Nagar, Vijayawada",Unknown,Unknown,520002,Andhra Pradesh,Unknown,hospital,Unknown,Unknown,Unknown,Unknown,16.540189,80.640147
Garre Nageswara Rao Hospital,"Kothapet, Vijayawada",Unknown,Unknown,520001,Andhra Pradesh,Unknown,hospital,Unknown,Unknown,Unknown,Unknown,16.5245917,80.6113488
Raja Diabetics Care,Unknown,Unknown,Unknown,Unknown,Andhra Pradesh,Unknown,clinic,Unknown,Unknown,Unknown,Unknown,16.5432814,80.6417555
Lipi Piles Clinic,"Mahanthi Puram, Vinchipeta, Vijayawada",Unknown,Unknown,520001,Andhra Pradesh,Unknown,clinic,Unknown,Unknown,Unknown,Unknown,16.521747,80.6167201
Dr. Koneru Madhusudhan Rao Memorial Hospital,"Chittinagar, Mahantipuram, Vijayawada",Unknown,Unknown,Unknown,Andhra Pradesh,Unknown,hospital,Unknown,Unknown,Unknown,Unknown,16.530622,80.612004
Children's Hospital,"Bhimannavaripeta, Vijayawada",Unknown,Unknown,520001,Andhra Pradesh,Unknown,hospital,Unknown,Unknown,Unknown,Unknown,16.5380864,80.613239
Akshaya Eye Hospital,"Kothapet, Vijayawada",Unknown,Unknown,520001,Andhra Pradesh,Unknown,hospital,Unknown,Unknown,Unknown,Unknown,16.5215421,80.6138674
Ayurvedic Clinic,"Ajit Singh Nagar, Vijayawada",Unknown,Unknown,520015,Andhra Pradesh,Unknown,clinic,Unknown,Unknown,Unknown,Unknown,16.5418484,80.6394841
Health Care Hospital,"Vinchipeta, Vijayawada",Unknown,Unknown,520001,Andhra Pradesh,Unknown,hospital,Unknown,Unknown,Unknown,Unknown,16.5257977,80.613105
Jayamma Eye Hospital,"PNT Colony, Vijayawada",Unknown,Unknown,520015,Andhra Pradesh,Unknown,hospital,Unknown,Unknown,Unknown,Unknown,16.5391264,80.634394
Mukyamatri Arogya Kendram,"Ajit Singh Nagar, Vijayawada",Unknown,Unknown,520015,Andhra Pradesh,Unknown,hospital,Unknown,Unknown,Unknown,Unknown,16.5438773,80.6433521
Siddhartha Orthopaedic Hospital,"Chittinagar, Fraserpeta, Vijayawada",Unknown,Unknown,Unknown,Andhra Pradesh,Unknown,hospital,Unknown,Unknown,Unknown,Unknown,16.530896,80.6125368
Sri Venkateswara Clinic,"Kandrika, Payakapuram, Vijayawada",Unknown,Unknown,520015,Andhra Pradesh,Unknown,clinic,Unknown,Unknown,Unknown,Unknown,16.5464961,80.6476387
Tulasi Hospital,"Chittinagar, Fraserpeta, Vijayawada",Unknown,Unknown,520001,Andhra Pradesh,Unknown,hospital,Unknown,Unknown,Unknown,Unknown,16.5317919,80.6135915
Sree Clinic,"Payakapuram, Vijayawada",Unknown,Unknown,Unknown,Andhra Pradesh,Unknown,clinic,Unknown,Unknown,Unknown,Unknown,16.54785,80.6484997
Charithasri Hospitals,"Islampet, Vijayawada",Unknown,Unknown,520001,Andhra Pradesh,Unknown,hospital,Unknown,Unknown,Unknown,Unknown,16.5219247,80.6140956
Deepthi Clinic,"Kandrika, Payakapuram, Vijayawada",Unknown,Unknown,Unknown,Andhra Pradesh,Unknown,clinic,Unknown,Unknown,Unknown,Unknown,16.548183,80.65247
Swasta Hospital,"Kavithas, Payakapuram",Unknown,Unknown,Unknown,Andhra Pradesh,Unknown,hospital,Unknown,Unknown,Unknown,Unknown,16.55702,80.6480101
Vijayawada ENT Hospital,"Islampet, Vijayawada",Unknown,Unknown,520001,Andhra Pradesh,Unknown,hospital,Unknown,Unknown,Unknown,Unknown,16.521863,80.614053
Smile Multi Speciality Hospital,"Ajit Singh Nagar, Vijayawada",Unknown,Unknown,520015,Andhra Pradesh,Unknown,hospital,Unknown,Unknown,Unknown,Unknown,16.540192,80.639855
Sri Chaitanya Multi Specialty Dental Hospital,"Lurdhunagar, Gunadala, Vijayawada",Unknown,Unknown,520004,Andhra Pradesh,Unknown,hospital,Unknown,Unknown,Unknown,Unknown,16.52284,80.6616126
Sri Sai Hospital,"Machavaram, Vijayawada",Unknown,Unknown,520004,Andhra Pradesh,Unknown,hospital,Unknown,Unknown,Unknown,Unknown,16.5209803,80.653273
Prakash Healthy Life,"Satyaranayana Puram, Vijayawada",Unknown,Unknown,520011,Andhra Pradesh,Unknown,hospital,Unknown,Unknown,Unknown,Unknown,16.5223741,80.6371453
Sarala Clinic & Counseling Centre,"Machavaram, Vijayawada",Unknown,Unknown,520004,Andhra Pradesh,Unknown,clinic,Unknown,Unknown,Unknown,Unknown,16.521644,80.653862
Mahesh Homeo Clinic,Gandinagar,Unknown,Unknown,520002,Andhra Pradesh,Unknown,clinic,Unknown,Unknown,Unknown,Unknown,16.5190121,80.6308405
Kunda Orthopaedic Centre,"Gandhi Nagar, Vijayawada",Unknown,Unknown,520003,Andhra Pradesh,Unknown,clinic,Unknown,Unknown,Unknown,Unknown,16.5181811,80.630082
Prasanthi Hospital,"Muthyalampadu, Vijayawada",Unknown,Unknown,520011,Andhra Pradesh,Unknown,hospital,Unknown,Unknown,Unknown,Unknown,16.5271683,80.6386249
Amaravathi Children And General Clinic,"Madhura Nagar, Vijayawada",Unknown,Unknown,520004,Andhra Pradesh,Unknown,clinic,Unknown,Unknown,Unknown,Unknown,16.5271145,80.6472562
Sri Raksha Children Hospital,"Satyaranayana Puram, Vijayawada",Unknown,Unknown,520011,Andhra Pradesh,Unknown,hospital,Unknown,Unknown,Unknown,Unknown,16.5273853,80.6392381
Janani Nursing Home,"Machavaram, Vijayawada",Unknown,Unknown,520004,Andhra Pradesh,Unknown,clinic,Unknown,Unknown,Unknown,Unknown,16.5203873,80.6534728
Sri Srinivasa Nursing Home,"Satyaranayana Puram, Vijayawada",Unknown,Unknown,520011,Andhra Pradesh,Unknown,hospital,Unknown,Unknown,Unknown,Unknown,16.5222754,80.6352525
Chaitanya Pillal Hospital,"Mutyalammapadu, Satyaranayana Puram, Vijayawada",Unknown,Unknown,520011,Andhra Pradesh,Unknown,hospital,Unknown,Unknown,Unknown,Unknown,16.5264783,80.6384317
Soumya Poly Clinic,"Machavaram, Vijayawada",Unknown,Unknown,520004,Andhra Pradesh,Unknown,clinic,Unknown,Unknown,Unknown,Unknown,16.5228096,80.6547824
S.V.Clinic,"Satyaranayana Puram, Vijayawada",Unknown,Unknown,520011,Andhra Pradesh,Unknown,clinic,Unknown,Unknown,Unknown,Unknown,16.5213139,80.6336149
Mahendra House,"Mutyalammapadu, Satyaranayana Puram, Vijayawada",Unknown,Unknown,520011,Andhra Pradesh,Unknown,clinic,Unknown,Unknown,Unknown,Unknown,16.5270403,80.6390906
Krishna Veni Hospital,"Guru Nanak Colony, Vijayawada",Unknown,Unknown,520008,Andhra Pradesh,Unknown,hospital,Unknown,Unknown,Unknown,Unknown,16.5115691,80.6701494
Shivaji Hospital,"Mutyalammapadu, Satyaranayana Puram, Vijayawada",Unknown,Unknown,520011,Andhra Pradesh,Unknown,hospital,Unknown,Unknown,Unknown,Unknown,16.5269547,80.6388444
Rajarshi Hospitals,Vijayawada,Unknown,Unknown,520008,Andhra Pradesh,Unknown,hospital,Unknown,Unknown,Unknown,Unknown,16.5147471,80.6703495
Praneeth Multi Speciality Hospital,"Madhura Nagar, Vijayawada",Unknown,Unknown,520004,Andhra Pradesh,Unknown,hospital,Unknown,Unknown,Unknown,Unknown,16.5269984,80.6464582
Tripura Gastro And Gynic Clinic,"Satyaranayana Puram, Vijayawada",Unknown,Unknown,520011,Andhra Pradesh,Unknown,clinic,Unknown,Unknown,Unknown,Unknown,16.520473,80.632045
Sree Multi Speciality Hospital,"Satyaranayana Puram, Vijayawada",Unknown,Unknown,520011,Andhra Pradesh,Unknown,hospital,Unknown,Unknown,Unknown,Unknown,16.520605,80.633434
Ramesh Cardiactic Centre,"Gandhi Nagar, Vijayawada",Unknown,Unknown,520003,Andhra Pradesh,Unknown,clinic,Unknown,Unknown,Unknown,Unknown,16.5178147,80.6271536
Laxmi Nursing Home,"Satyaranayana Puram, Vijayawada",Unknown,Unknown,520011,Andhra Pradesh,Unknown,clinic,Unknown,Unknown,Unknown,Unknown,16.5224069,80.6371605
Sant Aloshiyas Eye Clinic,"Gunadala, Vijayawada",Unknown,Unknown,520004,Andhra Pradesh,Unknown,clinic,Unknown,Unknown,Unknown,Unknown,16.5238971,80.6586625
Sri Sathya Sai Hospital,"Gunadala, Vijayawada",Unknown,Unknown,520004,Andhra Pradesh,Unknown,hospital,Unknown,Unknown,Unknown,Unknown,16.5200396,80.6658409
Rc Neuro Clinic,"Mutyalammapadu, Satyaranayana Puram, Vijayawada",Unknown,Unknown,520011,Andhra Pradesh,Unknown,clinic,Unknown,Unknown,Unknown,Unknown,16.5251156,80.6384178
Sri Sai Maternity And Infertility Centre,"Madhura Nagar, Vijayawada",Unknown,Unknown,520011,Andhra Pradesh,Unknown,clinic,Unknown,Unknown,Unknown,Unknown,16.5266147,80.6534421
Ranjith Eye Hospital,"Moghalrajpuram, Sitharamapuram",Unknown,Unknown,520002,Andhra Pradesh,Unknown,hospital,Unknown,Unknown,Unknown,Unknown,16.5140374,80.6404133
Mamatha Eye Hospital & Diabetic Care Centre,"Suryaraopeta, Governor Peta, Vijayawada",Unknown,Unknown,520002,Andhra Pradesh,Unknown,hospital,Unknown,Unknown,Unknown,Unknown,16.5130322,80.634046
Chaitanya Hospital,"Suryaraopeta, Governor Peta, Vijayawada",Unknown,Unknown,520002,Andhra Pradesh,Unknown,hospital,Unknown,Unknown,Unknown,Unknown,16.511845,80.635098
Sri Gowri Sankar Homeo Clinic,"Arundalpet, Governor Peta, Vijayawada",Unknown,Unknown,520002,Andhra Pradesh,Unknown,clinic,Unknown,Unknown,Unknown,Unknown,16.5165021,80.6384909
Rama Krishna ENT Hospital,"Suryaraopeta, Governor Peta, Vijayawada",Unknown,Unknown,520002,Andhra Pradesh,Unknown,hospital,Unknown,Unknown,Unknown,Unknown,16.5115,80.634682
Kiran'S Surgery Center,"Governor Peta, Vijayawada",Unknown,Unknown,520001,Andhra Pradesh,Unknown,hospital,Unknown,Unknown,Unknown,Unknown,16.5087589,80.6265099
Vijayawada Multi Speciality Hospital,"Suryaraopeta, Governor Peta, Vijayawada",Unknown,Unknown,520002,Andhra Pradesh,Unknown,hospital,Unknown,Unknown,Unknown,Unknown,16.5130143,80.6339964
Devi Saran Nursing Home,"Suryaraopeta, Governor Peta, Vijayawada",Unknown,Unknown,520002,Andhra Pradesh,Unknown,clinic,Unknown,Unknown,Unknown,Unknown,16.511245,80.634104
Surjitha Physiotherapy & Rehabilitation Centre,"Moghalrajpuram, Sitharamapuram, Vijayawada",Unknown,Unknown,520010,Andhra Pradesh,Unknown,clinic,Unknown,Unknown,Unknown,Unknown,16.513576,80.6396558
Swarupa Fertility & Maternity Centre,"Governor Peta, Vijayawada",Unknown,Unknown,520002,Andhra Pradesh,Unknown,clinic,Unknown,Unknown,Unknown,Unknown,16.512265,80.631697
Rainbow Children's Clinic,"Governor Peta, Vijayawada",Unknown,Unknown,520001,Andhra Pradesh,Unknown,clinic,Unknown,Unknown,Unknown,Unknown,16.5115247,80.6307739
Nandan Hospitals,"Moghalrajpuram, Suryaraopeta, Vijayawada",Unknown,Unknown,520002,Andhra Pradesh,Unknown,hospital,Unknown,Unknown,Unknown,Unknown,16.510702,80.63728
Dr. Sumana's Sai Ayurveda Hospital,"Arundalpet, Governor Peta, Vijayawada",Unknown,Unknown,520002,Andhra Pradesh,Unknown,hospital,Unknown,Unknown,Unknown,Unknown,16.5159969,80.6384191
Jayasree Neuro Centre,"Suryaraopeta, Governor Peta, Vijayawada",Unknown,Unknown,520002,Andhra Pradesh,Unknown,hospital,Unknown,Unknown,Unknown,Unknown,16.5130577,80.6340093
City Hospital,"Moghalrajpuram, Suryaraopeta, Governor Peta, Vijayawada",Unknown,Unknown,520002,Andhra Pradesh,Unknown,hospital,Unknown,Unknown,Unknown,Unknown,16.513132,80.635165
Sowjanya Hospitals,"Governor Peta, Vijayawada",Unknown,Unknown,520002,Andhra Pradesh,Unknown,hospital,Unknown,Unknown,Unknown,Unknown,16.513542,80.635522
Goutham's Diabetes And Hormone Hospital,"Suryaraopeta, Vijayawada",Unknown,Unknown,520002,Andhra Pradesh,Unknown,hospital,Unknown,Unknown,Unknown,Unknown,16.5102532,80.6371287
Vipula Hair & Skin Clinic,"Suryaraopeta, Vijayawada",Unknown,Unknown,520002,Andhra Pradesh,Unknown,clinic,Unknown,Unknown,Unknown,Unknown,16.5110835,80.6371964
Balya Child Hospital,"Moghalrajpuram, Suryaraopeta, Vijayawada",Unknown,Unknown,520002,Andhra Pradesh,Unknown,hospital,Unknown,Unknown,Unknown,Unknown,16.511336,80.635175
Sai Bhaskar Orthopaedic Super Speciality Hospital,"Suryaraopet, Vijayawada",Unknown,Unknown,520002,Andhra Pradesh,Unknown,hospital,Unknown,Unknown,Unknown,Unknown,16.511754,80.638597
Kamineni Clinic,"Kasturibhaipet, Moghalrajpuram, Vijayawada",Unknown,Unknown,520002,Andhra Pradesh,Unknown,clinic,Unknown,Unknown,Unknown,Unknown,16.5103853,80.6365184
Mj Naidu Super Speciality Hospital,"Moghalrajpuram, Suryaraopeta, Vijayawada",Unknown,Unknown,520002,Andhra Pradesh,Unknown,hospital,Unknown,Unknown,Unknown,Unknown,16.511197,80.638123
Madhu Super Specialities,Vijayawada,Unknown,Unknown,520002,Andhra Pradesh,Unknown,hospital,Unknown,Unknown,Unknown,Unknown,16.5111517,80.6378215
Naveen ENT Hospital,"Suryarao Pet, Vijayawada",Unknown,Unknown,520002,Andhra Pradesh,Unknown,hospital,Unknown,Unknown,Unknown,Unknown,16.5113158,80.6351878
Sneha Hospital,"Arundalpet, Governor Peta, Vijayawada",Unknown,Unknown,520002,Andhra Pradesh,Unknown,hospital,Unknown,Unknown,Unknown,Unknown,16.5170317,80.6373686
Ishwarya Maternity Hospital,"Suryaraopeta, Governor Peta, Vijayawada",Unknown,Unknown,520002,Andhra Pradesh,Unknown,hospital,Unknown,Unknown,Unknown,Unknown,16.511559,80.634515
Sri Sai Teja Hospital,"Moghalrajpuram, Suryaraopeta, Governor Peta, Vijayawada",Unknown,Unknown,520002,Andhra Pradesh,Unknown,hospital,Unknown,Unknown,Unknown,Unknown,16.5132755,80.6338832
City Neuro Centre,"Suryaraopeta, Vijayawada",Unknown,Unknown,520002,Andhra Pradesh,Unknown,hospital,Unknown,Unknown,Unknown,Unknown,16.5100394,80.6376056
Amaravati Eye Hospital,"Suryaraopeta, Vijayawada",Unknown,Unknown,520002,Andhra Pradesh,Unknown,hospital,hospital,Unknown,Unknown,Unknown,16.5096865,80.6368519
Sree Physiotherapy And Rehabilitation Hospital,"Suryaraopeta, Vijayawada",Unknown,Unknown,520002,Andhra Pradesh,Unknown,hospital,Unknown,Unknown,Unknown,Unknown,16.5144201,80.636918
Spandana Hospital,"Suryaraopeta, Governor Peta, Vijayawada",Unknown,Unknown,520002,Andhra Pradesh,Unknown,hospital,Unknown,Unknown,Unknown,Unknown,16.5124144,80.6343671
Janatha Hospital,"Suryaraopeta, Vijayawada",Unknown,Unknown,520002,Andhra Pradesh,Unknown,hospital,Unknown,Unknown,Unknown,Unknown,16.5112741,80.6351791
Wonder World Multispeciality Hospital,"Venkatswara Rao Street, Governor Peta, Vijayawada",Unknown,Unknown,520002,Andhra Pradesh,Unknown,hospital,Unknown,Unknown,Unknown,Unknown,16.513945,80.632494
Sri Raghava Nursing Home,"Suryarao Pet, Vijayawada",Unknown,Unknown,520002,Andhra Pradesh,Unknown,clinic,Unknown,Unknown,Unknown,Unknown,16.5117864,80.6384105
Brahmanandam Orthopaedic Nursing Home,"Moghalrajpuram, Kasturibaipet, Vijayawada",Unknown,Unknown,520010,Andhra Pradesh,Unknown,clinic,Unknown,Unknown,Unknown,Unknown,16.5114344,80.6388199
Vignesh Super Specialities,"Moghalrajpuram, Suryaraopeta, Vijayawada",Unknown,Unknown,520002,Andhra Pradesh,Unknown,hospital,hospital,Unknown,Unknown,Unknown,16.509869,80.635791
Prabha Homoeo Care,"Moghalrajpuram, Suryaraopeta, Vijayawada",Unknown,Unknown,520002,Andhra Pradesh,Unknown,clinic,Unknown,Unknown,Unknown,Unknown,16.5137994,80.638813
Surakshita Children Hospital,"Suryaraopeta, Vijayawada",Unknown,Unknown,520002,Andhra Pradesh,Unknown,hospital,Unknown,Unknown,Unknown,Unknown,16.513282,80.636331
Sri Mangapathi Hospitals,"Governor Peta, Vijayawada",Unknown,Unknown,520002,Andhra Pradesh,Unknown,hospital,Unknown,Unknown,Unknown,Unknown,16.5145481,80.6348078
Ashwa Hospital,"Suryaraopeta, Vijayawada",Unknown,Unknown,520002,Andhra Pradesh,Unknown,hospital,Unknown,Unknown,Unknown,Unknown,16.5111234,80.6354988
Saibaba Homeo Care N Cure,"Governor Peta, Vijayawada",Unknown,Unknown,520002,Andhra Pradesh,Unknown,clinic,Unknown,Unknown,Unknown,Unknown,16.511479,80.629139
R.K. Hospitals,"Moghalrajpuram, Suryaraopeta, Vijayawada",Unknown,Unknown,520002,Andhra Pradesh,Unknown,hospital,Unknown,Unknown,Unknown,Unknown,16.5112931,80.6370286
Dharma Hospital,"Governor Peta, Vijayawada",Unknown,Unknown,520002,Andhra Pradesh,Unknown,hospital,Unknown,Unknown,Unknown,Unknown,16.5113444,80.6264939
Raja Hospitals,"Suryaraopeta, Suryaraopet",Unknown,Unknown,520002,Andhra Pradesh,Unknown,hospital,Unknown,Unknown,Unknown,Unknown,16.511879,80.638948
Khushi Neuro Psychiatric Centre,"Suryaraopeta, Governor Peta, Vijayawada",Unknown,Unknown,520002,Andhra Pradesh,Unknown,hospital,Unknown,Unknown,Unknown,Unknown,16.5115171,80.6341698
Sankara Eye Hospital,"Suryaraopeta, Vijayawada",Unknown,Unknown,520002,Andhra Pradesh,Unknown,hospital,hospital,Unknown,Unknown,Unknown,16.509587,80.6370299
Ashoka Hospital,"Governor Peta, Vijayawada",Unknown,Unknown,520002,Andhra Pradesh,Unknown,hospital,Unknown,Unknown,Unknown,Unknown,16.5128536,80.63221
Sai Krishna Hospital,"Suryaraopeta, Governor Peta, Vijayawada",Unknown,Unknown,520002,Andhra Pradesh,Unknown,hospital,Unknown,Unknown,Unknown,Unknown,16.513111,80.633646
Smartvision Eye Hospitals,"Suryaraopeta, Vijayawada",Unknown,Unknown,520002,Andhra Pradesh,Unknown,hospital,Unknown,Unknown,Unknown,Unknown,16.510699,80.636938
Sri Pranavai Homeo Clinic,"Moghalrajpuram, Suryaraopeta, Vijayawada",Unknown,Unknown,520002,Andhra Pradesh,Unknown,clinic,Unknown,Unknown,Unknown,Unknown,16.5112114,80.6366779
Sunrise Hospitals,"Moghalrajpuram, Suryaraopeta",Unknown,Unknown,520002,Andhra Pradesh,Unknown,hospital,Unknown,Unknown,Unknown,Unknown,16.512833,80.639296
Sri Gayathri Ayurvedic Multi Speciality Hospital,"Governor Peta, Vijayawada",Unknown,Unknown,520002,Andhra Pradesh,Unknown,hospital,Unknown,Unknown,Unknown,Unknown,16.5137244,80.6344165
Sameeksha Clinic,"Suryaraopeta, Vijayawada",Unknown,Unknown,520002,Andhra Pradesh,Unknown,clinic,Unknown,Unknown,Unknown,Unknown,16.509698,80.636519
Sri Gayatri Superspeciality Hospital,"Arundalpet, Governor Peta, Vijayawada",Unknown,Unknown,520002,Andhra Pradesh,Unknown,clinic,Unknown,Unknown,Unknown,Unknown,16.5171357,80.6366223
Sritha Neuro Clinic,"Moghalrajpuram, Suryaraopeta, Vijayawada",Unknown,Unknown,520002,Andhra Pradesh,Unknown,clinic,Unknown,Unknown,Unknown,Unknown,16.5118376,80.6360182
Balaji ENT Hospital,"Suryaraopeta, Governor Peta, Vijayawada",Unknown,Unknown,520002,Andhra Pradesh,Unknown,hospital,Unknown,Unknown,Unknown,Unknown,16.5125716,80.6346818
Hasini Hospital,"Governor Peta, Vijayawada",Unknown,Unknown,520002,Andhra Pradesh,Unknown,hospital,Unknown,Unknown,Unknown,Unknown,16.5136,80.634351
Poorna Chandra Rao Hospital,"Moghalrajpuram, Suryaraopeta, Vijayawada",Unknown,Unknown,520010,Andhra Pradesh,Unknown,hospital,Unknown,Unknown,Unknown,Unknown,16.513806,80.636527
Sri Santhi Hospitals,"Suryaraopeta, Governor Peta, Vijayawada",Unknown,Unknown,520002,Andhra Pradesh,Unknown,hospital,Unknown,Unknown,Unknown,Unknown,16.5138144,80.6336612
Modern Eye Hospital,"Suryaraopet, Vijayawada",Unknown,Unknown,520002,Andhra Pradesh,Unknown,hospital,Unknown,Unknown,Unknown,Unknown,16.513973,80.63601
Endo Care Hospitals,"Suryaraopeta, Vijayawada",Unknown,Unknown,520002,Andhra Pradesh,Unknown,hospital,Unknown,Unknown,Unknown,Unknown,16.513647,80.636191
Pooja Psychiatric Centre,"Governor Peta, Vijayawada",Unknown,Unknown,520002,Andhra Pradesh,Unknown,clinic,Unknown,Unknown,Unknown,Unknown,16.5128203,80.6311308
Sobhanachala Orthopaedic Centre,"Suryaraopeta, Vijayawada",Unknown,Unknown,520002,Andhra Pradesh,Unknown,clinic,Unknown,Unknown,Unknown,Unknown,16.5114853,80.63582
BVR Clinic,"Governor Peta, Vijayawada",Unknown,Unknown,520002,Andhra Pradesh,Unknown,clinic,Unknown,Unknown,Unknown,Unknown,16.512081,80.6295966
City Eye Hospital,"Suryaraopeta, Vijayawada",Unknown,Unknown,520002,Andhra Pradesh,Unknown,hospital,Unknown,Unknown,Unknown,Unknown,16.5151762,80.6392779
Swetha Skin Care,"Governor Peta, Vijayawada",Unknown,Unknown,520002,Andhra Pradesh,Unknown,clinic,Unknown,Unknown,Unknown,Unknown,16.5131932,80.6341912
Sagar Super Speciality Hospitals,"Moghalrajpuram, Suryaraopeta, Vijayawada",Unknown,Unknown,520002,Andhra Pradesh,Unknown,hospital,Unknown,Unknown,Unknown,Unknown,16.510789,80.6373626
Suresh Super Speciality Centre,"Moghalrajpuram, Suryaraopeta, Vijayawada",Unknown,Unknown,520002,Andhra Pradesh,Unknown,clinic,Unknown,Unknown,Unknown,Unknown,16.5130469,80.6360118
Dr. Sohan Singh Homeo Hospital,"Governor Peta, Vijayawada",Unknown,Unknown,520002,Andhra Pradesh,Unknown,hospital,Unknown,Unknown,Unknown,Unknown,16.5111946,80.6263221
Apple Health Care Centre,"Moghalrajpuram, Sitharamapuram, Vijayawada",Unknown,Unknown,520002,Andhra Pradesh,Unknown,clinic,Unknown,Unknown,Unknown,Unknown,16.513678,80.6396807
Shine Hospitals,"Suryaraopeta, Vijayawada",Unknown,Unknown,520002,Andhra Pradesh,Unknown,hospital,Unknown,Unknown,Unknown,Unknown,16.510152,80.637269
Sri Vijaya Orthopaedic & Maternity Centre,"Suryaraopeta, Vijayawada",Unknown,Unknown,520002,Andhra Pradesh,Unknown,clinic,Unknown,Unknown,Unknown,Unknown,16.510569,80.637262
VijayaDurga Medical and Fancy Store,Unknown,Unknown,Unknown,Unknown,Unknown,Unknown,pharmacy,Unknown,Unknown,Unknown,Unknown,16.5145658,80.6344973
Revive Hospital,"Guru Nanak Colony, Vijayawada",Unknown,Unknown,520007,Andhra Pradesh,Unknown,hospital,Unknown,Unknown,Unknown,Unknown,16.5039229,80.6654517
Rohan Multi Speciality Dental Hospital,"Moghalrajpuram, Vijayawada",Unknown,Unknown,520010,Andhra Pradesh,Unknown,hospital,Unknown,Unknown,Unknown,Unknown,16.5084686,80.6419562
Asian Homeo Care,"Teacher's Colony, Vijayawada",Unknown,Unknown,520007,Andhra Pradesh,Unknown,clinic,Unknown,Unknown,Unknown,Unknown,16.504296,80.6622292
Savithri Netrayala,"Sidhartha Nagar, Benz Circle, Vijayawada",Unknown,Unknown,520010,Andhra Pradesh,Unknown,clinic,Unknown,Unknown,Unknown,Unknown,16.5042977,80.646706
Padmaja Clinic,"Mogalrajapuram, Christurajupuram, Vijayawada",Unknown,Unknown,520010,Andhra Pradesh,Unknown,clinic,Unknown,Unknown,Unknown,Unknown,16.509277,80.642024
Suryadevara Homoeopathic Clinic,Vijayawada,Unknown,Unknown,520008,Andhra Pradesh,Unknown,clinic,Unknown,Unknown,Unknown,Unknown,16.502376,80.666993
S.S. Ortho Centre,"Moghalrajpuram, Kasturibaipet, Vijayawada",Unknown,Unknown,520010,Andhra Pradesh,Unknown,clinic,Unknown,Unknown,Unknown,Unknown,16.510752,80.638606
Shruti Opticals And Eye Care Centre,Vijayawada,Unknown,Unknown,520008,Andhra Pradesh,Unknown,hospital,Unknown,Unknown,Unknown,Unknown,16.503058,80.666596
Vignesh Superspecialities,"Prajasakthi Nagar, Vijayawada",Unknown,Unknown,520010,Andhra Pradesh,Unknown,hospital,Unknown,Unknown,Unknown,Unknown,16.5074544,80.6405111
Jyothi Patient Care Centre,"Mogalrajapuram, Benz Circle, Vijayawada",Unknown,Unknown,520010,Andhra Pradesh,Unknown,clinic,Unknown,Unknown,Unknown,Unknown,16.5003945,80.6665491
Blossoms Mother & Child Hospital,"Mogalrajapuram, Giripuram, Labbipet, Vijayawada",Unknown,Unknown,520010,Andhra Pradesh,Unknown,hospital,Unknown,Unknown,Unknown,Unknown,16.5070301,80.6403974
Abhi Clinic,"Badavapet, Vijayawada",Unknown,Unknown,520010,Andhra Pradesh,Unknown,clinic,Unknown,Unknown,Unknown,Unknown,16.5056357,80.6415946
Hrudaya Hospital,"Moghalrajpuram, Labbipet, Vijayawada",Unknown,Unknown,520002,Andhra Pradesh,Unknown,hospital,Unknown,Unknown,Unknown,Unknown,16.508903,80.640457
Vikram Gastro And Cancer Centre,Vijayawada,Unknown,Unknown,520010,Andhra Pradesh,Unknown,clinic,Unknown,Unknown,Unknown,Unknown,16.507866,80.643052
Deepthi ENT Centre,"Benz Circle, Vijayawada",Unknown,Unknown,520010,Andhra Pradesh,Unknown,clinic,Unknown,Unknown,Unknown,Unknown,16.5027786,80.667149
Sri Sai Dhatu Ayurvedic Speciality Hospital,"Sidhartha Nagar, Benz Circle, Vijayawada",Unknown,Unknown,520010,Andhra Pradesh,Unknown,hospital,Unknown,Unknown,Unknown,Unknown,16.5019066,80.6466716
Haribandi Shivaji Hospital,"Madhu Gardens, Labbipet, Vijayawada",Unknown,Unknown,520010,Andhra Pradesh,Unknown,hospital,Unknown,Unknown,Unknown,Unknown,16.5081468,80.6421081
Lahari Hospital,"Benz Circle, Vijayawada",Unknown,Unknown,520010,Andhra Pradesh,Unknown,hospital,Unknown,Unknown,Unknown,Unknown,16.500119,80.66967
Swapna Clinic,"Benz Circle, Vijayawada",Unknown,Unknown,520008,Andhra Pradesh,Unknown,clinic,Unknown,Unknown,Unknown,Unknown,16.5020178,80.664291
Ravi's American Cancer Care,"Moghalrajpuram, Labbipet, Vijayawada",Unknown,Unknown,520010,Andhra Pradesh,Unknown,clinic,Unknown,Unknown,Unknown,Unknown,16.5055011,80.6455969
Sri Sai Hospital,Guru Nanak Colony,Unknown,Unknown,520008,Andhra Pradesh,Unknown,hospital,Unknown,Unknown,Unknown,Unknown,16.504908,80.665856
Latha Super Speciality Hospital,"Kasturibaipet, Labbipet",Unknown,Unknown,520002,Andhra Pradesh,Unknown,hospital,Unknown,Unknown,Unknown,Unknown,16.5091659,80.6386731
Bindu Child Neuro Care,"Mogalrajapuram, Shanti Nagar, Labbipet, Vijayawada",Unknown,Unknown,520010,Andhra Pradesh,Unknown,clinic,Unknown,Unknown,Unknown,Unknown,16.5064576,80.6426156
Samara Hospital,"Sidhartha Nagar, Labbipet, Vijayawada",Unknown,Unknown,520010,Andhra Pradesh,Unknown,hospital,Unknown,Unknown,Unknown,Unknown,16.5009787,80.6480383
Balaji Ayurveda Hospital,"Teacher's Colony, Vijayawada",Unknown,Unknown,520008,Andhra Pradesh,Unknown,hospital,Unknown,Unknown,Unknown,Unknown,16.5021243,80.6648148
Sri Vaishnavi Eye Hospital,"Mogalrajapuram, Vijayawada",Unknown,Unknown,520010,Andhra Pradesh,Unknown,hospital,Unknown,Unknown,Unknown,Unknown,16.5041203,80.6490693
Kishore Dental Care,"Mogalrajapuram, Labbipet, Vijayawada",Unknown,Unknown,520010,Andhra Pradesh,Unknown,dentist,dentist,Unknown,Unknown,Unknown,16.5052163,80.6442758
Ratna Hospital,Vijayawada,Unknown,Unknown,520008,Andhra Pradesh,Unknown,hospital,Unknown,Unknown,Unknown,Unknown,16.5057299,80.6629387
Anvitha Arthritis & Rheumatology Centre,"Moghalrajpuram, Christurajupuram, Vijayawada",Unknown,Unknown,520010,Andhra Pradesh,Unknown,clinic,Unknown,Unknown,Unknown,Unknown,16.5094425,80.6421817
Sri Swarupa Super Speciality Hospital,"34-2-33, Kasturibaipet, Labbipet, Vijayawada",Unknown,Unknown,520002,Andhra Pradesh,Unknown,hospital,hospital,Unknown,Unknown,Unknown,16.5097724,80.6373122
Best Hospital,"Prasadampadu, Vijayawada",Unknown,Unknown,521108,Andhra Pradesh,Unknown,hospital,Unknown,Unknown,Unknown,Unknown,16.5206333,80.691812
Help Hospitals,"Buckinghampeta, Vijayawada",Unknown,Unknown,520002,Andhra Pradesh,Unknown,hospital,Unknown,Unknown,Unknown,Unknown,16.5082127,80.6279822
"Dr T V S Clinic, Vaccination centre","14-14-30, Hanuman Pet, Gandhi Nagar, Vijayawada",Unknown,Unknown,520003,Andhra Pradesh,Unknown,hospital,Unknown,Unknown,Unknown,Unknown,16.5160779,80.6231327
INDO-BRITISH Hospital,"Srinivasa Nagar Bank Colony, Vijayawada",Unknown,Unknown,520008,Andhra Pradesh,Unknown,hospital,Unknown,Unknown,Unknown,Unknown,16.5135128,80.6693244
"Primary Health Centre, Baptist Palem","Khuddus Nagar, Kedareswar Pet, Vijayawada",Unknown,Unknown,520012,Andhra Pradesh,Unknown,Unknown,centre,Unknown,Unknown,Unknown,16.5263869,80.6251484
Sankara Netra Chikitsatalaya,"Gayatri Nagar, Siddhartha Nagar, Benz Circle, Vijayawada",Unknown,Unknown,520010,Andhra Pradesh,Unknown,hospital,Unknown,Unknown,Unknown,Unknown,16.5002353,80.6558691
"Primary Health Centre, Kandrika","Sidhartha Nagar, Benz Circle, Vijayawada",Unknown,Unknown,520010,Andhra Pradesh,Unknown,Unknown,centre,Unknown,Unknown,Unknown,16.5010248,80.6458685
"Primary Health Centre, Durgapuram","24-14-40, Kudus Nagar, Bavajipet, Vijayawada",Unknown,Unknown,520003,Andhra Pradesh,Unknown,Unknown,centre,Unknown,Unknown,Unknown,16.5188307,80.6368482
American Oncology Institute,"Venkateswara Rao Street, Prakasham Road, Suryaraopet",Unknown,Unknown,520002,Andhra Pradesh,Unknown,hospital,Unknown,Unknown,Unknown,Unknown,16.5108484,80.6322878
Harini Hospitals,"14-51, Suryaraopeta, Governor Peta, Vijayawada",Unknown,Unknown,520002,Andhra Pradesh,Unknown,hospital,Unknown,Unknown,Unknown,Unknown,16.5105505,80.6334222
Mithra hospital,Unknown,Unknown,Unknown,Unknown,Unknown,Unknown,hospital,hospital,Unknown,Unknown,Unknown,16.5227234,80.6035984
Unknown,Unknown,Unknown,Unknown,Unknown,Unknown,Unknown,hospital,hospital,Unknown,Unknown,Unknown,16.5280203,80.6689271
Accura Diagnostics,Unknown,Unknown,Unknown,Unknown,Unknown,Unknown,hospital,hospital,Unknown,Unknown,Unknown,16.5156518,80.6395845
32 Dental,Unknown,Unknown,Unknown,Unknown,Unknown,Unknown,dentist,dentist,+91 97363 23232,Unknown,Unknown,16.5068152,80.6453987
Noble Hospitals,Unknown,Unknown,Unknown,Unknown,Unknown,Unknown,hospital,hospital,Unknown,Unknown,Unknown,16.5070607,80.6456878
Generic Vishv Medicals,Unknown,Unknown,Unknown,Unknown,Unknown,Unknown,pharmacy,pharmacy,Unknown,Unknown,Unknown,16.5066439,80.6458127
Ferti CARE,Unknown,Unknown,Unknown,Unknown,Unknown,Unknown,hospital,hospital,Unknown,Unknown,Unknown,16.5069157,80.6439803
Tenet Diagnostics,Unknown,Unknown,Unknown,Unknown,Unknown,Unknown,hospital,hospital,Unknown,Unknown,Unknown,16.5068876,80.6440303
Aggarwals,Unknown,Unknown,Unknown,Unknown,Unknown,Unknown,Unknown,optometrist,Unknown,Unknown,Unknown,16.5086714,80.6254469
Dr. Kishore Dental Care,Unknown,Unknown,Unknown,Unknown,Unknown,Unknown,dentist,dentist,Unknown,Unknown,Unknown,16.5053508,80.6440669
Shalinis Skin Clinic,Unknown,Unknown,Unknown,Unknown,Unknown,Unknown,doctors,doctor,Unknown,Unknown,Unknown,16.5061874,80.6445893
Apollo Pharmacy,Unknown,Unknown,Unknown,Unknown,Unknown,Unknown,pharmacy,pharmacy,Unknown,Unknown,Unknown,16.5026848,80.6399102
Gayatri Medicals,Unknown,Unknown,Unknown,Unknown,Unknown,Unknown,pharmacy,pharmacy,Unknown,Unknown,Unknown,16.5028953,80.6392016
Astor Ramesh Hospitals,Unknown,Unknown,Unknown,Unknown,Unknown,Unknown,hospital,hospital,Unknown,Unknown,Unknown,16.5029057,80.6390338
Vet Pro,Unknown,Unknown,Unknown,Unknown,Unknown,Unknown,pharmacy,pharmacy,Unknown,Unknown,Unknown,16.5021937,80.6386785
Suraksha Pharmacy,Unknown,Unknown,Unknown,Unknown,Unknown,Unknown,pharmacy,pharmacy,Unknown,Unknown,Unknown,16.5014427,80.6384132
Sri Krishna Vet Medicals,Unknown,Unknown,Unknown,Unknown,Unknown,Unknown,pharmacy,pharmacy,Unknown,Unknown,Unknown,16.5023359,80.6387675
Global Multi Speciality Hospital,Unknown,Unknown,Unknown,Unknown,Unknown,Unknown,hospital,hospital,Unknown,Unknown,Unknown,16.5111816,80.6186829
Apollo Pharmacy,Unknown,Unknown,Unknown,Unknown,Unknown,Unknown,pharmacy,pharmacy,Unknown,Unknown,Unknown,16.5100374,80.6384987
Prashanthi Dental Clinic,Unknown,Unknown,Unknown,Unknown,Unknown,Unknown,dentist,dentist,852997989; +91 85299 97989,Unknown,09:00-21:00,16.5066799,80.6457407
Aditya Pharmacy,Unknown,Unknown,Unknown,Unknown,Unknown,Unknown,pharmacy,pharmacy,+91 72859 88899,Unknown,Unknown,16.5062067,80.648151
New Suraksha Pharmacy,Unknown,Unknown,Unknown,Unknown,Unknown,Unknown,pharmacy,pharmacy,+91 80086 32203,Unknown,Unknown,16.5062204,80.6482081
Sri Ramakrishna,Unknown,Unknown,Unknown,Unknown,Unknown,Unknown,pharmacy,pharmacy,Unknown,Unknown,Unknown,16.5099471,80.6380985
Anu Institute of Neuro And Cardiac Sciences,Unknown,Unknown,vijayawada,Unknown,Unknown,Unknown,hospital,hospital,Unknown,Unknown,Unknown,16.5195689,80.6950934
Dr.Anusha kattula-Pediatric cardiologist institute,Unknown,Unknown,Unknown,Unknown,Unknown,Unknown,hospital,hospital,Unknown,Unknown,Unknown,16.5158625,80.702686
Sai Kiran Medical Stores,Unknown,Unknown,Unknown,Unknown,Unknown,Unknown,pharmacy,pharmacy,Unknown,Unknown,Unknown,16.5098405,80.6383533
Vamsi Heartcare,Unknown,Unknown,Unknown,Unknown,Unknown,Unknown,hospital,hospital,Unknown,Unknown,Unknown,16.5113899,80.6385254
Arogyaraksha Generic Medicals,Unknown,Unknown,Unknown,Unknown,Unknown,Unknown,pharmacy,pharmacy,Unknown,Unknown,Unknown,16.5188631,80.6376009
Mahesh Medicals,Unknown,Unknown,Unknown,Unknown,Unknown,Unknown,pharmacy,pharmacy,Unknown,Unknown,Unknown,16.5254271,80.6386242
MedPlus,Unknown,Unknown,Unknown,Unknown,Unknown,Unknown,pharmacy,pharmacy,Unknown,Unknown,Unknown,16.5257534,80.6388916
MedPlus,Unknown,Unknown,Unknown,Unknown,Unknown,Unknown,pharmacy,pharmacy,Unknown,Unknown,Unknown,16.5298968,80.6377546
Anil Neuro & Trauma Centre,Unknown,Unknown,Unknown,Unknown,Unknown,Unknown,hospital,hospital,Unknown,Unknown,Unknown,16.516873,80.6424773
pet clinic,Unknown,Unknown,Unknown,Unknown,Unknown,Unknown,hospital,hospital,Unknown,Unknown,Unknown,16.5767023,80.6838045
"sri bhavani laboratory, blood test",Unknown,Unknown,Unknown,Unknown,Unknown,Unknown,Unknown,yes,Unknown,Unknown,Unknown,16.5215569,80.6370196
Apple Pharmacy,Unknown,Unknown,Unknown,Unknown,Unknown,Unknown,pharmacy,pharmacy,Unknown,Unknown,Unknown,16.5231487,80.6380142
MedPlus,Unknown,Unknown,Unknown,Unknown,Unknown,Unknown,pharmacy,pharmacy,Unknown,Unknown,Unknown,16.5012486,80.6421967
Apollo Pharmacy,Unknown,Unknown,Unknown,Unknown,Unknown,Unknown,pharmacy,pharmacy,Unknown,Unknown,Unknown,16.5013577,80.64227
apollo,Unknown,Unknown,Unknown,Unknown,Unknown,Unknown,pharmacy,pharmacy,Unknown,Unknown,Unknown,16.5234134,80.6379863
Sri geeta Blood testing center,Unknown,Unknown,Unknown,Unknown,Unknown,Unknown,Unknown,laboratory,+917386698988,Unknown,Unknown,16.5254898,80.6391477
Dr Prudvis,Unknown,Unknown,Unknown,Unknown,Unknown,Unknown,dentist,dentist,Unknown,Unknown,Unknown,16.5243373,80.6382346
MedPlus,Unknown,Unknown,Unknown,Unknown,Unknown,Unknown,pharmacy,pharmacy,Unknown,Unknown,Unknown,16.5014482,80.653855
MedPlus,Unknown,Unknown,Unknown,Unknown,Unknown,Unknown,pharmacy,pharmacy,Unknown,Unknown,Unknown,16.505316,80.6476242
Prasanti Medicals,Unknown,Unknown,Unknown,Unknown,Unknown,Unknown,pharmacy,Unknown,Unknown,Unknown,Unknown,16.5381853,80.641326
Aditya Multispeciality Dental Clinic,Unknown,Unknown,Unknown,Unknown,Unknown,Unknown,dentist,dentist,Unknown,Unknown,Unknown,16.5162298,80.6413524
Suraksha Generic Pharmacy,Unknown,Unknown,Unknown,Unknown,Unknown,Unknown,pharmacy,pharmacy,Unknown,Unknown,Unknown,16.5127934,80.6415616
Makena Hospitals,Unknown,Unknown,Unknown,Unknown,Unknown,Unknown,hospital,hospital,Unknown,Unknown,Unknown,16.5118223,80.6322755
7 Hills Pharmacy,Unknown,Unknown,Unknown,Unknown,Unknown,Unknown,pharmacy,pharmacy,Unknown,Unknown,Unknown,16.5120446,80.6319597
Murari Dental Care,Unknown,Unknown,Unknown,Unknown,Unknown,Unknown,dentist,dentist,+91 99851 91966,Unknown,Unknown,16.5118803,80.6318995
Sai Srinivasa Medicals,Unknown,Unknown,Unknown,Unknown,Unknown,Unknown,pharmacy,pharmacy,Unknown,Unknown,Unknown,16.5073425,80.6243445
