Name,Full Address,Street,City,Postcode,State,Country,Amenity,Healthcare,Phone,Website,Opening Hours,Latitude,Longitude
Rani Chandramathi Hospital,Unknown,Unknown,Unknown,Unknown,Unknown,Unknown,hospital,hospital,Unknown,Unknown,Unknown,17.7287938,83.3366532
Visakha Homeo Clinic,Unknown,Unknown,Unknown,Unknown,Unknown,Unknown,hospital,Unknown,Unknown,Unknown,Unknown,17.7224616,83.3094001
Nikitha Hospital,"D.No: 54-13-6, Beside S.B.I., Seethammadhara junction.",Unknown,Unknown,530013,Andhra Pradesh,Unknown,hospital,Unknown,Unknown,http://www.nikithahospital.com/,24/7,17.7426705,83.3146285
Appolo Pharmacy,Unknown,Unknown,Unknown,Unknown,Unknown,Unknown,pharmacy,Unknown,Unknown,Unknown,Unknown,17.743378,83.3351151
Padmaja Hospital - Seethammadhara,Seethammadhara Jn,Unknown,Unknown,530013,Andhra Pradesh,Unknown,hospital,Unknown,Unknown,Unknown,Unknown,17.7436298,83.3146125
Ravi's Clinic,Unknown,Pandurangaswamy Temple Road,Visakhapatnam,530003,Unknown,Unknown,doctors,doctor,"+918912727199, +918179738933",Unknown,"Mo-Sa 09:00-13:00, 16:00-20:00",17.7147258,83.3221856
Jyothi Nursing Home,Unknown,Unknown,Unknown,Unknown,Unknown,Unknown,hospital,hospital,Unknown,Unknown,Unknown,17.739081,83.3229595
Unknown,Unknown,Unknown,Unknown,Unknown,Unknown,Unknown,clinic,Unknown,Unknown,Unknown,Unknown,17.7251355,83.3335942
Durga Nursing Home,Unknown,Unknown,Unknown,530008,Unknown,Unknown,hospital,Unknown,"0891 255 8037

",Unknown,24/7,17.7362275,83.2713316
Vasu Deva Rao Clinic,Unknown,Unknown,Unknown,Unknown,Unknown,Unknown,clinic,Unknown,Unknown,Unknown,Unknown,17.7249342,83.3339991
Rama Hospitals,"H.No: 50-50-33/2, Ballayasastry Layout",NH5 Gurudwara line,Unknown,530013,Andhra Pradesh,Unknown,hospital,Unknown,Unknown,Unknown,Unknown,17.7375272,83.3071191
kalavathi hospital,Unknown,Unknown,Unknown,Unknown,Unknown,Unknown,hospital,hospital,Unknown,Unknown,Unknown,17.7824442,83.2706719
LV Prasad Eye Hospital,"H.No: 11-113/1, Hanumanthawaka Junction",Unknown,Unknown,530040,Andhra Pradesh,Unknown,hospital,Unknown,Unknown,https://www.lvpei.org,Unknown,17.7568569,83.3309144
Queens NRI Hospital,"H.No: 50 - 53 - 14, Gurudwara Lane, Seethammadhara, Beside A. P.E.P. D. C. L Corporation Ltd",Gurudwara,Unknown,530013,Andhra Pradesh,Unknown,hospital,Unknown,Unknown,https://www.queensnrihospital.com/,24/7,17.7404353,83.3080536
Sri Venkateshwara Nursing Hospital,Unknown,Unknown,Unknown,Unknown,Unknown,Unknown,hospital,hospital,Unknown,Unknown,Unknown,17.7147802,83.307414
Amulya Hospitals,Unknown,Nowroji Street,visakhapatnam,530002,Unknown,Unknown,hospital,Unknown,Unknown,Unknown,Unknown,17.7154685,83.3086985
Kala Hospital,"H.No: 27-1-104, 6th Lane, Dwarakanagar",Unknown,Unknown,530016,Andhra Pradesh,Unknown,hospital,Unknown,Unknown,Unknown,Unknown,17.7288521,83.3056846
Sri Venkateshwara Medicals,Unknown,Unknown,Unknown,Unknown,Unknown,Unknown,pharmacy,Unknown,Unknown,Unknown,Unknown,17.6890131,83.2419105
Unknown,Unknown,Unknown,Unknown,Unknown,Unknown,Unknown,hospital,Unknown,Unknown,Unknown,Unknown,17.6898203,83.2381269
Unknown,Unknown,Unknown,Unknown,Unknown,Unknown,Unknown,hospital,Unknown,Unknown,Unknown,Unknown,17.6894856,83.2381055
Unknown,Unknown,Unknown,Unknown,Unknown,Unknown,Unknown,hospital,Unknown,Unknown,Unknown,Unknown,17.6895392,83.2377058
Unknown,Unknown,Unknown,Unknown,Unknown,Unknown,Unknown,hospital,Unknown,Unknown,Unknown,Unknown,17.6894958,83.2369816
Unknown,Unknown,Unknown,Unknown,Unknown,Unknown,Unknown,hospital,Unknown,Unknown,Unknown,Unknown,17.689023,83.2363406
Unknown,Unknown,Unknown,Unknown,Unknown,Unknown,Unknown,hospital,Unknown,Unknown,Unknown,Unknown,17.6896287,83.236405
Unknown,Unknown,Unknown,Unknown,Unknown,Unknown,Unknown,pharmacy,Unknown,Unknown,Unknown,Unknown,17.689667,83.2364184
Unknown,Unknown,Unknown,Unknown,Unknown,Unknown,Unknown,pharmacy,Unknown,Unknown,Unknown,Unknown,17.6830586,83.2406428
Unknown,Unknown,Unknown,Unknown,Unknown,Unknown,Unknown,pharmacy,Unknown,Unknown,Unknown,Unknown,17.6897053,83.2357961
Unknown,Unknown,Unknown,Unknown,Unknown,Unknown,Unknown,pharmacy,Unknown,Unknown,Unknown,Unknown,17.689621,83.2369977
Unknown,Unknown,Unknown,Unknown,Unknown,Unknown,Unknown,pharmacy,Unknown,Unknown,Unknown,Unknown,17.6889336,83.2428235
Unknown,Unknown,Unknown,Unknown,Unknown,Unknown,Unknown,pharmacy,Unknown,Unknown,Unknown,Unknown,17.689874,83.2367751
Unknown,Unknown,Unknown,Unknown,Unknown,Unknown,Unknown,pharmacy,Unknown,Unknown,Unknown,Unknown,17.68992,83.2363191
Unknown,Unknown,Unknown,Unknown,Unknown,Unknown,Unknown,pharmacy,Unknown,Unknown,Unknown,Unknown,17.6897436,83.2380947
Unknown,Unknown,Unknown,Unknown,Unknown,Unknown,Unknown,pharmacy,Unknown,Unknown,Unknown,Unknown,17.6896542,83.2389718
Dr. VJs Cosmetic Surgery& Hair Transplantation Centre,Unknown,Unknown,Unknown,Unknown,Unknown,Unknown,hospital,hospital,Unknown,Unknown,Unknown,17.7236037,83.2984784
Smiles Dental,Unknown,Dwaraka Nagar,Unknown,Unknown,Unknown,Unknown,clinic,Unknown,08912551631,Unknown,Mo-Sa 09:30-20:30,17.7261703,83.3026853
St. Joseph's Hospital,"Zilla Parishad Juction, Gokhale Rd, Beside Spencer's, Port Officers Quarters",Unknown,Unknown,530002,Andhra Pradesh,Unknown,hospital,Unknown,Unknown,Unknown,24/7,17.7113427,83.3120581
shantiniketan mental health centre,Unknown,Unknown,Unknown,Unknown,Unknown,Unknown,hospital,Unknown,Unknown,Unknown,Unknown,17.710893,83.3118425
Mycure hospital,Unknown,Unknown,Unknown,Unknown,Unknown,Unknown,hospital,Unknown,Unknown,Unknown,Unknown,17.7120173,83.3146963
Surya skin care,Unknown,Unknown,Unknown,Unknown,Unknown,Unknown,hospital,Unknown,Unknown,Unknown,Unknown,17.7141226,83.3143316
Krishna Hospital,"D.No: 14-37-29/1,Krishna Nagar, Maharanipeta, Z.P Junction, Visakhpatnam.",Unknown,Unknown,530002,Andhra Pradesh,Unknown,hospital,Unknown,Unknown,https://krishnaivf.com/,24/7,17.7100754,83.3109627
Aaradhya fertility centre,Unknown,Unknown,Unknown,Unknown,Unknown,Unknown,hospital,hospital,Unknown,Unknown,Unknown,17.7149198,83.3128724
Sagar Durga Hospital,"D.No: 15-13-6, Krishna Nagar Road",Unknown,Unknown,530002,Andhra Pradesh,Unknown,hospital,Unknown,Unknown,Unknown,24/7,17.7086688,83.3109667
Shri Venkataramana Hospital,"H.No: 15 -12-18/A, Krishna Nagar, Zillaparishad Junction",Unknown,Unknown,530002,Andhra Pradesh,Unknown,hospital,Unknown,Unknown,Unknown,24/7,17.7090399,83.3111357
ABC hospital,Unknown,Unknown,Unknown,Unknown,Unknown,Unknown,hospital,Unknown,Unknown,Unknown,Unknown,17.7070739,83.3090178
Apex hospital,Unknown,Unknown,Unknown,Unknown,Unknown,Unknown,hospital,Unknown,Unknown,Unknown,Unknown,17.7075645,83.3089749
Usa hospital,Unknown,Unknown,Unknown,Unknown,Unknown,Unknown,hospital,Unknown,Unknown,Unknown,Unknown,17.7078558,83.3087882
Simhadri Hospital,"H.No: 15-12-1, Krishna Nagar, Maharani Peta",Unknown,Unknown,530002,Andhra Pradesh,Unknown,hospital,Unknown,Unknown,Unknown,Unknown,17.7082343,83.3104939
Apollow pharmacy,Unknown,Unknown,Unknown,Unknown,Unknown,Unknown,hospital,Unknown,Unknown,Unknown,Unknown,17.7082036,83.3099146
Nature cure hospital,Unknown,Unknown,Unknown,Unknown,Unknown,Unknown,hospital,Unknown,Unknown,Unknown,Unknown,17.7076415,83.3111377
Life  medical centre,Unknown,Unknown,Unknown,Unknown,Unknown,Unknown,hospital,Unknown,Unknown,Unknown,Unknown,17.7076108,83.308198
Doctors care medical centre,Unknown,Unknown,Unknown,Unknown,Unknown,Unknown,hospital,Unknown,Unknown,Unknown,Unknown,17.7079072,83.3093781
Sriddha hospital,Unknown,Unknown,Unknown,Unknown,Unknown,Unknown,hospital,Unknown,Unknown,Unknown,Unknown,17.7081218,83.3094103
Pinnacle,Unknown,Unknown,Unknown,Unknown,Unknown,Unknown,hospital,hospital,Unknown,Unknown,Unknown,17.7636985,83.3082425
Q1,Unknown,Unknown,Unknown,Unknown,Unknown,Unknown,hospital,Unknown,Unknown,Unknown,Unknown,17.7624241,83.3078726
GIMS,Unknown,Unknown,Unknown,Unknown,Unknown,Unknown,hospital,Unknown,Unknown,Unknown,Unknown,17.7620819,83.3116458
Apollo,Unknown,Unknown,Unknown,Unknown,Unknown,Unknown,hospital,Unknown,Unknown,Unknown,Unknown,17.7605744,83.317188
King George Hospital (KGH) Blood Bank,"King George Hospital, Maharanipeta",Unknown,Visakhapatnam,530002,Andhra Pradesh,Unknown,Unknown,blood_bank,Unknown,Unknown,24/7,17.7086522,83.304622
Government Victoria Hospital Blood Bank- Visakhapatnam,"Chengal Rao Peta, Port Area, Women & Children Hospital Blood Bank",Unknown,Visakhapatnam,530001,Andhra Pradesh,Unknown,Unknown,blood_bank,Unknown,Unknown,24/7,17.698827,83.2980643
INHS Kalyani Blood Bank,"INHS Kalyani Hospital, Gandhigram (PO),",Unknown,Gajuwaka,530005,Andhra Pradesh,Unknown,Unknown,blood_bank,Unknown,Unknown,Unknown,17.6872253,83.2509603
Lions Club of Visakhapatnam Blod Bank Trust,"D. No.10-54-7, Lions Community Hall, Ram Nagar",Unknown,Unknown,530002,Andhra Pradesh,Unknown,Unknown,blood_bank,Unknown,Unknown,24/7,17.7191065,83.3113036
N.T.R. Memorial Trust Blood Bank,"P. No. 15B-3-1, Block No. 56, Waltair Main Road, Ramnagar",Unknown,Unknown,530002,Andhra Pradesh,Unknown,Unknown,blood_bank,Unknown,https://www.ntrtrust.org/,24/7,17.7180805,83.3108216
Seven Hills Hospital Blood Bank,"D.No.11-4-4/A, 5th Floor, Rock Dale Layout, Waltair MainRoad",Unknown,Unknown,530002,Andhra Pradesh,Unknown,Unknown,blood_bank,Unknown,https://www.sevenhillshospital.com/,24/7,17.717249,83.3095448
Apollo Hospital's Blood Bank,"D.No.10-50-80, 1st Floor, Apollo Hospital, Waltair Main Road",Unknown,Unknown,530002,Andhra Pradesh,Unknown,Unknown,blood_bank,Unknown,http://www.apollohospital.com,24/7,17.7170642,83.3092012
A. S. Raja Voluntary Blood Bank,"D.No. 10-50-11/5, Ground Floor, 1st, 2nd and 3rd Floor, Beside CARE Hospital, Waltair Main Road, Ramnagar",Unknown,Unknown,530002,Andhra Pradesh,Unknown,Unknown,blood_bank,Unknown,Unknown,24/7,17.7203137,83.313049
Indian Red Cross Society Blood Bank - Visakhapatnam,"D.No:14-35-4, Behind Collectorate, Z..P. Junction, Maharanipeta",Unknown,Unknown,530002,Andhra Pradesh,Unknown,Unknown,blood_bank,Unknown,Unknown,24/7,17.7101869,83.3092518
Rotary Blood Bank (Vishaka Port City Rotary Charitable Trust),"D.No: 13-26-2/54, 3rd Floor, Apuroopa Arcade, Near Jagadamba Junction, Maharanipeta",Unknown,Unknown,530002,Andhra Pradesh,Unknown,Unknown,blood_bank,Unknown,Unknown,24/7,17.7116713,83.3033341
Gitam Institute of Medical Sciences and Research Blood Bank,"D.No.5-168, Ward No.6, Gitam University, Rushikonda",Unknown,Unknown,530045,Andhra Pradesh,Unknown,Unknown,blood_bank,Unknown,https://gimsr.gitam.edu,24/7,17.7844824,83.3749934
Apex Hospital,"H.No: 16-1-5, Coastal Battery Road, Maharznipeta",Unknown,Unknown,530002,Andhra Pradesh,Unknown,hospital,Unknown,Unknown,Unknown,24/7,17.7067706,83.3090204
Dj Clinic,"Sector VI Bus Stop, Mvp Colony",Unknown,Unknown,530014,Andhra Pradesh,Unknown,hospital,Unknown,Unknown,Unknown,Unknown,17.7440297,83.3354643
Vision Care Centre (Super Speciality Eye Hospital),"D.No: 43-1424/4 and 43-14/4/2 (1st Floor), Sai Krishna Complex, Main Road, Railway New Colony, Visakhapatnam",Unknown,Unknown,530016,Andhra Pradesh,Unknown,hospital,Unknown,Unknown,Unknown,Unknown,17.7277139,83.295486
Apoorva Hospital,"H.No: 50-17-62, Rajendra Nagar, Near Seethammapeta Junction",Unknown,Unknown,530016,Andhra Pradesh,Unknown,hospital,Unknown,Unknown,Unknown,24/7,17.7300554,83.3075653
Anapoorna Hospital,"H.No: 47 - 9 - 32, 3ird Lane, Dwaraka Nagar",Unknown,Unknown,530016,Andhra Pradesh,Unknown,hospital,Unknown,Unknown,Unknown,Unknown,17.7273371,83.3047865
Maxivision Super Speciality Eye Hospitals,"Pavan Paradise, Near Diamond Park, Dwaraka Nagar",Unknown,Unknown,530016,Andhra Pradesh,Unknown,hospital,Unknown,Unknown,Unknown,Unknown,17.7269219,83.304584
Care Dental Hospital,"H.No: 1, Sree Balaji Chambers, Seethammapeta Main Road, Gurudwara Junction",Unknown,Unknown,530016,Andhra Pradesh,Unknown,hospital,Unknown,Unknown,Unknown,Unknown,17.7363435,83.307247
M.G.R. Hospital,"H.No: 8-4-32, Doctors Colony, Near Visakha Eye Hospital, Pedawaltair",Unknown,Unknown,530017,Andhra Pradesh,Unknown,hospital,Unknown,Unknown,Unknown,Unknown,17.7325361,83.3309823
Rhea Hospital,"H.No: 18-01-03, K.G.H. Down, Maharanipeta, Jagadamba Junction",Unknown,Unknown,530002,Andhra Pradesh,Unknown,hospital,Unknown,Unknown,Unknown,Unknown,17.7092414,83.3041777
Adarsha Orthopaedic Center,"Opp. St. Joseph's Hospital , Maharanipeta",Unknown,Unknown,530002,Andhra Pradesh,Unknown,hospital,Unknown,Unknown,Unknown,Unknown,17.7109406,83.3117884
Prabha Clinic and Nursing Home,"H.No: 29-2-36, Jail Road",Unknown,Unknown,530020,Andhra Pradesh,Unknown,hospital,Unknown,Unknown,Unknown,Unknown,17.7162921,83.3041039
Mythri Nursing Home,"H.No: 16-1-4, K G H Beach Road, Maharanipet",Unknown,Unknown,530002,Andhra Pradesh,Unknown,hospital,Unknown,Unknown,Unknown,Unknown,17.7071258,83.3089118
Gowtami Hospital,"Kailashnagar , Kanithi Road, Gajuwaka",Unknown,Unknown,530026,Andhra Pradesh,Unknown,hospital,Unknown,Unknown,Unknown,Unknown,17.6825514,83.2063977
Satyam Hospital,"H.No: 9-333/1, Ground Floor Of Union Bank, Beside Sankara Theatre, Gopalapatnam",Unknown,Unknown,530027,Andhra Pradesh,Unknown,hospital,hospital,Unknown,Unknown,Unknown,17.7499948,83.2187018
Venkatarama Hospital,"H.No: 47-7-43, 4th line, Dwaraka Nagar, Nehru Bazar, Diamond Park Road, Dondaparthy",Unknown,Unknown,530016,Andhra Pradesh,Unknown,hospital,Unknown,Unknown,Unknown,24/7,17.7278327,83.3031356
SR Hospital,"Opp. Raitubazar, Gopalapatnam, Tailors Colony",Unknown,Unknown,530027,Andhra Pradesh,Unknown,hospital,Unknown,Unknown,Unknown,24/7,17.752968,83.2173438
Good Health New Central Hospital,"G1-10-16, Dwaraka Nagar Colony, Vizag",Unknown,Unknown,530016,Andhra Pradesh,Unknown,hospital,Unknown,Unknown,Unknown,Unknown,17.7379611,83.3055443
Dr Rama Rao Hospital,Kancharapalem,Unknown,Unknown,530008,Andhra Pradesh,Unknown,hospital,Unknown,Unknown,Unknown,24/7,17.7332163,83.2790163
Vijetha Hospital,"# 18-1-15,16, KGH Down, Near KGH Down Road, Maharani Peta, Jagadamba Junction, Visakhapatnam",Unknown,Unknown,530002,Andhra Pradesh,Unknown,hospital,hospital,Unknown,https://www.vijethahospitalvizag.com/,24/7,17.7106199,83.3030283
Sun Multi Speciality Hospital,"Old Durga Nursing Home, Near Urvasi Theatre, Nh-5 Road, Kancharapalem",Unknown,Unknown,530008,Andhra Pradesh,Unknown,hospital,Unknown,Unknown,Unknown,24/7,17.7350755,83.277593
Abc Hospital,"H.No: 16-1-13, Kgh To Beach Down, Opposite Coastak Battery, Maharani Peth",Unknown,Unknown,530002,Andhra Pradesh,Unknown,hospital,Unknown,Unknown,Unknown,24/7,17.7061715,83.3092725
Suma Maternity Home,"H.No: 45-40-39, Akkayyapalem",Unknown,Unknown,530013,Andhra Pradesh,Unknown,hospital,Unknown,Unknown,Unknown,Unknown,17.7463633,83.2642758
"Lion Dist 324 C, Cancer Treatment and Research Center",Seethammadhara (N.E.),Unknown,Unknown,530020,Andhra Pradesh,Unknown,hospital,Unknown,Unknown,Unknown,Unknown,17.7443962,83.3083713
Amg Hospital,Seethammadhara,Unknown,Unknown,531113,Andhra Pradesh,Unknown,hospital,Unknown,Unknown,Unknown,Unknown,17.7382076,83.3146349
Indus Hospitals,"H.No: 18-1-6, K. G. H. Down Road, Maharanipeta",Unknown,Unknown,530002,Andhra Pradesh,Unknown,hospital,hospital,Unknown,https://www.indushospital.com/,24/7,17.7108601,83.3026153
Visakha Ent Hospital,"D.No: 9-24-2/A, Rama Talkies Amar Nagar, Cbm Compound",Unknown,Unknown,530003,Andhra Pradesh,Unknown,hospital,Unknown,Unknown,Unknown,Unknown,17.7264096,83.3107545
Susruta Hospital,Gajuwaka,Unknown,Unknown,530026,Andhra Pradesh,Unknown,hospital,Unknown,Unknown,Unknown,Unknown,17.6853215,83.208107
Padmasri Hospital,"49-48 16/5, NGO Colony, Akkayyapalem Highway, Vishakhapatnam",Unknown,Unknown,530016,Andhra Pradesh,Unknown,hospital,Unknown,Unknown,Unknown,24/7,17.7382447,83.3036815
Raghavendra Hospital,"D.No: 49-54-10/2A, Balayya Saatry Layout",Unknown,Unknown,530013,Andhra Pradesh,Unknown,hospital,Unknown,Unknown,Unknown,Unknown,17.739964,83.3041066
Centre For Sight,"H.No: 49-51-6, Santhipuram, Shankar Mattam road",Unknown,Unknown,530016,Andhra Pradesh,Unknown,hospital,Unknown,Unknown,https://www.centreforsight.net/eye-hospitals-in-vizag,Unknown,17.7364998,83.3044016
Krishna Maternity And Nursing Home,"D.No: 43-5-53, Railway New Colony, By The Side Of Laymen's Evange",Unknown,Unknown,530016,Andhra Pradesh,Unknown,hospital,Unknown,Unknown,Unknown,24/7,17.7288061,83.293823
Amrutha Nursing Home Private Limited,"D.No: 10-7-85, Kailash Nagar. , Gajuwaka",Unknown,Unknown,530026,Andhra Pradesh,Unknown,hospital,Unknown,Unknown,Unknown,Unknown,17.69981,83.2960858
Padmaja Hospital - Gajuwaka,"D.No: 7-15-12, Old Gajuwaka",Unknown,Unknown,530026,Andhra Pradesh,Unknown,hospital,Unknown,Unknown,Unknown,24/7,17.6867743,83.203619
Care Hospital - Maharanipet,"Kgh Road, Maharanipet",Unknown,Unknown,530002,Andhra Pradesh,Unknown,hospital,hospital,Unknown,Unknown,24/7,17.7097505,83.3054544
Samudra Hospitals,"H.No: 18-1-25, Beside vijaya Bank, Kgh Down Road , Maharanipeta",Unknown,Unknown,530002,Andhra Pradesh,Unknown,hospital,hospital,Unknown,Unknown,Unknown,17.7103989,83.3037458
Abhaya Critical Care,"D.No: 18-1-34, Opposite K.G.H. O.P. Gate",Unknown,Unknown,530002,Andhra Pradesh,Unknown,hospital,hospital,Unknown,Unknown,Unknown,17.7102328,83.3043534
Sunita Nursing Home,Seethammadhara,Unknown,Unknown,530013,Andhra Pradesh,Unknown,hospital,Unknown,Unknown,Unknown,24/7,17.7362763,83.3115497
Waltair Multicare Hospital,"H.No: 8-197/2, Behind Laxmi Ganapathi Temple, Peda Waltair Junction",Unknown,Unknown,530017,Andhra Pradesh,Unknown,hospital,Unknown,Unknown,Unknown,Unknown,17.7320085,83.333627
Siddharth Hospital,"H.No: 13-9-12, Dandu Bazar Road, Jagadamba Junction, Maharanipeta",Unknown,Unknown,530002,Andhra Pradesh,Unknown,hospital,Unknown,Unknown,Unknown,24/7,17.7118451,83.3038954
Visakha Children Hospital,"H.No: 14-38-1 , Opp American Hospital , Z.P Jn",Unknown,Unknown,530002,Andhra Pradesh,Unknown,hospital,Unknown,Unknown,Unknown,24/7,17.7108448,83.3125274
Sraddha Hospital,"D.No: 14-37-45, Collector Office Junction",Unknown,Unknown,530001,Andhra Pradesh,Unknown,hospital,Unknown,Unknown,Unknown,24/7,17.7083599,83.3086663
Tirumala Vijaya Hospital,"H.No: 1-68-21, Mig-10/2, Sector II, MVP Colony",Unknown,Unknown,530017,Andhra Pradesh,Unknown,hospital,Unknown,Unknown,Unknown,24/7,17.7440143,83.3352873
Aarif Nursing Home,"H.No: 10-36-8, Lane Beside, Royal Fort, Hotel Ramnagar, Opp: Gvmc Out Gate",Unknown,Unknown,530002,Andhra Pradesh,Unknown,hospital,Unknown,Unknown,Unknown,Unknown,17.7224323,83.309819
Vijaya Medical Centre,"Srirangapuram, Krishna Nagar, Maharani Peta,Visakhapatnam",Unknown,Unknown,530002,Andhra Pradesh,Unknown,hospital,Unknown,Unknown,https://vijayamedicalcentre.in/,Unknown,17.7099032,83.3107518
OMNI RK Super Specialty Hospital,"H.No: 15-13-7,Opp Lions Club, Ram Nagar.",Unknown,Unknown,530002,Andhra Pradesh,Unknown,hospital,Unknown,Unknown,https://omnihospitals.in/vizag/,24/7,17.7186287,83.3116168
Vasan Eye Care Hospital,"H.No: 10-50-81, Waltair Main Road , Rock Dale Lay Out",Unknown,Unknown,530002,Andhra Pradesh,Unknown,hospital,Unknown,Unknown,https://vasaneye.com/,24/7,17.7168287,83.3087254
Lazarus Hospital,"H.No: 10-50-2, Waltair Main Road.",Unknown,Unknown,530002,Andhra Pradesh,Unknown,hospital,hospital,Unknown,Unknown,Unknown,17.7171512,83.3083036
Sai Satya Hospital,"T.I.C. Point,Arilova Colony",Unknown,Unknown,530040,Andhra Pradesh,Unknown,hospital,Unknown,Unknown,Unknown,24/7,17.7685126,83.3147241
Bharathi Hospital,"H.No: 14-24-1, Mens Hostel Road, Maharanipeta",Unknown,Unknown,530002,Andhra Pradesh,Unknown,hospital,Unknown,Unknown,Unknown,24/7,17.7108505,83.3085356
Lawrance and Mayo Hospital,"H.No: 28-2-55, Tenneti Square, Jagadamba Centre",Unknown,Unknown,530020,Andhra Pradesh,Unknown,hospital,hospital,Unknown,https://lawrenceandmayo.co.in/,Unknown,17.7124353,83.302677
C.S.R. Hospital,"2nd Lane, Official Colony, Near Collector Office Junction",Unknown,Unknown,530002,Andhra Pradesh,Unknown,hospital,Unknown,Unknown,Unknown,24/7,17.706036,83.3068947
City Care Hospital,"Near Circuit House, Ramanagar, Waltair Main Road",Unknown,Unknown,530002,Andhra Pradesh,Unknown,hospital,Unknown,Unknown,Unknown,Unknown,17.7066084,83.3090506
Kamala Nursing Home,"Marripalem, Main Road",Unknown,Unknown,530018,Andhra Pradesh,Unknown,hospital,hospital,Unknown,Unknown,Unknown,17.7404309,83.250969
Kalavathi Surgical Hospital and Laparoscopic Centre,"Opp: Sri Kanya Theatre, Rly New Colony",Unknown,Unknown,530016,Andhra Pradesh,Unknown,hospital,Unknown,Unknown,Unknown,24/7,17.7265297,83.2990453
Subham Prema Hospital,"D.No: 9-1-227, Rama Talkies Jn,. C. B. M. Compound",Unknown,Unknown,530003,Andhra Pradesh,Unknown,hospital,Unknown,Unknown,Unknown,24/7,17.728124,83.3123571
Care Hospitals,"Waltair Main Road, Ramnagar, Visakhapatnam",Unknown,Unknown,530020,Andhra Pradesh,Unknown,hospital,Unknown,Unknown,Unknown,24/7,17.7203686,83.3127339
MyCure Hospital,Unknown,Unknown,Unknown,Unknown,Unknown,Unknown,hospital,hospital,Unknown,Unknown,Unknown,17.7109237,83.3023683
"Mukhyamantri Arogya Kendram, Malkapuram",Govt Hospital,Unknown,Unknown,530011,Andhra Pradesh,Unknown,Unknown,centre,Unknown,Unknown,Unknown,17.6869804,83.2450833
"Regional Health Centre, Simhachalam",Unknown,Unknown,Unknown,Unknown,Andhra Pradesh,Unknown,Unknown,centre,Unknown,Unknown,Unknown,17.772326,83.240629
"GVMC hospital,FRU Arilova",Govt Hospital,Unknown,Unknown,530040,Andhra Pradesh,Unknown,hospital,Unknown,Unknown,Unknown,Unknown,17.7686588,83.3172347
"Mukhyamantri Aarogya Kendram, Kapparada",Govt Hospital,Unknown,Unknown,530024,Andhra Pradesh,Unknown,Unknown,centre,Unknown,Unknown,Unknown,17.7369781,83.2804368
"Mukhyamantri Arogya Kendram,Vidyuthnagar",Govt Hospital,Unknown,Unknown,530016,Andhra Pradesh,Unknown,Unknown,centre,Unknown,Unknown,Unknown,17.7389384,83.3015843
"Mukhyamantri Aarogya Kendram, Butchirajupalem",Govt Hospital,Unknown,Unknown,530027,Andhra Pradesh,Unknown,Unknown,centre,Unknown,Unknown,Unknown,17.7439633,83.2308704
"Mukhyamantri Aarogya Kendram, Allipuram",Govt Hospital,Unknown,Unknown,530020,Andhra Pradesh,Unknown,Unknown,centre,Unknown,Unknown,Unknown,17.7205322,83.3010053
"Mukhyamantri Arogya Kendram,Sagar Nagar",Govt Hospital,Unknown,Unknown,530045,Andhra Pradesh,Unknown,Unknown,centre,Unknown,Unknown,Unknown,17.7650891,83.3565354
"PHC,1 Town",Unknown,Unknown,Unknown,530001,Andhra Pradesh,Unknown,Unknown,centre,Unknown,Unknown,Unknown,17.6954003,83.2933059
Cghs wellness centre,Unknown,Unknown,Unknown,Unknown,Unknown,Unknown,clinic,Unknown,Unknown,Unknown,Unknown,17.7285015,83.3323437
Dr. Adams Hospital,Pothinamallayya Palem,Unknown,Unknown,530048,Andhra Pradesh,Unknown,hospital,Unknown,Unknown,Unknown,Unknown,17.7998444,83.3508178
Medinar Polyclinics,Subbalakshmi Nagar,Unknown,Unknown,530016,Andhra Pradesh,Unknown,clinic,Unknown,Unknown,Unknown,Unknown,17.7267225,83.293382
Master Homeo Vaidyalayam,"80 Feet Road, Akkayyapalem",Unknown,Unknown,530016,Andhra Pradesh,Unknown,hospital,Unknown,Unknown,Unknown,Unknown,17.7341833,83.298429
Gayatri Health Care,MVP Colony,Unknown,Unknown,530017,Andhra Pradesh,Unknown,clinic,Unknown,Unknown,Unknown,Unknown,17.7452893,83.3362101
Day & Night Hospital,"Ramatalkies, Dwaraka Nagar",Unknown,Unknown,530016,Andhra Pradesh,Unknown,hospital,Unknown,Unknown,Unknown,Unknown,17.7289618,83.310741
Sanjivi Hospital,"Sector 1, New Venkojipalem",Unknown,Unknown,530022,Andhra Pradesh,Unknown,hospital,Unknown,Unknown,Unknown,Unknown,17.743927,83.328678
Bhagavathi Clinic,Seethammadara,Unknown,Unknown,530024,Andhra Pradesh,Unknown,clinic,clinic,Unknown,Unknown,Unknown,17.7433959,83.3042268
Government Hospital,"Ramachandra Nagar, Akkayyapalem",Unknown,Unknown,530016,Andhra Pradesh,Unknown,hospital,Unknown,Unknown,Unknown,Unknown,17.735493,83.296865
Kundan Family Clinic,Yendada,Unknown,Unknown,530045,Andhra Pradesh,Unknown,clinic,Unknown,Unknown,Unknown,Unknown,17.783556,83.357939
Sai Spoorthy Hospital,Dwaraka Nagar,Unknown,Unknown,530016,Andhra Pradesh,Unknown,hospital,Unknown,Unknown,Unknown,Unknown,17.7274681,83.3043823
Amma Hospital,Venkojipalem,Unknown,Unknown,530017,Andhra Pradesh,Unknown,hospital,Unknown,Unknown,Unknown,Unknown,17.7468553,83.3307524
Sandhya Eye Hospitals,"Resapuvanipalem, Dwaraka Nagar",Unknown,Unknown,530016,Andhra Pradesh,Unknown,hospital,Unknown,Unknown,Unknown,Unknown,17.7322507,83.3169337
Sri Krishna Hospital And Mrudula Kidney Centre,Unknown,Unknown,Unknown,530017,Andhra Pradesh,Unknown,hospital,hospital,Unknown,Unknown,Unknown,17.7398696,83.3381086
Ramkumar Hospital,"80 Feet Road, Akkayyapalem",Unknown,Unknown,530016,Andhra Pradesh,Unknown,hospital,Unknown,Unknown,Unknown,Unknown,17.7347439,83.2989253
Reddy Hospital,"Srinagar, Dwaraka Nagar",Unknown,Unknown,530016,Andhra Pradesh,Unknown,hospital,Unknown,Unknown,Unknown,Unknown,17.7295515,83.3099357
Kalavathy Maternity Hospital,Akkayyapalem,Unknown,Unknown,530016,Andhra Pradesh,Unknown,hospital,Unknown,Unknown,Unknown,Unknown,17.7301424,83.2912686
S.V Hospital,Unknown,Unknown,Unknown,530016,Andhra Pradesh,Unknown,hospital,Unknown,Unknown,Unknown,Unknown,17.7315298,83.2982102
Lakshmi Gayathri Hospital,Akkayyapalem,Unknown,Unknown,530016,Andhra Pradesh,Unknown,hospital,Unknown,Unknown,Unknown,Unknown,17.7360864,83.2988976
Dr. Ravi Child Clinic,"KRM Colony, Nakkavanipalem",Unknown,Unknown,530013,Andhra Pradesh,Unknown,clinic,Unknown,Unknown,Unknown,Unknown,17.7380085,83.3136747
Saroja Hospital,"Lalitha Nagar, Akkayyapalem",Unknown,Unknown,530016,Andhra Pradesh,Unknown,hospital,Unknown,Unknown,Unknown,Unknown,17.733482,83.300686
A1 Hospital,"Abid Nagar, Akkayyapalem",Unknown,Unknown,530016,Andhra Pradesh,Unknown,hospital,Unknown,Unknown,Unknown,Unknown,17.739424,83.2994272
Mukhyamantri Arogya Kendram,"Bhanu Nagar, HB Colony",Unknown,Unknown,530022,Andhra Pradesh,Unknown,clinic,Unknown,Unknown,Unknown,Unknown,17.7437712,83.3206661
CARE Hospitals,"Dondaparthy, Railway New Colony",Unknown,Unknown,530016,Andhra Pradesh,Unknown,hospital,Unknown,Unknown,Unknown,Unknown,17.7275716,83.294103
Medi Cos Den Hospital,"Gudla Vani Palem, Sagar Nagar",Unknown,Unknown,530045,Andhra Pradesh,Unknown,hospital,Unknown,Unknown,Unknown,Unknown,17.7636399,83.3591053
Sri Surya Hospital,"Sector 9, MVP Colony",Unknown,Unknown,530017,Andhra Pradesh,Unknown,hospital,hospital,Unknown,Unknown,Unknown,17.7427806,83.340338
Aruna ENT Clinic,Akkayyapalem,Unknown,Unknown,530016,Andhra Pradesh,Unknown,clinic,Unknown,Unknown,Unknown,Unknown,17.737158,83.3002306
Sri Krishna Hospital,"Lalitha Nagar, Akkayyapalem",Unknown,Unknown,530016,Andhra Pradesh,Unknown,hospital,Unknown,Unknown,Unknown,Unknown,17.7346615,83.3003628
Sri Sai Sanjeevani Clinic,Yendada,Unknown,Unknown,530045,Andhra Pradesh,Unknown,clinic,Unknown,Unknown,Unknown,Unknown,17.7792428,83.3577903
Dr. Kamalamma Hospital,Unknown,Unknown,Unknown,530016,Andhra Pradesh,Unknown,hospital,Unknown,Unknown,Unknown,Unknown,17.7289528,83.2936785
National Orthopaedic Centre,"TPT Colony, Seethammadara",Unknown,Unknown,530013,Andhra Pradesh,Unknown,hospital,Unknown,Unknown,Unknown,Unknown,17.7364007,83.3116732
Raphah Hospital,"Gandhi Nagar, Seethammadara",Unknown,Unknown,530013,Andhra Pradesh,Unknown,clinic,Unknown,Unknown,Unknown,Unknown,17.735531,83.31229
ESI Dispensary,Seethammadara,Unknown,Unknown,530013,Andhra Pradesh,Unknown,Unknown,centre,Unknown,Unknown,Unknown,17.7384658,83.3066465
Vivekanandha Hospital,"Visakhapatnam, Akkayyapalem",Unknown,Unknown,530016,Andhra Pradesh,Unknown,hospital,Unknown,Unknown,Unknown,Unknown,17.7318218,83.2982472
Government ENT Hospital,"Hill View Doctors Colony, Seethammadara",Unknown,Unknown,530013,Andhra Pradesh,Unknown,hospital,Unknown,Unknown,Unknown,Unknown,17.745865,83.3141989
Padmavathi Hospital,Seethammadara,Unknown,Unknown,530013,Andhra Pradesh,Unknown,hospital,Unknown,Unknown,Unknown,Unknown,17.7414689,83.3075918
GITAM Hospital,Rushikonda,Unknown,Unknown,530045,Andhra Pradesh,Unknown,hospital,Unknown,Unknown,Unknown,Unknown,17.7846774,83.3746555
Shanthi Maternity and Infertility Clinic,MVP Colony,Unknown,Unknown,530017,Andhra Pradesh,Unknown,clinic,Unknown,Unknown,Unknown,Unknown,17.745914,83.3316373
Sri Chandra Ortho Care,Kailasapuram,Unknown,Unknown,530024,Andhra Pradesh,Unknown,clinic,clinic,Unknown,Unknown,Unknown,17.739513,83.2950164
Smar City Clinic,Akkayyapalem,Unknown,Unknown,530016,Andhra Pradesh,Unknown,clinic,Unknown,Unknown,Unknown,Unknown,17.7325871,83.30115
Krishnaveni Hospital,Unknown,Unknown,Unknown,530016,Andhra Pradesh,Unknown,hospital,Unknown,Unknown,Unknown,Unknown,17.7301583,83.2947484
Homi Baba Cancer Hospital & Research Centre,Kailasapuram,Unknown,Unknown,530024,Andhra Pradesh,Unknown,hospital,hospital,Unknown,Unknown,Unknown,17.7397833,83.293122
Lb Prasad Medical,Unknown,Unknown,Unknown,530016,Andhra Pradesh,Unknown,clinic,Unknown,Unknown,Unknown,Unknown,17.7298279,83.2941227
Morpheus Padmasri International IVF Centre,Akkayyapalem,Unknown,Unknown,530016,Andhra Pradesh,Unknown,hospital,Unknown,Unknown,Unknown,Unknown,17.7380243,83.3034712
Krishna Children Hospital,Unknown,Unknown,Unknown,530016,Andhra Pradesh,Unknown,hospital,Unknown,Unknown,Unknown,Unknown,17.7289115,83.293632
Master Homoeo Home,Srinagar,Unknown,Unknown,530016,Andhra Pradesh,Unknown,hospital,Unknown,Unknown,Unknown,Unknown,17.7274279,83.3077406
Sri Sai Ram Hospital,Akkayyapalem,Unknown,Unknown,530016,Andhra Pradesh,Unknown,hospital,Unknown,Unknown,Unknown,Unknown,17.7322439,83.2918881
Dr. P.P.Srinivas Murthy Clinic,Narasimhanagar,Unknown,Unknown,530024,Andhra Pradesh,Unknown,clinic,clinic,Unknown,Unknown,Unknown,17.7415765,83.2988909
Soham ENT Hospital,"Narasimhanagar, Kailasapuram",Unknown,Unknown,530024,Andhra Pradesh,Unknown,hospital,hospital,Unknown,Unknown,Unknown,17.7442418,83.297657
Urban Primary Health Centre,"Sector 9, MVP Colony",Unknown,Unknown,530017,Andhra Pradesh,Unknown,Unknown,centre,Unknown,Unknown,Unknown,17.7440686,83.3429659
Sri Gayatri Nursing Home & Kasturi Maternity Hospital,Unknown,Unknown,Unknown,530017,Andhra Pradesh,Unknown,hospital,Unknown,Unknown,Unknown,Unknown,17.7244631,83.3331524
Kanakadurga Hospital,"Krishna Nagar, Maharani Peta",Unknown,Unknown,530002,Andhra Pradesh,Unknown,hospital,Unknown,Unknown,Unknown,Unknown,17.7101086,83.312939
Sunrise Hospitals,"Sankurupeta, Pattabhi Reddy Thota, Kancharapalem",Unknown,Unknown,530007,Andhra Pradesh,Unknown,hospital,Unknown,Unknown,Unknown,Unknown,17.7409007,83.2662977
Sunrise Childern Hospital,Gajuwaka,Unknown,Unknown,530011,Andhra Pradesh,Unknown,hospital,Unknown,Unknown,Unknown,Unknown,17.687897,83.2053903
Sandhya Sree Nursing Home,"Chaitanya Nagar, Gajuwaka",Unknown,Unknown,530044,Andhra Pradesh,Unknown,clinic,Unknown,Unknown,Unknown,Unknown,17.6830346,83.201472
A N Beach Hospital - Multi Speciality Hospital,"Pandurangapuram, Krishna Nagar, Maharani Peta",Unknown,Unknown,530002,Andhra Pradesh,Unknown,hospital,hospital,Unknown,Unknown,Unknown,17.712782,83.319868
Lakshmi Nursing Home,Gajuwaka,Unknown,Unknown,530026,Andhra Pradesh,Unknown,clinic,Unknown,Unknown,Unknown,Unknown,17.6868428,83.2128855
Dr. Mangamma Hospital,Maharani Peta,Unknown,Unknown,530002,Andhra Pradesh,Unknown,hospital,hospital,Unknown,Unknown,Unknown,17.7100946,83.3045397
Visakha Child Care Centre,Unknown,Unknown,Unknown,530026,Andhra Pradesh,Unknown,hospital,Unknown,Unknown,Unknown,Unknown,17.6846529,83.2016314
Piles Hospital,Gajuwaka,Unknown,Unknown,530026,Andhra Pradesh,Unknown,hospital,Unknown,Unknown,Unknown,Unknown,17.6871805,83.2133794
Visakha Hospital,Jagadamba,Unknown,Unknown,530002,Andhra Pradesh,Unknown,hospital,hospital,Unknown,Unknown,Unknown,17.710144,83.304361
ESI Dispensary,Auto Nagar,Unknown,Unknown,530026,Andhra Pradesh,Unknown,Unknown,centre,Unknown,Unknown,Unknown,17.6907925,83.2035286
Simhagiri Hospital,Unknown,Unknown,Unknown,530026,Andhra Pradesh,Unknown,hospital,Unknown,Unknown,Unknown,Unknown,17.6863477,83.2127666
City Hospital Ortho & Specialities,Gajuwaka,Unknown,Unknown,530026,Andhra Pradesh,Unknown,hospital,Unknown,Unknown,Unknown,Unknown,17.6852466,83.2053196
Medicover Hospital,"Gokhale Road, Krishna Nagar, Maharani Peta",Unknown,Unknown,530002,Andhra Pradesh,Unknown,hospital,Unknown,Unknown,Unknown,Unknown,17.712323,83.313972
Rotary Free Homeo Clinic,"Samathanagar, Pedagantyada",Unknown,Unknown,530044,Andhra Pradesh,Unknown,clinic,Unknown,Unknown,Unknown,Unknown,17.6723936,83.2011967
Life Spring Hospital,"GNT Road, Malkapuram",Unknown,Unknown,530026,Andhra Pradesh,Unknown,hospital,Unknown,Unknown,Unknown,Unknown,17.688339,83.243601
Sri Krishna Pavan Homeo Clinic,"Papayapalem, Sujatha Nagar, Pendurthi",Unknown,Unknown,530051,Andhra Pradesh,Unknown,clinic,Unknown,Unknown,Unknown,Unknown,17.796478,83.211053
Sri Lakshmi Children Hospital,Kailash Nagar,Unknown,Unknown,530026,Andhra Pradesh,Unknown,hospital,Unknown,Unknown,Unknown,Unknown,17.6854195,83.2078579
Vijaya Krishna Clinic,Maharani Peta,Unknown,Unknown,Unknown,Andhra Pradesh,Unknown,clinic,Unknown,Unknown,Unknown,Unknown,17.710948,83.311491
ESI Dispensary,"Sai Madhava Nagar, Naidu Thota, Gopalapatnam",Unknown,Unknown,530029,Andhra Pradesh,Unknown,Unknown,centre,Unknown,Unknown,Unknown,17.768635,83.217404
Hymavathi Hospital,"Gopalapatnam, Simhachalam",Unknown,Unknown,530027,Andhra Pradesh,Unknown,hospital,Unknown,Unknown,Unknown,Unknown,17.7480338,83.2192385
Pujitha Hospital,"Kailash Nagar, Gajuwaka",Unknown,Unknown,530026,Andhra Pradesh,Unknown,hospital,Unknown,Unknown,Unknown,Unknown,17.6844753,83.2100702
Sarojini Children's Hospital,"Gopalapatnam, Simhachalam",Unknown,Unknown,531127,Andhra Pradesh,Unknown,hospital,Unknown,Unknown,Unknown,Unknown,17.7445712,83.2265444
SMS Hospital,Buchirajupalem,Unknown,Unknown,531127,Andhra Pradesh,Unknown,hospital,Unknown,Unknown,Unknown,Unknown,17.7452036,83.2261912
Padmaja Clinic,Gajuwaka,Unknown,Unknown,530026,Andhra Pradesh,Unknown,clinic,Unknown,Unknown,Unknown,Unknown,17.6826577,83.2158252
Navaratnam - Kesava Rao Charitable Health Centre,Indira Colony,Unknown,Unknown,530026,Andhra Pradesh,Unknown,hospital,Unknown,Unknown,Unknown,Unknown,17.6872165,83.2049981
Suryanarayana Hospital,"Gopalapatnam, Simhachalam",Unknown,Unknown,530027,Andhra Pradesh,Unknown,hospital,Unknown,Unknown,Unknown,Unknown,17.7508459,83.2186331
Simhadri Women & Child Hospital,"Prahaladapuram, Simhachalam",Unknown,Unknown,530027,Andhra Pradesh,Unknown,hospital,Unknown,Unknown,Unknown,Unknown,17.7656255,83.2256151
Vizag Ortho & Spine Centre,Unknown,Unknown,Unknown,530002,Andhra Pradesh,Unknown,hospital,Unknown,Unknown,Unknown,Unknown,17.7104,83.312442
Sri Amrutha Hospital,Unknown,Unknown,Unknown,530002,Andhra Pradesh,Unknown,hospital,hospital,Unknown,Unknown,Unknown,17.710327,83.302862
Mukhyamantri Arogya Kendram,Sriharipuram,Unknown,Unknown,530011,Andhra Pradesh,Unknown,clinic,Unknown,Unknown,Unknown,Unknown,17.6836262,83.2336948
Mamata Hospital,"Gandhinagar, Gajuwaka",Unknown,Unknown,530026,Andhra Pradesh,Unknown,hospital,Unknown,Unknown,Unknown,Unknown,17.6869092,83.2079845
Sri Surya Dental Hospital,"Krishna Nagar, Maharani Peta",Unknown,Unknown,530002,Andhra Pradesh,Unknown,hospital,Unknown,Unknown,Unknown,Unknown,17.709779,83.3103498
Sri Surya Hospital,"Srirangapuram, Krishna Nagar, Maharani Peta",Unknown,Unknown,530002,Andhra Pradesh,Unknown,hospital,Unknown,Unknown,Unknown,Unknown,17.708149,83.309857
Bhajrang Skin Clinic,Gajuwaka,Unknown,Unknown,530026,Andhra Pradesh,Unknown,clinic,Unknown,Unknown,Unknown,Unknown,17.6861162,83.2069228
Madhu Skin Clinic,Gajuwaka,Unknown,Unknown,530026,Andhra Pradesh,Unknown,clinic,Unknown,Unknown,Unknown,Unknown,17.6860455,83.2060364
Lata Hospital,"BHVP Road, Gajuwaka",Unknown,Unknown,530026,Andhra Pradesh,Unknown,hospital,Unknown,Unknown,Unknown,Unknown,17.6877091,83.205361
Janani Hospital,Gajuwaka,Unknown,Unknown,530026,Andhra Pradesh,Unknown,hospital,Unknown,Unknown,Unknown,Unknown,17.6865547,83.2073838
Geetha Hospital,Indira Colony,Unknown,Unknown,530026,Andhra Pradesh,Unknown,hospital,Unknown,Unknown,Unknown,Unknown,17.6860522,83.2145015
Shree Krishna Health Centre,"Krishna Nagar, Maharani Peta",Unknown,Unknown,530002,Andhra Pradesh,Unknown,hospital,Unknown,Unknown,Unknown,Unknown,17.7104023,83.3105799
Aditya Obstetrics & Gynecology Hospital,"Burma Colony, Pattabhi Reddy Thota, Madhavadhara",Unknown,Unknown,530007,Andhra Pradesh,Unknown,hospital,Unknown,Unknown,Unknown,Unknown,17.745985,83.269641
ENT Clinic,"Krishna Nagar, Maharani Peta",Unknown,Unknown,530002,Andhra Pradesh,Unknown,clinic,Unknown,Unknown,Unknown,Unknown,17.7098153,83.3103685
Suresh Children's Clinic,Pendurthi,Unknown,Unknown,530027,Andhra Pradesh,Unknown,clinic,Unknown,Unknown,Unknown,Unknown,17.7998618,83.2098576
Sri Surya Hospital,"Kailasa Nagar, Gajuwaka",Unknown,Unknown,530026,Andhra Pradesh,Unknown,hospital,Unknown,Unknown,Unknown,Unknown,17.6849028,83.2092812
Harshitha Hospital,Gajuwaka,Unknown,Unknown,530026,Andhra Pradesh,Unknown,hospital,Unknown,Unknown,Unknown,Unknown,17.6863384,83.2101897
Sri Sai Balaji Clinic,Gowri Nagar,Unknown,Unknown,530009,Andhra Pradesh,Unknown,clinic,clinic,Unknown,Unknown,Unknown,17.7418536,83.2368507
Sri Sai Aditya Hospital,"Muralinagar, Madhavadhara",Unknown,Unknown,530007,Andhra Pradesh,Unknown,hospital,Unknown,Unknown,Unknown,Unknown,17.746278,83.269671
Srikanth's Speech & Hearing Clinic,"Near Lepakshi, Jagadamba Junction",Unknown,Unknown,530002,Andhra Pradesh,Unknown,clinic,clinic,Unknown,Unknown,Unknown,17.710622,83.3022707
Gothis Doctor Chambers,"Krishna Nagar, Maharani Peta",Unknown,Unknown,530002,Andhra Pradesh,Unknown,hospital,Unknown,Unknown,Unknown,Unknown,17.710382,83.312125
Harini Hospital,"Vinayaka Nagar, Gonthinavanipalem, Pedagantyada",Unknown,Unknown,530044,Andhra Pradesh,Unknown,hospital,Unknown,Unknown,Unknown,Unknown,17.6795765,83.2055093
Janaki Polyclinic,Unknown,Unknown,Unknown,530026,Andhra Pradesh,Unknown,clinic,Unknown,Unknown,Unknown,Unknown,17.6930517,83.2049423
Heritage Kerala Ayurveda Hospital,"Ravi Nagar, Naidu Thota",Unknown,Unknown,530047,Andhra Pradesh,Unknown,hospital,Unknown,Unknown,Unknown,Unknown,17.7671455,83.2120798
Ramya Hospital,Jagadamba Junction,Unknown,Unknown,530002,Andhra Pradesh,Unknown,hospital,hospital,Unknown,Unknown,Unknown,17.710544,83.304302
Sanjevani Mega Clinic,"Krishna Nagar, Maharani Peta",Unknown,Unknown,530002,Andhra Pradesh,Unknown,clinic,Unknown,Unknown,Unknown,Unknown,17.7098493,83.3103812
Government Hospital,"Bapuji Nagar, Gopalapatnam, Simhachalam",Unknown,Unknown,530027,Andhra Pradesh,Unknown,hospital,Unknown,Unknown,Unknown,Unknown,17.7524734,83.2161371
Raghavendra Eye Hospital,"Gopalapatnam, Simhachalam",Unknown,Unknown,530027,Andhra Pradesh,Unknown,hospital,Unknown,Unknown,Unknown,Unknown,17.747643,83.219972
ENT Clinic,"Gopalapatnam, Simhachalam",Unknown,Unknown,530027,Andhra Pradesh,Unknown,clinic,Unknown,Unknown,Unknown,Unknown,17.75108,83.218258
Muddu Krishna Children Hospital,Meher Nagar,Unknown,Unknown,530026,Andhra Pradesh,Unknown,hospital,Unknown,Unknown,Unknown,Unknown,17.6852715,83.2046951
Sarojini Devi Skin Hospital,"Nehru Nagar, Ram Nagar",Unknown,Unknown,530002,Andhra Pradesh,Unknown,hospital,Unknown,Unknown,Unknown,Unknown,17.7166466,83.3090277
Ramsaranya Child Care Hospital,"Krishna Nagar, Maharani Peta",Unknown,Unknown,530002,Andhra Pradesh,Unknown,hospital,Unknown,Unknown,Unknown,Unknown,17.7102508,83.3143316
Baba Hospital,"Srirangapuram, Krishna Nagar, Maharani Peta",Unknown,Unknown,530002,Andhra Pradesh,Unknown,hospital,Unknown,Unknown,Unknown,Unknown,17.708177,83.308867
Aditya Multi Care Hospital,Jagadamba Junction,Unknown,Unknown,530002,Andhra Pradesh,Unknown,hospital,hospital,Unknown,Unknown,Unknown,17.7100474,83.3046802
Suraksha Diagnostics,Unknown,Unknown,Unknown,Unknown,Unknown,Unknown,Unknown,laboratory,Unknown,Unknown,Unknown,17.7419376,83.2388153
M.B. Hospitals,Unknown,Unknown,Visakhapatnam,530040,Unknown,Unknown,hospital,hospital,Unknown,Unknown,Unknown,17.763448,83.3106082
ApolloHospitals,Unknown,Waltair Main Road,Visakhapatnam,530002,Unknown,Unknown,hospital,hospital,Unknown,Unknown,Unknown,17.7171444,83.3091374
HCG Cancer Centre,Unknown,Unknown,Visakhapatnam,530040,Unknown,Unknown,hospital,hospital,Unknown,Unknown,Unknown,17.7638753,83.3057236
Star Pinnacle Heart Centre,Unknown,"APIIC Health city, Arilova, Chinagadili.",Visakhapatnam,530040,Unknown,Unknown,hospital,hospital,Unknown,Unknown,Unknown,17.7632652,83.3078391
Suraksha Health Park,Unknown,"Main Road,Marripalem",Visakhapatnam,530018,Unknown,Unknown,hospital,hospital,Unknown,Unknown,Unknown,17.7414111,83.2430411
Ramsaranya Hospitals,Unknown,Krishna Nagar road,Visakhapatnam,530002,Unknown,Unknown,hospital,hospital,Unknown,Unknown,Unknown,17.7097535,83.3106734
Visakha Hospitals And Diagnostics,Unknown,Unknown,Unknown,Unknown,Unknown,Unknown,hospital,hospital,Unknown,Unknown,Unknown,17.7202856,83.3130073
SevenHills Hospital,Unknown,"Rockdale Layout, Waltair Main Road",Visakhapatnam,530002,Unknown,Unknown,hospital,hospital,Unknown,Unknown,Unknown,17.7173631,83.3094245
St Anns Jubilee Memorial Hospital,Unknown,Malkapuram,Visakhapatnam,530011,Unknown,Unknown,hospital,hospital,Unknown,Unknown,Unknown,17.6843531,83.2377236
Suraksha Hospital,"Sai Nagar, Marripalem, Visakhapatnam",Unknown,Unknown,530018,Andhra Pradesh,Unknown,hospital,Unknown,Unknown,Unknown,Unknown,17.7396152,83.2555653
Varma Hospitals,"Health City, Chinna Gadhili, Hanumanthavaka, Visakhapatnam",Unknown,Unknown,530040,Andhra Pradesh,Unknown,hospital,Unknown,Unknown,Unknown,Unknown,17.7640286,83.3113995
Sai Spoorthy Hospital,"Door. No. 47, 935, 3rd Line, Seetamma Peta, Dwaraka Nagar, Visakhapatnam",Unknown,Unknown,530016,Andhra Pradesh,Unknown,hospital,Unknown,Unknown,Unknown,Unknown,17.7295406,83.309347
Government Regional Eye Hospital,"Seetamma Peta, Dwaraka Nagar, Visakhapatnam",Unknown,Unknown,530016,Andhra Pradesh,Unknown,hospital,hospital,Unknown,Unknown,Unknown,17.7304744,83.3113942
LG Hospitals,"17-1-17, Maharani Peta, Visakhapatnam",Unknown,Unknown,530002,Andhra Pradesh,Unknown,hospital,hospital,Unknown,Unknown,Unknown,17.710174,83.3045894
Omega Hospitals,"Chinna Gadhili, Arilova, Visakhapatnam",Unknown,Unknown,530040,Andhra Pradesh,Unknown,hospital,Unknown,Unknown,Unknown,Unknown,17.763791,83.3124349
Medicover Hospitals,"Chinna Gadhili, Arilova, Visakhapatnam",Unknown,Unknown,530040,Andhra Pradesh,Unknown,hospital,Unknown,Unknown,Unknown,Unknown,17.7638179,83.3121251
Ramsaranya Hospitals,"14-37-4/A, Krishna Nagar, Maharani Peta, Visakhapatnam",Unknown,Unknown,530002,Andhra Pradesh,Unknown,hospital,Unknown,Unknown,Unknown,Unknown,17.7100054,83.3109067
GJ Hospitals And Trauma Centre,"Lawsons Bay Colony, Pedda Waltair, Visakhapatnam",Unknown,Unknown,530017,Andhra Pradesh,Unknown,hospital,Unknown,Unknown,Unknown,Unknown,17.7336653,83.3324401
Sankar Foundation Eye Hospital,"BC Road, Seetharam Nagar, Gajuwaka, Visakhapatnam",Unknown,Unknown,530026,Andhra Pradesh,Unknown,hospital,Unknown,Unknown,Unknown,Unknown,17.6812931,83.2159491
site,Unknown,Unknown,Unknown,Unknown,Unknown,Unknown,hospital,hospital,Unknown,Unknown,Unknown,17.7623232,83.3144561
Apollo Pharmacy,Unknown,Unknown,Unknown,Unknown,Unknown,Unknown,pharmacy,pharmacy,Unknown,Unknown,Unknown,17.7495497,83.2561409
Chest Hospital and Medical Store,Unknown,Unknown,Unknown,Unknown,Unknown,Unknown,hospital,hospital,Unknown,Unknown,Unknown,17.7493798,83.2191542
Indu's dental specialities,Unknown,"Dwarakanagar Road, gurudwar",Visakhpatnam,530016,Unknown,Unknown,clinic,clinic,Unknown,Unknown,Mo-Su 09:00-21:00,17.7361705,83.3076925
The Novaskin Clinic,Unknown,"Dwarakanagar Road , gurudwara junction",Visakhpatnam,530016,Unknown,Unknown,doctors,doctor,Unknown,Unknown,10 am - 8 pm,17.7360934,83.3076931
Apollo Pharmacy,Unknown,Unknown,Unknown,Unknown,Unknown,Unknown,pharmacy,pharmacy,Unknown,Unknown,Unknown,17.7992566,83.2108041
Apollo Pharmacy,Unknown,Unknown,Unknown,Unknown,Unknown,Unknown,pharmacy,pharmacy,Unknown,Unknown,Unknown,17.7350341,83.2716634
Apollo Pharmacy,Unknown,Unknown,Unknown,Unknown,Unknown,Unknown,pharmacy,pharmacy,Unknown,Unknown,Unknown,17.7405178,83.2449377
Apollo Pharmacy,Unknown,Unknown,Unknown,Unknown,Unknown,Unknown,pharmacy,pharmacy,Unknown,Unknown,Unknown,17.7765459,83.2161174
Apollo Pharmacy,Unknown,Unknown,Unknown,Unknown,Unknown,Unknown,pharmacy,pharmacy,Unknown,Unknown,Unknown,17.7530051,83.2174317
Dr.Mohan's Diabetes Specialities Centre,Unknown,Unknown,Unknown,Unknown,Unknown,Unknown,hospital,hospital,Unknown,Unknown,Unknown,17.7251141,83.3147147
Apollo Dental,Unknown,Unknown,Unknown,Unknown,Unknown,Unknown,dentist,dentist,Unknown,Unknown,Unknown,17.7252043,83.3162613
Apollo Pharmacy,Unknown,Unknown,Unknown,Unknown,Unknown,Unknown,pharmacy,pharmacy,Unknown,Unknown,Unknown,17.723878,83.3184059
MedPlus,Unknown,Unknown,Unknown,Unknown,Unknown,Unknown,pharmacy,pharmacy,Unknown,Unknown,Unknown,17.7359818,83.2674111
Unknown,Unknown,Unknown,Unknown,Unknown,Unknown,Unknown,pharmacy,pharmacy,Unknown,Unknown,Unknown,17.7325041,83.2780965
Apollo Pharmacy,Unknown,Unknown,Unknown,Unknown,Unknown,Unknown,pharmacy,pharmacy,Unknown,Unknown,Unknown,17.743595,83.2333242
Pavani Medicals,Unknown,Unknown,Unknown,Unknown,Unknown,Unknown,pharmacy,pharmacy,Unknown,Unknown,Unknown,17.7511088,83.2182237
Oliva Skin and Hair Clinic,Unknown,Unknown,Unknown,Unknown,Unknown,Unknown,doctors,doctor,Unknown,Unknown,Unknown,17.7254544,83.3035854
Vijaya,Unknown,Unknown,Unknown,Unknown,Unknown,Unknown,pharmacy,pharmacy,Unknown,Unknown,Unknown,17.7317172,83.3066805
MedPlus,Unknown,Unknown,Unknown,Unknown,Unknown,Unknown,pharmacy,pharmacy,Unknown,Unknown,Unknown,17.7394679,83.30576
Appolo Pharmacy,Unknown,Unknown,Unknown,Unknown,Unknown,Unknown,pharmacy,pharmacy,Unknown,Unknown,Unknown,17.7350443,83.3042512
AMG Hospital,Unknown,Unknown,Unknown,Unknown,Unknown,Unknown,hospital,hospital,Unknown,Unknown,Unknown,17.7414668,83.3118352
Apollo Pharmacy,Unknown,Unknown,Unknown,Unknown,Unknown,Unknown,pharmacy,pharmacy,Unknown,Unknown,Unknown,17.7383707,83.3130433
MedPlus,Unknown,Unknown,Unknown,Unknown,Unknown,Unknown,pharmacy,pharmacy,Unknown,Unknown,Unknown,17.736649,83.2997388
Apollo Pharmacy,Unknown,Unknown,Unknown,Unknown,Unknown,Unknown,pharmacy,pharmacy,Unknown,Unknown,Unknown,17.7341905,83.2731535
Medicover Hospitals,Unknown,Unknown,Unknown,Unknown,Unknown,Unknown,hospital,hospital,Unknown,Unknown,Unknown,17.7478206,83.3318795
MedPlus,Unknown,Unknown,Unknown,Unknown,Unknown,Unknown,pharmacy,pharmacy,Unknown,Unknown,Unknown,17.7716499,83.2397762
Chaitu Dental Clinic,Unknown,Unknown,Unknown,Unknown,Unknown,Unknown,dentist,dentist,Unknown,Unknown,Unknown,17.7433191,83.232474
Smilecare,Unknown,Unknown,Unknown,Unknown,Unknown,Unknown,dentist,dentist,Unknown,Unknown,Unknown,17.7438031,83.2321966
MedPlus,Unknown,Unknown,Unknown,Unknown,Unknown,Unknown,pharmacy,pharmacy,Unknown,Unknown,Unknown,17.7435093,83.2304987
Sai Ramkrishna Pharmacy,Unknown,Unknown,Unknown,Unknown,Unknown,Unknown,pharmacy,pharmacy,Unknown,Unknown,Unknown,17.7437014,83.2289186
MedPlus,Unknown,Unknown,Unknown,Unknown,Unknown,Unknown,pharmacy,pharmacy,Unknown,Unknown,Unknown,17.7457212,83.2225925
The advanced Dental Care Center,Unknown,Unknown,Unknown,Unknown,Unknown,Unknown,dentist,dentist,Unknown,Unknown,Unknown,17.7308589,83.3400845
Apollo Pharmacy,Unknown,Unknown,Unknown,Unknown,Unknown,Unknown,pharmacy,pharmacy,Unknown,Unknown,Unknown,17.7361267,83.3345037
Vaishnavi Medical,Unknown,Unknown,Unknown,Unknown,Unknown,Unknown,pharmacy,pharmacy,Unknown,Unknown,Unknown,17.7495767,83.2188998
Apollo Pharmacy,Unknown,Unknown,Unknown,Unknown,Unknown,Unknown,pharmacy,pharmacy,Unknown,Unknown,Unknown,17.7487309,83.2194218
Unknown,Unknown,Unknown,Unknown,Unknown,Unknown,Unknown,dentist,dentist,Unknown,Unknown,Unknown,17.7486924,83.2194903
Sri Dhavala Medicals,Unknown,Unknown,Unknown,Unknown,Unknown,Unknown,pharmacy,pharmacy,Unknown,Unknown,Unknown,17.7485165,83.2196592
Sri Lalitha Medicals,Unknown,Unknown,Unknown,Unknown,Unknown,Unknown,pharmacy,pharmacy,Unknown,Unknown,Unknown,17.7400186,83.2539492
RK Dental Clinic,Unknown,Unknown,Unknown,Unknown,Unknown,Unknown,dentist,dentist,Unknown,Unknown,Unknown,17.7400992,83.2539136
MedPlus,Unknown,Unknown,Unknown,Unknown,Unknown,Unknown,pharmacy,pharmacy,Unknown,Unknown,Unknown,17.7401011,83.253535
Sri Manikanta Medicals,Unknown,Unknown,Unknown,Unknown,Unknown,Unknown,pharmacy,pharmacy,Unknown,Unknown,Unknown,17.7400803,83.2536185
Suneetha Hospital Dr V Anand Rao,Unknown,Unknown,Unknown,Unknown,Unknown,Unknown,hospital,hospital,Unknown,Unknown,Unknown,17.7401303,83.2535864
Care 32 Dental,Unknown,Unknown,Unknown,Unknown,Unknown,Unknown,dentist,dentist,Unknown,Unknown,Unknown,17.7402426,83.2528961
Apollo Pharmacy,Unknown,Unknown,Unknown,Unknown,Unknown,Unknown,pharmacy,pharmacy,Unknown,Unknown,Unknown,17.7401985,83.2526881
Apollo Pharmacy,Unknown,Unknown,Unknown,Unknown,Unknown,Unknown,pharmacy,pharmacy,Unknown,Unknown,Unknown,17.7372058,83.3219765
Apollo Pharmacy,Unknown,Unknown,Unknown,Unknown,Unknown,Unknown,pharmacy,pharmacy,Unknown,Unknown,24/7,17.7636954,83.3306692
Apollo Pharmacy,Unknown,Unknown,Unknown,Unknown,Unknown,Unknown,pharmacy,Unknown,Unknown,Unknown,Unknown,17.7321305,83.3168907
Sri Sai Ram Medical,Unknown,Unknown,Unknown,Unknown,Unknown,Unknown,pharmacy,Unknown,Unknown,Unknown,Unknown,17.7766478,83.2161731
Dr BV Adinarayana Childrens Specialist,Unknown,Unknown,Unknown,Unknown,Unknown,Unknown,hospital,Unknown,Unknown,Unknown,Unknown,17.7350078,83.2719764
Sri Hyndhavi Medical and General Stores,Unknown,Unknown,Unknown,Unknown,Unknown,Unknown,pharmacy,Unknown,Unknown,Unknown,Unknown,17.7348232,83.2721253
Apollo Pharmacy,Unknown,Unknown,Unknown,Unknown,Unknown,Unknown,pharmacy,Unknown,Unknown,Unknown,Unknown,17.7348973,83.2705009
